{
    "type": "Feature",
    "geometry": {
        "type": "LineString",
        "coordinates": [
            [
                -79.60267,
                72.84097
            ],
            [
                -79.0766164002069,
                72.72679503332229
            ],
            [
                -77.93332534553412,
                72.47311950333395
            ],
            [
                -77.61136567614514,
                72.38789428353066
            ],
            [
                -79.16293567860956,
                72.721013228979
            ],
            [
                -80.30563696855437,
                73.14441013326318
            ],
            [
                -81.3380078709501,
                73.07402510566719
            ],
            [
                -81.59628136241898,
                72.60599268577288
            ],
            [
                -80.78161328485021,
                72.53710134839245
            ],
            [
                -79.59754959244972,
                72.89429039591171
            ],
            [
                -79.03126986390379,
                72.96114289847853
            ],
            [
                -79.05374293061182,
                72.9081704982712
            ],
            [
                -79.40648316980443,
                72.83869030993348
            ],
            [
                -79.54708929667171,
                72.85810532226907
            ],
            [
                -80.94387002318867,
                72.4987685382537
            ],
            [
                -80.63315299451563,
                72.41860716406225
            ],
            [
                -79.82537221870083,
                72.57638444748801
            ],
            [
                -79.71194897838829,
                72.88201031472813
            ],
            [
                -82.04225625666793,
                71.59987927234408
            ],
            [
                -82.23791225126233,
                70.85438291518923
            ],
            [
                -80.84724879430134,
                71.20656872418009
            ],
            [
                -79.61612731935436,
                72.79117984361632
            ],
            [
                -81.1170007262167,
                72.697187424568
            ],
            [
                -81.89804897862966,
                72.72922968840464
            ],
            [
                -81.27341124953466,
                72.875320360253
            ],
            [
                -79.91315167441776,
                72.87431323109598
            ],
            [
                -79.346153215434,
                72.853678920061
            ],
            [
                -78.43519451670655,
                73.01348128265832
            ],
            [
                -77.92475571642493,
                73.15560117519667
            ],
            [
                -78.70460543625839,
                73.03338649957234
            ],
            [
                -79.63205466035815,
                72.82762986935828
            ],
            [
                -79.40157508028727,
                72.8086806532619
            ],
            [
                -79.29910530526706,
                72.81319634702804
            ],
            [
                -79.44058202655651,
                72.83048121802123
            ],
            [
                -79.66809702194239,
                72.84568826984022
            ],
            [
                -79.90740921611308,
                72.4568926279274
            ],
            [
                -80.83383535889858,
                72.04754866636605
            ],
            [
                -80.96070930169049,
                72.13532122794686
            ],
            [
                -79.65042868635022,
                72.85496242209257
            ],
            [
                -80.24887210726176,
                73.47406700351003
            ],
            [
                -80.7067608230164,
                73.0548321248953
            ],
            [
                -80.59085363261079,
                72.49914608898996
            ],
            [
                -79.66403219443151,
                72.86470104163575
            ],
            [
                -81.41838062113266,
                72.73091387465354
            ],
            [
                -81.79905785425831,
                72.81326170142155
            ],
            [
                -80.61732681923174,
                72.97659035381685
            ],
            [
                -79.68170435895496,
                72.87988426274661
            ],
            [
                -79.96079059674594,
                72.97835617854916
            ],
            [
                -80.06318777907666,
                73.17806561852886
            ],
            [
                -79.81189737634179,
                73.23255031911661
            ],
            [
                -79.63035945538502,
                73.01222391153887
            ],
            [
                -79.49878560335127,
                72.80202329575465
            ],
            [
                -79.1613061020299,
                72.71772515712883
            ],
            [
                -79.33386504849435,
                72.81962632752533
            ],
            [
                -79.60448586012448,
                72.89066424875398
            ],
            [
                -79.40431,
                72.87948
            ]
        ]
    },
    "properties": {
        "trajectory_id": 1016,
        "object_id": 340,
        "label": "M"
    }
}