{
    "type": "Feature",
    "geometry": {
        "type": "LineString",
        "coordinates": [
            [
                -79.96226,
                72.90199
            ],
            [
                -80.86278783756518,
                73.46025352087293
            ],
            [
                -81.88240288054303,
                73.69228942020919
            ],
            [
                -82.04240136676103,
                73.50669623911092
            ],
            [
                -80.56028314184596,
                73.02661228107641
            ],
            [
                -80.01505521723234,
                72.96368463741733
            ],
            [
                -80.54416261354349,
                73.22208126930855
            ],
            [
                -80.93445657356408,
                73.34848183935561
            ],
            [
                -80.48947307726613,
                73.14075418515914
            ],
            [
                -79.96803022139392,
                72.94779128566609
            ],
            [
                -79.33437213772548,
                73.26157608552994
            ],
            [
                -78.34115720276999,
                73.50954866559772
            ],
            [
                -78.51203921436267,
                73.34185671840984
            ],
            [
                -79.92963737562516,
                72.88928571170699
            ],
            [
                -78.9491997875062,
                72.99569130067601
            ],
            [
                -79.02803532976166,
                73.01417152609008
            ],
            [
                -79.59421906468182,
                72.97433418505213
            ],
            [
                -80.08562420450556,
                72.9247582386406
            ],
            [
                -79.2376051976294,
                72.6368216990209
            ],
            [
                -78.4254889640608,
                72.9439107035423
            ],
            [
                -78.39011653622838,
                73.29158577817526
            ],
            [
                -79.78212095783482,
                72.94704963828292
            ],
            [
                -80.0876411926772,
                72.7087213191307
            ],
            [
                -81.82749335903608,
                72.47879981056543
            ],
            [
                -82.97627575205185,
                72.44830557250556
            ],
            [
                -80.8305193890719,
                72.76623242985208
            ],
            [
                -79.8520532272455,
                72.88309616454588
            ],
            [
                -79.69700147054085,
                72.96224647931837
            ],
            [
                -79.67112556864518,
                73.04074605520883
            ],
            [
                -79.82971986533418,
                72.99727176505765
            ],
            [
                -79.94135505807343,
                72.8984124413921
            ],
            [
                -79.83394089360773,
                72.84092394720986
            ],
            [
                -79.75613255217269,
                72.8123798635709
            ],
            [
                -79.79410268308304,
                72.82758547152332
            ],
            [
                -79.91731824299933,
                72.86581046456895
            ],
            [
                -79.57308081956386,
                72.86075616684185
            ],
            [
                -79.2389425924328,
                72.85435026040103
            ],
            [
                -79.27492577004509,
                72.87035133533892
            ],
            [
                -79.90132787029823,
                72.93394370470216
            ],
            [
                -78.95239422146699,
                72.96333614520326
            ],
            [
                -77.75064681098232,
                73.038252406957
            ],
            [
                -77.66639665777635,
                73.04434433635323
            ],
            [
                -79.92969718375547,
                72.90220643635074
            ],
            [
                -81.26802043146186,
                72.13002467705388
            ],
            [
                -81.51761207876962,
                72.03099524510924
            ],
            [
                -80.74961563087817,
                72.53291083699233
            ],
            [
                -79.99450891265113,
                72.92534240898246
            ],
            [
                -79.83063180522733,
                72.86182111535477
            ],
            [
                -78.48838026634753,
                72.87862473572
            ],
            [
                -77.29402330938734,
                72.97147364346347
            ],
            [
                -78.38375046331646,
                72.97933684282377
            ],
            [
                -79.61418185463171,
                72.90784076107
            ],
            [
                -78.8464874686358,
                72.98622994424903
            ],
            [
                -79.16002109976597,
                73.0531379340933
            ],
            [
                -79.77247858719082,
                73.01790872616021
            ],
            [
                -79.83505,
                72.85879
            ]
        ]
    },
    "properties": {
        "trajectory_id": 103,
        "object_id": 183,
        "label": "M"
    }
}