{
    "type": "Feature",
    "geometry": {
        "type": "LineString",
        "coordinates": [
            [
                -79.78876,
                72.83545
            ],
            [
                -79.0083234499661,
                72.9820945418593
            ],
            [
                -79.95232788030445,
                73.07411105981724
            ],
            [
                -81.3910051095119,
                73.021714318812
            ],
            [
                -80.61795365432589,
                72.9004305981492
            ],
            [
                -79.91945604444757,
                72.97126944922591
            ],
            [
                -80.1280566587531,
                73.0228080924265
            ],
            [
                -79.9443894623296,
                72.89624726330875
            ],
            [
                -79.67783264022097,
                72.81883671998094
            ],
            [
                -79.52541262960824,
                72.79584328451656
            ],
            [
                -78.80379075103272,
                72.49616047499147
            ],
            [
                -78.14660374543686,
                72.27330434204893
            ],
            [
                -78.43396778716158,
                72.40973005372798
            ],
            [
                -79.55930300932017,
                72.86409488173487
            ],
            [
                -77.38053571844974,
                73.11695697598878
            ],
            [
                -78.35823190365157,
                72.91192071099775
            ],
            [
                -79.8621551020662,
                72.70592902258616
            ],
            [
                -79.56025823692008,
                72.83227459820105
            ],
            [
                -77.41665989408845,
                72.87831881718726
            ],
            [
                -77.39572832000556,
                72.63184991967667
            ],
            [
                -78.87540574426731,
                72.47073836918175
            ],
            [
                -79.63324962659661,
                72.85136890002609
            ],
            [
                -79.23299369120724,
                72.83559633762962
            ],
            [
                -79.45629744806878,
                72.67039997092509
            ],
            [
                -80.01029543081395,
                72.55153492440553
            ],
            [
                -79.8587406702288,
                72.73056399691373
            ],
            [
                -79.53377503273266,
                72.82826294925721
            ],
            [
                -78.41806441581542,
                72.99205383387779
            ],
            [
                -77.4492902027293,
                73.21767225770482
            ],
            [
                -78.45452988385203,
                73.1373995031599
            ],
            [
                -79.3904934939067,
                72.60230501590311
            ],
            [
                -78.34592081014527,
                72.39412927836699
            ],
            [
                -77.83778826819542,
                72.64352390469537
            ],
            [
                -78.43404786515498,
                72.89838913703272
            ],
            [
                -79.69181726860681,
                72.86262967655294
            ],
            [
                -80.0001653280079,
                72.63078254159487
            ],
            [
                -80.65009059212775,
                72.42471682416493
            ],
            [
                -80.6652606903047,
                72.4812036837306
            ],
            [
                -79.67153561385611,
                72.87672971867961
            ],
            [
                -78.99826013375211,
                72.51868529298983
            ],
            [
                -78.82252836453672,
                72.621245803404
            ],
            [
                -79.2724329025346,
                72.8680208140135
            ],
            [
                -79.94615997359476,
                72.82860301472795
            ],
            [
                -80.30284723530775,
                72.35007698009403
            ],
            [
                -80.44190809914137,
                72.23891035298142
            ],
            [
                -80.20870165731176,
                72.5039341455642
            ],
            [
                -79.87395197480038,
                72.7807447058815
            ],
            [
                -79.52729664542392,
                72.96067081829844
            ],
            [
                -80.13830250490814,
                73.67408558051416
            ],
            [
                -80.99423488729816,
                74.19481940070888
            ],
            [
                -80.63305246904035,
                73.64865848760722
            ],
            [
                -79.8577167739335,
                72.89058274546281
            ],
            [
                -80.23539670026297,
                73.23743794532844
            ],
            [
                -80.75214335359271,
                73.39963651768777
            ],
            [
                -80.55847640342367,
                73.1765004120893
            ],
            [
                -79.82634,
                72.90073
            ]
        ]
    },
    "properties": {
        "trajectory_id": 1033,
        "object_id": 340,
        "label": "M"
    }
}