{
    "type": "Feature",
    "geometry": {
        "type": "LineString",
        "coordinates": [
            [
                -79.63169,
                72.85341
            ],
            [
                -79.2656462854832,
                73.10526975020572
            ],
            [
                -78.73337394898218,
                73.54396616108603
            ],
            [
                -78.6570760233204,
                73.6685710532906
            ],
            [
                -79.35710661627252,
                73.08308901278903
            ],
            [
                -80.04164470720282,
                73.16240596562417
            ],
            [
                -80.26116184985851,
                73.24435756797017
            ],
            [
                -79.78731068202752,
                72.88656953918728
            ],
            [
                -79.54916363720622,
                72.72357435824237
            ],
            [
                -79.46498774343277,
                72.79426767401878
            ],
            [
                -78.92671313656267,
                72.66623125003885
            ],
            [
                -78.8625120450075,
                72.72981337613369
            ],
            [
                -79.21454031364269,
                72.82742735268053
            ],
            [
                -79.65696509193576,
                72.84214086975629
            ],
            [
                -80.75461260958421,
                73.19858329335199
            ],
            [
                -82.03156394327796,
                73.48006504422898
            ],
            [
                -81.9157920374171,
                73.39511527207577
            ],
            [
                -79.69897804695398,
                72.84487340752511
            ],
            [
                -81.10684390533238,
                72.50565328085621
            ],
            [
                -81.15145932502233,
                72.49594711492803
            ],
            [
                -80.26344809264332,
                72.71154973149908
            ],
            [
                -79.70855418007265,
                72.83366741231141
            ],
            [
                -79.72356612094264,
                72.73178772685641
            ],
            [
                -79.64579540959437,
                72.50694743493796
            ],
            [
                -79.56837629441118,
                72.43389400079641
            ],
            [
                -79.61745572782053,
                72.74966484204165
            ],
            [
                -79.4529281691344,
                72.857698675109
            ],
            [
                -79.16927936317867,
                72.81490899070309
            ],
            [
                -79.17082576147773,
                72.75506014661696
            ],
            [
                -79.45022140603756,
                72.78700807425734
            ],
            [
                -79.71196182637048,
                72.80552276302687
            ],
            [
                -80.51295851705824,
                73.07077567154978
            ],
            [
                -81.26870442644349,
                73.45581194127203
            ],
            [
                -80.67126399249364,
                73.31819519863086
            ],
            [
                -79.80607403168776,
                72.86310021191971
            ],
            [
                -77.6548661118522,
                72.43789757838964
            ],
            [
                -78.02145857493178,
                72.53828246305643
            ],
            [
                -79.21451983517301,
                72.79153075582482
            ],
            [
                -79.6556383403675,
                72.85719370247378
            ],
            [
                -79.41767468293797,
                73.37826397363607
            ],
            [
                -81.15066579172442,
                73.46939863991427
            ],
            [
                -82.22268493109777,
                73.16563631830925
            ],
            [
                -79.69841601550092,
                72.85838702479147
            ],
            [
                -78.28642213693978,
                73.85116586505147
            ],
            [
                -77.11016216370389,
                74.11190233600772
            ],
            [
                -77.41586293776888,
                73.45562065606507
            ],
            [
                -79.27977337321224,
                72.86483743596726
            ],
            [
                -79.90563818340793,
                72.8067031913524
            ],
            [
                -81.35815981608494,
                73.05110088166104
            ],
            [
                -82.4310277200301,
                73.33510512579609
            ],
            [
                -81.18266751040082,
                73.15347363817253
            ],
            [
                -79.38436165474704,
                72.88577980736753
            ],
            [
                -78.98694438625846,
                72.81693218142372
            ],
            [
                -79.06611045925544,
                72.66383606726144
            ],
            [
                -79.3986110926685,
                72.6582887185753
            ],
            [
                -79.665,
                72.834
            ]
        ]
    },
    "properties": {
        "trajectory_id": 1045,
        "object_id": 340,
        "label": "M"
    }
}