{
    "type": "Feature",
    "geometry": {
        "type": "LineString",
        "coordinates": [
            [
                -79.63449,
                72.82967
            ],
            [
                -79.51217306985117,
                72.86519313275289
            ],
            [
                -78.19879546673694,
                72.7669684333153
            ],
            [
                -77.356782879577,
                72.68260031402082
            ],
            [
                -79.01387077554475,
                72.7888353381478
            ],
            [
                -80.26333744046354,
                72.61079227434944
            ],
            [
                -80.59515071508557,
                72.51165232595989
            ],
            [
                -80.23116712412855,
                72.68735082610986
            ],
            [
                -79.73958791464105,
                72.8486318384285
            ],
            [
                -79.77032606596316,
                72.80882252783864
            ],
            [
                -79.61615681361951,
                72.73397452070613
            ],
            [
                -79.12732656308367,
                72.74985552660397
            ],
            [
                -79.19607543386932,
                72.81340635723569
            ],
            [
                -79.67256635161505,
                72.8315233285026
            ],
            [
                -79.69769436158172,
                72.75695242028922
            ],
            [
                -79.5391485404337,
                72.82076211592164
            ],
            [
                -79.48010048951778,
                72.88178279450223
            ],
            [
                -79.63101916386898,
                72.8562554556959
            ],
            [
                -78.23309160610398,
                72.76101912030578
            ],
            [
                -78.38154392165612,
                72.68492316090371
            ],
            [
                -79.26745529398359,
                72.70470343973763
            ],
            [
                -79.63489370705062,
                72.84304397033432
            ],
            [
                -84.46532108700168,
                73.31715749870456
            ],
            [
                -84.99200551514059,
                73.33431570626804
            ],
            [
                -82.02019305571577,
                73.0196498604218
            ],
            [
                -79.68264399100316,
                72.83738835084264
            ],
            [
                -78.67276573033587,
                72.6634438000667
            ],
            [
                -78.06717007517985,
                72.57747752085601
            ],
            [
                -78.53976176567774,
                72.67851530513954
            ],
            [
                -79.41882879810163,
                72.820344579313
            ],
            [
                -79.46940518814095,
                72.82090697930272
            ],
            [
                -79.11028126332197,
                72.76397236527156
            ],
            [
                -79.17872401645911,
                72.76695033596737
            ],
            [
                -79.44708810735463,
                72.81144760898152
            ],
            [
                -79.64887076671299,
                72.85306375043795
            ],
            [
                -80.12391921913685,
                72.58796137069089
            ],
            [
                -80.46384772263043,
                72.07280505058789
            ],
            [
                -80.35459515820193,
                72.01024732918138
            ],
            [
                -79.59099496348578,
                72.82120191079785
            ],
            [
                -79.66011399736148,
                72.80198959894152
            ],
            [
                -79.43809395489868,
                72.66322279751469
            ],
            [
                -79.30747073379442,
                72.61122627847006
            ],
            [
                -79.62167616012952,
                72.83452895477366
            ],
            [
                -79.73718440472108,
                72.83006122257437
            ],
            [
                -79.66026104433016,
                72.86354832933124
            ],
            [
                -79.52253338902536,
                72.90067686211309
            ],
            [
                -79.61685839530722,
                72.86445358012955
            ],
            [
                -79.8301281071364,
                72.79840914821158
            ],
            [
                -80.4671657640562,
                72.89242282279588
            ],
            [
                -80.81595938158,
                73.04437142359508
            ],
            [
                -80.24823988214976,
                72.98560072231703
            ],
            [
                -80.07040437169353,
                72.90511863004915
            ],
            [
                -81.08093300879715,
                73.03248934547213
            ],
            [
                -80.69972790490509,
                72.95535296416983
            ],
            [
                -79.90691667571436,
                72.85116794366806
            ],
            [
                -79.64196,
                72.84759
            ]
        ]
    },
    "properties": {
        "trajectory_id": 1060,
        "object_id": 340,
        "label": "M"
    }
}