{
    "type": "Feature",
    "geometry": {
        "type": "LineString",
        "coordinates": [
            [
                -79.61654,
                72.84999
            ],
            [
                -79.43851997967165,
                72.84037355875101
            ],
            [
                -79.32612211091653,
                72.84433353211786
            ],
            [
                -79.41990684030738,
                72.861451677401
            ],
            [
                -79.57461493597715,
                72.87143778937421
            ],
            [
                -79.64498716605881,
                72.85400166281129
            ],
            [
                -80.01373647146694,
                72.95088767336779
            ],
            [
                -80.17074008316814,
                72.94954930214789
            ],
            [
                -79.93583244936303,
                72.8310378927659
            ],
            [
                -79.6453838721184,
                72.74629208694836
            ],
            [
                -79.63602459746083,
                72.8461258340195
            ],
            [
                -79.47654147047635,
                72.9506285872886
            ],
            [
                -79.01345861073139,
                73.00076725310882
            ],
            [
                -78.62342232030075,
                72.95547572260507
            ],
            [
                -78.74442117008125,
                72.88262796568013
            ],
            [
                -79.68831891978053,
                72.85021245553169
            ],
            [
                -80.33677792050818,
                73.00964040614934
            ],
            [
                -80.50500383535183,
                73.07499324738943
            ],
            [
                -80.16187834186539,
                73.02020817324714
            ],
            [
                -79.74171952562239,
                72.91609919616971
            ],
            [
                -79.6838353454489,
                72.85123056367502
            ],
            [
                -79.37901792138045,
                72.77177245188409
            ],
            [
                -79.37599478059033,
                72.60296272512724
            ],
            [
                -79.57766282785097,
                72.48876642442417
            ],
            [
                -79.72363493990912,
                72.57305000528433
            ],
            [
                -79.64487208071242,
                72.85009074191714
            ],
            [
                -79.7433239032332,
                72.79426434067929
            ],
            [
                -79.68644322525229,
                72.81907452128806
            ],
            [
                -79.56973669836668,
                72.88470146474604
            ],
            [
                -79.54188409870898,
                72.90778789761075
            ],
            [
                -79.65165709453115,
                72.843260382618
            ],
            [
                -80.02055775711402,
                72.837101290493
            ],
            [
                -80.7936894781951,
                72.88984381538614
            ],
            [
                -81.27748489267569,
                72.95108601536032
            ],
            [
                -80.82728268834602,
                72.94241074994991
            ],
            [
                -79.62824812760908,
                72.84445485406664
            ],
            [
                -78.80722880084672,
                72.94384906424645
            ],
            [
                -78.4192897726602,
                73.02999969248312
            ],
            [
                -78.6027641705667,
                73.04444766910065
            ],
            [
                -79.13714448553281,
                72.96455034545693
            ],
            [
                -79.61697979208449,
                72.84636140570653
            ],
            [
                -79.88102500618974,
                72.99097577755964
            ],
            [
                -79.60403719317806,
                73.00757889842278
            ],
            [
                -79.19982493468753,
                72.93688451101255
            ],
            [
                -79.19911300878123,
                72.86292792108188
            ],
            [
                -79.62858419415636,
                72.85009096522913
            ],
            [
                -79.5711091535785,
                72.77572949442903
            ],
            [
                -79.8014959595052,
                72.72147214153712
            ],
            [
                -80.03759626156814,
                72.71467308440324
            ],
            [
                -79.94121622525955,
                72.78010440359931
            ],
            [
                -79.63080888096638,
                72.84239092909871
            ],
            [
                -79.58457031059552,
                72.76991583915816
            ],
            [
                -79.64699153910367,
                72.75715756868597
            ],
            [
                -79.72086539815672,
                72.78331957854874
            ],
            [
                -79.70898471942047,
                72.82760532961306
            ],
            [
                -79.64096,
                72.84514
            ]
        ]
    },
    "properties": {
        "trajectory_id": 1062,
        "object_id": 340,
        "label": "M"
    }
}