{
    "type": "Feature",
    "geometry": {
        "type": "LineString",
        "coordinates": [
            [
                -79.73401,
                72.85567
            ],
            [
                -80.31732938255256,
                72.89110836730755
            ],
            [
                -80.85757558817045,
                72.78040132982004
            ],
            [
                -80.65354620352105,
                72.65285328734555
            ],
            [
                -79.90032012318152,
                72.77121048924816
            ],
            [
                -79.74879212052555,
                72.64143951215749
            ],
            [
                -79.47245454169126,
                72.37554877861766
            ],
            [
                -79.00907907985042,
                72.40415428398009
            ],
            [
                -79.34839315475361,
                72.63194254402526
            ],
            [
                -79.33050564737283,
                72.72716399528161
            ],
            [
                -78.68978806115526,
                72.49941527389974
            ],
            [
                -78.92138784348298,
                72.57123642285252
            ],
            [
                -79.42619019015754,
                72.75610794026055
            ],
            [
                -79.49805683868009,
                72.8833153635591
            ],
            [
                -76.83578699981577,
                73.57956590498917
            ],
            [
                -76.02871041454145,
                73.16822703816592
            ],
            [
                -77.21189800977088,
                72.65538914078954
            ],
            [
                -79.66018283937467,
                72.86747733533491
            ],
            [
                -79.94100822600552,
                72.82389150866437
            ],
            [
                -79.87961033413552,
                72.68121674532182
            ],
            [
                -79.68381918364712,
                72.60740098652971
            ],
            [
                -79.64635728092341,
                72.84349960538947
            ],
            [
                -81.19283811196932,
                73.34829852207113
            ],
            [
                -81.8648433283811,
                73.74199345146245
            ],
            [
                -80.94670512042998,
                73.58803319391002
            ],
            [
                -79.79438031869955,
                72.96837180700916
            ],
            [
                -80.39782617375022,
                72.72809576619083
            ],
            [
                -80.65172559531618,
                72.6414496724157
            ],
            [
                -80.05161984591082,
                72.70050290009344
            ],
            [
                -79.60103318123748,
                72.80995489749628
            ],
            [
                -79.49972222700629,
                72.73182989290409
            ],
            [
                -80.602637688506,
                72.7657880297386
            ],
            [
                -82.21108075216942,
                73.09384816693178
            ],
            [
                -81.78065522173321,
                73.16186567726638
            ],
            [
                -79.42841138675169,
                72.85543762095081
            ],
            [
                -79.96139900255545,
                73.04568863164862
            ],
            [
                -78.59335887371236,
                72.78115338595236
            ],
            [
                -77.83737973486598,
                72.5728397518484
            ],
            [
                -79.60116740792178,
                72.8543365463149
            ],
            [
                -74.74147688754081,
                72.01896887136775
            ],
            [
                -72.90325844560665,
                72.19210006383582
            ],
            [
                -74.96461826010724,
                72.77995234072208
            ],
            [
                -80.0006018932858,
                72.7881326602667
            ],
            [
                -79.90344800272001,
                73.7354847516993
            ],
            [
                -79.74934372316747,
                73.98946299697211
            ],
            [
                -79.54166179117915,
                73.3670648602818
            ],
            [
                -79.80365844787917,
                72.796240809508
            ],
            [
                -80.82374659409491,
                72.62163088885853
            ],
            [
                -81.4359858742942,
                72.4263890982376
            ],
            [
                -80.80514618676894,
                72.45915809781651
            ],
            [
                -79.85337199196962,
                72.71421670338628
            ],
            [
                -79.71106612269614,
                72.97256675958941
            ],
            [
                -79.03051022817601,
                73.02556360887942
            ],
            [
                -78.11356788390808,
                72.7948483302043
            ],
            [
                -78.4725624421745,
                72.70700314410523
            ],
            [
                -79.56611,
                72.85455
            ]
        ]
    },
    "properties": {
        "trajectory_id": 1078,
        "object_id": 342,
        "label": "F"
    }
}