{
    "type": "Feature",
    "geometry": {
        "type": "LineString",
        "coordinates": [
            [
                -80.02903,
                72.9977
            ],
            [
                -79.2904237865357,
                73.20088593453968
            ],
            [
                -78.73724306005634,
                73.34819703075672
            ],
            [
                -78.86241064090986,
                73.30787813636786
            ],
            [
                -79.7037281806026,
                73.06376066671461
            ],
            [
                -80.3576145702461,
                73.03864615509723
            ],
            [
                -80.7947180601981,
                73.15080932468952
            ],
            [
                -80.5607241022852,
                73.18210197217017
            ],
            [
                -80.08814706408684,
                73.07641097287785
            ],
            [
                -80.84666543512627,
                73.09119183031463
            ],
            [
                -83.13333106657653,
                73.36880906905334
            ],
            [
                -81.46148356672506,
                73.13465923111447
            ],
            [
                -79.47772634993316,
                72.88783553712464
            ],
            [
                -79.99518332903214,
                73.00347896770351
            ],
            [
                -79.7509587506787,
                72.88719784612275
            ],
            [
                -79.65853604082939,
                72.89263161870223
            ],
            [
                -79.76505873786415,
                72.95307765469352
            ],
            [
                -80.10828454126784,
                72.96141744536956
            ],
            [
                -79.55875593679664,
                72.8507938306827
            ],
            [
                -79.11565509311744,
                72.87752040051507
            ],
            [
                -79.10914557211784,
                72.96623190401203
            ],
            [
                -79.88535637825814,
                72.95892278449907
            ],
            [
                -80.38157659708821,
                72.99182051728035
            ],
            [
                -80.47986753985786,
                72.98168731664285
            ],
            [
                -80.17671877228914,
                72.9518373359399
            ],
            [
                -79.96653547043329,
                72.96812302271431
            ],
            [
                -79.77100241192441,
                72.98593994429365
            ],
            [
                -79.43584716342585,
                72.98839573207967
            ],
            [
                -79.48004455819489,
                72.99190361720468
            ],
            [
                -79.81501010440846,
                73.00017153296128
            ],
            [
                -79.96325942777374,
                72.90072791604878
            ],
            [
                -79.82392871246789,
                72.60436904880841
            ],
            [
                -79.94506318523891,
                72.70328044511997
            ],
            [
                -80.05938283949243,
                72.91293081709094
            ],
            [
                -80.05165220922558,
                72.98832629875149
            ],
            [
                -80.34255447779702,
                72.58772656898107
            ],
            [
                -80.37692760215116,
                72.65254195758077
            ],
            [
                -80.20746726016026,
                72.8901514646563
            ],
            [
                -79.8022496450306,
                72.94677826063396
            ],
            [
                -79.87305729620189,
                73.54966287683355
            ],
            [
                -80.7212889995742,
                73.59785415030967
            ],
            [
                -81.236179089915,
                73.28375341013684
            ],
            [
                -79.9793331004639,
                72.97691325705547
            ],
            [
                -81.03979314834405,
                72.86438608716463
            ],
            [
                -81.33075854757169,
                72.79744428638766
            ],
            [
                -80.51083107736112,
                72.86786782528219
            ],
            [
                -79.94249611408961,
                72.96352637732159
            ],
            [
                -80.49724420933886,
                73.17884625078051
            ],
            [
                -80.02275409251597,
                73.2423936398537
            ],
            [
                -78.42474784754269,
                72.887873458068
            ],
            [
                -78.53944063561646,
                72.76795313146151
            ],
            [
                -80.01920781380771,
                72.97361178808805
            ],
            [
                -80.22199214410058,
                73.05415950185471
            ],
            [
                -80.40273125894699,
                73.17134203897045
            ],
            [
                -80.31490046735004,
                73.15906542576752
            ],
            [
                -79.98914,
                73.00684
            ]
        ]
    },
    "properties": {
        "trajectory_id": 1191,
        "object_id": 348,
        "label": "F"
    }
}