{
    "type": "Feature",
    "geometry": {
        "type": "LineString",
        "coordinates": [
            [
                -79.73893,
                72.89931
            ],
            [
                -80.00618245117877,
                72.75699656785324
            ],
            [
                -80.84106253107454,
                72.8093329998124
            ],
            [
                -81.39160217996934,
                72.98484319017615
            ],
            [
                -80.4243404237229,
                72.97925030528359
            ],
            [
                -79.99532204042211,
                72.61000863485215
            ],
            [
                -80.2216677638615,
                72.40529677040051
            ],
            [
                -80.16623563137124,
                72.61387137917124
            ],
            [
                -79.91036368540217,
                72.86991991660037
            ],
            [
                -79.7641630572979,
                72.89684185677751
            ],
            [
                -80.38121821157922,
                72.8699302171372
            ],
            [
                -81.02300629460875,
                72.84699248477254
            ],
            [
                -80.81028839882832,
                72.85401370899291
            ],
            [
                -79.78244355711074,
                72.88437815125175
            ],
            [
                -79.55011140243201,
                72.84635792900032
            ],
            [
                -78.96505578911723,
                72.7041280422378
            ],
            [
                -78.89542905808418,
                72.67692398436367
            ],
            [
                -79.89750100633475,
                72.90699265521212
            ],
            [
                -79.09922022545561,
                72.84317221193399
            ],
            [
                -77.34559704179627,
                72.55187216764436
            ],
            [
                -76.88426772954463,
                72.43275739514968
            ],
            [
                -79.79865039001734,
                72.88390003041745
            ],
            [
                -80.07838718124958,
                72.93472899109992
            ],
            [
                -79.67298203457614,
                72.93497557319188
            ],
            [
                -79.17249100732242,
                72.89985126123868
            ],
            [
                -79.62849225699995,
                72.8941707076912
            ],
            [
                -79.39459854932123,
                72.32350850854074
            ],
            [
                -79.13047737031147,
                72.05712588714565
            ],
            [
                -79.29945242690401,
                72.34199104569704
            ],
            [
                -79.65110154834473,
                72.76253850792267
            ],
            [
                -79.92987108841199,
                72.95801647667511
            ],
            [
                -79.98545271256614,
                73.02481262841702
            ],
            [
                -79.91458973385248,
                73.0207062265958
            ],
            [
                -79.83753405021014,
                72.9582603523358
            ],
            [
                -79.67088911198667,
                72.88888846139336
            ],
            [
                -79.3530247427112,
                72.83919577956165
            ],
            [
                -79.3836432890221,
                72.7877262408059
            ],
            [
                -79.59935786295713,
                72.79198132743826
            ],
            [
                -79.77906495038854,
                72.88778790767066
            ],
            [
                -79.6634303750281,
                72.75665665629055
            ],
            [
                -79.23838437937063,
                72.56884718335489
            ],
            [
                -79.0743965849295,
                72.53699121758501
            ],
            [
                -79.82523759086395,
                72.87666665413461
            ],
            [
                -77.83384504950678,
                72.93597407150614
            ],
            [
                -77.12297414513367,
                72.97065863430636
            ],
            [
                -78.49068996910202,
                72.95072171877872
            ],
            [
                -79.80539342023557,
                72.90638723905414
            ],
            [
                -80.67142755746832,
                72.76295715336241
            ],
            [
                -81.39044846952125,
                72.81123408924452
            ],
            [
                -80.88366143181206,
                73.03584403608983
            ],
            [
                -80.07952530197655,
                73.05473316568892
            ],
            [
                -80.07898929267566,
                72.85902001788548
            ],
            [
                -81.61264972084106,
                72.67179783489722
            ],
            [
                -82.23214012729008,
                72.62925651743643
            ],
            [
                -81.29721108266057,
                72.74581459825225
            ],
            [
                -79.81891,
                72.90553
            ]
        ]
    },
    "properties": {
        "trajectory_id": 1241,
        "object_id": 350,
        "label": "F"
    }
}