{
    "type": "Feature",
    "geometry": {
        "type": "LineString",
        "coordinates": [
            [
                -79.90438,
                72.85817
            ],
            [
                -79.92043813913908,
                73.13414588643943
            ],
            [
                -79.82801349559752,
                74.34348510473933
            ],
            [
                -79.73168998235909,
                75.1187243867222
            ],
            [
                -79.76794215005863,
                73.85171443709265
            ],
            [
                -81.11742381205335,
                72.6015918389416
            ],
            [
                -82.11316997114896,
                72.40798009850894
            ],
            [
                -81.44157185617824,
                72.57847229308891
            ],
            [
                -80.30280677371083,
                72.80482981544995
            ],
            [
                -79.63405079362147,
                72.833803375041
            ],
            [
                -78.21813011795078,
                72.77354590809311
            ],
            [
                -78.21550746132085,
                72.77834878015676
            ],
            [
                -79.12897518721462,
                72.82279495703682
            ],
            [
                -79.9275963064997,
                72.87932184219272
            ],
            [
                -79.81117650924773,
                72.93324558219146
            ],
            [
                -79.94598487074295,
                72.88931965779516
            ],
            [
                -80.0587493798474,
                72.84336468103984
            ],
            [
                -79.98005521779262,
                72.82725562262581
            ],
            [
                -79.82235891802003,
                72.82425687373032
            ],
            [
                -79.76814940373525,
                72.820588322552
            ],
            [
                -79.92219019654505,
                72.86668839294381
            ],
            [
                -80.02968965546461,
                72.86725056346712
            ],
            [
                -78.62994391876903,
                73.63491091132782
            ],
            [
                -75.21984300431156,
                75.12757436792283
            ],
            [
                -73.53878863259794,
                75.68683641152298
            ],
            [
                -77.55171829175595,
                73.85792494197706
            ],
            [
                -82.00339432304239,
                73.08743989810222
            ],
            [
                -83.37421139553769,
                73.22553337022993
            ],
            [
                -81.97134411366024,
                73.03980618876486
            ],
            [
                -80.21239886126737,
                72.86550323288273
            ],
            [
                -79.91107367836817,
                72.91464952287083
            ],
            [
                -79.95139003284176,
                73.01202119582109
            ],
            [
                -80.07488198035625,
                72.97325217180898
            ],
            [
                -80.08295959074215,
                72.89418035158843
            ],
            [
                -80.13964801905227,
                72.94643458811157
            ],
            [
                -82.76624437157747,
                73.6123148516224
            ],
            [
                -82.90508128847797,
                73.55571243678105
            ],
            [
                -81.55702831658198,
                73.1626560434012
            ],
            [
                -80.10651361082165,
                72.86683336322321
            ],
            [
                -79.31291443996376,
                72.7038021954048
            ],
            [
                -78.53341545388514,
                72.72042576743769
            ],
            [
                -78.52602473278314,
                72.84658044510105
            ],
            [
                -80.02359423833083,
                72.88874227897561
            ],
            [
                -80.37589657664051,
                72.8258952423974
            ],
            [
                -80.79803921248028,
                72.6977485241511
            ],
            [
                -80.83160032662427,
                72.63282995396004
            ],
            [
                -80.31927413976403,
                72.78309619338813
            ],
            [
                -79.04532180403255,
                72.8494267469937
            ],
            [
                -78.70466494592237,
                74.65984776101737
            ],
            [
                -79.84645202398,
                76.44268425016155
            ],
            [
                -80.37612635349592,
                75.03655525775177
            ],
            [
                -79.91328381531939,
                72.93995592985848
            ],
            [
                -80.22245388125687,
                72.80079438536004
            ],
            [
                -80.72144304992057,
                72.49637868426471
            ],
            [
                -80.54527646845958,
                72.53603095886545
            ],
            [
                -79.98518,
                72.87599
            ]
        ]
    },
    "properties": {
        "trajectory_id": 1291,
        "object_id": 352,
        "label": "F"
    }
}