{
    "type": "Feature",
    "geometry": {
        "type": "LineString",
        "coordinates": [
            [
                -79.42836,
                72.75406
            ],
            [
                -79.31563152361383,
                72.77695234164082
            ],
            [
                -78.9499470804172,
                72.95076314342084
            ],
            [
                -78.80008736790309,
                73.05552646649105
            ],
            [
                -79.36823202136853,
                72.81830972365461
            ],
            [
                -79.72988120861768,
                72.76419095707651
            ],
            [
                -80.01667198838076,
                72.82083496820373
            ],
            [
                -79.93239568836518,
                72.86539868279958
            ],
            [
                -79.56756490182964,
                72.80847276782542
            ],
            [
                -79.2854345044738,
                72.67754211243641
            ],
            [
                -79.1013550742181,
                72.27532164694207
            ],
            [
                -79.36042518998866,
                72.09104818946942
            ],
            [
                -79.67152504728463,
                72.29051246277051
            ],
            [
                -79.6626810096116,
                72.62459139585205
            ],
            [
                -79.5780486509207,
                73.45457869079956
            ],
            [
                -78.38682632353623,
                73.93908332551763
            ],
            [
                -78.03240151304115,
                73.66626870927728
            ],
            [
                -79.40837222504749,
                72.77663522247178
            ],
            [
                -77.982947993333,
                71.86095008374846
            ],
            [
                -78.17800695097384,
                72.48186058087349
            ],
            [
                -79.04534178664466,
                73.26561903144797
            ],
            [
                -79.4371468805967,
                72.75009604849434
            ],
            [
                -79.2799212321072,
                72.66535186095102
            ],
            [
                -79.86435018557377,
                72.76064833676557
            ],
            [
                -80.3641233604875,
                72.8944218470839
            ],
            [
                -79.61124880455216,
                72.80492098322858
            ],
            [
                -78.62147537777795,
                72.5647779798166
            ],
            [
                -77.75695859987485,
                72.26482401158262
            ],
            [
                -78.09734409438877,
                72.29837020555351
            ],
            [
                -79.0619539890221,
                72.67729461076
            ],
            [
                -79.37867679136262,
                72.92289141863442
            ],
            [
                -80.01977574255085,
                73.30693094804957
            ],
            [
                -80.02809695906437,
                73.3109925310543
            ],
            [
                -79.74201350938552,
                73.01631482940059
            ],
            [
                -79.47436479185896,
                72.7539872355571
            ],
            [
                -78.80491561741499,
                72.00548110371975
            ],
            [
                -79.45945678755983,
                72.04947383343779
            ],
            [
                -79.95322171948635,
                72.46607670097544
            ],
            [
                -79.40218431837619,
                72.75712212060132
            ],
            [
                -76.98345653516462,
                73.5653767302836
            ],
            [
                -74.72848465860147,
                73.01047811350571
            ],
            [
                -74.92905559858463,
                72.29401283977005
            ],
            [
                -79.40012296918323,
                72.75797409871315
            ],
            [
                -79.27251174072207,
                73.00061255651514
            ],
            [
                -78.56448662582903,
                72.98169926115713
            ],
            [
                -78.17236055618993,
                72.79709771427932
            ],
            [
                -78.98497198723042,
                72.73565055953821
            ],
            [
                -78.19337224906889,
                72.31904452746629
            ],
            [
                -79.00795562113964,
                71.991382550284
            ],
            [
                -81.28113578497042,
                72.19981655266405
            ],
            [
                -81.03425623354832,
                72.62957309758733
            ],
            [
                -79.65469322733085,
                72.70091747212535
            ],
            [
                -80.89772974738008,
                72.51611388177186
            ],
            [
                -81.03317783545577,
                72.30027285318211
            ],
            [
                -80.19418798654141,
                72.4506008577466
            ],
            [
                -79.51057,
                72.7521
            ]
        ]
    },
    "properties": {
        "trajectory_id": 1331,
        "object_id": 364,
        "label": "M"
    }
}