{
    "type": "Feature",
    "geometry": {
        "type": "LineString",
        "coordinates": [
            [
                -80.04258,
                73.17789
            ],
            [
                -81.36614098714539,
                73.37289730424229
            ],
            [
                -83.76964740639808,
                73.40987848489785
            ],
            [
                -84.56471593171916,
                73.2450527699378
            ],
            [
                -81.97406307014779,
                73.1399528456963
            ],
            [
                -78.25800429786142,
                73.21935556296626
            ],
            [
                -77.63852160560145,
                73.312689275074
            ],
            [
                -80.12916366887966,
                73.30408992314655
            ],
            [
                -81.13515751756844,
                73.22901076582903
            ],
            [
                -79.99298061514462,
                73.19397175214448
            ],
            [
                -83.12749904102468,
                73.5273846110061
            ],
            [
                -87.59459544321211,
                73.97418744086744
            ],
            [
                -86.64518864407194,
                73.85041274055429
            ],
            [
                -79.6751728054157,
                73.08294420459261
            ],
            [
                -78.82059749638218,
                72.82234930978704
            ],
            [
                -79.25819225565672,
                72.95937005217172
            ],
            [
                -79.96038496901642,
                73.17336199554964
            ],
            [
                -79.96540969321455,
                73.18659533776908
            ],
            [
                -82.33048774172079,
                73.3920564664164
            ],
            [
                -82.56666051554973,
                73.43284480016833
            ],
            [
                -81.40549199332608,
                73.33396142231751
            ],
            [
                -80.05767994091005,
                73.18945208605632
            ],
            [
                -78.84422390204023,
                73.28205139696796
            ],
            [
                -78.54186733394748,
                73.2358574843841
            ],
            [
                -79.31477982834389,
                73.1246754330516
            ],
            [
                -80.00561958653245,
                73.14970664991007
            ],
            [
                -80.49287936336836,
                73.12635681379946
            ],
            [
                -81.55900810162981,
                73.13226964574221
            ],
            [
                -81.64221967810045,
                73.22940543637286
            ],
            [
                -80.673684330426,
                73.23506467831248
            ],
            [
                -80.2467533502933,
                73.14470111705127
            ],
            [
                -80.53894640700395,
                73.0079912897278
            ],
            [
                -79.91811590730174,
                73.01379330582685
            ],
            [
                -79.54736049765617,
                73.09894413594398
            ],
            [
                -79.9960135024329,
                73.16798771498337
            ],
            [
                -79.18648512373042,
                72.66090041489407
            ],
            [
                -77.61186626688222,
                72.54697387842029
            ],
            [
                -77.49860369857248,
                72.78062475066689
            ],
            [
                -80.06180819985478,
                73.18788339433529
            ],
            [
                -79.73765933956388,
                73.08504241273313
            ],
            [
                -79.67724875252911,
                72.86411697348495
            ],
            [
                -79.90152694352207,
                72.79130428160168
            ],
            [
                -80.12531424990125,
                73.17103147042502
            ],
            [
                -81.27741163658536,
                72.89890273934557
            ],
            [
                -81.90137678137262,
                72.73845115936996
            ],
            [
                -81.21525495339523,
                72.87070819595013
            ],
            [
                -80.14958006732549,
                73.13942048618104
            ],
            [
                -80.01408405764333,
                73.28867114082931
            ],
            [
                -79.96089388255714,
                73.34854553192615
            ],
            [
                -79.92499683122261,
                73.30512338269965
            ],
            [
                -79.98394024143188,
                73.20651635368185
            ],
            [
                -79.930325707523,
                73.1073108277879
            ],
            [
                -78.96711825825491,
                72.88596644489228
            ],
            [
                -78.80167912255547,
                72.94874118975824
            ],
            [
                -79.32205504928189,
                73.11240403598762
            ],
            [
                -80.0802,
                73.18344
            ]
        ]
    },
    "properties": {
        "trajectory_id": 1417,
        "object_id": 401,
        "label": "F"
    }
}