{
    "type": "Feature",
    "geometry": {
        "type": "LineString",
        "coordinates": [
            [
                -79.83843,
                72.86766
            ],
            [
                -83.0346711849524,
                73.70777283554803
            ],
            [
                -96.2880145524948,
                77.51460398104038
            ],
            [
                -101.87460295113115,
                79.11385472312797
            ],
            [
                -80.91779662274504,
                72.96381215329879
            ],
            [
                -78.78480072902968,
                72.96420670470576
            ],
            [
                -78.10246940891612,
                72.8875613884322
            ],
            [
                -78.50728950319981,
                72.81549827785297
            ],
            [
                -80.17058913636602,
                72.98309685884989
            ],
            [
                -65.67346459541943,
                73.80596473815744
            ],
            [
                -35.44678479195929,
                76.75137099743051
            ],
            [
                -32.58539478891654,
                77.33975669881953
            ],
            [
                -79.8042063095268,
                72.87456257822731
            ],
            [
                -79.96109609336204,
                72.85901768341779
            ],
            [
                -79.93542758112265,
                72.88162662626195
            ],
            [
                -79.83495360842247,
                72.89452201317953
            ],
            [
                -79.74118359636455,
                72.8559912023108
            ],
            [
                -90.90957688745625,
                76.09846943027286
            ],
            [
                -105.85033001421375,
                80.41189892633514
            ],
            [
                -101.95247839130184,
                79.25102997441347
            ],
            [
                -80.42675214469082,
                72.74018590923637
            ],
            [
                -83.74736732760448,
                71.96382281311683
            ],
            [
                -82.51625462240897,
                72.26656386033693
            ],
            [
                -80.20988490545457,
                72.73930953455928
            ],
            [
                -79.5677652948508,
                72.73664831116429
            ],
            [
                -82.36467081175869,
                72.9160974108976
            ],
            [
                -80.95544992526257,
                72.55751131576352
            ],
            [
                -79.22377657248424,
                72.4362456242921
            ],
            [
                -79.93915976100412,
                72.89346467619279
            ],
            [
                -79.00198192734551,
                73.23023925754968
            ],
            [
                -77.25953689118086,
                73.63007502037529
            ],
            [
                -77.60603595868031,
                73.43264482386475
            ],
            [
                -79.84178898031809,
                72.88422598528997
            ],
            [
                -80.57186244586308,
                72.69106861373224
            ],
            [
                -81.48381438002953,
                72.31274399543942
            ],
            [
                -81.11812694705222,
                72.3297493256835
            ],
            [
                -79.10335275045794,
                72.63937807697947
            ],
            [
                -78.79817371555202,
                72.83997449992708
            ],
            [
                -79.45418446067522,
                73.176650112419
            ],
            [
                -79.86750784572257,
                73.07543862550075
            ],
            [
                -79.6795296512183,
                72.79278731811975
            ],
            [
                -80.78297877251497,
                72.23453675678422
            ],
            [
                -82.15130090395691,
                71.82856188582105
            ],
            [
                -80.88351225023531,
                72.40751127729446
            ],
            [
                -79.85822885593154,
                73.02404412421096
            ],
            [
                -79.28082567566209,
                73.67417342298951
            ],
            [
                -78.7604461764407,
                74.01644411211979
            ],
            [
                -79.58324234800838,
                73.22466542364234
            ],
            [
                -80.6850343569614,
                73.48594614304861
            ],
            [
                -79.99812321852819,
                73.55585215141765
            ],
            [
                -77.97150169792182,
                72.82419104883515
            ],
            [
                -78.38870594788366,
                72.56475793021853
            ],
            [
                -83.79388262893636,
                73.69056925846192
            ],
            [
                -90.11850502581686,
                75.18973308831822
            ],
            [
                -91.09757637881083,
                75.41097860059253
            ],
            [
                -80.46464,
                72.70261
            ]
        ]
    },
    "properties": {
        "trajectory_id": 1444,
        "object_id": 402,
        "label": "F"
    }
}