{
    "type": "Feature",
    "geometry": {
        "type": "LineString",
        "coordinates": [
            [
                -79.76548,
                72.88341
            ],
            [
                -80.16636611527365,
                72.78038284710394
            ],
            [
                -80.06123766382022,
                72.7289264830923
            ],
            [
                -79.56020177714726,
                72.80740898961791
            ],
            [
                -79.61508442133355,
                72.90141481205303
            ],
            [
                -79.91387377705294,
                72.9465999787349
            ],
            [
                -80.28772648175804,
                73.00533080963348
            ],
            [
                -80.39203409613224,
                72.99711096984782
            ],
            [
                -80.0052954719494,
                72.93710653783585
            ],
            [
                -80.09742795389896,
                73.07577440052317
            ],
            [
                -80.76262850946947,
                73.37783695581021
            ],
            [
                -80.69501647228094,
                73.27388206124074
            ],
            [
                -80.1566569354811,
                73.006002759078
            ],
            [
                -79.42255764163917,
                72.81108725850802
            ],
            [
                -78.9734471984858,
                72.77788591244854
            ],
            [
                -78.93059445936052,
                72.83557471346543
            ],
            [
                -79.21100184542706,
                72.90714677010561
            ],
            [
                -79.72959213635575,
                72.91584143419179
            ],
            [
                -79.66557089624168,
                73.07277427786082
            ],
            [
                -79.41775212211014,
                73.42108409775332
            ],
            [
                -79.33180665713263,
                73.5367839285463
            ],
            [
                -79.70996766772033,
                72.99290417842332
            ],
            [
                -79.79111208504112,
                73.0208048018121
            ],
            [
                -79.9833614241153,
                73.09033085931861
            ],
            [
                -80.13465837902692,
                73.00677863855263
            ],
            [
                -79.85951272193998,
                72.89445990893907
            ],
            [
                -79.86957343853975,
                72.91216527119423
            ],
            [
                -79.84917400012236,
                72.98302561800368
            ],
            [
                -79.69093357981801,
                73.00721304435828
            ],
            [
                -79.65254811274394,
                72.94531359052134
            ],
            [
                -79.73039100489066,
                72.92806205848659
            ],
            [
                -79.59971383484242,
                73.02298270649813
            ],
            [
                -79.41683235810693,
                73.10278978454313
            ],
            [
                -79.43837015764854,
                73.06947157688785
            ],
            [
                -79.66751134755336,
                72.91514855535472
            ],
            [
                -78.8518750293591,
                72.39601445701638
            ],
            [
                -78.73926297512044,
                71.79163004262182
            ],
            [
                -79.17924777378317,
                71.8662841942675
            ],
            [
                -79.6491307006497,
                72.93709267251498
            ],
            [
                -79.40574329908996,
                72.53364939837307
            ],
            [
                -78.76312856956986,
                71.98672869017007
            ],
            [
                -78.65522278569304,
                71.97278550491846
            ],
            [
                -79.7420535968081,
                72.93276616995306
            ],
            [
                -79.75178318174532,
                73.05328110151119
            ],
            [
                -79.72506603161519,
                73.26419647163769
            ],
            [
                -79.69752069156013,
                73.33033167346414
            ],
            [
                -79.71074962364762,
                72.98855924544625
            ],
            [
                -80.92144464218606,
                73.12350858864083
            ],
            [
                -82.22610080027336,
                73.07032367305086
            ],
            [
                -82.16305608601479,
                72.80903362643218
            ],
            [
                -80.47019836374486,
                72.78993811260995
            ],
            [
                -79.75367187251514,
                72.88942622414353
            ],
            [
                -79.95747614327813,
                72.93239145476358
            ],
            [
                -80.20283152228015,
                72.99772999057754
            ],
            [
                -80.07821686278652,
                72.98859311400348
            ],
            [
                -79.81731,
                72.89376
            ]
        ]
    },
    "properties": {
        "trajectory_id": 1458,
        "object_id": 407,
        "label": "M"
    }
}