{
    "type": "Feature",
    "geometry": {
        "type": "LineString",
        "coordinates": [
            [
                -79.55739,
                72.83467
            ],
            [
                -79.63990037219017,
                72.7571529734643
            ],
            [
                -79.35869786088803,
                72.7329000727608
            ],
            [
                -79.0934925204622,
                72.80104846711804
            ],
            [
                -79.3891089018318,
                72.85050226409896
            ],
            [
                -79.74687355519576,
                72.87452560092703
            ],
            [
                -79.87387352812233,
                72.89434811867116
            ],
            [
                -79.62995836552938,
                72.85793878104637
            ],
            [
                -79.47250867307172,
                72.83497528168769
            ],
            [
                -78.9851464424853,
                72.97701348554334
            ],
            [
                -77.73515979717611,
                73.29426855054186
            ],
            [
                -78.20643706395674,
                73.19965593895333
            ],
            [
                -79.19348608375446,
                72.95140327995205
            ],
            [
                -79.6971392796378,
                72.83752181509031
            ],
            [
                -79.34671858043306,
                73.17119825299429
            ],
            [
                -79.78482160235151,
                73.6263938200979
            ],
            [
                -80.11959288554502,
                73.64264181407333
            ],
            [
                -79.60015393330256,
                72.85323023715965
            ],
            [
                -79.8250601744008,
                72.75549467225662
            ],
            [
                -79.58069177571856,
                72.91406789659567
            ],
            [
                -79.27507224330802,
                73.07890365099844
            ],
            [
                -79.54075956469977,
                72.8951067125829
            ],
            [
                -80.32715704242165,
                72.94264314084606
            ],
            [
                -80.44627858728413,
                72.94505443264067
            ],
            [
                -79.84693055775838,
                72.84013550415307
            ],
            [
                -79.47949910111313,
                72.80813905747219
            ],
            [
                -79.63855860830768,
                72.88591996609192
            ],
            [
                -79.9416625177866,
                73.22289556880908
            ],
            [
                -80.13301315310454,
                73.49752142344583
            ],
            [
                -79.91026081307533,
                73.25148652427828
            ],
            [
                -78.74539282631568,
                72.87973177566721
            ],
            [
                -77.62906498378328,
                72.90898905107068
            ],
            [
                -78.96148445630058,
                72.82621969860686
            ],
            [
                -80.08333743604032,
                72.78637078018629
            ],
            [
                -79.77802877782712,
                72.83453624861285
            ],
            [
                -80.92403272714833,
                73.01566640783467
            ],
            [
                -80.11348437361569,
                73.02036756182791
            ],
            [
                -79.17906572293437,
                72.93218740594807
            ],
            [
                -79.53350619302088,
                72.84851805680952
            ],
            [
                -79.28886622777124,
                72.86519250683578
            ],
            [
                -78.71080916846223,
                73.31414338135463
            ],
            [
                -78.56759117132697,
                73.52266984167971
            ],
            [
                -79.5774062640047,
                72.75990207585218
            ],
            [
                -79.46856508418233,
                73.0036584161908
            ],
            [
                -81.03834610165951,
                72.61656103957678
            ],
            [
                -82.24096267514935,
                72.18833969087515
            ],
            [
                -80.28826081102648,
                72.5959916567947
            ],
            [
                -79.47207582291234,
                72.7227795597218
            ],
            [
                -80.37228442752213,
                72.46129541869368
            ],
            [
                -81.30287018259656,
                72.35882370105261
            ],
            [
                -80.56532540774988,
                72.61169882802042
            ],
            [
                -80.18156477307994,
                72.84209101839892
            ],
            [
                -80.95998647003849,
                72.87258079021939
            ],
            [
                -80.75963893067143,
                72.91233403026563
            ],
            [
                -80.00937371322158,
                72.89112168541715
            ],
            [
                -79.59802,
                72.84703
            ]
        ]
    },
    "properties": {
        "trajectory_id": 1486,
        "object_id": 428,
        "label": "F"
    }
}