{
    "type": "Feature",
    "geometry": {
        "type": "LineString",
        "coordinates": [
            [
                -79.44607,
                72.81795
            ],
            [
                -79.65564808082897,
                72.84329796257903
            ],
            [
                -79.63860013698888,
                72.84963683574837
            ],
            [
                -79.5621967748218,
                72.85639748729709
            ],
            [
                -79.5690803699518,
                72.84804824215169
            ],
            [
                -79.80438569539007,
                72.87514388377306
            ],
            [
                -81.8037750904723,
                72.69887480222619
            ],
            [
                -83.56911341769236,
                72.42715829068915
            ],
            [
                -82.19438323116471,
                72.44775237078859
            ],
            [
                -79.65283032598987,
                72.76604111718848
            ],
            [
                -78.59431178984035,
                73.1465291184352
            ],
            [
                -77.32570233079235,
                73.1029545480522
            ],
            [
                -77.74209015853182,
                72.88744352855224
            ],
            [
                -79.59177241463092,
                72.73668266926198
            ],
            [
                -78.23875611565927,
                72.13199668864536
            ],
            [
                -76.39765930016115,
                71.62942736631163
            ],
            [
                -76.60747175252826,
                71.80219384400594
            ],
            [
                -79.67702120987065,
                72.76325902188185
            ],
            [
                -79.94306642640665,
                72.79406861522429
            ],
            [
                -80.01873010837974,
                72.84350522278366
            ],
            [
                -79.86188462722308,
                72.87621489576902
            ],
            [
                -79.57448910158124,
                72.84130725209766
            ],
            [
                -80.56334039752969,
                73.06091372745131
            ],
            [
                -80.73750279541706,
                73.04425937243369
            ],
            [
                -80.09042849705847,
                72.85033837092155
            ],
            [
                -79.63814894030894,
                72.86869816278671
            ],
            [
                -78.22238500606721,
                72.59204782041685
            ],
            [
                -76.08370637960897,
                72.43122359622973
            ],
            [
                -76.178237647406,
                72.69938434982657
            ],
            [
                -78.11866073268384,
                72.90804395745576
            ],
            [
                -79.69665373917931,
                72.8363684426373
            ],
            [
                -80.49428531282786,
                72.77275512607726
            ],
            [
                -81.19664927386202,
                72.72862642210174
            ],
            [
                -80.7942410811234,
                72.75676305633542
            ],
            [
                -79.62892474306565,
                72.83192241244934
            ],
            [
                -79.74916039394004,
                72.7824151863872
            ],
            [
                -79.76092254770543,
                72.81221573864872
            ],
            [
                -79.76862198638369,
                72.83038151997937
            ],
            [
                -79.82851018471428,
                72.7830312705533
            ],
            [
                -79.43045256623098,
                72.86743582418372
            ],
            [
                -79.39908224090561,
                72.89948100116231
            ],
            [
                -79.59242551445398,
                72.87327202736951
            ],
            [
                -79.63547960192862,
                72.82873332056164
            ],
            [
                -81.72933212212467,
                72.63075437902339
            ],
            [
                -84.16092455065605,
                72.12857587882355
            ],
            [
                -84.28182644802735,
                71.88198911129973
            ],
            [
                -81.29716683738718,
                72.41950239383206
            ],
            [
                -79.86913165588038,
                72.87030726825145
            ],
            [
                -81.64779054808197,
                72.90930029083403
            ],
            [
                -83.07714221104735,
                72.88136250340958
            ],
            [
                -81.63968409318095,
                72.82296951312418
            ],
            [
                -79.74376871143566,
                72.81164280253826
            ],
            [
                -81.29022398907416,
                72.95446148733363
            ],
            [
                -82.6224667215581,
                73.22018243999096
            ],
            [
                -81.80885179186237,
                73.17225702864295
            ],
            [
                -79.62133,
                72.82893
            ]
        ]
    },
    "properties": {
        "trajectory_id": 1498,
        "object_id": 428,
        "label": "F"
    }
}