{
    "type": "Feature",
    "geometry": {
        "type": "LineString",
        "coordinates": [
            [
                -80.12181,
                73.00081
            ],
            [
                -77.8664275790983,
                72.78254802691559
            ],
            [
                -77.24135215146593,
                72.67691327442344
            ],
            [
                -78.70212090485407,
                72.78623078141577
            ],
            [
                -79.99249848023314,
                72.9596213044413
            ],
            [
                -80.79758952127844,
                73.06575894425639
            ],
            [
                -81.80099014554929,
                73.18538373088774
            ],
            [
                -81.35205027025,
                73.15179045776888
            ],
            [
                -80.35133725623336,
                73.03884003975665
            ],
            [
                -79.16968351233146,
                72.85696592117964
            ],
            [
                -76.94277121167963,
                72.57894725904545
            ],
            [
                -77.75599473677386,
                72.8397728006451
            ],
            [
                -79.45799092568286,
                73.08002802182395
            ],
            [
                -79.93601193680249,
                73.00151339051891
            ],
            [
                -78.98831727978714,
                73.27824952750738
            ],
            [
                -79.27480726189908,
                73.021490735234
            ],
            [
                -79.89606320604204,
                72.79209530423525
            ],
            [
                -79.78278924045225,
                72.9547246385315
            ],
            [
                -80.91755950876451,
                72.65435069731575
            ],
            [
                -81.01264452838458,
                72.70010521293766
            ],
            [
                -80.54617801364347,
                72.91670700686436
            ],
            [
                -80.05010443434966,
                72.99446258341057
            ],
            [
                -80.38672921584728,
                72.80940472077549
            ],
            [
                -80.85036851418629,
                72.8371824934812
            ],
            [
                -80.82798566613528,
                73.0175883892318
            ],
            [
                -80.23963699620293,
                73.02856309834007
            ],
            [
                -80.27576807475506,
                72.9922022095982
            ],
            [
                -81.48702018894286,
                73.27323588471612
            ],
            [
                -82.26946796558124,
                73.55666060615964
            ],
            [
                -81.19722904981226,
                73.32461344248821
            ],
            [
                -80.30772695317009,
                72.97615527886502
            ],
            [
                -80.67479584391343,
                73.22450066935609
            ],
            [
                -80.21804810711743,
                73.49527148408234
            ],
            [
                -79.84388487413794,
                73.36727376954485
            ],
            [
                -80.05003917334422,
                73.00138861949674
            ],
            [
                -79.30022524131506,
                73.10894189893872
            ],
            [
                -79.36869830934178,
                72.9226104034366
            ],
            [
                -79.78387132539342,
                72.81292461237254
            ],
            [
                -79.95688631221365,
                73.00126387324146
            ],
            [
                -79.29769041261142,
                72.79995845184234
            ],
            [
                -79.14696839670552,
                72.78944329193591
            ],
            [
                -79.48598774537984,
                72.90033999098975
            ],
            [
                -80.01765171698176,
                72.98404820636195
            ],
            [
                -79.8997147519289,
                72.94213132294522
            ],
            [
                -80.59736149921247,
                72.9865211595534
            ],
            [
                -81.17618720270143,
                73.05694618662244
            ],
            [
                -80.24230998459078,
                73.01858880961102
            ],
            [
                -81.45052484303771,
                72.69051121556609
            ],
            [
                -82.32469923729695,
                72.49351628268107
            ],
            [
                -81.23551911297233,
                72.72159874034637
            ],
            [
                -80.08417577531182,
                72.97425522479963
            ],
            [
                -80.3072443697776,
                72.7283100031382
            ],
            [
                -80.69427649197648,
                72.71914106357481
            ],
            [
                -80.69232263128467,
                73.33746390446538
            ],
            [
                -80.33927489525492,
                73.46875187085682
            ],
            [
                -79.91141,
                72.99109
            ]
        ]
    },
    "properties": {
        "trajectory_id": 1511,
        "object_id": 430,
        "label": "F"
    }
}