{
    "type": "Feature",
    "geometry": {
        "type": "LineString",
        "coordinates": [
            [
                -80.10499,
                72.80151
            ],
            [
                -80.36253873068675,
                73.06516726869829
            ],
            [
                -81.23655297862558,
                73.47554794592351
            ],
            [
                -81.62123478613907,
                73.71291589380746
            ],
            [
                -80.70889664678845,
                73.29413828246098
            ],
            [
                -80.48434656010123,
                73.00823699224486
            ],
            [
                -80.74119580597012,
                73.06439698253939
            ],
            [
                -80.12361008167048,
                73.01680547589544
            ],
            [
                -79.76008910644123,
                72.9520980704741
            ],
            [
                -80.21130799844086,
                72.84041402124036
            ],
            [
                -80.635880184776,
                72.6831545986073
            ],
            [
                -80.54734822665361,
                72.84363561685994
            ],
            [
                -80.24029167153739,
                73.0010344934833
            ],
            [
                -80.0372231370312,
                72.93511007298983
            ],
            [
                -80.88630465403303,
                73.32626160136998
            ],
            [
                -82.46079327914151,
                73.79461527973791
            ],
            [
                -82.68533379418466,
                73.79820594300544
            ],
            [
                -79.98364703379048,
                72.9230223107323
            ],
            [
                -79.45066478473952,
                72.82279008598663
            ],
            [
                -79.4838475989014,
                72.87283255963996
            ],
            [
                -79.9283154253657,
                72.9851222885149
            ],
            [
                -80.31803320771228,
                72.98633502070838
            ],
            [
                -81.8334052324868,
                73.02263577110014
            ],
            [
                -83.70089920778338,
                72.91740629168737
            ],
            [
                -83.61548283114836,
                72.81464553140316
            ],
            [
                -80.92762192067633,
                72.89689631498541
            ],
            [
                -80.66683244902376,
                73.04902293455443
            ],
            [
                -82.446450656125,
                73.32856482270572
            ],
            [
                -83.28697467859507,
                73.45330674060628
            ],
            [
                -81.57693638388048,
                73.17872357590127
            ],
            [
                -80.16625721734465,
                72.95138931564756
            ],
            [
                -80.32266722374708,
                72.93545704859721
            ],
            [
                -79.60514030952412,
                72.6892199465588
            ],
            [
                -79.37403089966074,
                72.67438864657561
            ],
            [
                -80.00548667722218,
                72.94862304788725
            ],
            [
                -79.92130291786836,
                72.88428955368886
            ],
            [
                -79.90958478954398,
                72.924994051133
            ],
            [
                -79.95537050768664,
                72.97214299552213
            ],
            [
                -79.96748898917834,
                72.93654718558997
            ],
            [
                -82.01933588689106,
                72.93572707505835
            ],
            [
                -81.57063295889145,
                72.05756114036738
            ],
            [
                -80.21918544668891,
                71.55887805791679
            ],
            [
                -79.83152539866903,
                72.75661435843624
            ],
            [
                -81.33043720174717,
                73.25848309666353
            ],
            [
                -81.05290777935689,
                73.25387889560862
            ],
            [
                -79.85339650442228,
                73.00609617902346
            ],
            [
                -79.67413513983102,
                72.8821049556459
            ],
            [
                -79.91670199209757,
                72.77296628050186
            ],
            [
                -80.934394574667,
                72.40438831046065
            ],
            [
                -81.9388872593668,
                72.25167835872216
            ],
            [
                -81.31666183811514,
                72.57433590037107
            ],
            [
                -79.92900317618894,
                72.9962210643421
            ],
            [
                -79.91220899997244,
                73.06494012230091
            ],
            [
                -80.22000510496014,
                72.94099937454929
            ],
            [
                -80.29166142019182,
                72.88902836386913
            ],
            [
                -79.99382,
                72.98233
            ]
        ]
    },
    "properties": {
        "trajectory_id": 1529,
        "object_id": 430,
        "label": "F"
    }
}