{
    "type": "Feature",
    "geometry": {
        "type": "LineString",
        "coordinates": [
            [
                -79.98632,
                73.13664
            ],
            [
                -81.01063728361935,
                72.90301753073864
            ],
            [
                -81.03469504676185,
                72.8798885444881
            ],
            [
                -79.92510339168064,
                73.0998492931424
            ],
            [
                -79.66827292807653,
                73.18415153149034
            ],
            [
                -80.06554135937876,
                73.16871129917898
            ],
            [
                -81.72852891426777,
                73.04682622202083
            ],
            [
                -83.33413312134962,
                72.86340291057505
            ],
            [
                -82.48170789358412,
                72.8968754375913
            ],
            [
                -80.17551178856881,
                73.11044660128756
            ],
            [
                -79.84623197065861,
                73.12844015294182
            ],
            [
                -79.3699587264205,
                73.17896025511808
            ],
            [
                -79.45037642045489,
                73.12662974486761
            ],
            [
                -80.15321946105104,
                72.94748684100306
            ],
            [
                -80.21379578734914,
                72.56425132363951
            ],
            [
                -80.04560157504751,
                72.43621863879972
            ],
            [
                -79.95905142970068,
                72.59926780831822
            ],
            [
                -80.18107289922571,
                73.04343467698958
            ],
            [
                -80.30545593222405,
                72.88337927003032
            ],
            [
                -80.28266047375016,
                72.88045651186697
            ],
            [
                -80.193782423475,
                72.91796041634727
            ],
            [
                -80.2062885049752,
                72.9433688600213
            ],
            [
                -80.22896886314619,
                72.87714259140229
            ],
            [
                -80.336377268098,
                72.70890197876156
            ],
            [
                -80.38350683810859,
                72.66896748834816
            ],
            [
                -80.18047896634668,
                72.98618518337292
            ],
            [
                -80.20491199521406,
                73.13620226350503
            ],
            [
                -80.30652985832569,
                73.14128120778848
            ],
            [
                -80.14825512200403,
                73.15691858415092
            ],
            [
                -80.00394232698791,
                73.15406680696584
            ],
            [
                -80.2847885867837,
                73.24564409585662
            ],
            [
                -81.21121595622863,
                73.60701335239742
            ],
            [
                -80.75344801844844,
                73.51164710464317
            ],
            [
                -80.05512939614165,
                73.25561107364723
            ],
            [
                -80.20497840279789,
                73.16848590374588
            ],
            [
                -79.76605213187548,
                73.07939718629075
            ],
            [
                -79.82974648249198,
                73.09739025497763
            ],
            [
                -79.94642479719131,
                73.14099525752611
            ],
            [
                -79.93413944434643,
                73.13793064625591
            ],
            [
                -79.95211230010601,
                72.99773887190358
            ],
            [
                -81.03217976299949,
                73.05709115351341
            ],
            [
                -81.7079615549675,
                73.18890529766588
            ],
            [
                -80.22296979092764,
                73.17163266385799
            ],
            [
                -79.97984240280482,
                73.21148082914551
            ],
            [
                -79.38893999101505,
                73.18002653720666
            ],
            [
                -78.83632376408306,
                73.10516257949973
            ],
            [
                -79.45627972230957,
                73.1246883817616
            ],
            [
                -79.81082333309458,
                73.20768032280161
            ],
            [
                -79.76811702678117,
                73.25658558769878
            ],
            [
                -79.88484230900754,
                73.2369928177183
            ],
            [
                -79.95362555961367,
                73.17971388961246
            ],
            [
                -79.76706705145817,
                73.1737697225778
            ],
            [
                -79.81604059831605,
                73.2901019205856
            ],
            [
                -80.46970527356868,
                73.35115324308549
            ],
            [
                -80.67268794171156,
                73.28010553709453
            ],
            [
                -80.21931,
                73.14945
            ]
        ]
    },
    "properties": {
        "trajectory_id": 1540,
        "object_id": 432,
        "label": "F"
    }
}