{
    "type": "Feature",
    "geometry": {
        "type": "LineString",
        "coordinates": [
            [
                -78.66143182277159,
                72.92855822772404
            ],
            [
                -79.8023153986763,
                72.95045135726596
            ],
            [
                -76.7649043991817,
                72.63193873927437
            ],
            [
                -76.65854013655358,
                72.66070112376055
            ],
            [
                -78.56177484990712,
                72.88428838351001
            ],
            [
                -80.66004911079138,
                73.10416883666115
            ],
            [
                -81.13880349075576,
                73.12181080135232
            ],
            [
                -79.63205510174329,
                72.94746174422639
            ],
            [
                -79.67599123793144,
                74.39039851090556
            ],
            [
                -81.10613581861442,
                78.26825246883993
            ],
            [
                -83.03607734303299,
                82.04935685626747
            ],
            [
                -84.011705271431,
                83.21635818632578
            ],
            [
                -82.57890906405413,
                79.25190297215613
            ],
            [
                -79.79257349734581,
                72.95338096249891
            ],
            [
                -80.19909188546842,
                73.02929007813727
            ],
            [
                -80.7350363112959,
                73.12344816503413
            ],
            [
                -81.1088529211537,
                73.18661338676092
            ],
            [
                -81.12212763313232,
                73.18848733538522
            ],
            [
                -80.57644636532231,
                73.09877160297465
            ],
            [
                -79.8286045800053,
                72.97558933567518
            ],
            [
                -80.69750772579657,
                72.98368947775492
            ],
            [
                -80.86118032314857,
                72.93919787078488
            ],
            [
                -80.52436794051295,
                72.87388268805806
            ],
            [
                -80.05039628821152,
                72.8375178273315
            ],
            [
                -79.80259107656659,
                72.87987718636222
            ],
            [
                -79.82669141986842,
                72.95627286391162
            ],
            [
                -78.13947758255247,
                73.40256911245297
            ],
            [
                -77.82151892740687,
                73.54842353212767
            ],
            [
                -78.60213273753116,
                73.41007129479641
            ],
            [
                -79.66778941655546,
                73.15559989956127
            ],
            [
                -80.2049593681102,
                72.95309684552429
            ],
            [
                -79.9110780776352,
                72.88569592749853
            ],
            [
                -80.88542971380313,
                73.00906875859134
            ],
            [
                -82.66404593117915,
                73.36576783493955
            ],
            [
                -84.2133720939851,
                73.71467832186744
            ],
            [
                -84.46964736010898,
                73.82774982638175
            ],
            [
                -82.36911088743824,
                73.4769319554891
            ],
            [
                -79.74498078244201,
                72.98501606574486
            ],
            [
                -79.59888884666529,
                72.85374129334433
            ],
            [
                -78.9554106909122,
                72.66398837548338
            ],
            [
                -78.24956574857524,
                72.51929821000378
            ],
            [
                -77.98862689989559,
                72.5049304476812
            ],
            [
                -78.67986702511377,
                72.70614473929122
            ],
            [
                -79.6711958439972,
                72.95324908489204
            ],
            [
                -80.86000803319128,
                72.91043728997708
            ],
            [
                -83.38733776248527,
                72.97095342087167
            ],
            [
                -85.69565365118991,
                73.06909719245036
            ],
            [
                -86.22934068512305,
                73.12612855132774
            ],
            [
                -83.43278385010213,
                73.06330744411837
            ],
            [
                -79.73504670199516,
                72.98080916434444
            ],
            [
                -80.39470521406817,
                72.75589790829278
            ],
            [
                -80.67666601502407,
                72.52813650444723
            ],
            [
                -80.60982932980608,
                72.39653844333344
            ],
            [
                -80.36052001695472,
                72.42276073510911
            ],
            [
                -80.09506293501077,
                72.66846038993198
            ],
            [
                -79.80360972982314,
                72.92234500141062
            ],
            [
                -79.72140228637447,
                72.87331938228168
            ],
            [
                -80.10889132803324,
                72.9575468491439
            ],
            [
                -80.60052329611305,
                73.08014806143254
            ],
            [
                -80.8393422418582,
                73.1326494818505
            ],
            [
                -80.46839221651274,
                73.00657757310064
            ],
            [
                -79.92144848392304,
                72.83745733561794
            ],
            [
                -80.09767836711274,
                72.7591579287017
            ],
            [
                -78.54789140310936,
                72.45065650928187
            ],
            [
                -76.69119368344327,
                72.15175711216567
            ],
            [
                -75.94761980121183,
                72.10230297338467
            ],
            [
                -77.73720434951352,
                72.5421373289707
            ],
            [
                -79.90479057228188,
                72.97710806029664
            ],
            [
                -80.69462658960543,
                72.97057298422163
            ],
            [
                -81.23519436075155,
                72.925933302194
            ],
            [
                -81.45083988925172,
                72.87415497539058
            ],
            [
                -81.26523466211384,
                72.84588847720684
            ],
            [
                -80.60205016634599,
                72.87178428103825
            ],
            [
                -79.70673485663413,
                72.94392686186075
            ],
            [
                -80.29415863973986,
                73.21947191507442
            ],
            [
                -80.61529369707118,
                73.340841529946
            ],
            [
                -80.70362714506608,
                73.33070555769812
            ],
            [
                -80.5990192582101,
                73.21321019615
            ],
            [
                -80.3413303109888,
                73.01250164312071
            ],
            [
                -80.20243392839885,
                72.90269964614279
            ],
            [
                -79.16629428528911,
                72.48297134146615
            ],
            [
                -78.0164823421045,
                72.36934939334246
            ],
            [
                -77.24751484179858,
                72.46878247053374
            ],
            [
                -77.35075179897734,
                72.68602036020415
            ]
        ]
    },
    "properties": {
        "trajectory_id": 1628,
        "object_id": 369,
        "label": "M"
    }
}