{
    "type": "Feature",
    "geometry": {
        "type": "LineString",
        "coordinates": [
            [
                -80.06237777924844,
                73.2138273283013
            ],
            [
                -80.15055811221612,
                73.13767642186912
            ],
            [
                -80.10697008250258,
                73.04888669747875
            ],
            [
                -80.15073355361511,
                73.05473024885806
            ],
            [
                -81.02270764622904,
                73.18802244655541
            ],
            [
                -82.2478755304787,
                73.36236692258501
            ],
            [
                -83.06664547089001,
                73.4716352422865
            ],
            [
                -82.71942573198987,
                73.40969897099959
            ],
            [
                -80.44662457830502,
                73.07042967406397
            ],
            [
                -80.07457172978589,
                73.05620487304395
            ],
            [
                -80.08084748027244,
                73.08080289870354
            ],
            [
                -80.04739538243894,
                73.02257982989644
            ],
            [
                -80.01672634193636,
                72.95132588569854
            ],
            [
                -80.0313512644157,
                72.93683128518575
            ],
            [
                -80.13378105552796,
                73.04888624743393
            ],
            [
                -80.02796125441564,
                73.12251162494287
            ],
            [
                -79.89381076448453,
                73.46210943965102
            ],
            [
                -79.81736280809467,
                73.8684258422727
            ],
            [
                -79.81301968864034,
                74.0911363084445
            ],
            [
                -79.89518370951595,
                73.87991631380285
            ],
            [
                -80.0778466281647,
                73.00784045871998
            ],
            [
                -80.28813114500663,
                72.9664601529912
            ],
            [
                -80.55653612121367,
                72.86142654717328
            ],
            [
                -80.62986556528764,
                72.7678015118191
            ],
            [
                -80.55200211978254,
                72.73547596753932
            ],
            [
                -80.36682842725209,
                72.81434083494457
            ],
            [
                -80.11775546096746,
                73.05306494137578
            ],
            [
                -79.79461020805502,
                73.07776211363424
            ],
            [
                -79.14135386281029,
                73.27458751303494
            ],
            [
                -78.71824719083708,
                73.49743481116282
            ],
            [
                -78.66416481739596,
                73.61370441818366
            ],
            [
                -79.11798136774728,
                73.49079674426362
            ],
            [
                -80.14645285168189,
                73.02243984723933
            ],
            [
                -80.04188139330756,
                72.98767141748688
            ],
            [
                -79.59948405700429,
                72.73434535336307
            ],
            [
                -79.07240839347784,
                72.40997561916348
            ],
            [
                -78.7842282647006,
                72.22427781561588
            ],
            [
                -79.05851753264449,
                72.38696754344771
            ],
            [
                -80.00351961592433,
                73.0265932981683
            ],
            [
                -80.14528502364054,
                73.03778241748743
            ],
            [
                -80.18614881016659,
                73.03000839979325
            ],
            [
                -80.1146179938476,
                73.01013777735761
            ],
            [
                -80.02300354402529,
                72.99380003076428
            ],
            [
                -80.00361643004152,
                72.99662464059705
            ],
            [
                -80.136056438637,
                73.03247070286893
            ],
            [
                -80.19789090597986,
                72.97895393906181
            ],
            [
                -80.38443865752842,
                72.96187382647835
            ],
            [
                -80.56164489466292,
                72.99360196494916
            ],
            [
                -80.65298327179906,
                73.03922840195074
            ],
            [
                -80.58192744335251,
                73.06384318495967
            ],
            [
                -80.27195106373897,
                73.03253636145246
            ],
            [
                -80.00318593608999,
                72.99919684874709
            ],
            [
                -79.65823900448014,
                72.91953874117944
            ],
            [
                -79.25732105242038,
                72.81045362373422
            ],
            [
                -79.04107523745668,
                72.74761187142207
            ],
            [
                -79.2501447171353,
                72.80668385925367
            ],
            [
                -80.09931770730736,
                73.05431737307566
            ],
            [
                -79.9944155443467,
                73.0261755178936
            ],
            [
                -79.8891679219707,
                72.98927950150299
            ],
            [
                -79.87871424259491,
                72.95002571068213
            ],
            [
                -79.93173755016979,
                72.93153267710383
            ],
            [
                -80.01692088864573,
                72.9569189324409
            ],
            [
                -80.08681537463094,
                73.02837218884886
            ],
            [
                -80.35472537089673,
                73.37128111589188
            ],
            [
                -80.5519541564164,
                73.63131800850834
            ],
            [
                -80.49631287766368,
                73.58070511391433
            ],
            [
                -80.31832730995282,
                73.3611771282963
            ],
            [
                -80.14852322859804,
                73.11446874784068
            ],
            [
                -80.15196320811731,
                73.05767444185929
            ],
            [
                -79.54582696706353,
                73.12340428306966
            ],
            [
                -79.7537844328195,
                73.03318902125444
            ],
            [
                -80.60950805232802,
                72.78081397068405
            ],
            [
                -81.35681645863367,
                72.58397008958335
            ],
            [
                -81.23952828478036,
                72.66034833617736
            ],
            [
                -80.13554648053994,
                72.99714894119757
            ],
            [
                -80.50983928852922,
                73.02559534407162
            ],
            [
                -80.53110815100578,
                73.15459409334278
            ],
            [
                -80.2512592722253,
                73.31538871506069
            ],
            [
                -79.94122070388184,
                73.39899096128255
            ],
            [
                -79.87192049766976,
                73.2964125840653
            ],
            [
                -80.16816803389489,
                72.99798927479955
            ],
            [
                -81.15209739267347,
                73.07598619290482
            ],
            [
                -81.52361159799247,
                73.26566356230491
            ]
        ]
    },
    "properties": {
        "trajectory_id": 1638,
        "object_id": 374,
        "label": "M"
    }
}