{
    "type": "Feature",
    "geometry": {
        "type": "LineString",
        "coordinates": [
            [
                -80.10563692272987,
                73.17698819643171
            ],
            [
                -79.36225747381899,
                73.07149209793668
            ],
            [
                -80.01729008742862,
                73.3610547940889
            ],
            [
                -81.48897940396392,
                73.79334898962624
            ],
            [
                -82.53564456991921,
                74.039807212798
            ],
            [
                -81.91560473178859,
                73.77186199185357
            ],
            [
                -80.11241416016112,
                73.18854471372087
            ],
            [
                -78.00399614063423,
                72.5281476173599
            ],
            [
                -75.277380580551,
                71.50485718333067
            ],
            [
                -73.59227231762127,
                70.74549255322765
            ],
            [
                -73.73366478123287,
                70.66465154874538
            ],
            [
                -76.48655140077369,
                71.67693199157841
            ],
            [
                -80.07084163644447,
                73.17715666551273
            ],
            [
                -79.5807690175805,
                72.86433182981179
            ],
            [
                -79.32009152727962,
                72.22850217031538
            ],
            [
                -79.39315544903945,
                71.67981951586312
            ],
            [
                -79.65010397420625,
                71.56823983242806
            ],
            [
                -79.9410802941262,
                72.24371908598326
            ],
            [
                -79.90527218952089,
                73.14640063479521
            ],
            [
                -78.12619581665395,
                72.44338184994665
            ],
            [
                -77.48313003495947,
                71.26550932484463
            ],
            [
                -78.09949681733497,
                70.30174108328984
            ],
            [
                -79.20314266585602,
                70.11383532582879
            ],
            [
                -80.02191408259824,
                71.26355025300789
            ],
            [
                -80.00810775944885,
                73.1808716002591
            ],
            [
                -80.28452402996857,
                72.94490531127796
            ],
            [
                -80.26798254727287,
                72.86792904838208
            ],
            [
                -80.17772596854368,
                72.949196540466
            ],
            [
                -80.07737897262577,
                73.08963575301176
            ],
            [
                -80.0305662383639,
                73.19017465150135
            ],
            [
                -80.10186147705873,
                73.18548792965768
            ],
            [
                -82.96291161025866,
                72.68917583414952
            ],
            [
                -84.47065912831441,
                72.39265742582648
            ],
            [
                -84.19329548845114,
                72.39162178999965
            ],
            [
                -82.81773731308726,
                72.60545818177494
            ],
            [
                -81.03090122464124,
                72.95355585625835
            ],
            [
                -80.07282983499954,
                73.20122292660427
            ],
            [
                -80.42520771994936,
                73.339682771276
            ],
            [
                -80.58713503504555,
                73.46662784391435
            ],
            [
                -80.51650681113587,
                73.51364418213615
            ],
            [
                -80.33034148167249,
                73.46406244625231
            ],
            [
                -80.14565748010749,
                73.30121329657374
            ],
            [
                -80.03532571726005,
                73.15773143180193
            ],
            [
                -80.60041454345433,
                73.15751370427128
            ],
            [
                -80.91853781284564,
                73.00136025835597
            ],
            [
                -80.93974691704116,
                72.82998741967872
            ],
            [
                -80.7191189743534,
                72.76542693102091
            ],
            [
                -80.31173110309496,
                72.92971053516408
            ],
            [
                -80.07227916722064,
                73.17288728919102
            ],
            [
                -79.80073829695117,
                73.47199232559426
            ],
            [
                -79.95354714919561,
                73.5376210118772
            ],
            [
                -80.27041431297273,
                73.45527973372802
            ],
            [
                -80.48569794914552,
                73.31298493751147
            ],
            [
                -80.33375621857701,
                73.19875306959239
            ],
            [
                -80.06863478430697,
                73.18343074297695
            ],
            [
                -79.72815703253923,
                73.2029162979431
            ],
            [
                -79.62692945709718,
                73.12718183879767
            ],
            [
                -79.71751009467353,
                73.02590368724151
            ],
            [
                -79.893516528374,
                72.98129103403703
            ],
            [
                -80.0485663413044,
                73.07555306994657
            ],
            [
                -80.09450505535841,
                73.18022753006821
            ],
            [
                -80.37297795733502,
                73.1113951271399
            ],
            [
                -81.10020196584837,
                72.93580646692736
            ],
            [
                -81.77438746695583,
                72.76760027774063
            ],
            [
                -81.86622061301836,
                72.74149985777656
            ],
            [
                -80.84638755639702,
                72.99222850523216
            ],
            [
                -80.03837681472075,
                73.14501525580353
            ],
            [
                -79.82430191319861,
                72.77593182981443
            ],
            [
                -79.63636385889374,
                72.65876155053374
            ],
            [
                -79.53698766673894,
                72.72043354745772
            ],
            [
                -79.5885529669705,
                72.88748942972953
            ],
            [
                -79.85343938982476,
                73.08647080649239
            ],
            [
                -80.01729702307033,
                73.15155519176051
            ],
            [
                -80.86925481172385,
                73.3945681964652
            ],
            [
                -80.98373693952819,
                73.49335302001182
            ],
            [
                -80.65772429481133,
                73.47631986293423
            ],
            [
                -80.20932479394531,
                73.3787871639509
            ],
            [
                -79.95664635330229,
                73.23607336178034
            ],
            [
                -80.0665408343971,
                73.16171627709402
            ],
            [
                -79.8925979203245,
                73.21919417663624
            ],
            [
                -79.5712335209816,
                73.21125219532668
            ],
            [
                -79.30260887250266,
                73.17402523628921
            ],
            [
                -79.2834243182544,
                73.14320914016552
            ],
            [
                -79.71038020160353,
                73.15449974759743
            ]
        ]
    },
    "properties": {
        "trajectory_id": 1665,
        "object_id": 401,
        "label": "F"
    }
}