{
    "type": "Feature",
    "geometry": {
        "type": "LineString",
        "coordinates": [
            [
                -79.83384385704926,
                73.02263943032307
            ],
            [
                -79.83637073955128,
                72.93549990199742
            ],
            [
                -79.77499091708283,
                72.90995598318284
            ],
            [
                -79.85809204068599,
                72.9101659823035
            ],
            [
                -79.76133703820283,
                72.89557968706232
            ],
            [
                -79.61461323112582,
                72.87791359785452
            ],
            [
                -79.5478079409474,
                72.86888421507521
            ],
            [
                -79.69080848916,
                72.8802080391196
            ],
            [
                -79.52098509186983,
                72.8732847362357
            ],
            [
                -77.71568342872833,
                72.70891156032201
            ],
            [
                -77.47534217233624,
                72.69934237466515
            ],
            [
                -78.15891362791379,
                72.7739974627848
            ],
            [
                -79.12535010068144,
                72.86229710820072
            ],
            [
                -79.73360389585946,
                72.89366159443256
            ],
            [
                -79.82979866763883,
                72.89701251139921
            ],
            [
                -80.00574077345158,
                72.93586331130304
            ],
            [
                -80.03392984501728,
                72.94738555255375
            ],
            [
                -79.96892591916587,
                72.93994643233684
            ],
            [
                -79.86528903272719,
                72.92191314783777
            ],
            [
                -79.77757922253116,
                72.90165289624201
            ],
            [
                -80.29482671647449,
                72.8100529305053
            ],
            [
                -81.5291346746932,
                72.6393112890118
            ],
            [
                -81.42877243614393,
                72.65328776729811
            ],
            [
                -80.65410046523854,
                72.76302931556756
            ],
            [
                -79.86547922638887,
                72.8795828840235
            ],
            [
                -79.7232691840068,
                72.91399542286926
            ],
            [
                -79.25264106388997,
                73.08048833495356
            ],
            [
                -77.97567575477915,
                73.45591791905335
            ],
            [
                -77.856309466608,
                73.4846438229766
            ],
            [
                -78.42019776475888,
                73.30954371082225
            ],
            [
                -79.19299621461407,
                73.07349524668922
            ],
            [
                -79.70036038155592,
                72.91937609467644
            ],
            [
                -79.69322749686516,
                72.92629221399766
            ],
            [
                -79.58941604130463,
                72.97560595682023
            ],
            [
                -79.59695314405953,
                73.00130267098018
            ],
            [
                -79.66082695152501,
                73.00090998868018
            ],
            [
                -79.7260256100962,
                72.97195554212294
            ],
            [
                -79.73753726616823,
                72.91196696351118
            ],
            [
                -79.94725139931482,
                72.97165967811186
            ],
            [
                -80.45569942737178,
                73.18273857994998
            ],
            [
                -80.37363576122799,
                73.21791854457773
            ],
            [
                -80.01679749516222,
                73.14142286498623
            ],
            [
                -79.70092172345326,
                73.01747483416656
            ],
            [
                -79.7417455403799,
                72.91029774510992
            ],
            [
                -80.01717822368178,
                72.94624692276768
            ],
            [
                -80.47015181088861,
                73.02873740964844
            ],
            [
                -80.55276619825338,
                73.03847502601997
            ],
            [
                -80.38530046803254,
                73.00406785659833
            ],
            [
                -80.08803370248262,
                72.95412398609949
            ],
            [
                -79.78124498386016,
                72.91725149923947
            ],
            [
                -78.35922457850211,
                72.68229469084963
            ],
            [
                -76.57093120089061,
                72.41111188820213
            ],
            [
                -76.37978935070312,
                72.43885611272037
            ],
            [
                -77.21995424761704,
                72.62421759228299
            ],
            [
                -78.52558111130966,
                72.82588655476846
            ],
            [
                -79.73082516145844,
                72.90255322805535
            ],
            [
                -79.99531241780058,
                72.99076688836709
            ],
            [
                -80.77680074600514,
                73.16703750075403
            ],
            [
                -81.33213529074521,
                73.18060204292186
            ],
            [
                -81.46873744651599,
                73.09617059387654
            ],
            [
                -80.99402860781268,
                72.97845323262419
            ],
            [
                -79.71595114590978,
                72.89219373185877
            ],
            [
                -79.79114024456403,
                72.80785138968935
            ],
            [
                -82.549228365348,
                73.02240743386979
            ],
            [
                -86.98789252685613,
                73.58271330644384
            ],
            [
                -90.17879295843045,
                74.06441509778026
            ],
            [
                -89.19358988941255,
                74.04315889824768
            ],
            [
                -81.10879815573787,
                73.09511774213456
            ],
            [
                -79.1643073304588,
                73.1085599175076
            ],
            [
                -78.26350648550506,
                73.28554567823612
            ],
            [
                -78.31603566443044,
                73.12520640601284
            ],
            [
                -78.87950548261075,
                72.84994988882882
            ],
            [
                -79.51152655542191,
                72.68218391467516
            ],
            [
                -79.76970949823969,
                72.84431627154295
            ],
            [
                -79.83267799077537,
                72.8749692383629
            ],
            [
                -79.96367040055539,
                72.85093294677623
            ],
            [
                -80.02263756536789,
                72.85349507667223
            ],
            [
                -80.00924755407996,
                72.87277541906315
            ],
            [
                -79.92316843555878,
                72.89889376496129
            ],
            [
                -79.76577784747876,
                72.92157470715017
            ],
            [
                -79.95895153500432,
                73.03060127142516
            ],
            [
                -79.74303308872146,
                73.26691141530806
            ],
            [
                -79.01343191842963,
                73.38720186095598
            ],
            [
                -78.37339618553005,
                73.37569090018596
            ]
        ]
    },
    "properties": {
        "trajectory_id": 1699,
        "object_id": 407,
        "label": "M"
    }
}