{
    "type": "Feature",
    "geometry": {
        "type": "LineString",
        "coordinates": [
            [
                -79.84806429314457,
                72.72970391508804
            ],
            [
                -79.83936190183435,
                72.71015946748783
            ],
            [
                -79.66856520795221,
                72.80223536195217
            ],
            [
                -79.58924430003756,
                72.84008337996262
            ],
            [
                -79.60717630791495,
                72.8070479017606
            ],
            [
                -79.61955682224787,
                72.79633681770696
            ],
            [
                -79.62275201725093,
                72.80219858459421
            ],
            [
                -79.61312806713858,
                72.81888165921484
            ],
            [
                -79.58705114612539,
                72.8406344983614
            ],
            [
                -79.59772854323953,
                72.83784514816989
            ],
            [
                -80.27064259759125,
                72.95055188475376
            ],
            [
                -81.37930009143784,
                73.17889671399033
            ],
            [
                -82.2191454237535,
                73.36705291915594
            ],
            [
                -82.08562299351345,
                73.35919378352722
            ],
            [
                -80.27417719969195,
                72.99949259038051
            ],
            [
                -79.5812731503834,
                72.84235428046321
            ],
            [
                -79.43633997789381,
                72.80124359891877
            ],
            [
                -79.3421020981937,
                72.76573746231514
            ],
            [
                -79.31748274038975,
                72.75145359681564
            ],
            [
                -79.38140513358869,
                72.77400972858356
            ],
            [
                -79.55279250689716,
                72.84902358378226
            ],
            [
                -79.54205674370773,
                72.85002358246227
            ],
            [
                -79.46040883952179,
                72.84835589820584
            ],
            [
                -79.51038707569128,
                72.8239389396554
            ],
            [
                -79.60715603066532,
                72.79875783964111
            ],
            [
                -79.66588028289303,
                72.7947977309932
            ],
            [
                -79.60172441082351,
                72.8340437465418
            ],
            [
                -79.66054863709007,
                72.847916027607
            ],
            [
                -79.91920597926138,
                72.84169805189288
            ],
            [
                -80.13336931218964,
                72.8191049913378
            ],
            [
                -80.21255640426351,
                72.79922473523575
            ],
            [
                -80.06628502387153,
                72.80114517288075
            ],
            [
                -79.60407293940239,
                72.84395419356682
            ],
            [
                -79.39859408319559,
                72.72475484635999
            ],
            [
                -79.4869715762872,
                72.50523050295276
            ],
            [
                -79.9263625719765,
                72.36557399229702
            ],
            [
                -80.34468723802388,
                72.34599972550664
            ],
            [
                -80.3698657421896,
                72.48672211369569
            ],
            [
                -79.62981825223395,
                72.82795556797807
            ],
            [
                -79.90337665277228,
                73.31290041591843
            ],
            [
                -80.43228098736773,
                73.6862794182376
            ],
            [
                -80.77412886214671,
                73.62223425548481
            ],
            [
                -80.84872758831384,
                73.32248567638986
            ],
            [
                -80.57588447707413,
                72.98875442968259
            ],
            [
                -79.87540683963212,
                72.8227612640927
            ],
            [
                -79.7098821457472,
                72.81473841009415
            ],
            [
                -79.89120454865075,
                72.82155152813155
            ],
            [
                -79.92767065180648,
                72.88421995081853
            ],
            [
                -79.86650658293192,
                72.94733193795206
            ],
            [
                -79.75493846974456,
                72.95547574932897
            ],
            [
                -79.64019243996187,
                72.8532396447462
            ],
            [
                -79.6018755569963,
                72.80829162882931
            ],
            [
                -79.58993434949949,
                72.785621643047
            ],
            [
                -79.61135105784864,
                72.79244627617214
            ],
            [
                -79.64066606147757,
                72.81286335606505
            ],
            [
                -79.65241973982012,
                72.83097071058609
            ],
            [
                -79.62115247231016,
                72.83086616759554
            ],
            [
                -79.62915430950935,
                73.08569558333392
            ],
            [
                -79.28391006440887,
                73.45959804539733
            ],
            [
                -78.78750646184584,
                73.53423980962341
            ],
            [
                -78.44734115617939,
                73.40318974605825
            ],
            [
                -78.57081180176874,
                73.16001672474786
            ],
            [
                -79.46355147842428,
                72.89834097247795
            ],
            [
                -79.65995563946895,
                72.83145655826651
            ],
            [
                -79.72573032018488,
                72.8125540839664
            ],
            [
                -79.70561292318261,
                72.79687559361896
            ],
            [
                -79.64457347822294,
                72.79156051991538
            ],
            [
                -79.58758201506657,
                72.80374829554673
            ],
            [
                -79.57960856347435,
                72.84057835320415
            ],
            [
                -79.59359309602458,
                72.84527668610377
            ],
            [
                -79.56753030029806,
                72.83135878157631
            ],
            [
                -79.50873524367628,
                72.81173703348749
            ],
            [
                -79.46181353316909,
                72.79893952409257
            ],
            [
                -79.4713707757864,
                72.80549433564678
            ],
            [
                -79.58196045393619,
                72.84391694164299
            ],
            [
                -79.61109524874595,
                72.8615656002491
            ],
            [
                -79.84080665190496,
                72.95894006155588
            ],
            [
                -80.13276921782975,
                73.0750384948325
            ],
            [
                -80.29621853950208,
                73.1377661414042
            ],
            [
                -80.14039020990396,
                73.07502824259642
            ],
            [
                -79.57824560243365,
                72.8452676859804
            ],
            [
                -79.48202483690211,
                72.67682103601521
            ],
            [
                -79.0287520279706,
                72.41465257222163
            ]
        ]
    },
    "properties": {
        "trajectory_id": 1747,
        "object_id": 428,
        "label": "F"
    }
}