{
    "type": "Feature",
    "geometry": {
        "type": "LineString",
        "coordinates": [
            [
                -80.80321660589655,
                73.07993201530111
            ],
            [
                -80.086087367555,
                72.9754482930565
            ],
            [
                -80.26573859813035,
                72.98452033385128
            ],
            [
                -80.93539565952112,
                73.07730553571974
            ],
            [
                -81.62126912289563,
                73.23757899197075
            ],
            [
                -81.93324380264859,
                73.34745039810494
            ],
            [
                -81.4812045131746,
                73.28902944962294
            ],
            [
                -79.88129234976853,
                72.94569298058701
            ],
            [
                -80.22067640031274,
                72.99612491075953
            ],
            [
                -80.67305855546557,
                73.03876885641004
            ],
            [
                -80.79123718955736,
                73.03240478915389
            ],
            [
                -80.66164912506245,
                73.00505049252044
            ],
            [
                -80.37073118445511,
                72.98472375003897
            ],
            [
                -80.00915977594711,
                72.99940654848197
            ],
            [
                -80.19890206094796,
                73.0557147901933
            ],
            [
                -80.33336952512799,
                73.11746824172648
            ],
            [
                -80.27696190839949,
                73.13327848407151
            ],
            [
                -80.13035339861062,
                73.11158433076132
            ],
            [
                -79.99421818360952,
                73.06082459532877
            ],
            [
                -79.96920412525586,
                72.98946817536027
            ],
            [
                -80.37229611667793,
                72.98324835105318
            ],
            [
                -80.95201215998591,
                72.98622160327555
            ],
            [
                -80.95755568834228,
                72.99035673209708
            ],
            [
                -80.63869257807508,
                72.99285784245214
            ],
            [
                -80.24518870551239,
                72.99092903927496
            ],
            [
                -80.03801862539066,
                72.98188243493234
            ],
            [
                -80.14728494241102,
                72.9979816428231
            ],
            [
                -80.40245173816741,
                73.01529435248823
            ],
            [
                -80.68005704168044,
                73.00506124372706
            ],
            [
                -80.8147338494052,
                72.98564905000937
            ],
            [
                -80.64111515779669,
                72.97542450480482
            ],
            [
                -80.0958436141902,
                72.97556909950866
            ],
            [
                -79.86713253916324,
                72.91502494728752
            ],
            [
                -79.83324088620742,
                72.70973970101407
            ],
            [
                -80.00377328296521,
                72.51508212969037
            ],
            [
                -80.20090070950596,
                72.43702747333197
            ],
            [
                -80.24679414589902,
                72.58155097195439
            ],
            [
                -80.00179810394916,
                73.01476721762596
            ],
            [
                -80.72554955402003,
                73.06948508639597
            ],
            [
                -81.44357755144046,
                73.2020777366533
            ],
            [
                -81.36460439301014,
                73.24321006114585
            ],
            [
                -80.86140017814363,
                73.20715398307097
            ],
            [
                -80.30673500625544,
                73.10818142562596
            ],
            [
                -80.07152213076824,
                72.9707666179819
            ],
            [
                -80.23213339861843,
                73.03125710500412
            ],
            [
                -80.41730735436226,
                73.0659368140007
            ],
            [
                -80.43376894175405,
                73.0304374371531
            ],
            [
                -80.3376488772906,
                72.97404364519139
            ],
            [
                -80.18507787746888,
                72.94604010884568
            ],
            [
                -80.05916639335898,
                72.97027779751603
            ],
            [
                -79.25942009181446,
                72.65762453968473
            ],
            [
                -78.67962949733243,
                72.27190758945507
            ],
            [
                -78.92768422993248,
                72.11471105234558
            ],
            [
                -79.54293759178765,
                72.19432834217245
            ],
            [
                -80.06474288507104,
                72.51905287275181
            ],
            [
                -80.02451163003968,
                72.94055857797579
            ],
            [
                -80.15033804034303,
                72.99801561256878
            ],
            [
                -80.36353251757942,
                73.0068727241392
            ],
            [
                -80.57306291635537,
                72.9955567506783
            ],
            [
                -80.64588506870902,
                72.97729677388386
            ],
            [
                -80.44895480667844,
                72.96532187545367
            ],
            [
                -80.05747727458038,
                72.97722621800803
            ],
            [
                -80.48394557898446,
                72.75998621702664
            ],
            [
                -80.72768351566626,
                72.64009793792656
            ],
            [
                -80.66228322635541,
                72.6680283162861
            ],
            [
                -80.4276670826351,
                72.78069563786723
            ],
            [
                -80.16375745608849,
                72.91501818843187
            ],
            [
                -80.03536552952039,
                72.99167223624569
            ],
            [
                -80.76642005572675,
                73.17532576844472
            ],
            [
                -81.190266112892,
                73.29728491238312
            ],
            [
                -81.02722641180587,
                73.26851444087168
            ],
            [
                -80.58020614315944,
                73.1581602573932
            ],
            [
                -80.15211049764366,
                73.0353682654305
            ],
            [
                -80.02065507036012,
                72.97164608194508
            ],
            [
                -79.6391845618043,
                72.85526344576063
            ],
            [
                -79.46171737077519,
                72.78695345999778
            ],
            [
                -79.5480329384988,
                72.81784384688291
            ],
            [
                -79.75843674185819,
                72.89651327458131
            ],
            [
                -79.95323425773638,
                72.97154041125816
            ],
            [
                -80.03110430816521,
                72.98981539995249
            ],
            [
                -80.70725371368476,
                72.9284023412572
            ],
            [
                -82.45998006438536,
                72.43196002605161
            ],
            [
                -84.16595555877242,
                71.8353843167836
            ],
            [
                -84.76878541242833,
                71.54583266594497
            ]
        ]
    },
    "properties": {
        "trajectory_id": 1760,
        "object_id": 430,
        "label": "F"
    }
}