{
    "type": "Feature",
    "geometry": {
        "type": "LineString",
        "coordinates": [
            [
                -79.97448275985965,
                73.0798086281529
            ],
            [
                -79.8548119364633,
                72.91745967296896
            ],
            [
                -79.71882598996962,
                73.14179960454442
            ],
            [
                -79.61986965991116,
                73.33848591795947
            ],
            [
                -79.71436062368939,
                73.2794567932649
            ],
            [
                -79.87479409474997,
                73.10244750720483
            ],
            [
                -79.97366528653865,
                72.94519333652318
            ],
            [
                -79.90209173800773,
                72.92231059834289
            ],
            [
                -79.02070574575312,
                73.2551129979132
            ],
            [
                -78.06104647207664,
                73.53615629239017
            ],
            [
                -78.00807719604522,
                73.4720059267107
            ],
            [
                -78.52675467893155,
                73.23362065673419
            ],
            [
                -79.28203568200817,
                72.9919592383201
            ],
            [
                -79.8874254814383,
                72.91981733823813
            ],
            [
                -79.96879874272807,
                72.8098519658047
            ],
            [
                -79.96527718184544,
                72.72960777657752
            ],
            [
                -79.87519950727302,
                72.74828181777931
            ],
            [
                -79.77899773149014,
                72.81793472204292
            ],
            [
                -79.75710386697622,
                72.89062712200116
            ],
            [
                -79.93569568538318,
                72.94658803910721
            ],
            [
                -77.90742751004744,
                72.43727564553156
            ],
            [
                -76.79050416735076,
                72.35392075103226
            ],
            [
                -77.22494435027528,
                72.72594272891845
            ],
            [
                -78.41573813987927,
                73.17122714068128
            ],
            [
                -79.5678756172199,
                73.30765954781154
            ],
            [
                -79.82988796991391,
                72.9017181519468
            ],
            [
                -80.03064224169643,
                72.4441709847117
            ],
            [
                -80.38705955127506,
                72.27575308334316
            ],
            [
                -80.7462734629884,
                72.47681058287479
            ],
            [
                -80.8718621082769,
                72.79804645992488
            ],
            [
                -80.52740361858092,
                72.99016369111183
            ],
            [
                -79.84736612907915,
                72.90700795856992
            ],
            [
                -79.72918763507086,
                72.91089576066263
            ],
            [
                -79.98751415550204,
                72.89969192225126
            ],
            [
                -80.39068027869438,
                72.91602387806762
            ],
            [
                -80.64175403042515,
                72.93810712030785
            ],
            [
                -80.4438034364714,
                72.94415714116809
            ],
            [
                -79.86811358949431,
                72.88277293226261
            ],
            [
                -82.6620394384689,
                72.94155240877231
            ],
            [
                -83.60101086617318,
                72.9061018342574
            ],
            [
                -82.68797842920878,
                72.85480755875902
            ],
            [
                -81.06130038618872,
                72.8244064579387
            ]
        ]
    },
    "properties": {
        "trajectory_id": 1813,
        "object_id": 273,
        "label": "F"
    }
}