{
    "type": "Feature",
    "geometry": {
        "type": "LineString",
        "coordinates": [
            [
                -81.98540250463118,
                72.71285392747973
            ],
            [
                -80.9017716873395,
                72.84737851040882
            ],
            [
                -79.86570196237427,
                72.87416035268495
            ],
            [
                -79.9991116986006,
                72.57611116492028
            ],
            [
                -80.50037726565388,
                72.00493371005001
            ],
            [
                -80.97753064486623,
                71.54226199800236
            ],
            [
                -81.03860381756954,
                71.5697300387057
            ],
            [
                -80.29162876509577,
                72.46897184208834
            ],
            [
                -79.71251993641688,
                72.83997780013067
            ],
            [
                -79.91489886301042,
                72.50859694298973
            ],
            [
                -81.14072574347587,
                72.13749527783438
            ],
            [
                -82.35384754473861,
                71.91468282810659
            ],
            [
                -82.51811123372445,
                72.02816961724832
            ],
            [
                -80.59736377735868,
                72.66596566870165
            ],
            [
                -79.86775767944087,
                72.88470733075576
            ],
            [
                -79.99207019454522,
                73.0038271507362
            ],
            [
                -80.12403740609392,
                73.14039817618902
            ],
            [
                -80.20431946022852,
                73.2250075060654
            ],
            [
                -80.17357650309057,
                73.18824223931645
            ],
            [
                -79.97246868082169,
                72.96068947489331
            ],
            [
                -79.86964227996638,
                72.87693195977324
            ],
            [
                -79.77579250870657,
                72.93578823062887
            ],
            [
                -79.87418307645245,
                72.97755330220815
            ],
            [
                -80.03384197993937,
                72.9878779725813
            ],
            [
                -80.12379721590275,
                72.95241303981848
            ],
            [
                -80.01307678107804,
                72.85680930198987
            ],
            [
                -80.74764459559728,
                72.77241385864747
            ],
            [
                -82.79348253238099,
                72.64969611859689
            ],
            [
                -83.19997522578875,
                72.66548861726373
            ],
            [
                -82.5170804284727,
                72.75380618587221
            ],
            [
                -81.29475589308502,
                72.84866365564665
            ],
            [
                -80.08295937227818,
                72.88407585781128
            ],
            [
                -77.02035216443659,
                73.82965386534202
            ],
            [
                -74.73055165516804,
                73.87197028822885
            ],
            [
                -75.4967075320487,
                72.5106357880465
            ],
            [
                -77.72147338064829,
                70.98559343736443
            ],
            [
                -79.80750278653618,
                70.5367863087527
            ],
            [
                -80.15744933528184,
                72.40415747478083
            ],
            [
                -79.26736907305475,
                72.47971404529028
            ],
            [
                -77.02781959004399,
                71.89779594682507
            ],
            [
                -75.22074066236935,
                71.58497314703186
            ]
        ]
    },
    "properties": {
        "trajectory_id": 1850,
        "object_id": 275,
        "label": "M"
    }
}