{
    "type": "Feature",
    "geometry": {
        "type": "LineString",
        "coordinates": [
            [
                -79.80820174983118,
                73.08631552034802
            ],
            [
                -80.00269324715336,
                73.11062303561886
            ],
            [
                -80.0374087430898,
                73.12166523113106
            ],
            [
                -79.78789785706557,
                73.12406378316132
            ],
            [
                -79.63407583184572,
                73.08847128062479
            ],
            [
                -79.72129055353305,
                73.03427059789743
            ],
            [
                -79.90629451783789,
                72.99714092315527
            ],
            [
                -80.04584022047055,
                73.01276144457432
            ],
            [
                -80.00272266413207,
                73.11438222313973
            ],
            [
                -79.07510126654297,
                72.89480919345576
            ],
            [
                -77.93486150452478,
                72.75171754247575
            ],
            [
                -78.32970179452518,
                72.98816733746803
            ],
            [
                -79.3964797977753,
                73.3185738356515
            ],
            [
                -80.27205317550609,
                73.45735229424503
            ],
            [
                -80.09826553799633,
                73.1228622648013
            ],
            [
                -80.54950546247356,
                73.1796631877314
            ],
            [
                -81.30842989628988,
                73.21717862453366
            ],
            [
                -81.51438271190612,
                73.15168214343456
            ],
            [
                -81.29759809860774,
                73.06078435169124
            ],
            [
                -80.7883102456804,
                73.02209585656095
            ],
            [
                -80.11675334240954,
                73.11322726530086
            ],
            [
                -80.44921428716407,
                73.02522373410298
            ],
            [
                -81.84237129058884,
                73.03584758989335
            ],
            [
                -83.36285936281092,
                73.1198306820883
            ],
            [
                -84.11938968489665,
                73.20338391926873
            ],
            [
                -83.22067343791284,
                73.21271821001542
            ],
            [
                -79.90978934245,
                73.08734405147156
            ],
            [
                -80.44128266065256,
                73.30190198798905
            ],
            [
                -80.63037913790455,
                73.53346929379798
            ],
            [
                -80.41483807279012,
                73.61167570806639
            ],
            [
                -80.06542584338757,
                73.55473527169573
            ],
            [
                -79.85290882777525,
                73.38086202558736
            ],
            [
                -80.03265798399006,
                73.1124609027863
            ],
            [
                -79.97160099568005,
                73.05239031818634
            ],
            [
                -79.88475087638473,
                72.99382296954866
            ],
            [
                -79.82482974476976,
                73.01314123040865
            ],
            [
                -79.82054591973002,
                73.06906437382878
            ],
            [
                -79.90060772016045,
                73.12031167287148
            ],
            [
                -80.00436487716972,
                73.12495856494755
            ],
            [
                -79.8349256926225,
                73.18666156108192
            ],
            [
                -79.6562312741829,
                73.17754620120193
            ]
        ]
    },
    "properties": {
        "trajectory_id": 1874,
        "object_id": 276,
        "label": "F"
    }
}