{
    "type": "Feature",
    "geometry": {
        "type": "LineString",
        "coordinates": [
            [
                -52.718376477018815,
                59.363368747135944
            ],
            [
                -52.67306332928551,
                59.08632614061507
            ],
            [
                -52.65954961985589,
                58.81529040183785
            ],
            [
                -52.67716604989527,
                58.55026580787932
            ],
            [
                -52.72524332056907,
                58.291256635814435
            ],
            [
                -52.803112133042625,
                58.03826716271842
            ],
            [
                -52.910103188481315,
                57.79130166566624
            ],
            [
                -53.04554718805053,
                57.55036442173289
            ],
            [
                -53.20877483291556,
                57.31545970799351
            ],
            [
                -53.39911682424182,
                57.08659180152313
            ],
            [
                -53.61590386319475,
                56.86376497939672
            ],
            [
                -53.85846665093956,
                56.64698351868945
            ],
            [
                -54.12613588864171,
                56.43625169647632
            ],
            [
                -54.41824227746654,
                56.23157378983235
            ],
            [
                -54.734116518579526,
                56.03295407583256
            ],
            [
                -55.07308931314586,
                55.84039683155211
            ],
            [
                -55.43449136233096,
                55.653906334065994
            ],
            [
                -55.81765336730033,
                55.47348686044919
            ],
            [
                -56.22190602921914,
                55.299142687776886
            ],
            [
                -56.64658004925283,
                55.13087809312404
            ],
            [
                -57.09100612856689,
                54.96869735356567
            ],
            [
                -57.55451496832646,
                54.81260474617693
            ],
            [
                -58.03643726969701,
                54.66260454803281
            ],
            [
                -58.53610373384393,
                54.51870103620837
            ],
            [
                -59.0528450619327,
                54.3808984877786
            ],
            [
                -59.58599195512842,
                54.24920117981864
            ],
            [
                -60.134875114596596,
                54.12361338940351
            ],
            [
                -60.69882524150274,
                54.00413939360822
            ],
            [
                -61.27717303701192,
                53.890783469507866
            ],
            [
                -61.86924920228967,
                53.783549894177504
            ],
            [
                -62.474384438501474,
                53.68244294469211
            ],
            [
                -63.091909446812416,
                53.58746689812682
            ],
            [
                -63.72115492838802,
                53.498626031556654
            ],
            [
                -64.36145158439363,
                53.41592462205664
            ],
            [
                -65.01213011599478,
                53.33936694670183
            ],
            [
                -65.67252122435656,
                53.268957282567314
            ],
            [
                -66.34195561064442,
                53.204699906728095
            ],
            [
                -67.01976397602394,
                53.14659909625923
            ],
            [
                -67.70527702166014,
                53.094659128235776
            ],
            [
                -68.39782544871855,
                53.04888427973282
            ],
            [
                -69.09673995836472,
                53.009278827825334
            ]
        ]
    },
    "properties": {
        "trajectory_id": 1956,
        "object_id": 278,
        "label": "M"
    }
}