{
    "type": "Feature",
    "geometry": {
        "type": "LineString",
        "coordinates": [
            [
                -80.11855839857459,
                73.00388367927916
            ],
            [
                -78.6860660290516,
                72.75596584084472
            ],
            [
                -76.0100056538235,
                72.24737039392897
            ],
            [
                -75.91874965593746,
                72.13497951373465
            ],
            [
                -77.3005992897948,
                72.29483305650699
            ],
            [
                -79.04385580979378,
                72.6029708784906
            ],
            [
                -80.03682047033577,
                72.93543283593068
            ],
            [
                -80.11433364671682,
                73.02269964343122
            ],
            [
                -80.15453035788263,
                73.10196842896148
            ],
            [
                -80.03194398903834,
                73.10263610635549
            ],
            [
                -79.87981452176767,
                73.06073708529041
            ],
            [
                -79.83138193765448,
                73.01230577544348
            ],
            [
                -80.01988621828248,
                72.99337658649183
            ],
            [
                -80.14606765037094,
                73.05968940046539
            ],
            [
                -80.39551200362123,
                73.1723865526668
            ],
            [
                -80.65858353404423,
                73.18811510448373
            ],
            [
                -80.78305612259257,
                73.13802263917896
            ],
            [
                -80.61670365021932,
                73.0532567400152
            ],
            [
                -80.01485562417155,
                72.96587400136889
            ],
            [
                -79.79944569844609,
                72.97468315273855
            ],
            [
                -80.50082996378777,
                73.28138435207724
            ],
            [
                -82.00544118883188,
                73.76354808430328
            ],
            [
                -83.20006917448762,
                74.0974683709702
            ],
            [
                -82.97150372166617,
                73.95943923363205
            ],
            [
                -80.23618716619552,
                73.03393299113455
            ],
            [
                -80.32007808484727,
                72.9993672847707
            ],
            [
                -80.61951769134087,
                73.01844061636388
            ],
            [
                -80.56454558955926,
                72.98757254821979
            ],
            [
                -80.3300567036624,
                72.94520199271666
            ],
            [
                -80.09094595780985,
                72.92976786223258
            ],
            [
                -80.02209781028327,
                72.97970618950957
            ],
            [
                -79.98353176345029,
                72.94896342297396
            ],
            [
                -79.69751822816181,
                72.93244307365346
            ],
            [
                -79.27410588866039,
                72.9487958355017
            ],
            [
                -79.0091675130078,
                72.97499098771485
            ],
            [
                -79.19857586926534,
                72.98799780948902
            ],
            [
                -80.11507641810877,
                72.96804823652505
            ],
            [
                -79.88717105815613,
                73.04475502774868
            ],
            [
                -79.64053369257658,
                73.09630294947524
            ],
            [
                -79.53907664398734,
                73.07698174456152
            ],
            [
                -79.58251381748553,
                73.02400528488693
            ]
        ]
    },
    "properties": {
        "trajectory_id": 1962,
        "object_id": 278,
        "label": "M"
    }
}