{
    "type": "Feature",
    "geometry": {
        "type": "LineString",
        "coordinates": [
            [
                -79.4847412059062,
                72.85046928182214
            ],
            [
                -80.08997536206327,
                72.98733453588918
            ],
            [
                -80.08550047438717,
                73.03492347369226
            ],
            [
                -80.25006971039109,
                73.07725228551621
            ],
            [
                -80.42457852848898,
                73.04719242072143
            ],
            [
                -80.50885248378619,
                72.98945923681906
            ],
            [
                -80.40271713138779,
                72.94876809132023
            ],
            [
                -80.01605057254808,
                72.96855294941355
            ],
            [
                -80.48898659471706,
                72.91127188993038
            ],
            [
                -82.13135435898977,
                72.91106417283274
            ],
            [
                -83.90038544886258,
                72.99434365696492
            ],
            [
                -84.75279423676145,
                73.08156541966501
            ],
            [
                -83.64529509511436,
                73.09318453827117
            ],
            [
                -80.23769897129515,
                72.9996221424503
            ],
            [
                -80.31797959264914,
                72.96040403681529
            ],
            [
                -80.89182322712738,
                73.04719730677445
            ],
            [
                -81.4683805717886,
                73.19024684866812
            ],
            [
                -81.70149359128342,
                73.28494897564248
            ],
            [
                -81.24500425026298,
                73.22670000084375
            ],
            [
                -79.8435451706241,
                72.93089013336967
            ],
            [
                -78.33493926454919,
                72.61411276495525
            ],
            [
                -76.4651511849528,
                72.19193523598518
            ],
            [
                -76.43717016664108,
                72.15164615750787
            ],
            [
                -77.50701165547484,
                72.35694357931958
            ],
            [
                -78.93069109731263,
                72.67152555121595
            ],
            [
                -79.96422393801544,
                72.95909012299327
            ],
            [
                -80.18222751248581,
                72.8195888335554
            ],
            [
                -80.94307532225761,
                72.65813957084373
            ],
            [
                -81.86074273469917,
                72.64335017868548
            ],
            [
                -82.35353371805869,
                72.72545244945678
            ],
            [
                -81.83975224058511,
                72.85467817553388
            ],
            [
                -80.1131278962469,
                72.98186674364807
            ],
            [
                -79.6270369270602,
                72.87733802139113
            ],
            [
                -78.87807705948617,
                72.69536802526109
            ],
            [
                -78.37392514490936,
                72.55081231746183
            ],
            [
                -78.32711673526656,
                72.51563788919722
            ],
            [
                -78.9501873824945,
                72.66181173167105
            ],
            [
                -80.09024069190707,
                72.97140371636262
            ],
            [
                -80.16244151564565,
                72.91929437583207
            ],
            [
                -80.09015483578241,
                72.8544577477217
            ],
            [
                -79.88814904211519,
                72.81817662649216
            ],
            [
                -79.71660303613865,
                72.8225550285919
            ]
        ]
    },
    "properties": {
        "trajectory_id": 2007,
        "object_id": 278,
        "label": "M"
    }
}