{
    "type": "Feature",
    "geometry": {
        "type": "LineString",
        "coordinates": [
            [
                -79.69930859455627,
                72.78207158153064
            ],
            [
                -79.54131406285654,
                72.62340202254927
            ],
            [
                -79.55568289831648,
                72.48952345368639
            ],
            [
                -79.64893168387225,
                72.42819238120636
            ],
            [
                -79.72757700245994,
                72.48716531137343
            ],
            [
                -79.69813543701565,
                72.71419875045197
            ],
            [
                -78.04242098171461,
                72.38922813248656
            ],
            [
                -76.58601965098309,
                71.97965825707692
            ],
            [
                -76.39079740898208,
                71.95724022683196
            ],
            [
                -77.0832369656224,
                72.18314150222882
            ],
            [
                -78.28982103081398,
                72.51852954374439
            ],
            [
                -79.6370323144681,
                72.82457181185558
            ],
            [
                -79.22646625519656,
                72.95275023726731
            ],
            [
                -78.07888302118496,
                73.11792841160585
            ],
            [
                -77.7956298285037,
                73.15605550915147
            ],
            [
                -78.11789402358372,
                73.10732002332672
            ],
            [
                -78.78686295285542,
                73.01191044755417
            ],
            [
                -79.54372396274962,
                72.91001527525628
            ],
            [
                -80.13515494767196,
                72.84082255685641
            ],
            [
                -80.45240384254987,
                72.81717796573156
            ],
            [
                -80.54224311494947,
                72.82358875974842
            ],
            [
                -80.4591303434148,
                72.84316187835144
            ],
            [
                -80.25752310648971,
                72.8590042609851
            ],
            [
                -79.99187898271826,
                72.85422284709398
            ],
            [
                -79.7433842328247,
                72.84996684558449
            ],
            [
                -80.38161930940198,
                72.96693093618535
            ],
            [
                -81.50629308131761,
                73.12318315026768
            ],
            [
                -82.28710854221468,
                73.21700214531087
            ],
            [
                -81.89376868573629,
                73.14666657879428
            ],
            [
                -79.66719227343611,
                72.83556302018661
            ],
            [
                -79.60210398985008,
                72.74607595092753
            ],
            [
                -79.65658002101208,
                72.65510928788751
            ],
            [
                -80.2341427526084,
                72.69918006441976
            ],
            [
                -80.77239358550042,
                72.79815740868949
            ],
            [
                -80.70893392055005,
                72.87191044886194
            ],
            [
                -79.57070136218458,
                72.85685363847368
            ],
            [
                -79.57311095842527,
                72.76476793797512
            ],
            [
                -79.4430503335083,
                72.71391184664508
            ],
            [
                -79.2979718944687,
                72.75983285874263
            ],
            [
                -79.22918595591207,
                72.83996095854636
            ],
            [
                -79.32800283244406,
                72.8917261303348
            ],
            [
                -79.67443936608242,
                72.85384182485132
            ]
        ]
    },
    "properties": {
        "trajectory_id": 2043,
        "object_id": 283,
        "label": "M"
    }
}