{
    "type": "Feature",
    "geometry": {
        "type": "LineString",
        "coordinates": [
            [
                -79.97946456721195,
                70.61833594667422
            ],
            [
                -79.92067007982568,
                72.79913299703317
            ],
            [
                -79.00664769639198,
                72.8839640174008
            ],
            [
                -77.33778571478216,
                72.99950926619407
            ],
            [
                -77.192275439325,
                73.11729793318011
            ],
            [
                -77.95296201361604,
                73.18460732422386
            ],
            [
                -79.00269058125,
                73.14871474519006
            ],
            [
                -79.72430628582218,
                72.9568975019436
            ],
            [
                -80.41503804442546,
                72.82061220527125
            ],
            [
                -82.89309461985773,
                72.43656961965303
            ],
            [
                -85.46263444748523,
                71.98656018837714
            ],
            [
                -86.85380477389744,
                71.7126982159523
            ],
            [
                -85.79675284568279,
                71.85709800688736
            ],
            [
                -81.0216259094312,
                72.66187386569085
            ],
            [
                -81.91167145668184,
                73.96087054724394
            ],
            [
                -85.07065569983851,
                75.66616795407461
            ],
            [
                -85.51242988367665,
                76.0353939699714
            ],
            [
                -84.16988099458487,
                75.4497533412176
            ],
            [
                -81.97589601895135,
                74.29045081409618
            ],
            [
                -79.86336194316605,
                72.93869113489106
            ],
            [
                -79.65435812743857,
                72.7661343902513
            ],
            [
                -79.06280716044212,
                72.34212833443858
            ],
            [
                -78.37824845912411,
                71.89070108941937
            ],
            [
                -78.00498251116537,
                71.6651081327332
            ],
            [
                -78.34730980424703,
                71.91860494191988
            ],
            [
                -79.79469166269564,
                72.88665785055244
            ],
            [
                -79.64286235427114,
                72.80223901422056
            ],
            [
                -79.67389531872232,
                72.7165484239467
            ],
            [
                -79.93646637345763,
                72.69714570263692
            ],
            [
                -80.19072063808471,
                72.72686395721581
            ],
            [
                -80.19680323221138,
                72.78853629460798
            ],
            [
                -79.78922336449966,
                72.88196027895613
            ],
            [
                -77.06637800663479,
                73.55657342274455
            ],
            [
                -75.69613076174821,
                73.94726809620829
            ],
            [
                -77.21944847514267,
                73.58961010378063
            ],
            [
                -79.71672903074324,
                72.97442785651036
            ],
            [
                -81.26837031247628,
                72.59254976544597
            ],
            [
                -80.00336453608793,
                72.90416452895975
            ],
            [
                -79.99501014678115,
                72.6860593968757
            ],
            [
                -80.12483805547217,
                71.94138859259442
            ],
            [
                -80.06067831947863,
                71.08912116308609
            ],
            [
                -79.90706183539832,
                70.6583885296877
            ]
        ]
    },
    "properties": {
        "trajectory_id": 2095,
        "object_id": 301,
        "label": "M"
    }
}