{
    "type": "Feature",
    "geometry": {
        "type": "LineString",
        "coordinates": [
            [
                -79.76851949982938,
                71.17832211373664
            ],
            [
                -79.75401328380596,
                72.88520266032073
            ],
            [
                -79.6675478540419,
                72.2579549427541
            ],
            [
                -79.1443923729472,
                71.74831970092798
            ],
            [
                -78.49881480707533,
                71.75804519023268
            ],
            [
                -78.17753243789451,
                72.07997836347548
            ],
            [
                -78.62726254687301,
                72.50696617346382
            ],
            [
                -80.03935928668658,
                72.81510180625376
            ],
            [
                -78.86255509771443,
                72.55049033128554
            ],
            [
                -77.05596443870377,
                72.2832662692168
            ],
            [
                -76.2550449515432,
                72.26655467337596
            ],
            [
                -76.49039052697074,
                72.41777314313309
            ],
            [
                -77.7925950557255,
                72.65433927785838
            ],
            [
                -79.85296755398983,
                72.8601136059187
            ],
            [
                -81.31625708242099,
                72.59620500025608
            ],
            [
                -82.90493907687231,
                72.32941282018675
            ],
            [
                -83.0831013730544,
                72.32201969573035
            ],
            [
                -82.31676261670086,
                72.47320615906268
            ],
            [
                -81.07194145354546,
                72.6821527423595
            ],
            [
                -79.8146565293215,
                72.84803997779673
            ],
            [
                -79.70914399103498,
                72.61778986791812
            ],
            [
                -79.68062515012518,
                72.40258628934083
            ],
            [
                -79.65104046554873,
                72.40210236535096
            ],
            [
                -79.64933817950956,
                72.53482054387143
            ],
            [
                -79.7044665342116,
                72.71922327282522
            ],
            [
                -79.84095592728129,
                72.87433145597971
            ],
            [
                -80.44977287963923,
                72.65891609646897
            ],
            [
                -81.07370101667262,
                72.57751864647904
            ],
            [
                -81.1963049969943,
                72.70648986048663
            ],
            [
                -80.93145440735545,
                72.89475096035378
            ],
            [
                -80.39301883450756,
                72.99122316794242
            ],
            [
                -79.57677402814595,
                72.81091841035403
            ],
            [
                -79.01723497317805,
                72.89839128393498
            ],
            [
                -78.7541482031728,
                72.78744770405066
            ],
            [
                -79.24448381434492,
                72.61140013499846
            ],
            [
                -79.92097410977419,
                72.50333901255905
            ],
            [
                -80.21635139254033,
                72.59635477251321
            ],
            [
                -79.68822369829313,
                72.7887483330043
            ],
            [
                -80.29823780939812,
                72.82878929343018
            ],
            [
                -82.65693523988304,
                72.32637023434545
            ],
            [
                -85.34329478857168,
                71.69097644935896
            ]
        ]
    },
    "properties": {
        "trajectory_id": 2096,
        "object_id": 301,
        "label": "M"
    }
}