{
    "type": "Feature",
    "geometry": {
        "type": "LineString",
        "coordinates": [
            [
                -79.66747310778064,
                72.97079540651549
            ],
            [
                -79.72085813413548,
                72.96169828075938
            ],
            [
                -79.84470552100326,
                72.9451258741208
            ],
            [
                -79.8883439451447,
                72.93185687716017
            ],
            [
                -79.6733130426555,
                72.86015670000604
            ],
            [
                -79.27049091581127,
                72.7780794334662
            ],
            [
                -78.9481280152793,
                72.72869033850301
            ],
            [
                -78.97447479172712,
                72.75505467607896
            ],
            [
                -79.61778169582209,
                72.90023770715636
            ],
            [
                -80.45245529356046,
                72.84230155436505
            ],
            [
                -82.4290573664778,
                72.39475620754456
            ],
            [
                -82.82543569411983,
                72.29408239267839
            ],
            [
                -82.19668092702402,
                72.42439848394986
            ],
            [
                -81.09788371572839,
                72.6698228555421
            ],
            [
                -80.08413471077037,
                72.9144738816383
            ],
            [
                -80.17925951375207,
                72.9359198584901
            ],
            [
                -81.53820040330865,
                72.77969051511249
            ],
            [
                -81.79283406046451,
                72.75108718787752
            ],
            [
                -81.34649089920848,
                72.8007597051524
            ],
            [
                -80.60250133352909,
                72.8793578953045
            ],
            [
                -79.96419577741504,
                72.93753158670097
            ],
            [
                -79.8238359354697,
                72.93246477631278
            ],
            [
                -79.27458786612522,
                72.95787719490218
            ],
            [
                -78.86166252385351,
                73.12993260469659
            ],
            [
                -78.66421792862737,
                73.30748499403182
            ],
            [
                -78.76141210041979,
                73.3493883512437
            ],
            [
                -79.23240305920379,
                73.11449666466807
            ],
            [
                -80.12666615924456,
                73.0622044394144
            ],
            [
                -80.69024105573332,
                73.48421146589195
            ],
            [
                -80.73688372935142,
                73.5324394807646
            ],
            [
                -80.48472161834279,
                73.36052679609575
            ],
            [
                -80.15188216095135,
                73.12211172394882
            ],
            [
                -79.95649279542107,
                72.97083257638727
            ],
            [
                -79.97061288801994,
                73.00594248559023
            ],
            [
                -80.06715696737488,
                73.07328461833845
            ],
            [
                -80.1761643089139,
                73.08216000766285
            ],
            [
                -80.2415398559323,
                73.05056284210758
            ],
            [
                -80.20718855172538,
                72.99648731021686
            ],
            [
                -80.01701533958847,
                72.93792760053493
            ],
            [
                -80.03559167636176,
                72.94461807683379
            ],
            [
                -79.85913445714836,
                73.1226572925006
            ],
            [
                -79.39754832565545,
                73.35996063536585
            ]
        ]
    },
    "properties": {
        "trajectory_id": 2101,
        "object_id": 318,
        "label": "F"
    }
}