{
    "type": "Feature",
    "geometry": {
        "type": "LineString",
        "coordinates": [
            [
                -79.78805697473621,
                72.97620606223182
            ],
            [
                -79.899230604459,
                73.00802818272071
            ],
            [
                -79.92308368376847,
                73.00293571460213
            ],
            [
                -79.94367326352892,
                72.9492477593902
            ],
            [
                -79.94257604148707,
                72.89671440184418
            ],
            [
                -79.90136871538947,
                72.89508572672327
            ],
            [
                -79.8417212618069,
                72.93925080712626
            ],
            [
                -79.83385657420986,
                73.17174134370055
            ],
            [
                -79.88344471256934,
                73.36174567096492
            ],
            [
                -79.95308202474362,
                73.44066950114396
            ],
            [
                -79.98218512068868,
                73.37561361693722
            ],
            [
                -79.9101706103605,
                73.13367880104414
            ],
            [
                -79.83273151635852,
                72.96821340166616
            ],
            [
                -79.6008664641177,
                72.25788415581835
            ],
            [
                -79.51879136916892,
                72.04189547728744
            ],
            [
                -79.56341644691899,
                72.20517022985877
            ],
            [
                -79.68572007895254,
                72.54926097718476
            ],
            [
                -79.83668064685426,
                72.87572028291801
            ],
            [
                -79.94790917622993,
                72.97161126193636
            ],
            [
                -75.67121094380693,
                72.25851802379005
            ],
            [
                -74.79536067401706,
                72.12793105649733
            ],
            [
                -76.026741352018,
                72.35228987362174
            ],
            [
                -78.06529477806052,
                72.70312704654454
            ],
            [
                -79.61096275239642,
                72.95197514664727
            ],
            [
                -79.82200915273759,
                72.97032532354959
            ],
            [
                -80.50745607722834,
                73.01927768179243
            ],
            [
                -80.69605737066239,
                72.9958412053387
            ],
            [
                -80.55444442468207,
                72.94260706006727
            ],
            [
                -80.25074147765446,
                72.9023204581329
            ],
            [
                -79.95307276794681,
                72.91772661169034
            ],
            [
                -79.873580891295,
                72.94469287944968
            ],
            [
                -79.9463636864914,
                72.93715158672903
            ],
            [
                -80.12211276183503,
                72.92391125196768
            ],
            [
                -80.27325538144962,
                72.91376791678196
            ],
            [
                -80.27211481253607,
                72.91550831346056
            ],
            [
                -79.99101432229534,
                72.93791917429223
            ],
            [
                -79.79731527167036,
                72.95560756101848
            ],
            [
                -80.18938500220787,
                72.94149282427996
            ],
            [
                -80.3589198923707,
                72.9628760133228
            ],
            [
                -80.34619246960969,
                72.99318750323297
            ],
            [
                -80.19194338675426,
                73.00583513959988
            ],
            [
                -79.9369132966337,
                72.97422676801288
            ]
        ]
    },
    "properties": {
        "trajectory_id": 2143,
        "object_id": 323,
        "label": "F"
    }
}