{
    "type": "Feature",
    "geometry": {
        "type": "LineString",
        "coordinates": [
            [
                -80.07174923947258,
                72.96657673141075
            ],
            [
                -79.03827265064683,
                73.0923592935259
            ],
            [
                -78.13020641466557,
                73.18270986916592
            ],
            [
                -77.55464773522998,
                73.18390862155405
            ],
            [
                -77.59359531481071,
                73.12288447281637
            ],
            [
                -78.52904785587772,
                73.02656634507892
            ],
            [
                -79.77909975576902,
                72.9247174188875
            ],
            [
                -80.14646003358044,
                72.91266526475353
            ],
            [
                -81.02823671335828,
                72.86769890583534
            ],
            [
                -81.9107215427423,
                72.83390608494318
            ],
            [
                -82.21600144543382,
                72.8272817517375
            ],
            [
                -81.366163345134,
                72.86382085587888
            ],
            [
                -80.13892399687576,
                72.86680065452025
            ],
            [
                -79.79679593360392,
                72.6113402068848
            ],
            [
                -78.67244460782115,
                72.3999619953419
            ],
            [
                -77.57693772571393,
                72.34485031479068
            ],
            [
                -77.20772273902078,
                72.44751529772692
            ],
            [
                -78.26224709948082,
                72.70946707664655
            ],
            [
                -79.7411163324559,
                72.96374077159791
            ],
            [
                -79.95399849484005,
                72.7915323397269
            ],
            [
                -80.22216547825246,
                72.48402115300858
            ],
            [
                -80.43414741831856,
                72.20767952086001
            ],
            [
                -80.46264510722901,
                72.1491706453303
            ],
            [
                -80.18035933717421,
                72.49515772846873
            ],
            [
                -79.6072126247703,
                72.86054421539095
            ],
            [
                -78.78896218336152,
                72.8191918437649
            ],
            [
                -78.2278384161527,
                72.78714957050728
            ],
            [
                -78.29726949275623,
                72.84626991424179
            ],
            [
                -78.78146770503575,
                72.92508985852211
            ],
            [
                -79.464645344855,
                72.952146386902
            ],
            [
                -79.74428006225443,
                72.92981405482712
            ],
            [
                -82.83584179401318,
                73.40815023202347
            ],
            [
                -82.03818241897349,
                73.30408794294159
            ],
            [
                -79.21237687553835,
                72.89261241871259
            ],
            [
                -76.90615413605826,
                72.54900212880517
            ],
            [
                -77.66724317288137,
                72.64853554268765
            ],
            [
                -79.69383873089356,
                72.91800316200116
            ],
            [
                -79.01057058081614,
                72.77652420179781
            ],
            [
                -79.12954491659131,
                72.80442719625255
            ],
            [
                -79.63041210144526,
                72.91134793303803
            ],
            [
                -80.0928224986046,
                73.006922199827
            ],
            [
                -80.09642647129546,
                73.00078578429208
            ]
        ]
    },
    "properties": {
        "trajectory_id": 2155,
        "object_id": 323,
        "label": "F"
    }
}