{
    "type": "Feature",
    "geometry": {
        "type": "LineString",
        "coordinates": [
            [
                -79.87507,
                72.90308
            ],
            [
                -79.8855028988998,
                72.8945748279092
            ],
            [
                -79.95589043755663,
                72.88537772217475
            ],
            [
                -79.99234752646355,
                72.90122121624054
            ],
            [
                -78.89002727886125,
                73.00637778925996
            ],
            [
                -79.30450808304516,
                73.0055102250283
            ],
            [
                -80.04326109897238,
                72.94546991612978
            ],
            [
                -80.01195385489734,
                72.89878588034841
            ],
            [
                -79.3670796071848,
                72.89433361017655
            ],
            [
                -78.9302678602613,
                72.85618365518883
            ],
            [
                -78.97529967921062,
                72.82486433925473
            ],
            [
                -79.31249506364952,
                72.81797342833254
            ],
            [
                -79.7521740131946,
                72.85310868838059
            ],
            [
                -79.9805139746519,
                72.89257465324359
            ],
            [
                -81.34342785471664,
                73.16599434203515
            ],
            [
                -82.01876717465124,
                73.33453810176334
            ],
            [
                -81.72882063195989,
                73.32474639133493
            ],
            [
                -80.96636827405483,
                73.2004195882586
            ],
            [
                -80.22419014834841,
                73.02535807004313
            ],
            [
                -79.99461451268667,
                72.91538750308484
            ],
            [
                -80.36145749965947,
                72.8910215603559
            ],
            [
                -80.67482792239329,
                73.08495465664522
            ],
            [
                -80.78236055251608,
                73.3468503285272
            ],
            [
                -80.67421759936094,
                73.48889426144336
            ],
            [
                -80.34056127226101,
                73.32327214083526
            ],
            [
                -79.7669755167421,
                72.87028618191941
            ],
            [
                -79.45616298909545,
                72.79819897784908
            ],
            [
                -79.28939302809742,
                72.84339701560349
            ],
            [
                -79.54848015399271,
                72.98847639738935
            ],
            [
                -79.9280646334225,
                73.1064754244774
            ],
            [
                -80.12278673302791,
                73.07043239813832
            ],
            [
                -79.95495922254187,
                72.90063346413719
            ],
            [
                -80.79276626537106,
                72.64357050935577
            ],
            [
                -81.41316689507642,
                72.56096061639106
            ],
            [
                -81.44823041720606,
                72.7036761475936
            ],
            [
                -81.06541165618516,
                72.9039241081507
            ],
            [
                -80.43216543643875,
                72.99391150324968
            ],
            [
                -79.95215229635919,
                72.928464413999
            ],
            [
                -78.9800478033927,
                72.77293335092757
            ],
            [
                -76.35545059577987,
                72.44989296659509
            ],
            [
                -73.83058999745865,
                72.14895473882854
            ],
            [
                -73.02253822555632,
                72.05991129118908
            ]
        ]
    },
    "properties": {
        "trajectory_id": 2184,
        "object_id": 327,
        "label": "M"
    }
}