{
    "type": "Feature",
    "geometry": {
        "type": "LineString",
        "coordinates": [
            [
                -79.51951872406003,
                72.6551141129428
            ],
            [
                -79.99280008665517,
                72.90194731148281
            ],
            [
                -80.5624126550755,
                72.81928853064395
            ],
            [
                -80.90437623484166,
                72.72613578205696
            ],
            [
                -80.98294440691733,
                72.6670243142766
            ],
            [
                -80.76266585391045,
                72.68648880387984
            ],
            [
                -80.20808925842923,
                72.82906392744363
            ],
            [
                -80.00027482065424,
                72.90730608553147
            ],
            [
                -80.12311254309319,
                73.74951929672616
            ],
            [
                -79.9762905679473,
                75.3147115880653
            ],
            [
                -79.72359251406942,
                76.60081154246015
            ],
            [
                -79.52880200031224,
                76.60574774282347
            ],
            [
                -79.55570264552854,
                74.32744877206665
            ],
            [
                -79.96442113099549,
                72.91682784710639
            ],
            [
                -80.03147436793213,
                72.9540706529649
            ],
            [
                -80.08538584708243,
                72.94930591207763
            ],
            [
                -80.12711048906083,
                72.90687170949471
            ],
            [
                -80.15760321448178,
                72.83110613026632
            ],
            [
                -80.17781894395985,
                72.72634725944262
            ],
            [
                -80.18871259810952,
                72.59693318207385
            ],
            [
                -80.19123909754525,
                72.4472019832101
            ],
            [
                -80.18635336288158,
                72.28149174790163
            ],
            [
                -80.17501031473299,
                72.10414056119849
            ],
            [
                -80.15816487371396,
                71.91948650815094
            ],
            [
                -80.13677196043902,
                71.73186767380919
            ],
            [
                -80.11178649552265,
                71.54562214322328
            ],
            [
                -80.08416339957934,
                71.36508800144351
            ],
            [
                -80.05485759322359,
                71.19460333351999
            ],
            [
                -80.02482399706992,
                71.0385062245029
            ],
            [
                -79.99501753173278,
                70.90113475944241
            ],
            [
                -79.9663931178267,
                70.78682702338872
            ],
            [
                -79.9399056759662,
                70.69992110139201
            ],
            [
                -79.9165101267657,
                70.64475507850236
            ],
            [
                -79.89716139083977,
                70.62566703977006
            ],
            [
                -79.88281438880288,
                70.64699507024521
            ],
            [
                -79.8744240412695,
                70.713077254978
            ],
            [
                -79.87294526885418,
                70.82825167901862
            ],
            [
                -79.87933299217138,
                70.9968564274172
            ],
            [
                -79.89454213183564,
                71.22322958522402
            ],
            [
                -79.91952760846138,
                71.51170923748909
            ],
            [
                -79.95524434266314,
                71.86663346926267
            ],
            [
                -80.00264725505544,
                72.29234036559492
            ]
        ]
    },
    "properties": {
        "trajectory_id": 2212,
        "object_id": 327,
        "label": "M"
    }
}