{
    "type": "Feature",
    "geometry": {
        "type": "LineString",
        "coordinates": [
            [
                -79.76713,
                72.85159
            ],
            [
                -79.74333306603279,
                72.8574437828488
            ],
            [
                -79.68411610565364,
                72.84808865436811
            ],
            [
                -79.56854850946236,
                72.70861178824207
            ],
            [
                -78.83219664121091,
                72.34164710986047
            ],
            [
                -79.97015979330467,
                72.92125445360634
            ],
            [
                -80.62198425877972,
                72.9639280555681
            ],
            [
                -82.53439471905634,
                73.1459976989699
            ],
            [
                -83.18704824889474,
                73.23067046742798
            ],
            [
                -79.97724728488117,
                72.93598517539114
            ],
            [
                -79.67247536691787,
                72.73466759356425
            ],
            [
                -78.70491898456257,
                72.06075944026789
            ],
            [
                -78.22081009046225,
                71.71683841058098
            ],
            [
                -79.45610072933886,
                72.57385674421681
            ],
            [
                -79.49289829785761,
                72.75892819197409
            ],
            [
                -78.92129603793441,
                72.63180809726897
            ],
            [
                -79.14602583962352,
                72.78167381883254
            ],
            [
                -79.8072777204693,
                72.94769438715082
            ],
            [
                -79.77655663952775,
                72.91239325038931
            ],
            [
                -79.0726455484205,
                72.73953920191347
            ],
            [
                -78.7596580982326,
                72.64167984822537
            ],
            [
                -79.24356940833952,
                72.73666595508587
            ],
            [
                -79.68652334645779,
                72.8496920951785
            ],
            [
                -79.76596587936903,
                72.8573446193761
            ],
            [
                -79.99245157318323,
                72.89621794069717
            ],
            [
                -80.10667812981632,
                72.93713259028601
            ],
            [
                -79.91840885369014,
                72.92578463841387
            ],
            [
                -79.0648950059044,
                72.720415374529
            ],
            [
                -79.15381201993024,
                72.74563551175928
            ],
            [
                -79.66113012673875,
                72.86599433008581
            ],
            [
                -80.01545197773964,
                72.93712263758943
            ],
            [
                -79.59409542153912,
                72.87941796462032
            ],
            [
                -79.84836601936286,
                72.94704936767658
            ],
            [
                -80.19417689321004,
                73.01063798294004
            ],
            [
                -79.98181937327554,
                72.93755219346467
            ],
            [
                -80.06303313631872,
                72.92521411621986
            ],
            [
                -79.85165133889045,
                72.99838362537034
            ],
            [
                -79.60626523323569,
                73.02626846481905
            ],
            [
                -79.7171985243303,
                72.84442740486412
            ],
            [
                -79.74930334683688,
                72.83119930959526
            ],
            [
                -79.91651490887025,
                72.89299579624875
            ],
            [
                -80.05249346139351,
                72.97233989741592
            ],
            [
                -79.99486347351541,
                72.94743473115894
            ],
            [
                -81.43625612672706,
                72.9069283237071
            ],
            [
                -82.45924219266844,
                73.03167067701813
            ],
            [
                -81.65033748117904,
                73.14383472197918
            ],
            [
                -80.03564033256102,
                72.95271478234994
            ],
            [
                -80.0963728091339,
                72.94822498174736
            ],
            [
                -79.4334427936485,
                73.43560244014395
            ],
            [
                -78.57907204634532,
                73.97986032749746
            ],
            [
                -78.92239322873888,
                73.685982942388
            ],
            [
                -80.07160451032304,
                72.97652424780007
            ],
            [
                -81.64720834801606,
                73.34966648021275
            ],
            [
                -83.09891148985096,
                73.71530061222657
            ],
            [
                -82.23119392613629,
                73.49635844783903
            ],
            [
                -79.96798,
                72.92614
            ]
        ]
    },
    "properties": {
        "trajectory_id": 224,
        "object_id": 247,
        "label": "M"
    }
}