{
    "type": "Feature",
    "geometry": {
        "type": "LineString",
        "coordinates": [
            [
                -83.22208181724524,
                74.11551847395816
            ],
            [
                -82.70110882385538,
                74.01445202678133
            ],
            [
                -80.1533944258678,
                73.20711043305965
            ],
            [
                -80.18571574801636,
                73.16768694180729
            ],
            [
                -80.52257441212818,
                73.31689254319421
            ],
            [
                -80.58839541321218,
                73.47187311963792
            ],
            [
                -80.46512952022704,
                73.55265846400727
            ],
            [
                -80.23472750213114,
                73.47927836917077
            ],
            [
                -79.97914012788324,
                73.17176262799731
            ],
            [
                -79.87075990995191,
                73.15327146929232
            ],
            [
                -79.79855472183237,
                73.23845930736883
            ],
            [
                -79.85052924826377,
                73.33111700907983
            ],
            [
                -79.94253922294918,
                73.381955049991
            ],
            [
                -79.99044037959155,
                73.34168390566778
            ],
            [
                -79.91008845189391,
                73.16101405167585
            ],
            [
                -79.74875985583851,
                73.04690264413469
            ],
            [
                -79.66711880117391,
                73.70768123529605
            ],
            [
                -80.10877064502782,
                75.04277942140219
            ],
            [
                -80.60322303235236,
                76.07684419199077
            ],
            [
                -80.6799836080996,
                75.83452253660013
            ],
            [
                -79.8686233818398,
                73.34054972674298
            ],
            [
                -80.14549582985684,
                73.19425460296031
            ],
            [
                -80.64443190631077,
                73.15409775644768
            ],
            [
                -80.98487000608824,
                72.97253100109467
            ],
            [
                -81.0629383784972,
                72.8052547719328
            ],
            [
                -80.77476527284617,
                72.80796950399366
            ],
            [
                -80.02213847209545,
                73.13317648615275
            ],
            [
                -79.88451210470262,
                72.97249105845174
            ],
            [
                -79.8336027823419,
                72.8081603767434
            ],
            [
                -79.67835841973003,
                72.83081528632076
            ],
            [
                -79.55893445111506,
                72.95133123471568
            ],
            [
                -79.61548631074496,
                73.08058366945974
            ],
            [
                -79.99358547757345,
                73.13272223265274
            ],
            [
                -79.93470876407918,
                73.12253881729141
            ],
            [
                -80.2085076408041,
                73.15625917446167
            ],
            [
                -80.66881683553963,
                73.25451722396626
            ],
            [
                -81.02294584826907,
                73.34107373233192
            ],
            [
                -80.97820417897586,
                73.3396894660853
            ],
            [
                -80.2419013276433,
                73.17412519175303
            ],
            [
                -79.84906556317169,
                73.13865455101401
            ],
            [
                -79.44131503540297,
                73.00243576162998
            ]
        ]
    },
    "properties": {
        "trajectory_id": 2280,
        "object_id": 333,
        "label": "M"
    }
}