{
    "type": "Feature",
    "geometry": {
        "type": "LineString",
        "coordinates": [
            [
                -79.92262,
                72.93454
            ],
            [
                -80.65596244379435,
                73.121039199185
            ],
            [
                -80.95485055611408,
                73.47341500732993
            ],
            [
                -80.38926056815257,
                73.55104291426503
            ],
            [
                -79.77900482557091,
                73.04831211724255
            ],
            [
                -81.08310476550119,
                73.30385445148141
            ],
            [
                -81.83874619263273,
                73.65321461091533
            ],
            [
                -80.88192782126123,
                73.41993772087649
            ],
            [
                -79.9667856428196,
                73.04918510393797
            ],
            [
                -79.428430410107,
                72.53053992158445
            ],
            [
                -78.35007788243534,
                71.72892033257634
            ],
            [
                -78.89862034195616,
                72.05545598431357
            ],
            [
                -79.8043406704983,
                72.71068257036384
            ],
            [
                -79.96246740972359,
                72.93471208375726
            ],
            [
                -80.25677700566851,
                73.00909574428009
            ],
            [
                -80.35542933877802,
                72.96428983857801
            ],
            [
                -80.2266948320712,
                72.91370843221854
            ],
            [
                -79.92948778243344,
                72.94227679460725
            ],
            [
                -80.12791128952951,
                72.88402155238289
            ],
            [
                -79.81511455291403,
                72.69604013826842
            ],
            [
                -79.49713035756211,
                72.61426702166838
            ],
            [
                -79.90473865391424,
                72.8856661356751
            ],
            [
                -78.60663500963567,
                72.41230497237967
            ],
            [
                -78.27895620421015,
                72.36023046035909
            ],
            [
                -79.00649290821308,
                72.71728912844605
            ],
            [
                -79.86086333924654,
                72.96439478927715
            ],
            [
                -80.12108767455008,
                72.86268341173947
            ],
            [
                -79.61975829348135,
                72.65279698975694
            ],
            [
                -78.98633757715031,
                72.5473680828528
            ],
            [
                -79.36949955564658,
                72.74019326392971
            ],
            [
                -79.39256247297142,
                72.78464513274096
            ],
            [
                -77.9268904900365,
                72.61762783677676
            ],
            [
                -77.48334474343758,
                72.70000251511543
            ],
            [
                -78.49347439472655,
                72.87173037218406
            ],
            [
                -79.90796152704058,
                72.94708805532055
            ],
            [
                -78.97125702830017,
                72.69930008759715
            ],
            [
                -79.22480275484008,
                72.77649783480989
            ],
            [
                -79.8343087339332,
                72.930800873132
            ],
            [
                -79.9878883375656,
                72.9440320487493
            ],
            [
                -80.19065352941458,
                72.89580089454624
            ],
            [
                -80.21930302850072,
                72.8950197975913
            ],
            [
                -80.10791993621537,
                72.92707906129449
            ],
            [
                -79.96831104044563,
                72.94001879101877
            ],
            [
                -79.23700332519653,
                72.70455667531559
            ],
            [
                -77.49460648841027,
                72.07075634348413
            ],
            [
                -76.82413570114758,
                71.79943535848822
            ],
            [
                -79.25870026866018,
                72.67858663026543
            ],
            [
                -79.90252796698981,
                72.90731974605639
            ],
            [
                -79.72560100109192,
                72.85321064044795
            ],
            [
                -79.60242826459822,
                72.84171670239928
            ],
            [
                -79.78970391140066,
                72.9089485017164
            ],
            [
                -79.94110300495745,
                72.96469468862324
            ],
            [
                -80.11402363304227,
                73.06084704060345
            ],
            [
                -80.38900989215246,
                73.13228128272232
            ],
            [
                -80.20851868903459,
                73.02014466532327
            ],
            [
                -79.76146,
                72.85717
            ]
        ]
    },
    "properties": {
        "trajectory_id": 231,
        "object_id": 247,
        "label": "M"
    }
}