{
    "type": "Feature",
    "geometry": {
        "type": "LineString",
        "coordinates": [
            [
                -79.14032681876033,
                68.9128248321911
            ],
            [
                -79.31120090236062,
                68.81942609596112
            ],
            [
                -79.3620319281406,
                68.74901445402543
            ],
            [
                -79.42904168387774,
                68.66844148410053
            ],
            [
                -79.37000550914937,
                68.46441319873402
            ],
            [
                -79.4543313104135,
                68.37918206788804
            ],
            [
                -79.64604822431443,
                68.36856851861153
            ],
            [
                -79.90918538749574,
                68.38839297795334
            ],
            [
                -80.20777193660166,
                68.39447587296233
            ],
            [
                -80.26353426803418,
                68.34370218957284
            ],
            [
                -79.89278021944027,
                68.65116311830374
            ],
            [
                -79.95680791683536,
                68.6363098035552
            ],
            [
                -80.26805359412904,
                68.43758527689931
            ],
            [
                -80.63895348522965,
                68.19343256990891
            ],
            [
                -80.88194382404666,
                68.04229471415613
            ],
            [
                -80.88161848979041,
                67.99642985439303
            ],
            [
                -81.36061405403821,
                67.90620186165859
            ],
            [
                -82.57336119976189,
                67.81280959818723
            ],
            [
                -83.76972037046758,
                67.71518625017251
            ],
            [
                -84.19955200965722,
                67.61226500380828
            ],
            [
                -83.11271656083726,
                67.50297904528809
            ],
            [
                -82.08140745457557,
                67.39854001422587
            ],
            [
                -78.90973755290791,
                66.8349180708908
            ],
            [
                -78.14851754999043,
                66.85262734382643
            ],
            [
                -78.87670233282944,
                67.19824568105078
            ],
            [
                -80.17324678842783,
                67.61835093058048
            ],
            [
                -81.11710580379085,
                67.8595209404333
            ],
            [
                -81.18342777108897,
                67.8651641134332
            ],
            [
                -81.51176735446565,
                68.01661510883567
            ],
            [
                -81.96954609750104,
                68.2556712803638
            ],
            [
                -82.2151961015626,
                68.4546700252081
            ],
            [
                -81.90714946801698,
                68.48594874055897
            ],
            [
                -80.70383829823204,
                68.22184482360677
            ],
            [
                -79.69125118968086,
                67.91800729013562
            ],
            [
                -80.32248558480691,
                67.79008537149744
            ],
            [
                -80.38301134160679,
                67.50104300718489
            ],
            [
                -80.04605361589779,
                67.20311081981328
            ],
            [
                -79.48483756349565,
                67.04851943199783
            ],
            [
                -78.872588340218,
                67.18949946635435
            ],
            [
                -78.66071874121542,
                67.29197224438934
            ],
            [
                -78.43897957170783,
                67.30068572110379
            ],
            [
                -78.1305094321689,
                67.37068328017914
            ]
        ]
    },
    "properties": {
        "trajectory_id": 2352,
        "object_id": 333,
        "label": "M"
    }
}