{
    "type": "Feature",
    "geometry": {
        "type": "LineString",
        "coordinates": [
            [
                -80.4950322807287,
                67.45032235966781
            ],
            [
                -80.43145870762748,
                67.52653692210244
            ],
            [
                -80.33053784700141,
                67.6193763426244
            ],
            [
                -80.2310459720415,
                67.67305994745178
            ],
            [
                -80.31787695818574,
                67.63848475520685
            ],
            [
                -80.36558410916795,
                67.60748055161142
            ],
            [
                -80.30402990086073,
                67.59604182677543
            ],
            [
                -80.21669436828788,
                67.59801206558166
            ],
            [
                -80.1870575464732,
                67.60723475291292
            ],
            [
                -80.26826087464121,
                67.62005234300156
            ],
            [
                -80.11976505798933,
                67.5562978878642
            ],
            [
                -80.00837407797759,
                67.46268214139857
            ],
            [
                -80.058159730516,
                67.40646226224675
            ],
            [
                -80.18298496104433,
                67.38991562263936
            ],
            [
                -80.29671271500277,
                67.41531959480723
            ],
            [
                -80.31887113535488,
                67.47866459008672
            ],
            [
                -80.32900755011349,
                67.49805589308289
            ],
            [
                -80.36429689507865,
                67.49659417159405
            ],
            [
                -80.40664105308785,
                67.48149458056585
            ],
            [
                -80.43582086833803,
                67.46446838166366
            ],
            [
                -80.43161718502608,
                67.4572268365529
            ],
            [
                -80.37641986787581,
                67.46980759707546
            ],
            [
                -80.32026769446237,
                67.48957050945056
            ],
            [
                -80.30719902089946,
                67.48110199400504
            ],
            [
                -80.36576909739804,
                67.46048648609617
            ],
            [
                -80.44297810205319,
                67.44014933314574
            ],
            [
                -80.48582621296,
                67.43251588257557
            ],
            [
                -80.45369765028538,
                67.4502471465298
            ],
            [
                -80.3530071813087,
                67.47367472547356
            ],
            [
                -80.28547192586919,
                67.46355142732418
            ],
            [
                -80.29524864689584,
                67.42965364141683
            ],
            [
                -80.35156484163664,
                67.39425203623341
            ],
            [
                -80.42364800733955,
                67.37961728025569
            ],
            [
                -80.47176552692403,
                67.399206553383
            ],
            [
                -80.53257432559283,
                67.4022001806913
            ],
            [
                -80.6047291867556,
                67.39677211900583
            ],
            [
                -80.61535514647377,
                67.39349817217371
            ],
            [
                -80.58857626665892,
                67.38809736805207
            ],
            [
                -80.54851660922284,
                67.37628873449822
            ],
            [
                -80.53230076069974,
                67.35840500448498
            ],
            [
                -80.4644796656128,
                67.4001039508482
            ],
            [
                -80.38365150293725,
                67.43563590240218
            ]
        ]
    },
    "properties": {
        "trajectory_id": 2361,
        "object_id": 333,
        "label": "M"
    }
}