{
    "type": "Feature",
    "geometry": {
        "type": "LineString",
        "coordinates": [
            [
                -91.54229993404836,
                63.404841944156466
            ],
            [
                -90.93493473409197,
                63.614001574356394
            ],
            [
                -83.57886492947748,
                66.10738003023063
            ],
            [
                -80.66405561427129,
                67.03563125419608
            ],
            [
                -80.31546174322693,
                66.98187398659464
            ],
            [
                -80.23540197991758,
                66.90531236081229
            ],
            [
                -80.3393748057889,
                66.85102638581992
            ],
            [
                -80.5428787022874,
                66.86409607058845
            ],
            [
                -80.7614121508588,
                66.9896014240888
            ],
            [
                -80.82070018314701,
                66.99612197802597
            ],
            [
                -80.7080472203405,
                66.95891628830505
            ],
            [
                -80.56394941087152,
                66.9053547539375
            ],
            [
                -80.47991380308137,
                66.86075536044771
            ],
            [
                -80.54744744531155,
                66.85043609336006
            ],
            [
                -80.85805738590338,
                66.89971493819897
            ],
            [
                -80.9499526362456,
                66.87622831799521
            ],
            [
                -81.12192165577603,
                66.90201843234934
            ],
            [
                -81.3229260301468,
                66.94563363767783
            ],
            [
                -81.43834947325462,
                66.9720127115278
            ],
            [
                -81.35357569899588,
                66.94609443144641
            ],
            [
                -80.95398842126723,
                66.83281757498084
            ],
            [
                -81.03290146941474,
                66.7738169661284
            ],
            [
                -81.02148933701017,
                66.71963691820261
            ],
            [
                -80.88117860712406,
                66.68195666419442
            ],
            [
                -80.73364504311203,
                66.67427660073655
            ],
            [
                -80.70056440832965,
                66.71009712446184
            ],
            [
                -80.90330708091132,
                66.80271148788466
            ],
            [
                -81.07021169044329,
                66.73540678499613
            ],
            [
                -81.1251340057782,
                66.72929129589588
            ],
            [
                -81.0313767826678,
                66.72983337463268
            ],
            [
                -80.90023215914061,
                66.73517543364733
            ],
            [
                -80.84299227322464,
                66.74345988538052
            ],
            [
                -80.97094926294837,
                66.7528291422731
            ],
            [
                -81.09016725742046,
                66.74380366563466
            ],
            [
                -80.9556679079281,
                66.75089332281614
            ],
            [
                -80.72733633156103,
                66.7366541172964
            ],
            [
                -80.54870547257102,
                66.72581066514523
            ],
            [
                -80.56330827520895,
                66.74308758243235
            ],
            [
                -80.91467768372658,
                66.8132094852276
            ],
            [
                -81.01272742174842,
                66.80448601743231
            ],
            [
                -80.8690751156297,
                66.81035501366645
            ],
            [
                -80.65285850496676,
                66.79906202032643
            ]
        ]
    },
    "properties": {
        "trajectory_id": 2366,
        "object_id": 333,
        "label": "M"
    }
}