{
    "type": "Feature",
    "geometry": {
        "type": "LineString",
        "coordinates": [
            [
                -80.06257000306016,
                73.17069627136073
            ],
            [
                -80.6081252455943,
                73.17587278977214
            ],
            [
                -80.72297312389668,
                73.14347628606923
            ],
            [
                -80.55508595422147,
                73.09851025776814
            ],
            [
                -80.285916358287,
                73.07524011585687
            ],
            [
                -80.09691695781149,
                73.10793127132344
            ],
            [
                -80.22282997369452,
                73.14798981996219
            ],
            [
                -80.14902392845079,
                73.09418681965951
            ],
            [
                -79.98369350515827,
                73.06064716703543
            ],
            [
                -79.75033174774211,
                73.08057268527276
            ],
            [
                -79.6344501465827,
                73.12392357512911
            ],
            [
                -79.82156019206056,
                73.1606600373621
            ],
            [
                -80.04493028718706,
                73.17865141396615
            ],
            [
                -79.76395612648598,
                72.95645249433552
            ],
            [
                -79.51831342997897,
                72.84484100987937
            ],
            [
                -79.40999427276911,
                72.84126758467649
            ],
            [
                -79.49347124486397,
                72.93375428104108
            ],
            [
                -79.82321693627108,
                73.11032316128728
            ],
            [
                -80.12409139434021,
                73.22670035432289
            ],
            [
                -79.88588428499159,
                73.54320506296675
            ],
            [
                -79.66315416093731,
                73.79432010556293
            ],
            [
                -79.55051733740589,
                73.88280536426785
            ],
            [
                -79.60035375848706,
                73.78285596154377
            ],
            [
                -79.86504336827048,
                73.46866701985292
            ],
            [
                -80.14977368924106,
                73.22215398354375
            ],
            [
                -79.86885663129517,
                73.27058672070949
            ],
            [
                -79.79613697145965,
                73.27082345823148
            ],
            [
                -79.8609081548212,
                73.24598271058741
            ],
            [
                -79.98425916430897,
                73.21940229218124
            ],
            [
                -80.08727898285201,
                73.21442001741687
            ],
            [
                -80.13191401233868,
                73.23553352125668
            ],
            [
                -80.16615501966514,
                73.28875834081364
            ],
            [
                -80.26664653138377,
                73.30861610458372
            ],
            [
                -80.35976234565109,
                73.29952216233754
            ],
            [
                -80.37513518145492,
                73.27253215806238
            ],
            [
                -80.2423977577831,
                73.23870173574556
            ],
            [
                -80.15003071893312,
                73.22964997839772
            ],
            [
                -81.11565287822485,
                73.35897850503677
            ],
            [
                -82.0835712669749,
                73.57341676374587
            ],
            [
                -82.59042415844058,
                73.74766556374215
            ],
            [
                -82.37884492381374,
                73.76557884860887
            ],
            [
                -81.19146693428613,
                73.51101056192928
            ]
        ]
    },
    "properties": {
        "trajectory_id": 2419,
        "object_id": 335,
        "label": "F"
    }
}