{
    "type": "Feature",
    "geometry": {
        "type": "LineString",
        "coordinates": [
            [
                -79.99088167184965,
                73.20780568392598
            ],
            [
                -82.47189652484614,
                73.70503574456251
            ],
            [
                -84.12559932786446,
                74.03736581157375
            ],
            [
                -83.53270366584036,
                73.92621773646805
            ],
            [
                -81.88675740303734,
                73.6008878010855
            ],
            [
                -80.38130840371858,
                73.2906722872662
            ],
            [
                -80.0604846006769,
                73.21203125548965
            ],
            [
                -80.09875996256922,
                73.29368158900529
            ],
            [
                -79.81395026162986,
                73.33877116535095
            ],
            [
                -79.41790896416168,
                73.29013344219904
            ],
            [
                -79.20394152631229,
                73.21627139612158
            ],
            [
                -79.46535340422926,
                73.18568800369073
            ],
            [
                -80.0199451429905,
                73.22521075634658
            ],
            [
                -79.58667764411588,
                73.31069644859802
            ],
            [
                -79.26269912290287,
                73.36245872164012
            ],
            [
                -79.34476768094973,
                73.3084335673837
            ],
            [
                -79.63403621225763,
                73.22552567746555
            ],
            [
                -79.9316576108277,
                73.19063974352268
            ],
            [
                -79.96360738337975,
                73.22638287691308
            ],
            [
                -79.50186293522192,
                73.29685968805072
            ],
            [
                -78.81545144516119,
                73.42366795801301
            ],
            [
                -78.42096596619584,
                73.5109490914858
            ],
            [
                -78.49372491132377,
                73.51140553091419
            ],
            [
                -79.20904669354285,
                73.37773971874347
            ],
            [
                -80.05943202989286,
                73.21466304300381
            ],
            [
                -79.70051781193465,
                73.18467682489802
            ],
            [
                -79.48458428696837,
                73.19208250347548
            ],
            [
                -79.55532014665808,
                73.22605962541758
            ],
            [
                -79.77187491985063,
                73.25574917772907
            ],
            [
                -79.9933981353929,
                73.25029214741477
            ],
            [
                -80.13368402762381,
                73.22571929261021
            ],
            [
                -80.42415298004556,
                73.12308135196626
            ],
            [
                -80.22442616823628,
                72.97508576247058
            ],
            [
                -79.6542840465933,
                72.862736220806
            ],
            [
                -79.22432723241535,
                72.85315546340809
            ],
            [
                -79.445156343001,
                73.01346622671242
            ],
            [
                -80.03694788291898,
                73.21326574031336
            ],
            [
                -80.1227090044355,
                73.19596055738194
            ],
            [
                -80.1328193760856,
                73.118344528854
            ],
            [
                -80.05365327723628,
                73.03995505036275
            ],
            [
                -79.97225250092542,
                73.0131999979443
            ],
            [
                -79.97565884019082,
                73.09048724763477
            ]
        ]
    },
    "properties": {
        "trajectory_id": 2424,
        "object_id": 335,
        "label": "F"
    }
}