{
    "type": "Feature",
    "geometry": {
        "type": "LineString",
        "coordinates": [
            [
                -80.05394448537724,
                73.21397291424861
            ],
            [
                -80.02986172753913,
                73.05387438911862
            ],
            [
                -79.3365878307548,
                72.86528018296659
            ],
            [
                -78.41143535893139,
                72.79007680283442
            ],
            [
                -77.89590951378372,
                72.83268450609047
            ],
            [
                -78.43151549702698,
                72.99752355010317
            ],
            [
                -80.0429299657358,
                73.20454264380234
            ],
            [
                -80.47553513490925,
                73.37030675748905
            ],
            [
                -80.46166038673141,
                73.70755911802065
            ],
            [
                -80.01939316444947,
                73.99911676338436
            ],
            [
                -79.55768856390405,
                74.08827230714621
            ],
            [
                -79.48550168093584,
                73.81831836287243
            ],
            [
                -80.16190788176979,
                73.2216626972063
            ],
            [
                -80.37241676542315,
                73.19310263968876
            ],
            [
                -80.52968953779114,
                73.22226476657038
            ],
            [
                -80.42990879098512,
                73.28731933209387
            ],
            [
                -80.22347421156945,
                73.3344928765521
            ],
            [
                -80.06078548610847,
                73.31001194023773
            ],
            [
                -80.01286782810992,
                73.18667789883892
            ],
            [
                -80.30542253547159,
                73.27937033222997
            ],
            [
                -80.51581820842453,
                73.49027311335581
            ],
            [
                -80.51777086939285,
                73.6969206537971
            ],
            [
                -80.39085823190297,
                73.77029990188323
            ],
            [
                -80.2146580094814,
                73.58139780594371
            ],
            [
                -80.07687722688841,
                73.32190666337051
            ],
            [
                -80.01189642512685,
                73.30550254060766
            ],
            [
                -79.89237236485324,
                73.44015329760532
            ],
            [
                -79.79246550591597,
                73.51967629052295
            ],
            [
                -79.76307937886439,
                73.5153689315182
            ],
            [
                -79.8551175142478,
                73.39852863274864
            ],
            [
                -80.08260198921133,
                73.17737246589688
            ],
            [
                -80.04021264802137,
                73.24198885227145
            ],
            [
                -79.68427505261953,
                73.15840742105262
            ],
            [
                -79.25511822244638,
                73.0130186432546
            ],
            [
                -79.05148999868585,
                72.92080151658183
            ],
            [
                -79.37213822252194,
                72.99673503873878
            ],
            [
                -79.95493846866631,
                73.19730849723739
            ],
            [
                -80.21891234990102,
                73.19913636448547
            ],
            [
                -80.23398940703007,
                73.18596028817359
            ],
            [
                -80.08423588468797,
                73.19020798174398
            ],
            [
                -79.91524535270122,
                73.20307237302117
            ],
            [
                -79.87261138089616,
                73.21574638982977
            ]
        ]
    },
    "properties": {
        "trajectory_id": 2430,
        "object_id": 335,
        "label": "F"
    }
}