{
    "type": "Feature",
    "geometry": {
        "type": "LineString",
        "coordinates": [
            [
                -82.99119831413569,
                72.07750672413839
            ],
            [
                -82.70475223192783,
                72.27851664015338
            ],
            [
                -80.71799386744235,
                72.64869967955498
            ],
            [
                -80.45990543656455,
                72.9544879177904
            ],
            [
                -82.49050387189091,
                73.75133970323495
            ],
            [
                -83.17681648032716,
                74.03228919800404
            ],
            [
                -82.82863733368629,
                73.91187264410806
            ],
            [
                -81.75576050378098,
                73.50462628355737
            ],
            [
                -80.26798006242487,
                72.92508635836258
            ],
            [
                -78.06627448421516,
                72.38730061261253
            ],
            [
                -70.90140676820252,
                70.89299428580566
            ],
            [
                -74.48685507806691,
                71.35363829914215
            ],
            [
                -82.14978803641094,
                72.64897835321659
            ],
            [
                -87.21737426584144,
                73.6587601486245
            ],
            [
                -83.01678238896083,
                73.26272938596045
            ],
            [
                -79.65788400310277,
                72.83702390104193
            ],
            [
                -79.14691576196687,
                72.46058368019933
            ],
            [
                -78.24716597855961,
                71.95114518385844
            ],
            [
                -77.5609110431435,
                71.59164146077735
            ],
            [
                -77.69042734598017,
                71.66500555971368
            ],
            [
                -79.2379912773322,
                72.45417052942554
            ],
            [
                -79.01382384247343,
                72.77993706098994
            ],
            [
                -75.91147813771786,
                72.7222939618866
            ],
            [
                -75.9561647229951,
                72.52181262028341
            ],
            [
                -77.64170959126781,
                72.34759240419332
            ],
            [
                -79.46193873549876,
                72.36873268162924
            ],
            [
                -79.91067814865103,
                72.75433282060406
            ],
            [
                -79.55225337987305,
                72.83973889002196
            ],
            [
                -78.52829974528986,
                72.3459434758268
            ],
            [
                -78.38873437290168,
                71.36141841768904
            ],
            [
                -78.77450281960013,
                70.49799402024216
            ],
            [
                -79.32655064227635,
                70.36750058812048
            ],
            [
                -79.68582339782179,
                71.58176842595739
            ],
            [
                -78.25577736140816,
                72.40467057069212
            ],
            [
                -74.08143538274743,
                71.96869077213665
            ],
            [
                -73.4143916043452,
                72.03824688625073
            ],
            [
                -74.95328237441774,
                72.37334471149428
            ],
            [
                -77.39674404118203,
                72.73399004632742
            ],
            [
                -79.44341295285285,
                72.8801886892098
            ],
            [
                -79.9026213496063,
                72.75355065594772
            ],
            [
                -79.78343830313217,
                72.1669801907396
            ],
            [
                -79.37374988963022,
                71.7596151467291
            ]
        ]
    },
    "properties": {
        "trajectory_id": 2503,
        "object_id": 338,
        "label": "F"
    }
}