{
    "type": "Feature",
    "geometry": {
        "type": "LineString",
        "coordinates": [
            [
                -81.9265810015132,
                73.14066486902973
            ],
            [
                -79.77439668457185,
                72.83758860753161
            ],
            [
                -82.09262689079705,
                73.43906149274544
            ],
            [
                -83.56620989170766,
                73.53283957165947
            ],
            [
                -83.9803552019795,
                73.29909246632968
            ],
            [
                -83.19063651299702,
                72.97575847238284
            ],
            [
                -81.0526275161444,
                72.80077588544559
            ],
            [
                -79.87051373283194,
                72.84195242859212
            ],
            [
                -80.71675872581243,
                72.87763047704661
            ],
            [
                -81.01863357756699,
                72.82140011953258
            ],
            [
                -80.90926917028362,
                72.73986602097914
            ],
            [
                -80.5217963861503,
                72.69963284631532
            ],
            [
                -79.98934610735489,
                72.76730526047018
            ],
            [
                -79.72590431061779,
                72.83789624728256
            ],
            [
                -78.64616534081607,
                72.76596255890102
            ],
            [
                -78.61021051382372,
                72.768387498934
            ],
            [
                -79.1358645586053,
                72.80876672844899
            ],
            [
                -79.74095220412542,
                72.8506959085136
            ],
            [
                -79.9432981793487,
                72.85777070019539
            ],
            [
                -79.80799056510112,
                72.84109028374549
            ],
            [
                -81.5558329413437,
                73.10916892649037
            ],
            [
                -82.81343497838307,
                73.28250857260484
            ],
            [
                -83.29968403353811,
                73.3335405470187
            ],
            [
                -82.73383917377106,
                73.23475312251419
            ],
            [
                -80.83515946604422,
                72.9586345718736
            ],
            [
                -79.73293177014264,
                72.82426345917044
            ],
            [
                -81.44112430915351,
                72.99128822167725
            ],
            [
                -82.01781903209786,
                73.02411156830304
            ],
            [
                -81.78380934697736,
                72.97490933723557
            ],
            [
                -81.06216323466779,
                72.89628303180484
            ],
            [
                -80.17594867604478,
                72.84083415534074
            ],
            [
                -80.03780068454263,
                72.80983708501789
            ],
            [
                -81.30508148928362,
                72.49980307480543
            ],
            [
                -81.0981289525577,
                72.35507225626037
            ],
            [
                -80.19487622490846,
                72.35714691308357
            ],
            [
                -79.37325645687932,
                72.48752932897588
            ],
            [
                -79.41120279901385,
                72.72772178763819
            ],
            [
                -79.82122287462951,
                72.83850841052285
            ],
            [
                -79.85908911988632,
                72.83937438924615
            ],
            [
                -79.9843923095453,
                72.82707751778278
            ],
            [
                -80.1016829655435,
                72.81237171975762
            ],
            [
                -80.11551160981806,
                72.80601091879555
            ]
        ]
    },
    "properties": {
        "trajectory_id": 2520,
        "object_id": 339,
        "label": "M"
    }
}