{
    "type": "Feature",
    "geometry": {
        "type": "LineString",
        "coordinates": [
            [
                -79.99553692840598,
                72.72557912750617
            ],
            [
                -79.77656119728567,
                72.83944353612567
            ],
            [
                -79.31803189648573,
                72.67762778965448
            ],
            [
                -78.53631253984696,
                72.46015867088138
            ],
            [
                -78.45953697268538,
                72.51884181465037
            ],
            [
                -78.8139430503446,
                72.70346488994223
            ],
            [
                -79.32576862816782,
                72.86381556573764
            ],
            [
                -79.72125156149852,
                72.84968151101745
            ],
            [
                -79.81983532608649,
                72.87409992567395
            ],
            [
                -81.10149137519264,
                72.95480360938092
            ],
            [
                -83.04816688855368,
                73.01104201058563
            ],
            [
                -84.43854882475675,
                73.02690948029638
            ],
            [
                -84.05132414238832,
                72.98650036952156
            ],
            [
                -80.66517980003536,
                72.87390902926954
            ],
            [
                -78.41289408498152,
                72.08862657331238
            ],
            [
                -77.9195276407417,
                71.61727096860128
            ],
            [
                -78.72512164440786,
                71.74952040336979
            ],
            [
                -79.94177254464414,
                72.19742867120621
            ],
            [
                -80.68157679011495,
                72.6730495656991
            ],
            [
                -80.05663082948432,
                72.88843688043688
            ],
            [
                -80.21544900291838,
                72.95073178591359
            ],
            [
                -80.10952511473693,
                73.03040723806453
            ],
            [
                -79.447220793493,
                72.9991680147478
            ],
            [
                -78.80164767383677,
                72.91694353541654
            ],
            [
                -78.74591739041793,
                72.84366321952383
            ],
            [
                -79.81704494249091,
                72.8452679120111
            ],
            [
                -79.54184423412725,
                72.9568187745476
            ],
            [
                -79.01253184820634,
                73.00579339527494
            ],
            [
                -78.62817734239165,
                72.9155077481906
            ],
            [
                -78.5387276948629,
                72.79155114494222
            ],
            [
                -78.89412988379983,
                72.73951289717746
            ],
            [
                -79.7423537009906,
                72.83395779681967
            ],
            [
                -79.79523120931337,
                72.88917836696646
            ],
            [
                -81.66315322073511,
                73.37919070575921
            ],
            [
                -84.43375107417168,
                74.03885853597764
            ],
            [
                -86.21201913033197,
                74.43709869735147
            ],
            [
                -85.10295174992339,
                74.14282802961
            ],
            [
                -79.62916806107057,
                72.81743169533888
            ],
            [
                -78.42949639473167,
                73.29222457711504
            ],
            [
                -77.46705278287108,
                73.49522161019341
            ],
            [
                -77.53674582049032,
                73.29946429733126
            ],
            [
                -78.23292236733242,
                72.96201839937874
            ]
        ]
    },
    "properties": {
        "trajectory_id": 2547,
        "object_id": 339,
        "label": "M"
    }
}