{
    "type": "Feature",
    "geometry": {
        "type": "LineString",
        "coordinates": [
            [
                -79.23013827960553,
                72.79572345979071
            ],
            [
                -79.7922800638455,
                72.83859108354089
            ],
            [
                -79.53834223075687,
                72.50695446661419
            ],
            [
                -80.03093839418862,
                72.39140028520693
            ],
            [
                -80.79557266830551,
                72.49428453460662
            ],
            [
                -81.19391890509412,
                72.67880277671135
            ],
            [
                -80.58765095654076,
                72.80815057341925
            ],
            [
                -79.83230737962313,
                72.83183068956653
            ],
            [
                -79.2585185915776,
                72.72293517737482
            ],
            [
                -79.14479042063103,
                72.70112728049327
            ],
            [
                -79.31839236792285,
                72.73328927476076
            ],
            [
                -79.59436669566608,
                72.78706646332137
            ],
            [
                -79.78775566607382,
                72.83010414931911
            ],
            [
                -79.80786422350978,
                72.83752352603985
            ],
            [
                -79.94113428807235,
                72.75815769087082
            ],
            [
                -80.63642114907216,
                72.57667405741235
            ],
            [
                -81.36218315083009,
                72.41077465159566
            ],
            [
                -81.58758054346967,
                72.38087572044059
            ],
            [
                -80.78177357711506,
                72.60739351096683
            ],
            [
                -79.81891983337225,
                72.84708254161525
            ],
            [
                -80.00528380562766,
                72.88245131033513
            ],
            [
                -80.91651172511003,
                73.04557401951297
            ],
            [
                -81.88131555461602,
                73.21961978151023
            ],
            [
                -82.1662275786497,
                73.27462435189895
            ],
            [
                -81.03778008171602,
                73.08062348625134
            ],
            [
                -79.81890523632623,
                72.83699798298986
            ],
            [
                -79.32999776238069,
                73.0146750601031
            ],
            [
                -78.67170287500234,
                72.87563363353675
            ],
            [
                -78.19095470112212,
                72.60721414390432
            ],
            [
                -78.23079364466034,
                72.4327195923448
            ],
            [
                -79.13426010953718,
                72.57545297999732
            ],
            [
                -79.94226165912403,
                72.83475848822602
            ],
            [
                -76.92970206679469,
                72.81835751417302
            ],
            [
                -75.53103200481206,
                72.67882708868608
            ],
            [
                -75.59941128529775,
                72.52462371983353
            ],
            [
                -76.81165138731066,
                72.47924931704657
            ],
            [
                -78.84456378990872,
                72.66620578975643
            ],
            [
                -79.8873578591715,
                72.8642590348268
            ],
            [
                -79.95565310154238,
                73.1442816125186
            ],
            [
                -80.06794394442544,
                73.6083061679534
            ],
            [
                -80.15134415808498,
                73.98974051599834
            ],
            [
                -80.13296751278537,
                74.02199247152086
            ]
        ]
    },
    "properties": {
        "trajectory_id": 2550,
        "object_id": 339,
        "label": "M"
    }
}