{
    "type": "Feature",
    "geometry": {
        "type": "LineString",
        "coordinates": [
            [
                -79.71232343513627,
                72.86583773850872
            ],
            [
                -79.72083795163205,
                72.83172626480233
            ],
            [
                -79.63397814987842,
                72.98342184712915
            ],
            [
                -78.77377569589957,
                73.10329462741394
            ],
            [
                -77.81229884160658,
                73.16376726263829
            ],
            [
                -77.42792844672545,
                73.13886253356603
            ],
            [
                -78.29904537098398,
                73.00260322096099
            ],
            [
                -79.80948342953175,
                72.83853132195392
            ],
            [
                -79.42022976875602,
                72.81982692025997
            ],
            [
                -79.14717155295482,
                72.77341753525985
            ],
            [
                -79.05201660343324,
                72.71791088197169
            ],
            [
                -79.15328064090177,
                72.6952719890503
            ],
            [
                -79.46947938607101,
                72.74746588515048
            ],
            [
                -79.79336285038153,
                72.83502701896855
            ],
            [
                -79.82523255324797,
                72.77399523263016
            ],
            [
                -79.38859802904996,
                72.83762304927613
            ],
            [
                -78.87059474734465,
                72.94327774527548
            ],
            [
                -78.66136252745277,
                73.00704913827593
            ],
            [
                -79.15104118869544,
                72.94502704592504
            ],
            [
                -79.7702320774271,
                72.84755418306192
            ],
            [
                -79.86163450974219,
                72.74068019768134
            ],
            [
                -79.92057719742877,
                72.71844472017382
            ],
            [
                -79.94405167148999,
                72.75237362540327
            ],
            [
                -79.93113379713486,
                72.80603677649708
            ],
            [
                -79.88089943957253,
                72.84300403658273
            ],
            [
                -79.79363180672853,
                72.83214379180954
            ],
            [
                -79.68367048812642,
                72.76208275005771
            ],
            [
                -79.75107304142253,
                72.68513616219127
            ],
            [
                -79.88843956021543,
                72.63594085672561
            ],
            [
                -79.98837013810359,
                72.6491336621763
            ],
            [
                -79.94346486868555,
                72.75935140705877
            ],
            [
                -79.83023294284139,
                72.84934124047777
            ],
            [
                -79.5506702958929,
                72.95420154081089
            ],
            [
                -79.2828322868601,
                73.0647059089674
            ],
            [
                -79.12579658533875,
                73.13166991121595
            ],
            [
                -79.17205318453054,
                73.11119519741871
            ],
            [
                -79.51409207763692,
                72.95938341743809
            ],
            [
                -79.75950149151804,
                72.85400114703741
            ],
            [
                -79.33492821575027,
                72.89752033818854
            ],
            [
                -78.9734042385427,
                72.57563504739085
            ],
            [
                -78.78834109672574,
                72.18504629946179
            ],
            [
                -78.89313975062038,
                72.02246563860605
            ]
        ]
    },
    "properties": {
        "trajectory_id": 2569,
        "object_id": 339,
        "label": "M"
    }
}