{
    "type": "Feature",
    "geometry": {
        "type": "LineString",
        "coordinates": [
            [
                -79.82948507390316,
                72.78445392548795
            ],
            [
                -79.8394612878612,
                72.84048703531681
            ],
            [
                -80.4594273439365,
                72.8029872705445
            ],
            [
                -80.55239322087441,
                72.79266713424948
            ],
            [
                -80.32766497169129,
                72.80080299489558
            ],
            [
                -79.99454864940336,
                72.81867122094658
            ],
            [
                -79.76235030702699,
                72.8375481808663
            ],
            [
                -79.75881248901486,
                72.86229825220819
            ],
            [
                -79.4674318098163,
                73.00147256261532
            ],
            [
                -79.02591227364883,
                73.12039227330054
            ],
            [
                -78.6945253273869,
                73.17816027211916
            ],
            [
                -78.73354241790477,
                73.13387944692671
            ],
            [
                -79.40323499207682,
                72.94665268557857
            ],
            [
                -79.96564938242405,
                72.90088907203544
            ],
            [
                -81.34762996592404,
                73.25904465381085
            ],
            [
                -81.33474530415657,
                73.29073296968646
            ],
            [
                -80.59971223840512,
                73.1367112762737
            ],
            [
                -79.81524760995457,
                72.93773683018433
            ],
            [
                -79.65406826008844,
                72.83456688802977
            ],
            [
                -79.98474278494426,
                72.90858888915686
            ],
            [
                -80.88830434271338,
                73.27121670262201
            ],
            [
                -80.83421913118777,
                73.37189794535601
            ],
            [
                -80.29790086939278,
                73.2878100746302
            ],
            [
                -79.75476327635468,
                73.09613054771621
            ],
            [
                -79.68022007109882,
                72.8740368218854
            ],
            [
                -79.74719508575042,
                72.85843058630506
            ],
            [
                -79.19376534274842,
                73.29231283252135
            ],
            [
                -78.64588934963662,
                73.86599587423075
            ],
            [
                -78.31931554225021,
                74.26679323440024
            ],
            [
                -78.42979235642359,
                74.18201843599746
            ],
            [
                -79.19306822799189,
                73.29898500198931
            ],
            [
                -79.83118674781501,
                72.79630723336548
            ],
            [
                -79.74890483262446,
                72.83294112911432
            ],
            [
                -80.00207737900413,
                72.90294069997702
            ],
            [
                -80.31990723848831,
                72.95906829956262
            ],
            [
                -80.43159726261193,
                72.95408628148027
            ],
            [
                -80.06635030290923,
                72.84075699933899
            ],
            [
                -79.87711603918345,
                72.83953928916628
            ],
            [
                -78.9315287316111,
                72.74193280307757
            ],
            [
                -77.70454704088216,
                72.46785953033587
            ],
            [
                -76.88623162522042,
                72.22921478209416
            ],
            [
                -77.16664314284829,
                72.23789386950486
            ]
        ]
    },
    "properties": {
        "trajectory_id": 2602,
        "object_id": 339,
        "label": "M"
    }
}