{
    "type": "Feature",
    "geometry": {
        "type": "LineString",
        "coordinates": [
            [
                -79.63325995732102,
                72.92829849012432
            ],
            [
                -80.67523177713502,
                73.07739764050594
            ],
            [
                -83.44245570325936,
                74.01006572482763
            ],
            [
                -86.00644051620019,
                75.05987605708583
            ],
            [
                -86.93308747953071,
                75.56143882397254
            ],
            [
                -84.78829785682342,
                74.84936421217947
            ],
            [
                -79.72153883285122,
                72.8267903650181
            ],
            [
                -78.9569610025521,
                72.76495569068034
            ],
            [
                -78.66486494207531,
                72.73975825273406
            ],
            [
                -79.04258200007015,
                72.79491950220284
            ],
            [
                -79.62038265005884,
                72.8694636674467
            ],
            [
                -79.92853736556373,
                72.9024149768256
            ],
            [
                -79.56929562812937,
                72.84970128421037
            ],
            [
                -79.36721318750166,
                72.64501927113635
            ],
            [
                -79.74340013183027,
                72.46425301214013
            ],
            [
                -80.35717295492098,
                72.43009078156362
            ],
            [
                -80.7742667408599,
                72.51026087505356
            ],
            [
                -80.56041657373291,
                72.67249158825672
            ],
            [
                -79.65501050183987,
                72.84800982347186
            ],
            [
                -78.87070412806247,
                72.84732777071129
            ],
            [
                -77.79000620256846,
                72.855285666993
            ],
            [
                -77.27498552863248,
                72.8748263219754
            ],
            [
                -77.43111974275884,
                72.8897304736681
            ],
            [
                -78.36388648145143,
                72.8837788600807
            ],
            [
                -79.49877264808946,
                72.83288356053215
            ],
            [
                -78.29082976047039,
                73.16756728871448
            ],
            [
                -77.25693843172546,
                73.51344257607319
            ],
            [
                -77.17182222396883,
                73.68077478796232
            ],
            [
                -77.77554559936243,
                73.62695743751087
            ],
            [
                -78.80817302006854,
                73.30938403784785
            ],
            [
                -79.75580065121817,
                72.8553302511975
            ],
            [
                -79.90962738793763,
                73.06590566520225
            ],
            [
                -82.00514263056395,
                73.61773618808598
            ],
            [
                -84.69749806491939,
                74.13420165243105
            ],
            [
                -86.18205369764456,
                74.32544514248748
            ],
            [
                -84.65416953537934,
                73.90160974250531
            ],
            [
                -78.77927642436353,
                72.64399830169003
            ],
            [
                -80.279199489551,
                72.05105427456472
            ],
            [
                -80.72715524231138,
                71.52354431069283
            ],
            [
                -80.63834514322099,
                71.71948172194793
            ],
            [
                -80.26243361210379,
                72.25463468268725
            ],
            [
                -79.84908506878371,
                72.74477136726816
            ]
        ]
    },
    "properties": {
        "trajectory_id": 2630,
        "object_id": 340,
        "label": "M"
    }
}