{
    "type": "Feature",
    "geometry": {
        "type": "LineString",
        "coordinates": [
            [
                -79.8040421276629,
                72.93638461063526
            ],
            [
                -78.13336285791094,
                72.70651704115136
            ],
            [
                -76.35271395533415,
                72.70496040037959
            ],
            [
                -75.94672233538341,
                72.79654320112547
            ],
            [
                -76.57929588761385,
                72.90425199722503
            ],
            [
                -77.91434250158107,
                72.9510733425144
            ],
            [
                -79.61572256340746,
                72.85999196946521
            ],
            [
                -79.70213148601691,
                72.800315020629
            ],
            [
                -80.01666040271101,
                72.6241251617681
            ],
            [
                -80.49388581728206,
                72.46479258468838
            ],
            [
                -80.79205514939233,
                72.40310697513652
            ],
            [
                -80.56941581870404,
                72.51985801885948
            ],
            [
                -79.3501825952032,
                72.83475485832949
            ],
            [
                -79.64896747034983,
                72.68009420720922
            ],
            [
                -80.8278944619905,
                72.81469478857836
            ],
            [
                -82.91570508832538,
                73.25395389831053
            ],
            [
                -84.3516504384078,
                73.62441596188069
            ],
            [
                -83.57498160129103,
                73.55262540476387
            ],
            [
                -79.70094270693,
                72.77681192012123
            ],
            [
                -80.12078382552261,
                72.44120313401784
            ],
            [
                -80.09715188220348,
                71.93764395695116
            ],
            [
                -79.7615169183992,
                71.66954723720305
            ],
            [
                -79.42449057989622,
                71.7062362135994
            ],
            [
                -79.39668451248086,
                72.11703412496598
            ],
            [
                -79.83418593213104,
                72.81848141306678
            ],
            [
                -82.86242616780997,
                72.51404984827268
            ],
            [
                -85.74320773131957,
                72.6525487531888
            ],
            [
                -85.97653437707913,
                73.2258224973324
            ],
            [
                -84.45058734517197,
                73.7600078004921
            ],
            [
                -82.05354787568297,
                73.78124138245606
            ],
            [
                -79.67451006008552,
                72.8163595111072
            ],
            [
                -82.23125373224168,
                72.76777656119407
            ],
            [
                -84.8403590743503,
                72.86519563972536
            ],
            [
                -84.97828267005903,
                73.09927581129584
            ],
            [
                -83.54979166064143,
                73.27823673425829
            ],
            [
                -81.45965318737248,
                73.21029806696532
            ],
            [
                -79.79310850180241,
                72.7918229553084
            ],
            [
                -80.56011545253222,
                73.2106093494438
            ],
            [
                -81.05431442429543,
                73.57895413924673
            ],
            [
                -80.74342782436946,
                73.6711488255285
            ],
            [
                -80.12957889347791,
                73.52413946235319
            ],
            [
                -79.714890872344,
                73.17487210378457
            ]
        ]
    },
    "properties": {
        "trajectory_id": 2655,
        "object_id": 340,
        "label": "M"
    }
}