{
    "type": "Feature",
    "geometry": {
        "type": "LineString",
        "coordinates": [
            [
                -79.99017,
                72.86843
            ],
            [
                -80.2302579720867,
                72.79883180857139
            ],
            [
                -80.63306904759382,
                72.858742855544
            ],
            [
                -80.7322622025806,
                72.9774684746562
            ],
            [
                -80.07899101048436,
                72.9979327672006
            ],
            [
                -80.58242385583078,
                72.79401921592624
            ],
            [
                -81.53034887059557,
                72.56062813986414
            ],
            [
                -80.8860756156527,
                72.62320186167048
            ],
            [
                -80.03231885672422,
                72.80866535257157
            ],
            [
                -79.04337978438774,
                72.67961942393485
            ],
            [
                -78.63644182897463,
                72.41827661781603
            ],
            [
                -80.5785739638408,
                72.69248102033585
            ],
            [
                -81.43529934202782,
                72.9413144975919
            ],
            [
                -79.77290729725453,
                72.89716915434775
            ],
            [
                -80.60804295990987,
                73.00021268407343
            ],
            [
                -80.28580884652081,
                73.10845643855043
            ],
            [
                -79.75267689542949,
                73.10674183596296
            ],
            [
                -79.86647637458954,
                72.93577616128918
            ],
            [
                -79.766167941168,
                72.80261836373252
            ],
            [
                -79.77945775838239,
                72.8012933112157
            ],
            [
                -79.79295273877761,
                72.88327384179047
            ],
            [
                -79.69064853390283,
                72.95098461846196
            ],
            [
                -80.09455970490609,
                72.84774456791587
            ],
            [
                -80.74944210982015,
                72.6665234751725
            ],
            [
                -80.91891122488524,
                72.6104816001567
            ],
            [
                -80.27025678913176,
                72.77557737105417
            ],
            [
                -81.09615464946559,
                73.3534221792261
            ],
            [
                -82.18031616368603,
                73.70799589246234
            ],
            [
                -81.2812136093406,
                73.39438219736941
            ],
            [
                -80.04732719997855,
                73.00839953873378
            ],
            [
                -80.26693248405569,
                72.80217519962041
            ],
            [
                -81.83428548433437,
                71.96947756028081
            ],
            [
                -81.13083669585053,
                72.06882874155396
            ],
            [
                -80.05971704156556,
                72.57110566023225
            ],
            [
                -79.90713356189531,
                72.86595688707655
            ],
            [
                -79.46655258375073,
                73.61656799052943
            ],
            [
                -78.82568689936309,
                73.43056732975003
            ],
            [
                -78.76793748556042,
                72.99808577734251
            ],
            [
                -79.74456604896585,
                72.95005566269444
            ],
            [
                -80.18532541309357,
                72.70853799886996
            ],
            [
                -80.16087986194059,
                72.69250435723745
            ],
            [
                -79.88487229536328,
                72.82430019911705
            ],
            [
                -79.74152876687398,
                72.93451325738512
            ],
            [
                -79.70852450562569,
                72.94467470068544
            ],
            [
                -79.52376990948977,
                72.93496421966219
            ],
            [
                -79.4131526547148,
                72.92390051626435
            ],
            [
                -79.61929365344025,
                72.93287690810175
            ],
            [
                -79.62423523233988,
                72.93376502922409
            ],
            [
                -79.27116258287212,
                72.8314906644818
            ],
            [
                -79.07573425254529,
                72.74369132134242
            ],
            [
                -79.38094487180433,
                72.82164437391616
            ],
            [
                -79.71676875458608,
                72.92726639850245
            ],
            [
                -79.4681353130403,
                72.86773623765279
            ],
            [
                -79.25401263018475,
                72.83719048997723
            ],
            [
                -79.38271876208344,
                72.87249774170073
            ],
            [
                -79.75247,
                72.94134
            ]
        ]
    },
    "properties": {
        "trajectory_id": 268,
        "object_id": 250,
        "label": "M"
    }
}