{
    "type": "Feature",
    "geometry": {
        "type": "LineString",
        "coordinates": [
            [
                -79.65423927133293,
                72.83965797814913
            ],
            [
                -80.03062353043835,
                72.88572523433994
            ],
            [
                -80.34197675386274,
                72.95287232760181
            ],
            [
                -80.21946479738396,
                72.97097638879877
            ],
            [
                -79.9064852510152,
                72.94952807223947
            ],
            [
                -79.64643570476906,
                72.89801803223247
            ],
            [
                -79.59857236177557,
                72.83873941264919
            ],
            [
                -79.46641130543239,
                72.83084783359928
            ],
            [
                -79.10894228500865,
                72.57677652286478
            ],
            [
                -78.82728556186898,
                72.20833511654453
            ],
            [
                -78.74703110076844,
                71.9749013851634
            ],
            [
                -78.99376886646213,
                72.1258530992459
            ],
            [
                -79.65054005325456,
                72.84457560891505
            ],
            [
                -76.9145137833154,
                73.47877506978877
            ],
            [
                -75.71820971985457,
                73.71465260403829
            ],
            [
                -77.83848350945007,
                73.14449256861259
            ],
            [
                -80.72233848023667,
                72.41391058960183
            ],
            [
                -81.81677796034538,
                72.16852229309714
            ],
            [
                -79.61729566741649,
                72.85130397915567
            ],
            [
                -78.41800166782181,
                72.71957669581829
            ],
            [
                -76.49575943776256,
                72.34319082305471
            ],
            [
                -75.3608288230287,
                71.96701620148824
            ],
            [
                -75.39742501533652,
                71.81430616944598
            ],
            [
                -76.98976320640449,
                72.10831406525577
            ],
            [
                -79.65113089374861,
                72.84084215196908
            ],
            [
                -79.81817834006596,
                72.79315503016859
            ],
            [
                -79.13231691810599,
                72.77674882807426
            ],
            [
                -77.99053035780322,
                72.81475995793124
            ],
            [
                -77.26717695634981,
                72.85756487854539
            ],
            [
                -77.83661501094001,
                72.85554004872246
            ],
            [
                -79.73330222830384,
                72.85244767394596
            ],
            [
                -79.30596270389762,
                72.74870976535023
            ],
            [
                -79.08845012379597,
                72.7112281133807
            ],
            [
                -79.1730792173176,
                72.75108811830344
            ],
            [
                -79.39774845645111,
                72.81799626075069
            ],
            [
                -79.60035631318473,
                72.86165902135447
            ],
            [
                -79.64512385714255,
                72.84358007256402
            ],
            [
                -80.43920165425794,
                73.15886097550712
            ],
            [
                -80.28895025904491,
                73.20046786944145
            ],
            [
                -79.33017057271407,
                72.95892556290639
            ],
            [
                -78.44713307933831,
                72.67984786983374
            ],
            [
                -78.52410826299042,
                72.60884860415547
            ]
        ]
    },
    "properties": {
        "trajectory_id": 2693,
        "object_id": 340,
        "label": "M"
    }
}