{
    "type": "Feature",
    "geometry": {
        "type": "LineString",
        "coordinates": [
            [
                -79.61829431045959,
                72.84532008782429
            ],
            [
                -79.1407976997858,
                72.91295414213054
            ],
            [
                -78.91031406659155,
                72.97576051784084
            ],
            [
                -79.0531433107387,
                72.99607007055846
            ],
            [
                -79.35592578499376,
                72.97573109900691
            ],
            [
                -79.6053018421228,
                72.91659190190975
            ],
            [
                -79.68868248112388,
                72.86898100781796
            ],
            [
                -79.80833614319431,
                72.76475953402522
            ],
            [
                -80.28550108945221,
                72.76104735230206
            ],
            [
                -80.76790623361319,
                72.85503598710514
            ],
            [
                -80.94119430686717,
                72.95079260343252
            ],
            [
                -80.49100804040445,
                72.95238436628242
            ],
            [
                -79.69905838702475,
                72.86924235314919
            ],
            [
                -79.52966848017529,
                72.79702790132106
            ],
            [
                -79.34591153127568,
                72.79695095012323
            ],
            [
                -79.24428933261198,
                72.84250917478519
            ],
            [
                -79.26280673282426,
                72.88734918022703
            ],
            [
                -79.43946858055256,
                72.88511757136877
            ],
            [
                -79.65253017481564,
                72.84189066535554
            ],
            [
                -79.54825121399261,
                72.78069076412221
            ],
            [
                -79.61463475824907,
                72.69545272042609
            ],
            [
                -79.78258825791524,
                72.63601113114007
            ],
            [
                -79.91732887570568,
                72.634856445806
            ],
            [
                -79.88407377433516,
                72.72447911396574
            ],
            [
                -79.76750612104748,
                72.87182043741599
            ],
            [
                -79.2302813090816,
                72.81152798033102
            ],
            [
                -76.62547583513391,
                72.66688012619215
            ],
            [
                -73.63558526004707,
                72.52436725381952
            ],
            [
                -72.34770292936925,
                72.5041731362126
            ],
            [
                -74.84892218864645,
                72.72648154637085
            ],
            [
                -79.71046787882038,
                72.85958715167976
            ],
            [
                -79.80397825408272,
                72.84949653557842
            ],
            [
                -81.5831316883897,
                73.01017881444533
            ],
            [
                -83.69009698192076,
                73.2173165805261
            ],
            [
                -84.57663778164232,
                73.31391069990252
            ],
            [
                -82.69451773451675,
                73.14296203865595
            ],
            [
                -79.69455863987054,
                72.84664266717455
            ],
            [
                -84.81730763893772,
                71.5848146986027
            ],
            [
                -83.82287548002938,
                71.08664532436534
            ],
            [
                -79.70957114084355,
                71.21199825683144
            ],
            [
                -75.94821022647979,
                71.72997577342818
            ],
            [
                -76.009608342045,
                72.4096801515826
            ]
        ]
    },
    "properties": {
        "trajectory_id": 2694,
        "object_id": 340,
        "label": "M"
    }
}