{
    "type": "Feature",
    "geometry": {
        "type": "LineString",
        "coordinates": [
            [
                -75.64339616468013,
                71.97952086948499
            ],
            [
                -74.6051595654572,
                71.87196876017835
            ],
            [
                -74.02440703525173,
                71.84020402776416
            ],
            [
                -74.11639049662568,
                71.90873800413706
            ],
            [
                -75.09636187214113,
                72.10208202119175
            ],
            [
                -77.1795730843605,
                72.44474741082293
            ],
            [
                -79.5939556786322,
                72.79559613375177
            ],
            [
                -79.27848643829151,
                72.96671206444566
            ],
            [
                -78.82824529830872,
                72.76736767700406
            ],
            [
                -78.62818763650262,
                72.33034350477325
            ],
            [
                -78.70135656240362,
                71.99400219911291
            ],
            [
                -79.0707951855421,
                72.09670641138283
            ],
            [
                -79.66952554974796,
                72.83454492764774
            ],
            [
                -79.4752968478694,
                72.83549876241773
            ],
            [
                -79.07200789440823,
                72.98436649133122
            ],
            [
                -78.77461165303615,
                73.18156109693336
            ],
            [
                -78.72642817142983,
                73.28511235270273
            ],
            [
                -79.0707774972658,
                73.15305003211775
            ],
            [
                -79.66404480002669,
                72.81941788363875
            ],
            [
                -79.71625246788258,
                72.80434854358477
            ],
            [
                -79.85019539517997,
                72.75956798181491
            ],
            [
                -79.9667954591941,
                72.71121376864659
            ],
            [
                -79.99929678675237,
                72.69026361858178
            ],
            [
                -79.88094350468211,
                72.72769524612248
            ],
            [
                -79.67117445432719,
                72.82924937567462
            ],
            [
                -79.47516301662253,
                72.77712961565385
            ],
            [
                -79.32085011721642,
                72.74169563089534
            ],
            [
                -79.28690398447765,
                72.73618609562884
            ],
            [
                -79.36492836021733,
                72.75440367378809
            ],
            [
                -79.54652698624649,
                72.7901510293068
            ],
            [
                -79.77199785023984,
                72.8250262833038
            ],
            [
                -79.6673861775371,
                72.89060947720108
            ],
            [
                -79.56862181266774,
                72.87739468264832
            ],
            [
                -79.4899512068794,
                72.80753101406177
            ],
            [
                -79.47009387561407,
                72.74534026024091
            ],
            [
                -79.5477693343137,
                72.75514420998526
            ],
            [
                -79.68865161409528,
                72.83843061368678
            ],
            [
                -79.70273831988351,
                72.81977454777072
            ],
            [
                -80.04485537800053,
                72.7136740619797
            ],
            [
                -80.47664208402833,
                72.59014040981283
            ],
            [
                -80.6725116536042,
                72.53463374166697
            ],
            [
                -80.30687730236563,
                72.63261420793901
            ]
        ]
    },
    "properties": {
        "trajectory_id": 2713,
        "object_id": 341,
        "label": "F"
    }
}