{
    "type": "Feature",
    "geometry": {
        "type": "LineString",
        "coordinates": [
            [
                -79.69372610699335,
                72.83487058285121
            ],
            [
                -79.86232787127334,
                72.76376114423934
            ],
            [
                -79.94721512585592,
                72.63403267878228
            ],
            [
                -79.95093954569671,
                72.52432561143448
            ],
            [
                -79.87711596366228,
                72.51320480666604
            ],
            [
                -79.72935921261931,
                72.67923512894703
            ],
            [
                -79.80743649652092,
                72.79300862586032
            ],
            [
                -80.81504282450553,
                72.62475980222999
            ],
            [
                -80.96664712239352,
                72.61521176607137
            ],
            [
                -80.60523804574487,
                72.693738624055
            ],
            [
                -80.07380425011942,
                72.78971448285137
            ],
            [
                -79.71533439107725,
                72.83251344913097
            ],
            [
                -79.67058072779803,
                72.83045976833472
            ],
            [
                -79.4973622663326,
                72.88668221780743
            ],
            [
                -79.20402970419093,
                72.89123390506437
            ],
            [
                -78.97087430659235,
                72.86638871190607
            ],
            [
                -78.97818733875636,
                72.83442052013294
            ],
            [
                -79.40626006590236,
                72.81760321154547
            ],
            [
                -80.23368882452678,
                72.68873289595544
            ],
            [
                -81.79625837560718,
                72.31175046477264
            ],
            [
                -82.16920618191412,
                72.17042953297356
            ],
            [
                -81.72211296569373,
                72.22378172131155
            ],
            [
                -80.82455944919246,
                72.43081865053989
            ],
            [
                -79.84612635465643,
                72.75055194141186
            ],
            [
                -79.62501554815415,
                72.83567643662272
            ],
            [
                -79.57948143197227,
                72.82224536677967
            ],
            [
                -79.56949723118342,
                72.79871261127951
            ],
            [
                -79.58470362402224,
                72.78105549394428
            ],
            [
                -79.61474128872337,
                72.78525133859604
            ],
            [
                -79.64925090352138,
                72.82727746905687
            ],
            [
                -79.15030494498768,
                72.9154159482888
            ],
            [
                -76.92380441823033,
                73.21085215937772
            ],
            [
                -75.52641889100963,
                73.04133059566402
            ],
            [
                -75.19116622824795,
                72.69615842421709
            ],
            [
                -76.15106429486798,
                72.46464281210638
            ],
            [
                -78.63913095579265,
                72.63609092640125
            ],
            [
                -79.5434927812849,
                72.81512403848006
            ],
            [
                -79.31991320163694,
                72.73526614641902
            ],
            [
                -79.31691839483506,
                72.61086154736635
            ],
            [
                -79.4384463009523,
                72.51482294828483
            ],
            [
                -79.58843486006168,
                72.52006305613708
            ],
            [
                -79.67082201223617,
                72.69949457788586
            ]
        ]
    },
    "properties": {
        "trajectory_id": 2716,
        "object_id": 341,
        "label": "F"
    }
}