{
    "type": "Feature",
    "geometry": {
        "type": "LineString",
        "coordinates": [
            [
                -79.28269197299144,
                72.91654167077229
            ],
            [
                -79.16482692633016,
                72.99926102896696
            ],
            [
                -79.1423758059638,
                73.0434857181582
            ],
            [
                -79.22633835973386,
                73.0122441094549
            ],
            [
                -79.4277143354817,
                72.86856457396605
            ],
            [
                -79.2808901062496,
                72.80163581923168
            ],
            [
                -78.87315595559411,
                72.75471579681073
            ],
            [
                -78.84862841932929,
                72.75452698269687
            ],
            [
                -79.05358992050272,
                72.7796179475201
            ],
            [
                -79.33432288216196,
                72.80853726191026
            ],
            [
                -79.5371097273545,
                72.81983349649732
            ],
            [
                -80.7821273594538,
                72.47268716634852
            ],
            [
                -82.51092223148797,
                71.90736951427503
            ],
            [
                -82.45858431053176,
                71.83070089078285
            ],
            [
                -81.4113096425437,
                72.06909618068389
            ],
            [
                -80.15529427348221,
                72.44897026879016
            ],
            [
                -79.47673424930628,
                72.79673803991344
            ],
            [
                -79.23831787096745,
                72.76738218664623
            ],
            [
                -79.07619266275015,
                72.68183743639412
            ],
            [
                -79.29142835622243,
                72.65214300433782
            ],
            [
                -79.61231587978266,
                72.67098431716147
            ],
            [
                -79.7671461618289,
                72.73104680154908
            ],
            [
                -79.48421013075955,
                72.82501588418478
            ],
            [
                -79.53205632404712,
                72.8314438713675
            ],
            [
                -80.19731950415067,
                72.921429261305
            ],
            [
                -80.98346515074506,
                73.06461523637373
            ],
            [
                -81.4507921918435,
                73.16400015174202
            ],
            [
                -81.15959955545986,
                73.12258236257838
            ],
            [
                -79.67018616960748,
                72.84336022405124
            ],
            [
                -80.25910287940506,
                73.06942104281161
            ],
            [
                -81.14198358063956,
                73.39019143278553
            ],
            [
                -81.18743987624245,
                73.37593327846287
            ],
            [
                -80.71939718963023,
                73.17410950431544
            ],
            [
                -80.06178094422047,
                72.93218303481545
            ],
            [
                -79.53851656342954,
                72.79761679443456
            ],
            [
                -79.52892264156955,
                72.83362297702398
            ],
            [
                -79.70175457102867,
                73.03551038152614
            ],
            [
                -79.82051128341764,
                73.29893906208545
            ],
            [
                -79.83582586993026,
                73.45964159950137
            ],
            [
                -79.69833142176034,
                73.3533505745736
            ],
            [
                -79.35897828723117,
                72.81616631303672
            ],
            [
                -79.3093840693098,
                72.69152284059919
            ]
        ]
    },
    "properties": {
        "trajectory_id": 2810,
        "object_id": 343,
        "label": "F"
    }
}