{
    "type": "Feature",
    "geometry": {
        "type": "LineString",
        "coordinates": [
            [
                -79.71836441690444,
                72.8968443073522
            ],
            [
                -78.12776646219177,
                73.09671602833299
            ],
            [
                -76.12590069759132,
                73.40823503411819
            ],
            [
                -74.98816541698616,
                73.6169438436227
            ],
            [
                -75.98995891425955,
                73.50838497576135
            ],
            [
                -80.07028834668351,
                72.9173335351952
            ],
            [
                -81.34027930199093,
                72.70249169068751
            ],
            [
                -83.52214836909826,
                72.60019066887527
            ],
            [
                -85.00074916208882,
                72.68021739707372
            ],
            [
                -85.1783223909252,
                72.82913943101644
            ],
            [
                -83.45710876557035,
                72.93352432643708
            ],
            [
                -80.09593917710298,
                72.93534458478685
            ],
            [
                -80.46594516462173,
                72.86607451194645
            ],
            [
                -82.72789857989258,
                73.01020695573233
            ],
            [
                -85.41615624955185,
                73.30146385467887
            ],
            [
                -86.84062730100396,
                73.51761782522796
            ],
            [
                -85.31122086165331,
                73.43644148382145
            ],
            [
                -79.96531777418205,
                72.88737722318878
            ],
            [
                -82.87627671085477,
                72.70943803441149
            ],
            [
                -84.29490329158745,
                72.67405155099605
            ],
            [
                -83.5620177890895,
                72.7722656644382
            ],
            [
                -81.84067510100778,
                72.90553334267057
            ],
            [
                -80.29393012498929,
                72.97530755362598
            ],
            [
                -79.88952994669823,
                72.87736792698853
            ],
            [
                -76.03815222394132,
                71.54526250023218
            ],
            [
                -57.21525652971697,
                66.14560859407142
            ],
            [
                -35.313883795528106,
                60.08925247934354
            ],
            [
                -24.328142082518507,
                57.18352632991379
            ],
            [
                -38.2521394518339,
                61.23576231964792
            ],
            [
                -80.6685021509674,
                73.10757817975265
            ],
            [
                -80.20409154139583,
                72.9998028888719
            ],
            [
                -80.68159604301712,
                73.12253804260331
            ],
            [
                -80.97324395616324,
                73.15948434601532
            ],
            [
                -80.96577075195303,
                73.11863429318515
            ],
            [
                -80.54591190150545,
                73.00798037819004
            ],
            [
                -79.96401110995451,
                72.90906019167761
            ],
            [
                -80.74535647813148,
                72.92463516459155
            ],
            [
                -82.89949968743555,
                72.57703018008289
            ],
            [
                -84.99611654128432,
                72.07449980567024
            ],
            [
                -85.83505500911866,
                71.77488550024285
            ],
            [
                -84.21616306037939,
                72.03602872268992
            ],
            [
                -80.01956869397434,
                72.85131087231592
            ]
        ]
    },
    "properties": {
        "trajectory_id": 2883,
        "object_id": 347,
        "label": "F"
    }
}