{
    "type": "Feature",
    "geometry": {
        "type": "LineString",
        "coordinates": [
            [
                -79.69308061603411,
                72.87865995456237
            ],
            [
                -79.16887896117612,
                72.92610111114939
            ],
            [
                -78.72500947178123,
                73.01091612133928
            ],
            [
                -78.65701523518416,
                73.06343088110063
            ],
            [
                -79.26043933872039,
                73.01397128640193
            ],
            [
                -79.90361500890445,
                72.90143594558468
            ],
            [
                -79.82113315461442,
                72.91056266688987
            ],
            [
                -79.44592028060843,
                72.7766335910851
            ],
            [
                -79.08987422545442,
                72.61101077771214
            ],
            [
                -79.01300909838965,
                72.54066936814492
            ],
            [
                -79.47533900865204,
                72.69258450375762
            ],
            [
                -79.90768945205039,
                72.88070353618397
            ],
            [
                -80.01439808767259,
                72.95312154553551
            ],
            [
                -80.22807575038654,
                73.04522517278092
            ],
            [
                -80.47250309487258,
                73.12106697437919
            ],
            [
                -80.56243791050176,
                73.13408906636161
            ],
            [
                -80.31263798664534,
                73.03773356475953
            ],
            [
                -79.98330927286314,
                72.89795789587549
            ],
            [
                -80.44166376004009,
                73.00954623271143
            ],
            [
                -80.7232849658991,
                73.12703773849319
            ],
            [
                -80.74698953155085,
                73.19965845420307
            ],
            [
                -80.55938963631263,
                73.1867678070149
            ],
            [
                -80.20709745950204,
                73.04772522410256
            ],
            [
                -79.95918890548347,
                72.9148505530434
            ],
            [
                -80.16145558077312,
                72.97942761228194
            ],
            [
                -80.31356085246613,
                73.16373844946938
            ],
            [
                -80.35151766308103,
                73.33477625622776
            ],
            [
                -80.28734385807529,
                73.3766402603003
            ],
            [
                -80.13305728290668,
                73.1734296894306
            ],
            [
                -79.99446318014444,
                72.90779668237832
            ],
            [
                -79.72059240917439,
                72.9656150962299
            ],
            [
                -79.58252008824277,
                72.95984967117259
            ],
            [
                -79.60603933902888,
                72.90867105452988
            ],
            [
                -79.73588233282935,
                72.86127527677796
            ],
            [
                -79.91678124094057,
                72.86685836839294
            ],
            [
                -79.9998128263082,
                72.90039058015499
            ],
            [
                -79.36001319727067,
                72.7913701659504
            ],
            [
                -79.11113170074881,
                72.76910767372318
            ],
            [
                -79.15971232310983,
                72.80170451350054
            ],
            [
                -79.41223440735313,
                72.85724895344616
            ],
            [
                -79.77517729647874,
                72.90382926172389
            ]
        ]
    },
    "properties": {
        "trajectory_id": 2940,
        "object_id": 347,
        "label": "F"
    }
}