{
    "type": "Feature",
    "geometry": {
        "type": "LineString",
        "coordinates": [
            [
                -79.95110423903888,
                72.87845974005009
            ],
            [
                -79.78226329869867,
                72.75919144572566
            ],
            [
                -79.8838763549011,
                72.77416284810444
            ],
            [
                -80.08042353830821,
                72.85327743678207
            ],
            [
                -80.19638497958199,
                72.92643870135417
            ],
            [
                -80.0562408093845,
                72.92355013141636
            ],
            [
                -80.0625834518589,
                72.94298957168796
            ],
            [
                -81.14721819775636,
                72.95109935455231
            ],
            [
                -82.40629073591445,
                72.57711691629001
            ],
            [
                -83.19018250118548,
                72.17081075400503
            ],
            [
                -82.84927492841956,
                72.08194936480203
            ],
            [
                -80.73394945246915,
                72.66030124578498
            ],
            [
                -79.49089806217516,
                73.04124366861713
            ],
            [
                -78.2800390609343,
                73.39630718704124
            ],
            [
                -78.24193470149928,
                73.4586937810454
            ],
            [
                -78.85482118314756,
                73.33326000204424
            ],
            [
                -79.59693470515535,
                73.12486240145284
            ],
            [
                -79.9465114668001,
                72.93835753068585
            ],
            [
                -79.98421736962173,
                72.91126137367
            ],
            [
                -80.24514985055018,
                72.97545871025439
            ],
            [
                -80.4408593250692,
                73.07398194519939
            ],
            [
                -80.51424078225325,
                73.14700539522988
            ],
            [
                -80.40818921117705,
                73.13470337707074
            ],
            [
                -80.06559960091516,
                72.97725020744687
            ],
            [
                -80.05668273834209,
                72.8976139294184
            ],
            [
                -80.30514331755408,
                72.85748573550967
            ],
            [
                -80.36506562373368,
                72.86753271856547
            ],
            [
                -80.29469926552478,
                72.89981399897157
            ],
            [
                -80.15229385157144,
                72.9263886971136
            ],
            [
                -79.99609899051755,
                72.91931593337729
            ],
            [
                -79.95406816328591,
                72.92759525624592
            ],
            [
                -79.81402392640709,
                72.96628754013167
            ],
            [
                -79.67116697364763,
                72.96039986256193
            ],
            [
                -79.59882584136577,
                72.93365496245968
            ],
            [
                -79.67032906591959,
                72.90977557874797
            ],
            [
                -79.95900518366733,
                72.91248445034977
            ],
            [
                -81.07622830404905,
                72.33538413423685
            ],
            [
                -83.01946286008543,
                71.13185916563647
            ],
            [
                -83.33996261523063,
                70.69541539804734
            ],
            [
                -82.56604352435232,
                70.89827177901688
            ],
            [
                -81.22602154231652,
                71.612647256093
            ],
            [
                -79.8482126239904,
                72.71076077682342
            ]
        ]
    },
    "properties": {
        "trajectory_id": 2942,
        "object_id": 347,
        "label": "F"
    }
}