{
    "type": "Feature",
    "geometry": {
        "type": "LineString",
        "coordinates": [
            [
                -79.96135756465253,
                72.9305883206481
            ],
            [
                -79.9105944314828,
                72.9756055644796
            ],
            [
                -79.90437066353749,
                72.90738741537604
            ],
            [
                -79.96816227587482,
                72.86235582737179
            ],
            [
                -80.05530015949817,
                72.85656902948813
            ],
            [
                -80.10207463136888,
                72.88682419974371
            ],
            [
                -80.04477600844834,
                72.94991851615717
            ],
            [
                -79.94891578559947,
                72.99676852433095
            ],
            [
                -80.39867906489073,
                73.03175947513655
            ],
            [
                -80.50168534479612,
                73.07648834224047
            ],
            [
                -80.36250493105018,
                73.1078870196754
            ],
            [
                -80.12171312915856,
                73.10322777383327
            ],
            [
                -79.91988524462704,
                73.03978287110601
            ],
            [
                -79.86310819400417,
                72.97045293752338
            ],
            [
                -79.70132774992457,
                72.93749123012955
            ],
            [
                -79.6975424907933,
                72.91725042535411
            ],
            [
                -79.82012474009076,
                72.9226963059101
            ],
            [
                -79.96416397135349,
                72.94234978801553
            ],
            [
                -80.024749658118,
                72.96473178788841
            ],
            [
                -80.02197696603156,
                72.96865929485206
            ],
            [
                -79.64168330735966,
                73.16661355246633
            ],
            [
                -79.58905485482384,
                73.2307108856735
            ],
            [
                -79.72949890634642,
                73.2008469968538
            ],
            [
                -79.92567672659351,
                73.11808836748217
            ],
            [
                -80.0402495802314,
                73.02350147903348
            ],
            [
                -80.04353365404242,
                72.98438439255752
            ],
            [
                -79.74475406824892,
                72.99080940364658
            ],
            [
                -79.76487213051922,
                72.9116098985791
            ],
            [
                -79.96030306994473,
                72.81450390923116
            ],
            [
                -80.1399499771546,
                72.7779366398594
            ],
            [
                -80.112715942778,
                72.88035329472048
            ],
            [
                -80.00821678158422,
                72.9900923054637
            ],
            [
                -79.83471992704041,
                72.54082729625114
            ],
            [
                -79.71169554248118,
                72.0518884710807
            ],
            [
                -79.6677892458649,
                71.74755841897706
            ],
            [
                -79.71327780718666,
                71.82895615889245
            ],
            [
                -79.85843799644147,
                72.49720070977907
            ],
            [
                -79.91035424459753,
                72.98527506484396
            ],
            [
                -80.12941878027861,
                73.06047069524675
            ],
            [
                -80.5715170802138,
                73.17902688266699
            ],
            [
                -80.96775641261846,
                73.27649343381438
            ]
        ]
    },
    "properties": {
        "trajectory_id": 2989,
        "object_id": 348,
        "label": "F"
    }
}