{
    "type": "Feature",
    "geometry": {
        "type": "LineString",
        "coordinates": [
            [
                -79.49910255861553,
                72.85081429835579
            ],
            [
                -79.32846988907117,
                72.85855345920388
            ],
            [
                -79.28923265297504,
                72.86006525193311
            ],
            [
                -79.4402375588711,
                72.84844010439282
            ],
            [
                -79.84033131530333,
                72.81676844443233
            ],
            [
                -78.1045116824873,
                74.3067537176867
            ],
            [
                -78.27411582792438,
                73.89505911643398
            ],
            [
                -80.1733738482794,
                71.92857401970853
            ],
            [
                -82.27024325811931,
                69.9270306764361
            ],
            [
                -83.03268157201104,
                69.41016133554277
            ],
            [
                -80.92864630452081,
                71.89769824595483
            ],
            [
                -79.82132839810816,
                72.84818026313683
            ],
            [
                -80.01363161550157,
                72.91983465018079
            ],
            [
                -80.17776054213626,
                73.00176624465803
            ],
            [
                -80.22377665291039,
                73.04269968716608
            ],
            [
                -80.06174142272195,
                72.99135961830252
            ],
            [
                -79.6017177355313,
                72.79647773505896
            ],
            [
                -79.57288241784357,
                72.8308871084339
            ],
            [
                -79.6490236376025,
                72.85083259993876
            ],
            [
                -79.85598287985555,
                72.89821613016797
            ],
            [
                -80.04824687662716,
                72.93672870506362
            ],
            [
                -80.08030235994185,
                72.93006133056777
            ],
            [
                -79.80663606182395,
                72.84190501262248
            ],
            [
                -79.92016358328004,
                72.77946048809036
            ],
            [
                -80.11021858223995,
                72.70955271636362
            ],
            [
                -80.0066236657017,
                72.71268928755147
            ],
            [
                -79.76278364305739,
                72.75319651815909
            ],
            [
                -79.53210332369883,
                72.79540072469158
            ],
            [
                -79.46798751701799,
                72.80362822365404
            ],
            [
                -77.26262128604006,
                71.97800808946411
            ],
            [
                -74.9770738163864,
                71.12824351946496
            ],
            [
                -75.18973763082896,
                71.2105657992691
            ],
            [
                -76.77618988499984,
                71.80311347361878
            ],
            [
                -78.6120077345297,
                72.48402508725562
            ],
            [
                -79.57276833505043,
                72.83143918492173
            ],
            [
                -79.50982171551814,
                72.7734792733734
            ],
            [
                -80.30125791974773,
                72.83211541160604
            ],
            [
                -81.70975783157387,
                73.04111368361345
            ],
            [
                -82.75621421906392,
                73.22736660840982
            ],
            [
                -82.46151985028493,
                73.21776670500932
            ],
            [
                -79.84656751888207,
                72.83920648860399
            ],
            [
                -80.36583229566736,
                72.85777224406927
            ]
        ]
    },
    "properties": {
        "trajectory_id": 3036,
        "object_id": 349,
        "label": "F"
    }
}