{
    "type": "Feature",
    "geometry": {
        "type": "LineString",
        "coordinates": [
            [
                -81.09475176738525,
                72.88718598575461
            ],
            [
                -81.179494869376,
                72.87098952141659
            ],
            [
                -80.83290442458978,
                72.83816235466581
            ],
            [
                -80.26782325597634,
                72.81768398911287
            ],
            [
                -79.71793127592328,
                72.83490873851692
            ],
            [
                -80.38327780727658,
                72.76095535182206
            ],
            [
                -80.93318150236327,
                72.68868086850696
            ],
            [
                -80.83682374447432,
                72.68047207530093
            ],
            [
                -80.40521916962638,
                72.71514596437201
            ],
            [
                -79.94938241383596,
                72.77151952788827
            ],
            [
                -79.78219022724713,
                72.82756443617795
            ],
            [
                -80.04931310234564,
                72.56320910866982
            ],
            [
                -79.87134418693881,
                71.953812584859
            ],
            [
                -79.28788340432173,
                71.39975418756617
            ],
            [
                -78.77927257638216,
                71.19383448194738
            ],
            [
                -78.82585352500736,
                71.62885403315799
            ],
            [
                -79.78464262824775,
                72.84095147021638
            ],
            [
                -81.18600693439858,
                73.02257385971319
            ],
            [
                -81.19446502258833,
                72.82501462116213
            ],
            [
                -79.71886243017957,
                72.40993477930681
            ],
            [
                -78.1198381834897,
                72.08001374117465
            ],
            [
                -77.75803130883767,
                72.13793091379347
            ],
            [
                -79.74618462077402,
                72.82324257570116
            ],
            [
                -79.65024236275455,
                72.91182292609882
            ],
            [
                -79.56211571393075,
                72.99504096841112
            ],
            [
                -79.63154488903848,
                72.98901758258441
            ],
            [
                -79.75660062621743,
                72.93119646831532
            ],
            [
                -79.8353536636071,
                72.85902132530055
            ],
            [
                -79.79404263792864,
                72.81834752437915
            ],
            [
                -81.53083421019723,
                72.45256985298529
            ],
            [
                -83.64985053922115,
                72.33632151996407
            ],
            [
                -84.80384247779135,
                72.54631886786598
            ],
            [
                -84.61394495904148,
                72.84235286203659
            ],
            [
                -82.70129291610372,
                72.98421446782149
            ],
            [
                -78.83844920829306,
                72.7288942783712
            ],
            [
                -82.59662801623422,
                73.47324836391724
            ],
            [
                -84.99191846626248,
                74.00526164522942
            ],
            [
                -84.42079207609493,
                73.91223499118496
            ],
            [
                -82.37744880538182,
                73.48972185737315
            ],
            [
                -80.35608861377214,
                73.03327569938304
            ],
            [
                -79.81010458624876,
                72.83694599324431
            ],
            [
                -84.73551463100127,
                72.31695181004586
            ]
        ]
    },
    "properties": {
        "trajectory_id": 3037,
        "object_id": 349,
        "label": "F"
    }
}