{
    "type": "Feature",
    "geometry": {
        "type": "LineString",
        "coordinates": [
            [
                -79.94735,
                72.89421
            ],
            [
                -78.86008524563242,
                72.93660217276417
            ],
            [
                -76.76036418420102,
                73.19246675387552
            ],
            [
                -76.08820779964779,
                73.34387520514304
            ],
            [
                -78.96107682227935,
                73.01796431805312
            ],
            [
                -80.93832526187234,
                72.93598696138413
            ],
            [
                -86.21541255787011,
                73.01218299536205
            ],
            [
                -89.98850602486476,
                73.04418906876077
            ],
            [
                -85.2132078641691,
                72.95596533290862
            ],
            [
                -79.96246106840341,
                72.87843939044862
            ],
            [
                -79.19759349852427,
                72.94950423632399
            ],
            [
                -78.34972393387882,
                72.99454340908167
            ],
            [
                -78.785320206563,
                72.95309902995061
            ],
            [
                -79.97937483933617,
                72.86527672116071
            ],
            [
                -80.92195791413819,
                73.34186050721388
            ],
            [
                -80.56626683790789,
                73.41798037373445
            ],
            [
                -79.95240695076382,
                73.19414613598163
            ],
            [
                -79.95800648278208,
                72.9037208432714
            ],
            [
                -79.52362646581811,
                72.91158248507318
            ],
            [
                -79.56182063976655,
                72.98123136872269
            ],
            [
                -79.80230456045334,
                73.01614222996757
            ],
            [
                -79.93867490944803,
                72.90741675866182
            ],
            [
                -79.9969499265918,
                72.73072176846883
            ],
            [
                -79.30027601562357,
                72.72307558413792
            ],
            [
                -78.76742357217879,
                72.84677295569094
            ],
            [
                -79.68454145274556,
                72.90042240140178
            ],
            [
                -79.8941725621654,
                72.94280503841085
            ],
            [
                -80.13183869143394,
                72.99992537715062
            ],
            [
                -80.36699881894842,
                72.99595905842322
            ],
            [
                -80.1467004391625,
                72.94911335355066
            ],
            [
                -79.42159371410754,
                72.73605546998024
            ],
            [
                -72.16397680892496,
                70.73038721714835
            ],
            [
                -64.78306568767964,
                68.81528137390472
            ],
            [
                -68.15782169458524,
                69.77306316966653
            ],
            [
                -79.84847091799354,
                72.90938442157135
            ],
            [
                -78.02602847159264,
                73.3334983968139
            ],
            [
                -78.88421014784227,
                73.21487551480772
            ],
            [
                -80.15980867125609,
                72.95564046671072
            ],
            [
                -79.89056899677625,
                72.90107144821225
            ],
            [
                -79.62002781035355,
                72.87498725828299
            ],
            [
                -79.25672720520167,
                72.82526866189933
            ],
            [
                -79.27565628507321,
                72.81683047797112
            ],
            [
                -79.95442916901666,
                72.88770647496197
            ],
            [
                -77.0323526612036,
                72.48724205110693
            ],
            [
                -76.46301025571361,
                72.4201869277168
            ],
            [
                -78.36233017811556,
                72.69083910571739
            ],
            [
                -79.89229328088192,
                72.90652430595658
            ],
            [
                -79.98904446369389,
                72.89132979945757
            ],
            [
                -80.88675017621564,
                72.27412215634862
            ],
            [
                -81.5811118928623,
                71.71443554251559
            ],
            [
                -80.68995727783098,
                72.26029448088883
            ],
            [
                -79.82755151111158,
                72.97650507726362
            ],
            [
                -79.53399707227422,
                73.21495785698012
            ],
            [
                -79.68041541337253,
                73.16297090565098
            ],
            [
                -79.90627074479792,
                72.98763208673452
            ],
            [
                -80.07191,
                72.85888
            ]
        ]
    },
    "properties": {
        "trajectory_id": 314,
        "object_id": 252,
        "label": "F"
    }
}