{
    "type": "Feature",
    "geometry": {
        "type": "LineString",
        "coordinates": [
            [
                -79.8585440980745,
                72.98723540948109
            ],
            [
                -79.78709815805045,
                73.02436603223387
            ],
            [
                -79.37840948009057,
                73.10522169779557
            ],
            [
                -79.29670304281939,
                73.1011785773009
            ],
            [
                -79.44111696472207,
                73.05372282191543
            ],
            [
                -79.71078936428367,
                73.00434058280476
            ],
            [
                -80.00485835998933,
                72.9945180111345
            ],
            [
                -79.84935627153028,
                73.00265228637828
            ],
            [
                -79.39540490885425,
                72.9645641152772
            ],
            [
                -79.0564850404495,
                72.88025730108913
            ],
            [
                -78.95325822038677,
                72.81200388548936
            ],
            [
                -79.20638600273665,
                72.82207591015315
            ],
            [
                -79.93652994156979,
                72.97274541675571
            ],
            [
                -79.27070708804493,
                73.01278974688437
            ],
            [
                -77.51924744543663,
                73.13604267236998
            ],
            [
                -77.12850488809612,
                73.21450049090542
            ],
            [
                -77.67253550754236,
                73.23583836252801
            ],
            [
                -78.72539539529464,
                73.1877314472751
            ],
            [
                -79.86114064287189,
                73.05785490518397
            ],
            [
                -79.88671144827897,
                72.90456949224051
            ],
            [
                -79.91467372722883,
                72.74758358614314
            ],
            [
                -80.44350712698898,
                72.82770831612304
            ],
            [
                -80.97190671494022,
                72.99697802138682
            ],
            [
                -80.99856755846324,
                73.10742704114111
            ],
            [
                -80.02218472493874,
                73.01108971459257
            ],
            [
                -80.86497135071573,
                73.18347909823788
            ],
            [
                -82.30202987093121,
                73.29213410756563
            ],
            [
                -82.45016996159022,
                73.00888534206152
            ],
            [
                -81.79763487570258,
                72.63399649482885
            ],
            [
                -80.8326678662782,
                72.46773125897084
            ],
            [
                -80.04353194435102,
                72.81032796079094
            ],
            [
                -79.80944938881795,
                72.97798261540242
            ],
            [
                -79.52669655247863,
                72.89062902794699
            ],
            [
                -79.43609924471005,
                72.77314398231734
            ],
            [
                -79.4972451022407,
                72.70097777576615
            ],
            [
                -79.66972176179905,
                72.74958070554612
            ],
            [
                -79.91295252311353,
                72.9939207445086
            ],
            [
                -80.18522436955423,
                73.08633755205122
            ],
            [
                -80.6718702311606,
                73.21422839394702
            ],
            [
                -81.10856613158757,
                73.24201116739063
            ],
            [
                -81.31358723171756,
                73.19492804795216
            ],
            [
                -81.10520869243314,
                73.09822121120175
            ]
        ]
    },
    "properties": {
        "trajectory_id": 3163,
        "object_id": 351,
        "label": "M"
    }
}