{
    "type": "Feature",
    "geometry": {
        "type": "LineString",
        "coordinates": [
            [
                -77.70435050344828,
                75.24864571294269
            ],
            [
                -78.88107564953137,
                73.9588886116114
            ],
            [
                -79.94751924368299,
                72.88347791517464
            ],
            [
                -80.48801572003053,
                72.87173942164593
            ],
            [
                -81.34610090605088,
                73.06731033386744
            ],
            [
                -82.00798553219411,
                73.28573120563969
            ],
            [
                -81.96556283068188,
                73.34358417921163
            ],
            [
                -80.71072603373663,
                73.05745139683242
            ],
            [
                -79.84039040123936,
                72.82068341654997
            ],
            [
                -79.12616658962456,
                72.26676597200986
            ],
            [
                -79.01429224285046,
                72.27214313692835
            ],
            [
                -79.26534818021769,
                72.5679028265809
            ],
            [
                -79.63991522102657,
                72.88513295624276
            ],
            [
                -79.89857418457765,
                72.95492144118933
            ],
            [
                -80.00061703071857,
                72.88429770862462
            ],
            [
                -79.56247820889232,
                72.83036847279324
            ],
            [
                -78.91739248337915,
                72.81691241522063
            ],
            [
                -78.43342701802491,
                72.82913953363408
            ],
            [
                -78.47864839020218,
                72.85225971072288
            ],
            [
                -79.42112317728358,
                72.87148282917634
            ],
            [
                -80.02226854151527,
                72.78192251580013
            ],
            [
                -80.1053910118106,
                72.3127452416425
            ],
            [
                -79.57678780636851,
                72.22460117291428
            ],
            [
                -78.95487436861318,
                72.37843763096038
            ],
            [
                -78.75806614196858,
                72.63520193712583
            ],
            [
                -79.50477856985896,
                72.85584141275555
            ],
            [
                -80.41379762182028,
                72.95373588115247
            ],
            [
                -81.89493567698372,
                72.81623534772365
            ],
            [
                -82.49592069023515,
                72.2373454126345
            ],
            [
                -82.34959748718134,
                71.67788374809832
            ],
            [
                -81.58881089342954,
                71.59866802632786
            ],
            [
                -80.34640573458637,
                72.46051591953636
            ],
            [
                -79.96892531219657,
                72.87576203097369
            ],
            [
                -80.25809555673807,
                72.93708752450593
            ],
            [
                -80.83686649221875,
                72.99772124661142
            ],
            [
                -81.33235700189243,
                73.03397271190035
            ],
            [
                -81.37168596901346,
                73.02215143498297
            ],
            [
                -80.58197227683601,
                72.93856693046952
            ],
            [
                -79.9041072697885,
                72.87190335542148
            ],
            [
                -79.50227149856477,
                73.08445056621308
            ],
            [
                -79.26366132151144,
                73.56205967485248
            ],
            [
                -79.20239720152182,
                73.99909230296085
            ]
        ]
    },
    "properties": {
        "trajectory_id": 3207,
        "object_id": 352,
        "label": "F"
    }
}