{
    "type": "Feature",
    "geometry": {
        "type": "LineString",
        "coordinates": [
            [
                -78.7388088085113,
                72.80090371017717
            ],
            [
                -78.64125976241003,
                72.79558069639411
            ],
            [
                -78.77670926249291,
                72.77996197128205
            ],
            [
                -79.05680766800577,
                72.76320194101604
            ],
            [
                -79.39320533819452,
                72.75445501177116
            ],
            [
                -79.24319424026565,
                72.92039935529614
            ],
            [
                -80.83202751241015,
                73.07008525308862
            ],
            [
                -83.59238025685848,
                73.03930071038296
            ],
            [
                -85.60612608977847,
                72.93295614833264
            ],
            [
                -84.95513862733893,
                72.85596198809122
            ],
            [
                -79.72520330033963,
                72.9119980000367
            ],
            [
                -79.66439231387079,
                73.04187256268267
            ],
            [
                -81.72822241954475,
                73.7421654095649
            ],
            [
                -84.28725366519858,
                74.13608489016069
            ],
            [
                -85.83766650381375,
                74.16316618089226
            ],
            [
                -84.87564138837064,
                73.76294445818169
            ],
            [
                -79.90337765178288,
                72.87532860715262
            ],
            [
                -77.41859982418606,
                73.2147362875652
            ],
            [
                -74.0309436490016,
                73.79791944340988
            ],
            [
                -73.68834245402424,
                73.61005666436057
            ],
            [
                -75.22715686677088,
                73.0902792910478
            ],
            [
                -77.48374751475741,
                72.67771866410231
            ],
            [
                -79.32361738471619,
                72.80809378619593
            ],
            [
                -79.66731130497907,
                72.68521300011399
            ],
            [
                -81.88608788777722,
                73.25078854174241
            ],
            [
                -84.64528883779604,
                74.19286615515962
            ],
            [
                -86.2467568400595,
                74.85021170569445
            ],
            [
                -84.99233457959218,
                74.56159105867593
            ],
            [
                -79.40471280835769,
                72.74880059496658
            ],
            [
                -76.06362500466302,
                72.30935945364358
            ],
            [
                -50.017267453826214,
                68.1987896545256
            ],
            [
                -15.20925441670867,
                62.36997134828847
            ],
            [
                7.256062989554135,
                58.46802977946137
            ],
            [
                -3.7256663521889095,
                60.13809019257605
            ],
            [
                -68.85893047494791,
                70.95796761761879
            ],
            [
                -80.47904000083557,
                73.03817840410684
            ],
            [
                -81.4325738103715,
                73.25574108615302
            ],
            [
                -81.00965559399467,
                73.09520992969242
            ],
            [
                -80.00834252365615,
                72.80015670283447
            ],
            [
                -79.22669177130732,
                72.61415317368868
            ],
            [
                -79.45985673003442,
                72.77971257604179
            ],
            [
                -79.48579177331509,
                72.75474767257563
            ]
        ]
    },
    "properties": {
        "trajectory_id": 3270,
        "object_id": 364,
        "label": "M"
    }
}