{
    "type": "Feature",
    "geometry": {
        "type": "LineString",
        "coordinates": [
            [
                -80.45108949724151,
                73.00793177318971
            ],
            [
                -80.05703025075053,
                73.0378719781243
            ],
            [
                -79.93317619724156,
                73.04584234516496
            ],
            [
                -79.93574734149333,
                73.03584682995968
            ],
            [
                -80.00324530803597,
                73.02920813089621
            ],
            [
                -80.06536806987293,
                73.0313284117716
            ],
            [
                -80.05181360000753,
                73.04760983638286
            ],
            [
                -79.99012443884114,
                73.06375895243636
            ],
            [
                -80.33128106245228,
                73.13519063189928
            ],
            [
                -80.40645519230898,
                73.22120585745407
            ],
            [
                -80.29970217317533,
                73.27933187230762
            ],
            [
                -80.13112130580738,
                73.27232308387096
            ],
            [
                -80.02081189096103,
                73.16293389955521
            ],
            [
                -80.02838245270978,
                73.06474731467485
            ],
            [
                -79.82833701745349,
                73.05298972480833
            ],
            [
                -79.75243611099671,
                73.06756764640787
            ],
            [
                -79.78310457507052,
                73.09097324121886
            ],
            [
                -79.87031719891631,
                73.1030526794647
            ],
            [
                -79.96404877177555,
                73.0836521313687
            ],
            [
                -79.9945405548296,
                73.05907657639635
            ],
            [
                -80.00982874665603,
                73.11502445361702
            ],
            [
                -79.96409616367464,
                73.11024592597082
            ],
            [
                -79.9085658095621,
                73.07029861521508
            ],
            [
                -79.89199733584286,
                73.02997529422848
            ],
            [
                -79.96315039404134,
                73.02406873588974
            ],
            [
                -80.03540932118715,
                73.04159222226386
            ],
            [
                -80.15499029638421,
                72.59113001023829
            ],
            [
                -80.32064049183269,
                71.69163459070658
            ],
            [
                -80.44254586643203,
                70.91133259841638
            ],
            [
                -80.4378987868789,
                70.81941613942962
            ],
            [
                -80.22389161986986,
                71.9850773198088
            ],
            [
                -80.04188821672152,
                73.03065511325474
            ],
            [
                -80.00459904346303,
                73.03809627379796
            ],
            [
                -79.99554096276313,
                73.03209203199174
            ],
            [
                -80.00109248247097,
                73.0244119836153
            ],
            [
                -80.00702417964663,
                73.02681613095548
            ],
            [
                -79.99910663135036,
                73.05106447629916
            ],
            [
                -79.9910225368432,
                73.06224801774988
            ],
            [
                -79.85658558052366,
                73.09027509943186
            ],
            [
                -79.95802922273695,
                73.11653701436917
            ],
            [
                -80.1442055577064,
                73.13071836598358
            ],
            [
                -80.26426497139137,
                73.12325638693027
            ]
        ]
    },
    "properties": {
        "trajectory_id": 3310,
        "object_id": 367,
        "label": "F"
    }
}