{
    "type": "Feature",
    "geometry": {
        "type": "LineString",
        "coordinates": [
            [
                -80.10424998559745,
                73.12876524367877
            ],
            [
                -79.92000960459377,
                73.09303885813549
            ],
            [
                -79.63036986404202,
                73.1201008044042
            ],
            [
                -80.22209007483471,
                72.99392273755994
            ],
            [
                -81.04847193828027,
                72.83335591825326
            ],
            [
                -81.46281715568739,
                72.75725160713452
            ],
            [
                -80.8184274283644,
                72.88446106485426
            ],
            [
                -80.72866902835268,
                73.21835703610509
            ],
            [
                -82.1744186619085,
                73.0770601220123
            ],
            [
                -83.43040487039981,
                72.60429427938062
            ],
            [
                -84.07291626816513,
                72.12009067076536
            ],
            [
                -83.6782414695442,
                71.94448045872136
            ],
            [
                -81.82266908887559,
                72.3974948058038
            ],
            [
                -79.86160367127808,
                73.0164894907314
            ],
            [
                -80.05086847767848,
                72.94730669606896
            ],
            [
                -80.0242627854447,
                72.84881560817482
            ],
            [
                -79.91260164331736,
                72.7750242218823
            ],
            [
                -79.84670010003711,
                72.77994053202465
            ],
            [
                -79.9573732043445,
                72.91757253343516
            ],
            [
                -80.06918573478508,
                73.05268464759864
            ],
            [
                -79.43403546638496,
                73.09554299683404
            ],
            [
                -79.29561272986597,
                73.10896878718152
            ],
            [
                -79.46657684024422,
                73.10131291488655
            ],
            [
                -79.75958612875351,
                73.08092599027897
            ],
            [
                -79.98729892662796,
                73.05615862368867
            ],
            [
                -79.98926598801295,
                73.00668187992316
            ],
            [
                -79.65301491823644,
                72.4464367718619
            ],
            [
                -79.5894785850826,
                72.35466530431528
            ],
            [
                -79.69120098637187,
                72.54726795502455
            ],
            [
                -79.85072611992479,
                72.84014520173099
            ],
            [
                -79.96059798356177,
                73.04919752217567
            ],
            [
                -79.94201566049176,
                73.05950202297191
            ],
            [
                -79.75619119429739,
                73.0151458298824
            ],
            [
                -79.78006240961685,
                73.0469548696732
            ],
            [
                -79.90647184020543,
                73.10475386596127
            ],
            [
                -80.02826201981865,
                73.13836754236367
            ],
            [
                -80.03827548221182,
                73.09762062249733
            ],
            [
                -79.87878594617729,
                73.09600062130366
            ],
            [
                -78.73673088258266,
                73.23063702112591
            ],
            [
                -77.55622090040352,
                73.21143654790313
            ],
            [
                -76.86773374487768,
                73.11700276325945
            ],
            [
                -77.201747161242,
                73.0259392288189
            ]
        ]
    },
    "properties": {
        "trajectory_id": 3316,
        "object_id": 367,
        "label": "F"
    }
}