{
    "type": "Feature",
    "geometry": {
        "type": "LineString",
        "coordinates": [
            [
                -76.18558286285916,
                72.92368079151481
            ],
            [
                -76.16336782171706,
                73.10706783049166
            ],
            [
                -75.66468829633584,
                73.31500745948891
            ],
            [
                -75.11239635931393,
                73.45238146967678
            ],
            [
                -74.93372299004182,
                73.42696411324988
            ],
            [
                -75.55589916790937,
                73.14652964240301
            ],
            [
                -76.18756427355311,
                72.91975427012778
            ],
            [
                -75.89753377534669,
                73.02089236119113
            ],
            [
                -75.75343998729463,
                73.06785541746416
            ],
            [
                -75.7575047633709,
                73.07862552233712
            ],
            [
                -75.87181004798416,
                73.07934299297256
            ],
            [
                -76.05843778554296,
                73.09614814653293
            ],
            [
                -76.15898250206898,
                73.1078279043479
            ],
            [
                -75.79414538946389,
                73.0860531132446
            ],
            [
                -74.58206384052414,
                72.92482411021534
            ],
            [
                -73.41402620732934,
                72.75510367633379
            ],
            [
                -73.18277405129406,
                72.70801894490053
            ],
            [
                -74.781048933833,
                72.9146970492162
            ],
            [
                -76.11643418640378,
                73.11666505806075
            ],
            [
                -75.70506715727936,
                73.1982504216248
            ],
            [
                -75.45584770914056,
                73.11748773614431
            ],
            [
                -75.40177060612072,
                72.97254354290723
            ],
            [
                -75.57583061235283,
                72.86158438320142
            ],
            [
                -76.01102249197022,
                72.88277679831475
            ],
            [
                -76.20766356579796,
                72.93497225700087
            ],
            [
                -76.302582498252,
                72.94791639027744
            ],
            [
                -76.53190981334083,
                72.54979862265395
            ],
            [
                -76.70816128244597,
                72.11527352496728
            ],
            [
                -76.64420307864684,
                72.01944170118949
            ],
            [
                -76.15290137502284,
                72.63740375529284
            ],
            [
                -75.8320598435595,
                73.05856302192102
            ],
            [
                -75.6993607957186,
                73.05507552049679
            ],
            [
                -75.78513411544492,
                73.1226336957794
            ],
            [
                -75.96667678340201,
                73.18741782271888
            ],
            [
                -76.12128578025333,
                73.17560817626529
            ],
            [
                -76.12625808666249,
                73.01338503136867
            ],
            [
                -76.0472345637304,
                72.91676697576317
            ],
            [
                -75.77356663481473,
                72.86898812052135
            ],
            [
                -75.71092983272861,
                72.84185102376549
            ],
            [
                -75.78292507145947,
                72.83744403926717
            ],
            [
                -75.91315326499478,
                72.85785552079801
            ],
            [
                -76.0252153273219,
                72.90517382212965
            ]
        ]
    },
    "properties": {
        "trajectory_id": 3456,
        "object_id": 382,
        "label": "F"
    }
}