{
    "type": "Feature",
    "geometry": {
        "type": "LineString",
        "coordinates": [
            [
                -79.94086,
                72.87642
            ],
            [
                -80.21624780591262,
                72.90052214699298
            ],
            [
                -80.04804226274605,
                73.02688515485818
            ],
            [
                -79.66747093783309,
                73.11288110627795
            ],
            [
                -79.8078140784785,
                72.93956235572867
            ],
            [
                -77.76120826902822,
                73.20010198324564
            ],
            [
                -77.10201224126517,
                73.20303299112317
            ],
            [
                -79.15055833226036,
                72.81677351947997
            ],
            [
                -80.31980049818115,
                72.73443592637784
            ],
            [
                -80.80750342643609,
                72.64463386865079
            ],
            [
                -81.9354612658883,
                72.33578373281111
            ],
            [
                -81.06947929845116,
                72.5743186837361
            ],
            [
                -79.97316722424436,
                72.87790933305834
            ],
            [
                -80.2007615331748,
                72.84110758559456
            ],
            [
                -82.51507671299764,
                72.35771775657919
            ],
            [
                -83.91158068251178,
                72.01172980130377
            ],
            [
                -82.85815467238203,
                72.21837273305286
            ],
            [
                -79.87549822714753,
                72.90025325538382
            ],
            [
                -79.88689196125999,
                73.4485353865514
            ],
            [
                -79.95099043109806,
                73.49404277519508
            ],
            [
                -79.9946087491845,
                73.18351799338663
            ],
            [
                -79.9205745619985,
                72.9044690738854
            ],
            [
                -79.99873890490353,
                72.69108219026785
            ],
            [
                -79.16921598920581,
                72.65573518816647
            ],
            [
                -78.5403343129795,
                72.79083565497413
            ],
            [
                -79.67776278551125,
                72.88318976351113
            ],
            [
                -80.25201464465918,
                72.78038746583236
            ],
            [
                -80.11459213330383,
                72.64212674914889
            ],
            [
                -79.55267633516391,
                72.65133502557373
            ],
            [
                -79.62531894666401,
                72.8123058581272
            ],
            [
                -80.53037610266412,
                72.68873193304736
            ],
            [
                -81.46076156379574,
                72.61526233650557
            ],
            [
                -80.85555121662742,
                73.01511436183537
            ],
            [
                -80.01589538846065,
                73.18056236919084
            ],
            [
                -79.92283368507681,
                72.8820750348041
            ],
            [
                -80.09613989001731,
                72.71791760114363
            ],
            [
                -80.41551465687049,
                72.8710705680144
            ],
            [
                -80.40817822153895,
                73.0069047745738
            ],
            [
                -80.63584485129803,
                73.15467252523382
            ],
            [
                -75.40275491976172,
                71.24315644914084
            ],
            [
                -75.71515564198882,
                71.28645707521598
            ],
            [
                -78.56626259388207,
                72.29142672945889
            ],
            [
                -79.95588975599769,
                72.89281973780193
            ],
            [
                -78.52147468701753,
                73.39898130876352
            ],
            [
                -78.6636926483788,
                73.42958072449008
            ],
            [
                -79.83376790727188,
                73.05881492879466
            ],
            [
                -80.02920424506414,
                72.85560948893442
            ],
            [
                -80.05824560090447,
                72.81427834821768
            ],
            [
                -79.88807377560757,
                72.79180783513354
            ],
            [
                -79.59068722777039,
                72.8481642374671
            ],
            [
                -79.68771472569401,
                72.89440643822805
            ],
            [
                -79.6302297561801,
                72.99803774978766
            ],
            [
                -79.02193500347714,
                73.27304895934009
            ],
            [
                -79.3108052745865,
                73.15890336264935
            ],
            [
                -79.81054727556675,
                72.94695779176647
            ],
            [
                -80.00191,
                72.97234
            ]
        ]
    },
    "properties": {
        "trajectory_id": 347,
        "object_id": 252,
        "label": "F"
    }
}