{
    "type": "Feature",
    "geometry": {
        "type": "LineString",
        "coordinates": [
            [
                -80.04258,
                73.17789
            ],
            [
                -80.60378340665564,
                73.28435290679606
            ],
            [
                -82.42036783777178,
                73.42896342020171
            ],
            [
                -83.96462366528311,
                73.3971440937179
            ],
            [
                -84.61994109420237,
                73.27963093920859
            ],
            [
                -83.76971032954224,
                73.16715996853779
            ],
            [
                -80.79732157631543,
                73.1504671935695
            ],
            [
                -78.58524024585631,
                73.20620394880524
            ],
            [
                -77.25883021209243,
                73.2912567819577
            ],
            [
                -78.32703274381912,
                73.31935262210841
            ],
            [
                -80.19573973709876,
                73.30279160405937
            ],
            [
                -81.27084308799365,
                73.25387386261258
            ],
            [
                -79.9594401457162,
                73.18502473487182
            ],
            [
                -80.09299312310584,
                73.20749146309308
            ],
            [
                -82.34892693562699,
                73.4473946625711
            ],
            [
                -85.80472929569606,
                73.79820241894348
            ],
            [
                -88.11887873125832,
                74.02261977206865
            ],
            [
                -86.9498537702589,
                73.8833517618051
            ],
            [
                -80.18023982712526,
                73.17657380066211
            ],
            [
                -79.16279025449755,
                72.9258309292923
            ],
            [
                -78.81536654809398,
                72.82090877646912
            ],
            [
                -79.0786051926266,
                72.9037773509765
            ],
            [
                -79.59849096868186,
                73.06395710724928
            ],
            [
                -80.02100865684622,
                73.19096849972229
            ],
            [
                -80.05492445104272,
                73.19541680516264
            ],
            [
                -80.50314139828312,
                73.50372770751402
            ],
            [
                -81.16453121315122,
                73.84714148034244
            ],
            [
                -81.34473589120111,
                73.83440856019264
            ],
            [
                -81.14132574099324,
                73.61760259420991
            ],
            [
                -80.65187107108801,
                73.34879722953953
            ],
            [
                -80.05239497491648,
                73.19145654286218
            ],
            [
                -79.16516749220547,
                73.26383324067184
            ],
            [
                -78.49018085454878,
                73.28043081462624
            ],
            [
                -78.64014403319644,
                73.21382228914571
            ],
            [
                -79.21352925176356,
                73.13381245197755
            ],
            [
                -79.80880873386522,
                73.1102060908689
            ],
            [
                -79.85738774732239,
                73.16980301200465
            ],
            [
                -80.49100571451467,
                73.12647979405001
            ],
            [
                -81.34051535085551,
                73.11267193634214
            ],
            [
                -81.71486086450905,
                73.17083627641858
            ],
            [
                -81.59016249413033,
                73.23758714382477
            ],
            [
                -80.94254047837438,
                73.2495388681061
            ]
        ]
    },
    "properties": {
        "trajectory_id": 3472,
        "object_id": 401,
        "label": "F"
    }
}