{
    "type": "Feature",
    "geometry": {
        "type": "LineString",
        "coordinates": [
            [
                -79.50681373730677,
                72.80939039140142
            ],
            [
                -79.41088890966664,
                72.81119264345476
            ],
            [
                -79.25802750560882,
                72.87259645183222
            ],
            [
                -79.18265773702029,
                72.94622402184255
            ],
            [
                -79.20464788833681,
                72.9797348298987
            ],
            [
                -79.34386624399403,
                72.92078835241352
            ],
            [
                -79.58982322168963,
                72.7704720760963
            ],
            [
                -79.75282019841151,
                73.35632100859674
            ],
            [
                -79.66697292971087,
                73.5930677159696
            ],
            [
                -79.37564670425641,
                73.47447004916245
            ],
            [
                -79.14328433774641,
                73.18312173845175
            ],
            [
                -79.23432864587903,
                72.90161651411387
            ],
            [
                -79.541011989535,
                72.81600217979981
            ],
            [
                -80.06380195850814,
                72.96982542365394
            ],
            [
                -80.20954245636909,
                73.03376071747775
            ],
            [
                -79.99617187508314,
                72.99925639102581
            ],
            [
                -79.67061284069229,
                72.91845923199827
            ],
            [
                -79.4797879792386,
                72.84351602809522
            ],
            [
                -79.49635944718281,
                72.8275076524146
            ],
            [
                -79.74510314318243,
                72.77627419284582
            ],
            [
                -80.13575225385058,
                72.82197315384539
            ],
            [
                -80.4547405170859,
                72.90698956102406
            ],
            [
                -80.49560653579198,
                72.96307272772866
            ],
            [
                -80.05188891287253,
                72.921971967306
            ],
            [
                -79.50709619769493,
                72.78739763986101
            ],
            [
                -79.23594755204027,
                73.29906622824817
            ],
            [
                -79.04508579169713,
                73.43739906100383
            ],
            [
                -78.96609457235547,
                73.32734508272384
            ],
            [
                -79.02699154693944,
                73.10086444871907
            ],
            [
                -79.25579436837315,
                72.8899173143004
            ],
            [
                -79.47682180527119,
                72.8225228023926
            ],
            [
                -79.50864142767125,
                72.79832057970637
            ],
            [
                -79.28398039972387,
                72.6535650275704
            ],
            [
                -79.01001217027608,
                72.4970236774649
            ],
            [
                -78.90937256251574,
                72.44327005521929
            ],
            [
                -79.20469739963065,
                72.60687768666295
            ],
            [
                -79.54695202353953,
                72.81031255673325
            ],
            [
                -79.65543948713251,
                72.78400972791283
            ],
            [
                -79.71943581091773,
                72.79238412005256
            ],
            [
                -79.70491324622793,
                72.81912946241533
            ],
            [
                -79.639584921363,
                72.84067336982943
            ],
            [
                -79.55116396462282,
                72.83344345712301
            ]
        ]
    },
    "properties": {
        "trajectory_id": 3590,
        "object_id": 417,
        "label": "M"
    }
}