{
    "type": "Feature",
    "geometry": {
        "type": "LineString",
        "coordinates": [
            [
                -80.26785129992729,
                72.87421614124382
            ],
            [
                -80.07686981452032,
                72.989337212538
            ],
            [
                -80.15294169485698,
                73.00663358934518
            ],
            [
                -80.24069705544971,
                73.0507694149721
            ],
            [
                -80.30117836454774,
                73.05846974241072
            ],
            [
                -80.3051471866194,
                73.0417359026097
            ],
            [
                -80.22336508613301,
                73.01256922651763
            ],
            [
                -80.05284131840368,
                72.99124084544505
            ],
            [
                -80.50895339601371,
                72.70754662614013
            ],
            [
                -80.82744507945529,
                72.38298894457641
            ],
            [
                -80.41347608985247,
                72.36267942861046
            ],
            [
                -79.78861585577519,
                72.53267608031021
            ],
            [
                -79.47443380579351,
                72.7790369017435
            ],
            [
                -79.99228366623065,
                72.98776446064275
            ],
            [
                -79.78172674878977,
                73.03384229719627
            ],
            [
                -80.62694664298772,
                73.24960377575292
            ],
            [
                -82.09573974287512,
                73.50349353831963
            ],
            [
                -83.1266655678023,
                73.63726011258906
            ],
            [
                -82.65828363712001,
                73.4926520262539
            ],
            [
                -80.01590690396984,
                73.00302864189213
            ],
            [
                -80.2177597376216,
                73.02352136061151
            ],
            [
                -80.36960721927933,
                73.03443900116085
            ],
            [
                -80.28632185816394,
                72.99884601261053
            ],
            [
                -80.10589519615712,
                72.95555531911359
            ],
            [
                -79.96631877514045,
                72.94337984482307
            ],
            [
                -80.00127685850941,
                72.98581941717073
            ],
            [
                -79.62077820673173,
                72.85570308307221
            ],
            [
                -79.27375454164176,
                72.69782119432517
            ],
            [
                -79.2082592694217,
                72.6214845889758
            ],
            [
                -79.35502944504331,
                72.64015712307489
            ],
            [
                -79.64480212347844,
                72.76730265267318
            ],
            [
                -79.99795399374365,
                72.98320776979506
            ],
            [
                -80.73836568173381,
                72.94459887216196
            ],
            [
                -81.30718416912453,
                72.92632026140977
            ],
            [
                -81.16955971568548,
                72.96064398662999
            ],
            [
                -80.67481703963563,
                73.00571307375247
            ],
            [
                -80.17228085919402,
                73.0196705487071
            ],
            [
                -80.00076957854225,
                72.98310467213338
            ],
            [
                -80.02003079764661,
                72.94305552269692
            ],
            [
                -80.01246396020895,
                72.7630052179121
            ],
            [
                -79.97759326618775,
                72.55585880547116
            ],
            [
                -79.94757232339826,
                72.45660385636212
            ]
        ]
    },
    "properties": {
        "trajectory_id": 3670,
        "object_id": 430,
        "label": "F"
    }
}