{
    "type": "Feature",
    "geometry": {
        "type": "LineString",
        "coordinates": [
            [
                -80.14862173752257,
                72.84893044790206
            ],
            [
                -79.95166810325736,
                73.20182753659745
            ],
            [
                -79.57832115920921,
                73.03339537163197
            ],
            [
                -79.18929532019956,
                72.89032112327645
            ],
            [
                -79.3120023897161,
                72.87207603152527
            ],
            [
                -79.66459516924297,
                72.93696342346858
            ],
            [
                -79.96522646026428,
                73.04328662619662
            ],
            [
                -79.93204906426416,
                73.14934896679954
            ],
            [
                -80.08443861800934,
                73.18394534041813
            ],
            [
                -80.49685674512709,
                73.29876077611048
            ],
            [
                -80.88437667941182,
                73.46207768195484
            ],
            [
                -81.06158077547308,
                73.56257932412629
            ],
            [
                -80.84305138792041,
                73.48894896879992
            ],
            [
                -80.01598858136248,
                73.13994283908643
            ],
            [
                -79.94508269379436,
                73.27052733496902
            ],
            [
                -79.92321904494777,
                73.43861236768483
            ],
            [
                -80.01034368925158,
                73.49261597672732
            ],
            [
                -80.13263794674846,
                73.45839011925456
            ],
            [
                -80.21628313748114,
                73.36178675242456
            ],
            [
                -80.18746058149227,
                73.22865783339539
            ],
            [
                -79.98802177416162,
                73.08506598181427
            ],
            [
                -79.68623434740768,
                72.95877329658902
            ],
            [
                -79.41145874773002,
                72.87836317977909
            ],
            [
                -79.29345242127718,
                72.87242437052105
            ],
            [
                -79.46197281419764,
                72.96954560795145
            ],
            [
                -79.90819432288023,
                73.16796616724949
            ],
            [
                -80.7451797994649,
                73.51987335538385
            ],
            [
                -86.38065515955664,
                74.76533408935529
            ],
            [
                -93.18794326809447,
                76.09497021203947
            ],
            [
                -96.6211950003543,
                76.66519690178733
            ],
            [
                -92.13456123161207,
                75.63242933694973
            ],
            [
                -80.04585377837695,
                73.13784167792936
            ],
            [
                -79.76874247505812,
                73.14167894971115
            ],
            [
                -79.14902617034468,
                72.97837726477877
            ],
            [
                -78.5256470799557,
                72.76749134915399
            ],
            [
                -78.29017174499413,
                72.6606323430924
            ],
            [
                -78.83416670656291,
                72.80941138684966
            ],
            [
                -79.95920432035544,
                73.15679838237847
            ],
            [
                -80.74187093099009,
                73.25451864040899
            ],
            [
                -81.65496130091452,
                73.4792413901874
            ],
            [
                -82.08749892403341,
                73.7131408654906
            ],
            [
                -81.95894085183035,
                73.80961710189275
            ]
        ]
    },
    "properties": {
        "trajectory_id": 3699,
        "object_id": 432,
        "label": "F"
    }
}