{
    "type": "Feature",
    "geometry": {
        "type": "LineString",
        "coordinates": [
            [
                -78.97186792981022,
                73.86392169320882
            ],
            [
                -80.17897058039169,
                73.08997416051969
            ],
            [
                -79.28224959881861,
                73.5271247637361
            ],
            [
                -79.07923386230377,
                73.62232980034922
            ],
            [
                -79.32425015176713,
                73.50150157419617
            ],
            [
                -79.76559845236608,
                73.29739627406316
            ],
            [
                -80.1515787492581,
                73.14277008873631
            ],
            [
                -80.18805473828053,
                73.13791670101024
            ],
            [
                -80.2908469604296,
                73.0259976097451
            ],
            [
                -80.45013535814411,
                73.06186802359073
            ],
            [
                -80.60841195782812,
                73.18613896858051
            ],
            [
                -80.65603892089902,
                73.2892640326609
            ],
            [
                -80.48337840877423,
                73.26169680377836
            ],
            [
                -80.11021251773512,
                73.13963431074248
            ],
            [
                -77.64577343657756,
                72.90352686211604
            ],
            [
                -76.90212058410671,
                73.2014882702988
            ],
            [
                -77.67299843390948,
                73.7149273806396
            ],
            [
                -79.03832664299325,
                74.01967867028912
            ],
            [
                -80.0780248683658,
                73.69157661639821
            ],
            [
                -80.25166470688119,
                73.12594864849439
            ],
            [
                -80.2300970642752,
                73.59897688095197
            ],
            [
                -80.14400365881933,
                74.72657012192056
            ],
            [
                -80.05643426143261,
                75.76217433190777
            ],
            [
                -80.02169704754428,
                75.96265024576692
            ],
            [
                -80.09410019258368,
                74.58485859835149
            ],
            [
                -80.22556550138323,
                73.12868307774143
            ],
            [
                -80.16579071006474,
                73.07634525958463
            ],
            [
                -80.18394711162412,
                72.95121443497231
            ],
            [
                -80.25025823126941,
                72.83491039393544
            ],
            [
                -80.3055651351635,
                72.80863100787514
            ],
            [
                -80.2907088894693,
                72.9535741481925
            ],
            [
                -80.31028535285823,
                73.08588291706106
            ],
            [
                -80.30580951352088,
                73.08403178684023
            ],
            [
                -79.80025664670178,
                73.4443214852733
            ],
            [
                -79.20732416894532,
                73.85902554862038
            ],
            [
                -78.94070949679606,
                74.0204175131413
            ],
            [
                -79.41411004679846,
                73.62077091509607
            ],
            [
                -79.99884267387148,
                73.1533002325781
            ],
            [
                -79.53980103464254,
                73.318512602224
            ],
            [
                -79.48365102503071,
                73.37516361570665
            ],
            [
                -79.663433313813,
                73.34912571857919
            ],
            [
                -79.8954364062312,
                73.2727393130055
            ]
        ]
    },
    "properties": {
        "trajectory_id": 3720,
        "object_id": 432,
        "label": "F"
    }
}