{
    "type": "Feature",
    "geometry": {
        "type": "LineString",
        "coordinates": [
            [
                -79.11808907736732,
                72.66892789656517
            ],
            [
                -79.11981095137526,
                72.58191690471742
            ],
            [
                -79.23076103464922,
                72.5530373267385
            ],
            [
                -79.3896032024239,
                72.63086179853876
            ],
            [
                -79.48209336931802,
                72.80278109216485
            ],
            [
                -80.32444964274168,
                72.19460089793745
            ],
            [
                -81.16572657782343,
                71.63376311092681
            ],
            [
                -81.73109478473116,
                71.34791536680211
            ],
            [
                -82.05078527261294,
                71.28639763358035
            ],
            [
                -82.15502905061723,
                71.39854987927838
            ],
            [
                -82.07405712789227,
                71.63371207191312
            ],
            [
                -81.8381005135865,
                71.94122417950138
            ],
            [
                -81.47739021684818,
                72.27042617006005
            ],
            [
                -81.02215724682549,
                72.57065801160613
            ],
            [
                -80.50263261266704,
                72.79125967215634
            ],
            [
                -79.94904732352099,
                72.88157111972768
            ],
            [
                -79.5167614667038,
                72.82298798689386
            ],
            [
                -79.95349747551559,
                72.78823126261493
            ],
            [
                -80.19870949115295,
                72.7564594006108
            ],
            [
                -80.02152036228134,
                72.75773583408369
            ],
            [
                -79.68505491895701,
                72.77875476604265
            ],
            [
                -79.45243799123655,
                72.80621039949666
            ],
            [
                -79.49168582660077,
                72.82907264034156
            ],
            [
                -79.73837399078245,
                72.79331854248987
            ],
            [
                -80.764142200078,
                72.62411028293928
            ],
            [
                -81.94608839451027,
                72.4255702865841
            ],
            [
                -82.50481552754988,
                72.32790154149855
            ],
            [
                -81.66092655266704,
                72.46130703575696
            ],
            [
                -79.52983910874222,
                72.80055823707619
            ],
            [
                -80.05199958380834,
                72.75932206695089
            ],
            [
                -80.50115525553436,
                72.32511459787058
            ],
            [
                -80.64692375997744,
                71.80799085955573
            ],
            [
                -80.48558722571438,
                71.57382097487903
            ],
            [
                -80.01342778132168,
                71.98847506671353
            ],
            [
                -79.43171237502084,
                72.82507664848464
            ],
            [
                -77.95758942270454,
                73.06903573122636
            ],
            [
                -77.52669554749798,
                73.1543550440067
            ],
            [
                -78.00183941745976,
                73.0887464625224
            ],
            [
                -78.83359176747628,
                72.95773716795773
            ],
            [
                -79.47252333243406,
                72.84685434149702
            ],
            [
                -79.52380974839991,
                72.82315640460294
            ]
        ]
    },
    "properties": {
        "trajectory_id": 3863,
        "object_id": 343,
        "label": "F"
    }
}