{
    "type": "Feature",
    "geometry": {
        "type": "LineString",
        "coordinates": [
            [
                -80.16862214029534,
                73.05170082051696
            ],
            [
                -79.1876062314535,
                73.08918791818627
            ],
            [
                -77.15979064781689,
                72.78551654957458
            ],
            [
                -75.5342948340347,
                72.43882197919959
            ],
            [
                -75.76023823475532,
                72.34723947157899
            ],
            [
                -79.28674029462755,
                72.8089042912304
            ],
            [
                -79.72472533047663,
                72.81364404569324
            ],
            [
                -79.42154751993516,
                72.76226331126362
            ],
            [
                -79.57969130533023,
                72.86875173667698
            ],
            [
                -79.93120046217794,
                73.01834291690125
            ],
            [
                -80.20811876599396,
                73.09627044690421
            ],
            [
                -80.14250194668773,
                72.987846782109
            ],
            [
                -79.77515940331439,
                72.98926327754099
            ],
            [
                -80.41053137794867,
                73.1595400311058
            ],
            [
                -81.56911605411425,
                73.30324405921529
            ],
            [
                -82.41866752275428,
                73.3528978812023
            ],
            [
                -82.12693987481262,
                73.24102401639985
            ],
            [
                -79.90414881873221,
                72.90443818709655
            ],
            [
                -78.84627184669162,
                73.09729309233089
            ],
            [
                -76.7892652912094,
                73.10840787523021
            ],
            [
                -75.2491678684897,
                72.86665794969794
            ],
            [
                -74.91070828635965,
                72.60448694443215
            ],
            [
                -76.45861525264591,
                72.55433848813045
            ],
            [
                -79.93524737703449,
                72.91791965996516
            ],
            [
                -80.34097973694614,
                72.78202404943785
            ],
            [
                -80.07886781961585,
                72.67133418488056
            ],
            [
                -79.04080808559976,
                72.72997672683653
            ],
            [
                -78.13886809349265,
                72.85586908059659
            ],
            [
                -78.28511540188768,
                72.94692865145184
            ],
            [
                -79.92492324223164,
                72.89567950167374
            ],
            [
                -78.93284355787794,
                72.64817624777353
            ],
            [
                -76.29514585439634,
                71.9044882435832
            ],
            [
                -73.86537749779555,
                71.15892362604725
            ],
            [
                -72.87911343687398,
                70.81895296638741
            ],
            [
                -74.5719286204286,
                71.29204683582486
            ],
            [
                -79.86071292586944,
                72.890584842241
            ],
            [
                -78.44507054284932,
                73.08287500664302
            ],
            [
                -77.09101579593782,
                73.26764180394171
            ],
            [
                -76.96338610016018,
                73.27389695878144
            ],
            [
                -77.68566242292125,
                73.16787970509952
            ],
            [
                -78.88132573162608,
                73.01582927683313
            ],
            [
                -80.021060845791,
                72.90751143382397
            ]
        ]
    },
    "properties": {
        "trajectory_id": 4038,
        "object_id": 347,
        "label": "F"
    }
}