{
    "type": "Feature",
    "geometry": {
        "type": "LineString",
        "coordinates": [
            [
                -80.41757741160524,
                72.72779001917053
            ],
            [
                -79.95594466910231,
                72.91846319147155
            ],
            [
                -80.05926940542645,
                72.90411857703934
            ],
            [
                -80.19814455046334,
                72.90172204369938
            ],
            [
                -80.1902506668258,
                72.89726950386367
            ],
            [
                -80.08086394435685,
                72.89192066615492
            ],
            [
                -79.9152605728997,
                72.8868352391959
            ],
            [
                -79.7836473035799,
                72.88176113532353
            ],
            [
                -79.8681446162803,
                72.84747214279692
            ],
            [
                -79.10722355656524,
                72.87767780773694
            ],
            [
                -77.9705370096202,
                72.94405059759923
            ],
            [
                -77.11534797174066,
                72.96652188920473
            ],
            [
                -77.19891943922244,
                72.86502305937442
            ],
            [
                -79.25060101390551,
                72.80130547847425
            ],
            [
                -82.46648313593379,
                73.45427694938468
            ],
            [
                -83.36434374620768,
                73.67122391647476
            ],
            [
                -82.74030498777313,
                73.58319147428915
            ],
            [
                -81.40019061782687,
                73.32506632859744
            ],
            [
                -80.14982439356476,
                73.03173518516891
            ],
            [
                -79.78056549641524,
                72.89058915639848
            ],
            [
                -79.70606280649099,
                72.89111504489557
            ],
            [
                -79.60498811194556,
                72.85594344897149
            ],
            [
                -79.5230331214314,
                72.81285167856032
            ],
            [
                -79.5232586470124,
                72.79710814049322
            ],
            [
                -79.66872550075247,
                72.84398124160126
            ],
            [
                -79.98420955572561,
                73.03642688801784
            ],
            [
                -82.05633388387288,
                73.74667413841325
            ],
            [
                -82.39865333262777,
                73.71621200222256
            ],
            [
                -81.69352180411012,
                73.29599233860078
            ],
            [
                -80.6232932004406,
                72.8369670067034
            ],
            [
                -79.87032142373923,
                72.69008786568548
            ],
            [
                -79.83016857805012,
                72.88237679934369
            ],
            [
                -79.79664955279551,
                72.86918091409399
            ],
            [
                -79.73056106339305,
                72.727059398901
            ],
            [
                -79.68732642614253,
                72.55621439430803
            ],
            [
                -79.72866698067031,
                72.47889948610253
            ],
            [
                -79.91630406660283,
                72.61736826007211
            ],
            [
                -80.28741065290255,
                73.05921300453336
            ],
            [
                -80.51840973421517,
                73.37531800297782
            ],
            [
                -80.50598504244226,
                73.41145054800512
            ],
            [
                -80.33995830096757,
                73.27499685652978
            ],
            [
                -80.11020730357465,
                73.07341936969857
            ]
        ]
    },
    "properties": {
        "trajectory_id": 4207,
        "object_id": 350,
        "label": "F"
    }
}