{
    "type": "Feature",
    "geometry": {
        "type": "LineString",
        "coordinates": [
            [
                -79.59574324703911,
                72.81952194100965
            ],
            [
                -79.82668551812269,
                72.76982143351569
            ],
            [
                -79.89941694526107,
                72.83101059144285
            ],
            [
                -79.90611678651435,
                72.91660589257097
            ],
            [
                -79.98447110002698,
                72.98530897396634
            ],
            [
                -80.04159397710106,
                73.00927339374962
            ],
            [
                -79.9845995090384,
                72.96065271004124
            ],
            [
                -79.74415402159427,
                72.86747782979226
            ],
            [
                -79.79361456161814,
                73.02492909812469
            ],
            [
                -79.56918080445114,
                73.15520259821186
            ],
            [
                -79.24834775335385,
                73.21490839287881
            ],
            [
                -79.08026887093423,
                73.18600583046666
            ],
            [
                -79.31409761980056,
                73.05045425931642
            ],
            [
                -79.77529000651937,
                72.90055362132173
            ],
            [
                -79.93211364435707,
                72.88674253038187
            ],
            [
                -80.16673463279474,
                72.95319906449265
            ],
            [
                -80.41388059942325,
                73.04187571037534
            ],
            [
                -80.52071178366363,
                73.08898747771939
            ],
            [
                -80.33438842493719,
                73.03074937621426
            ],
            [
                -79.78306269164159,
                72.87065224897287
            ],
            [
                -80.13687354776668,
                73.28690532312726
            ],
            [
                -80.61732437758037,
                73.64100968375134
            ],
            [
                -80.87062943715559,
                73.72726654856477
            ],
            [
                -80.8143047163004,
                73.57879909766376
            ],
            [
                -80.36586620482359,
                73.22873051114507
            ],
            [
                -79.69671840967847,
                72.87667066066388
            ],
            [
                -81.66176776210014,
                72.22412379176284
            ],
            [
                -82.0204086372926,
                71.79370203669801
            ],
            [
                -81.24318389784634,
                71.72414024733479
            ],
            [
                -80.10613748324022,
                71.94218900681146
            ],
            [
                -79.38531333295394,
                72.37459889826573
            ],
            [
                -80.05406567489362,
                72.73197714105874
            ],
            [
                -79.29618593926104,
                72.51473057910654
            ],
            [
                -78.82738613560862,
                72.37846129398085
            ],
            [
                -78.88772434562567,
                72.46999097419766
            ],
            [
                -79.2387739949944,
                72.66414327023693
            ],
            [
                -79.64210850939767,
                72.83574183257898
            ],
            [
                -79.81960298587366,
                72.86622219144323
            ],
            [
                -80.36197336222169,
                72.11851884813446
            ],
            [
                -80.37144227351979,
                71.71789233679623
            ],
            [
                -79.95770246091541,
                71.7476049286121
            ],
            [
                -79.53316784015037,
                72.0538848964735
            ]
        ]
    },
    "properties": {
        "trajectory_id": 4257,
        "object_id": 350,
        "label": "F"
    }
}