{
    "type": "Feature",
    "geometry": {
        "type": "LineString",
        "coordinates": [
            [
                -79.99991,
                73.13854
            ],
            [
                -80.0466082079095,
                73.24598190425357
            ],
            [
                -80.22637479767894,
                73.1988345357477
            ],
            [
                -80.26438928668573,
                73.09514780565146
            ],
            [
                -79.81959814456806,
                73.11470681055441
            ],
            [
                -79.28779782609338,
                73.03540757049807
            ],
            [
                -79.19095839469087,
                72.96933042586988
            ],
            [
                -79.51558653988509,
                73.00258218261563
            ],
            [
                -79.68883876769074,
                73.0626312767931
            ],
            [
                -79.01991663897464,
                73.08077279518405
            ],
            [
                -78.5549636305046,
                73.02414383124581
            ],
            [
                -79.48340748655752,
                72.94626755121327
            ],
            [
                -80.07631586630285,
                72.94277139011578
            ],
            [
                -79.66464549242585,
                72.9972463638719
            ],
            [
                -76.61653458684515,
                70.18786577594705
            ],
            [
                -72.5283104185479,
                66.10427134545569
            ],
            [
                -72.92280300171375,
                66.37641312658258
            ],
            [
                -79.64548792063682,
                73.0186704646724
            ],
            [
                -81.27378214163122,
                72.7393303403111
            ],
            [
                -81.12948282980004,
                72.74533084962798
            ],
            [
                -80.02622015019148,
                72.9056115657353
            ],
            [
                -79.58250731612911,
                73.00738400299377
            ],
            [
                -79.6582108311824,
                73.12806685653585
            ],
            [
                -80.20184565926775,
                73.49928612840183
            ],
            [
                -80.57688121056484,
                73.68331636178448
            ],
            [
                -80.02453653213685,
                73.2105321046202
            ],
            [
                -79.27149521189676,
                73.22256440318718
            ],
            [
                -79.51604890305677,
                73.37731905546019
            ],
            [
                -80.48445583984261,
                73.36439608219791
            ],
            [
                -80.44397434376299,
                73.20245038966914
            ],
            [
                -80.28891708070903,
                73.22705872536719
            ],
            [
                -81.56448235622719,
                73.4665814150254
            ],
            [
                -81.20742523347442,
                73.22291471106513
            ],
            [
                -80.23699360113994,
                73.00479954626562
            ],
            [
                -79.73633964280914,
                73.17513965719532
            ],
            [
                -79.15229360140765,
                73.24449059531634
            ],
            [
                -78.97220026797848,
                73.10612841634178
            ],
            [
                -79.21391774008598,
                73.0132152719598
            ],
            [
                -79.61457757291569,
                73.1229217345857
            ],
            [
                -82.93116222748225,
                73.83464160480918
            ],
            [
                -82.7137578490715,
                73.79484817993558
            ],
            [
                -80.57505956041753,
                73.34150904336221
            ],
            [
                -79.58521252798789,
                73.13153015434068
            ],
            [
                -81.1457287399498,
                72.58853953691748
            ],
            [
                -80.58787554870062,
                72.4196698484836
            ],
            [
                -79.02817712641172,
                72.71484278980635
            ],
            [
                -79.33758628693005,
                73.09245843421627
            ],
            [
                -80.43064157955547,
                73.18648539101393
            ],
            [
                -80.94391965550707,
                73.29405268518052
            ],
            [
                -80.49439118467401,
                73.33305834766611
            ],
            [
                -79.82986454764047,
                73.23386278351143
            ],
            [
                -79.72374077734526,
                73.17574069317001
            ],
            [
                -80.40811765049548,
                73.50481689335453
            ],
            [
                -81.08962340377775,
                73.77664748422484
            ],
            [
                -80.74198023358633,
                73.57973478923762
            ],
            [
                -79.70609,
                73.1375
            ]
        ]
    },
    "properties": {
        "trajectory_id": 432,
        "object_id": 256,
        "label": "F"
    }
}