{
    "type": "Feature",
    "geometry": {
        "type": "LineString",
        "coordinates": [
            [
                -82.93662454984542,
                66.8766595551065
            ],
            [
                -83.60880494909297,
                66.87526851495161
            ],
            [
                -84.15984205258806,
                66.87711966672425
            ],
            [
                -84.58758309195711,
                66.88119457388451
            ],
            [
                -84.90304064821653,
                66.88703140555965
            ],
            [
                -85.11723425088253,
                66.89416862464623
            ],
            [
                -85.24118342947122,
                66.90214469404079
            ],
            [
                -85.28590771349863,
                66.9104980766398
            ],
            [
                -85.26242663248084,
                66.9187672353398
            ],
            [
                -85.18175971593396,
                66.92649063303733
            ],
            [
                -85.05492649337401,
                66.93320673262892
            ],
            [
                -84.89294649431714,
                66.93845399701104
            ],
            [
                -84.70683924827938,
                66.94177088908026
            ],
            [
                -84.50762428477677,
                66.94269587173308
            ],
            [
                -84.30632113332553,
                66.94076740786606
            ],
            [
                -84.11394932344163,
                66.93552396037568
            ],
            [
                -83.94152838464116,
                66.92650399215847
            ],
            [
                -83.80007784644017,
                66.91324596611096
            ],
            [
                -83.70061723835482,
                66.89528834512969
            ],
            [
                -83.65416608286286,
                66.87216958814888
            ],
            [
                -83.6654192453898,
                66.8398676302721
            ],
            [
                -83.71455523614344,
                66.78055869905202
            ],
            [
                -83.77581303411642,
                66.67307530834114
            ],
            [
                -83.82343161830144,
                66.49624997199194
            ],
            [
                -83.83164996769108,
                66.22891520385693
            ],
            [
                -83.65978590841077,
                65.85130673986806
            ],
            [
                -83.22245760633334,
                65.51940878400764
            ],
            [
                -83.0576468049549,
                65.40265475496761
            ],
            [
                -83.07564250898169,
                65.43054327212423
            ],
            [
                -83.1867337231196,
                65.53257295485346
            ],
            [
                -83.30120945207484,
                65.63824242253153
            ],
            [
                -83.3314567129211,
                65.67818675586824
            ],
            [
                -83.3687738156132,
                65.68707589291816
            ],
            [
                -83.48545825137988,
                65.71314789302157
            ],
            [
                -83.65370475778558,
                65.75538067056549
            ],
            [
                -83.84570807239473,
                65.812752139937
            ],
            [
                -84.03366293277178,
                65.88424021552322
            ],
            [
                -84.18991441555524,
                65.96879139664446
            ],
            [
                -84.29874317826332,
                66.06285810666475
            ],
            [
                -84.36483527699842,
                66.15862882783772
            ],
            [
                -84.39487533194443,
                66.2478744196242
            ],
            [
                -84.39554796328514,
                66.32236574148479
            ]
        ]
    },
    "properties": {
        "trajectory_id": 4330,
        "object_id": 351,
        "label": "M"
    }
}