{
    "type": "Feature",
    "geometry": {
        "type": "LineString",
        "coordinates": [
            [
                -80.13307311573459,
                73.56722805612223
            ],
            [
                -79.68180364243557,
                73.5268374245216
            ],
            [
                -79.2374272787157,
                73.44380245992792
            ],
            [
                -78.88483599265662,
                73.33114022583268
            ],
            [
                -78.70892175233993,
                73.20186778572734
            ],
            [
                -78.79457652584725,
                73.06900220310337
            ],
            [
                -79.22669228126013,
                72.94556054145218
            ],
            [
                -79.93543379685974,
                72.8572963079174
            ],
            [
                -79.68415122172546,
                73.17777854633725
            ],
            [
                -79.35311669167339,
                73.55579570118962
            ],
            [
                -79.18923804117226,
                73.77432276786851
            ],
            [
                -79.16046474688422,
                73.8595422011596
            ],
            [
                -79.23474628547126,
                73.83763645584855
            ],
            [
                -79.3800321335955,
                73.734787986721
            ],
            [
                -79.56427176791898,
                73.57717924856262
            ],
            [
                -79.7554146651038,
                73.39099269615907
            ],
            [
                -79.92141030181202,
                73.20241078429603
            ],
            [
                -80.03020815470573,
                73.03761596775915
            ],
            [
                -80.049757700447,
                72.92279070133411
            ],
            [
                -79.95378183534167,
                72.88084367046173
            ],
            [
                -78.12800845582001,
                72.837860429146
            ],
            [
                -76.12219110902686,
                72.78052942373643
            ],
            [
                -75.00981387341952,
                72.71828855267839
            ],
            [
                -74.63759769052463,
                72.65711632673656
            ],
            [
                -74.85226350186905,
                72.60299125667558
            ],
            [
                -75.5005322489795,
                72.56189185326006
            ],
            [
                -76.42912487338278,
                72.53979662725467
            ],
            [
                -77.48476231660567,
                72.54268408942411
            ],
            [
                -78.5141655201749,
                72.57653275053292
            ],
            [
                -79.3640554256173,
                72.64732112134578
            ],
            [
                -79.88115297445958,
                72.76102771262737
            ],
            [
                -80.1311096516597,
                72.8874478486929
            ],
            [
                -79.7534363405919,
                72.9018224782133
            ],
            [
                -80.28530226689965,
                73.13956437026037
            ],
            [
                -81.47321573972924,
                73.55532876500224
            ],
            [
                -83.05811730187487,
                74.0716890583684
            ],
            [
                -84.78094749613085,
                74.6112186462884
            ],
            [
                -86.38264686529139,
                75.09649092469172
            ],
            [
                -87.60415595215076,
                75.45007928950793
            ],
            [
                -88.18641529950325,
                75.5945571366665
            ],
            [
                -87.87036545014308,
                75.45249786209695
            ],
            [
                -86.39694694686446,
                74.9464748617288
            ]
        ]
    },
    "properties": {
        "trajectory_id": 4337,
        "object_id": 352,
        "label": "F"
    }
}