{
    "type": "Feature",
    "geometry": {
        "type": "LineString",
        "coordinates": [
            [
                -79.49296310261336,
                72.6907739058946
            ],
            [
                -79.85839531899063,
                72.84630986706631
            ],
            [
                -79.69006528511852,
                72.90400965407034
            ],
            [
                -77.97464802505502,
                73.0422423402424
            ],
            [
                -77.03860679336377,
                73.0123680269078
            ],
            [
                -76.73872607396348,
                72.86045738641343
            ],
            [
                -76.93179035077436,
                72.6325810911062
            ],
            [
                -77.47458410771573,
                72.37480981333321
            ],
            [
                -78.22389182870776,
                72.13321422544111
            ],
            [
                -79.03649799766983,
                71.9538649997769
            ],
            [
                -79.7691870985212,
                71.88283280868757
            ],
            [
                -80.27874361518231,
                71.96618832451995
            ],
            [
                -80.42195203157229,
                72.25000221962105
            ],
            [
                -80.05559683161108,
                72.78034516633745
            ],
            [
                -80.05280942471671,
                72.89698007611184
            ],
            [
                -80.47148271327643,
                72.96520426607574
            ],
            [
                -80.68480445157243,
                73.00214145658612
            ],
            [
                -80.73244850673139,
                73.01357039243237
            ],
            [
                -80.6540887458801,
                73.0052698184039
            ],
            [
                -80.48939903614531,
                72.98301847929017
            ],
            [
                -80.27805324465386,
                72.95259511988051
            ],
            [
                -80.05972523853265,
                72.91977848496438
            ],
            [
                -79.8740888849083,
                72.8903473193312
            ],
            [
                -79.76081805090769,
                72.87008036777033
            ],
            [
                -79.75958660365765,
                72.86475637507124
            ],
            [
                -79.91006841028496,
                72.8801540860233
            ],
            [
                -80.35140861468932,
                72.96031408789447
            ],
            [
                -84.67268933511339,
                73.76639310515208
            ],
            [
                -92.5778796252367,
                75.20241187179359
            ],
            [
                -102.59706962152742,
                77.00679631323355
            ],
            [
                -113.2603494604494,
                78.91797235488568
            ],
            [
                -123.09780927848341,
                80.6743659221668
            ],
            [
                -130.6395392120932,
                82.0144029404907
            ],
            [
                -134.4156293977473,
                82.67650933527189
            ],
            [
                -132.95616997191942,
                82.39911103192595
            ],
            [
                -124.79125107108192,
                80.9206339558682
            ],
            [
                -108.45096283169619,
                77.97950403251187
            ],
            [
                -82.46539539023381,
                73.31414718727217
            ],
            [
                -80.27733930675561,
                72.72773130530656
            ],
            [
                -81.26284708445182,
                72.12018827792404
            ],
            [
                -81.72316879342281,
                71.62447407738452
            ],
            [
                -81.7647739111404,
                71.24409577903398
            ]
        ]
    },
    "properties": {
        "trajectory_id": 4398,
        "object_id": 352,
        "label": "F"
    }
}