{
    "type": "Feature",
    "geometry": {
        "type": "LineString",
        "coordinates": [
            [
                -80.54365443866135,
                72.93760907586162
            ],
            [
                -79.94276820803911,
                72.88651048441594
            ],
            [
                -79.78266459712381,
                72.76353222805962
            ],
            [
                -80.78829169957281,
                72.44622718269329
            ],
            [
                -82.59208285893156,
                72.16321931432117
            ],
            [
                -83.88606388366973,
                72.05289087217155
            ],
            [
                -83.36226058225915,
                72.25362410547257
            ],
            [
                -79.93997884203847,
                72.87457310168438
            ],
            [
                -80.43517841097055,
                73.50018812971237
            ],
            [
                -81.10856297794766,
                73.90347206036935
            ],
            [
                -81.44724098212643,
                73.62313486836855
            ],
            [
                -81.39673893415954,
                73.08576433793135
            ],
            [
                -80.9025833446991,
                72.7179482532797
            ],
            [
                -80.02097073494825,
                72.87664425194939
            ],
            [
                -79.889076701927,
                72.6806544594642
            ],
            [
                -80.13598410045269,
                72.41133828503396
            ],
            [
                -80.68866981556063,
                72.35215238667288
            ],
            [
                -81.13312670814032,
                72.44708974060339
            ],
            [
                -81.05534763908031,
                72.64014332304802
            ],
            [
                -80.11383673265185,
                72.88271122456418
            ],
            [
                -79.33024781523474,
                72.75999596528123
            ],
            [
                -78.38506861401713,
                72.63483246825133
            ],
            [
                -78.33606386233663,
                72.67057116990777
            ],
            [
                -78.86829299651457,
                72.78536439799642
            ],
            [
                -79.6668154528724,
                72.89736448026298
            ],
            [
                -80.41696997303464,
                72.92485108463408
            ],
            [
                -80.89553219411546,
                72.82779156149608
            ],
            [
                -81.10198880660435,
                72.66769113195848
            ],
            [
                -81.06909031656096,
                72.52122057337013
            ],
            [
                -80.82958723004462,
                72.46505066307947
            ],
            [
                -80.41623005311509,
                72.57585217843523
            ],
            [
                -79.95453263925798,
                72.88916548560906
            ],
            [
                -77.23764808713064,
                72.22401704154896
            ],
            [
                -75.42528163616764,
                71.77971918621519
            ],
            [
                -75.83467245239801,
                71.86998700365493
            ],
            [
                -77.43000413707733,
                72.25054398676608
            ],
            [
                -79.17546029145862,
                72.67711362844588
            ],
            [
                -79.98222304329244,
                72.89368287282998
            ],
            [
                -80.15670764717743,
                72.79457333981438
            ],
            [
                -80.47857987504766,
                72.6441532692552
            ],
            [
                -80.76031277127242,
                72.5285383823706
            ],
            [
                -80.85964905821609,
                72.50500018036378
            ]
        ]
    },
    "properties": {
        "trajectory_id": 4425,
        "object_id": 352,
        "label": "F"
    }
}