{
    "type": "Feature",
    "geometry": {
        "type": "LineString",
        "coordinates": [
            [
                -82.29879420236395,
                72.7884411675933
            ],
            [
                -82.19076734812177,
                72.73785311736023
            ],
            [
                -81.95114212533679,
                72.7096802773858
            ],
            [
                -81.60571996700445,
                72.71293322393959
            ],
            [
                -81.18030230612015,
                72.75662253329114
            ],
            [
                -80.70069057567935,
                72.84975878171001
            ],
            [
                -80.1926862086775,
                73.00135254546575
            ],
            [
                -80.01301802699271,
                73.07995012709897
            ],
            [
                -80.86541564059209,
                73.65249216338451
            ],
            [
                -81.41570084978099,
                74.020309157176
            ],
            [
                -81.70787226112792,
                74.21356566519275
            ],
            [
                -81.78592848120134,
                74.26242624415393
            ],
            [
                -81.69386811656975,
                74.19705545077879
            ],
            [
                -81.47568977380169,
                74.04761784178663
            ],
            [
                -81.17539205946565,
                73.8442779738967
            ],
            [
                -80.83697358013009,
                73.6172004038282
            ],
            [
                -80.5044329423636,
                73.39654968830044
            ],
            [
                -80.2217687527346,
                73.21249038403265
            ],
            [
                -80.03297961781163,
                73.09518704774409
            ],
            [
                -79.94327988647449,
                73.05427238521467
            ],
            [
                -79.11297058479664,
                72.8757251082575
            ],
            [
                -78.53014784690264,
                72.72461968342967
            ],
            [
                -78.16746627772288,
                72.6030842304372
            ],
            [
                -77.99758048218777,
                72.51324686898599
            ],
            [
                -77.99314506522772,
                72.45723571878196
            ],
            [
                -78.12681463177319,
                72.43717889953103
            ],
            [
                -78.37124378675459,
                72.45520453093921
            ],
            [
                -78.69908713510235,
                72.51344073271235
            ],
            [
                -79.08299928174688,
                72.61401562455642
            ],
            [
                -79.49563483161864,
                72.75905732617733
            ],
            [
                -79.9096483896481,
                72.95069395728108
            ],
            [
                -80.18777674812445,
                73.04785154299437
            ],
            [
                -80.46194395393024,
                73.13638820385336
            ],
            [
                -80.49245844634518,
                73.16931871493344
            ],
            [
                -80.34009778363652,
                73.15913229939925
            ],
            [
                -80.06563952407171,
                73.11831818041544
            ],
            [
                -79.72986122591813,
                73.05936558114671
            ],
            [
                -79.39354044744316,
                72.99476372475772
            ],
            [
                -79.11745474691413,
                72.93700183441312
            ],
            [
                -78.96238168259845,
                72.89856913327756
            ],
            [
                -78.9890988127635,
                72.89195484451571
            ],
            [
                -79.25838369567664,
                72.92964819129226
            ]
        ]
    },
    "properties": {
        "trajectory_id": 4537,
        "object_id": 367,
        "label": "F"
    }
}