{
    "type": "Feature",
    "geometry": {
        "type": "LineString",
        "coordinates": [
            [
                -78.74672292381341,
                72.70258059828284
            ],
            [
                -78.94715945993248,
                72.7145888857434
            ],
            [
                -79.20753761091096,
                72.74704675850103
            ],
            [
                -79.49123066159476,
                72.79806047298658
            ],
            [
                -79.76161189682963,
                72.86573628563085
            ],
            [
                -79.98205460146185,
                72.94818045286475
            ],
            [
                -80.11593206033726,
                73.04349923111911
            ],
            [
                -80.17450819606103,
                72.71542253655431
            ],
            [
                -80.50773857894761,
                71.86542683177055
            ],
            [
                -80.92405586104694,
                71.3896507745579
            ],
            [
                -81.37364221210407,
                71.22228416124099
            ],
            [
                -81.80667980186489,
                71.29751678814439
            ],
            [
                -82.17335080007446,
                71.54953845159281
            ],
            [
                -82.42383737647806,
                71.91253894791073
            ],
            [
                -82.5083217008213,
                72.32070807342318
            ],
            [
                -82.3769859428495,
                72.70823562445443
            ],
            [
                -81.98001227230785,
                73.00931139732955
            ],
            [
                -81.26758285894178,
                73.15812518837298
            ],
            [
                -80.18987987249722,
                73.08886679390945
            ],
            [
                -80.0153533237381,
                73.03309931562988
            ],
            [
                -80.15166469949727,
                73.01778639720706
            ],
            [
                -80.30160839972024,
                73.0512178926819
            ],
            [
                -80.45192977164224,
                73.11831168515158
            ],
            [
                -80.58937416249819,
                73.20398565771323
            ],
            [
                -80.70068691952312,
                73.293157693464
            ],
            [
                -80.77261338995221,
                73.37074567550114
            ],
            [
                -80.79189892102042,
                73.42166748692176
            ],
            [
                -80.74528885996283,
                73.43084101082304
            ],
            [
                -80.61952855401444,
                73.38318413030214
            ],
            [
                -80.40136335041036,
                73.26361472845625
            ],
            [
                -80.07753859638578,
                73.0570506883826
            ],
            [
                -80.2583005649546,
                73.06585485156916
            ],
            [
                -80.6855920649834,
                73.15080561721317
            ],
            [
                -80.7795892968476,
                73.21687752270672
            ],
            [
                -80.62247676419516,
                73.26478010231513
            ],
            [
                -80.29643897067406,
                73.29522289030344
            ],
            [
                -79.88366041993183,
                73.30891542093691
            ],
            [
                -79.46632561561648,
                73.30656722848067
            ],
            [
                -79.12661906137609,
                73.28888784719989
            ],
            [
                -78.94672526085814,
                73.25658681135974
            ],
            [
                -79.00882871771074,
                73.2103736552254
            ]
        ]
    },
    "properties": {
        "trajectory_id": 4589,
        "object_id": 367,
        "label": "F"
    }
}