{
    "type": "Feature",
    "geometry": {
        "type": "LineString",
        "coordinates": [
            [
                -79.39511393558152,
                73.15095791306204
            ],
            [
                -80.15094566391846,
                73.07456055311916
            ],
            [
                -79.8084885811862,
                72.98199681358743
            ],
            [
                -79.52466102889655,
                72.9113176328121
            ],
            [
                -79.33328694911533,
                72.88785092194769
            ],
            [
                -79.22273585144889,
                72.90024608480248
            ],
            [
                -79.18137724550348,
                72.93715252518483
            ],
            [
                -79.19758064088529,
                72.98721964690301
            ],
            [
                -79.25971554720057,
                73.03909685376534
            ],
            [
                -79.35615147405551,
                73.08143354958013
            ],
            [
                -79.47525793105646,
                73.10287913815573
            ],
            [
                -79.60540442780956,
                73.09208302330038
            ],
            [
                -79.734960473921,
                73.03769460882248
            ],
            [
                -79.85074092493082,
                72.9307007508609
            ],
            [
                -79.22189761564869,
                73.1469061468836
            ],
            [
                -77.92250215915239,
                73.54014852466574
            ],
            [
                -77.11001904264035,
                73.79941778928016
            ],
            [
                -76.71376649185801,
                73.9417951897877
            ],
            [
                -76.66306273254955,
                73.98436197524958
            ],
            [
                -76.88722599045984,
                73.94419939472681
            ],
            [
                -77.31557449133314,
                73.83838869728056
            ],
            [
                -77.87742646091448,
                73.6840111319718
            ],
            [
                -78.50210012494821,
                73.49814794786167
            ],
            [
                -79.11891370917861,
                73.29788039401139
            ],
            [
                -79.65718543935085,
                73.10028971948181
            ],
            [
                -80.02855385484652,
                72.94224566875529
            ],
            [
                -80.06303776089436,
                73.0175681885298
            ],
            [
                -80.1309331443707,
                73.11440028366765
            ],
            [
                -80.14829336104417,
                73.1722346181232
            ],
            [
                -80.12715570244937,
                73.19785390146379
            ],
            [
                -80.079557460121,
                73.1980408432568
            ],
            [
                -80.01753592559366,
                73.17957815306957
            ],
            [
                -79.95312839040207,
                73.14924854046951
            ],
            [
                -79.89837214608082,
                73.1138347150239
            ],
            [
                -79.86530448416454,
                73.08011938630008
            ],
            [
                -79.86596269618792,
                73.05488526386546
            ],
            [
                -79.91238407368562,
                73.04491505728735
            ],
            [
                -79.9926312391032,
                73.05349862325488
            ],
            [
                -79.78519582859717,
                73.06297685549751
            ],
            [
                -79.46251213472634,
                73.08726527204512
            ],
            [
                -79.25942184091048,
                73.11266228302266
            ],
            [
                -79.1589250305593,
                73.13716716194814
            ]
        ]
    },
    "properties": {
        "trajectory_id": 4590,
        "object_id": 367,
        "label": "F"
    }
}