{
    "type": "Feature",
    "geometry": {
        "type": "LineString",
        "coordinates": [
            [
                -79.14402178708298,
                73.1587791823397
            ],
            [
                -79.1977121938914,
                73.1754976177153
            ],
            [
                -79.30299633439466,
                73.18532174159309
            ],
            [
                -79.4428742920027,
                73.18625082749105
            ],
            [
                -79.60034615012538,
                73.1762841489273
            ],
            [
                -79.7584119921729,
                73.15342097941982
            ],
            [
                -79.90007190155512,
                73.11566059248676
            ],
            [
                -80.0218467965364,
                73.05028408109796
            ],
            [
                -79.85287439836232,
                73.00232956810032
            ],
            [
                -79.77323428015556,
                72.94417193059019
            ],
            [
                -79.80630658846259,
                72.92347244618199
            ],
            [
                -79.92026088805672,
                72.93097837049615
            ],
            [
                -80.08326674371118,
                72.95743695915313
            ],
            [
                -80.26349372019918,
                72.99359546777333
            ],
            [
                -80.42911138229412,
                73.03020115197725
            ],
            [
                -80.54828929476913,
                73.0580012673853
            ],
            [
                -80.58919702239761,
                73.06774306961788
            ],
            [
                -80.52000412995275,
                73.05017381429549
            ],
            [
                -80.30888018220789,
                72.99604075703856
            ],
            [
                -79.98869732995165,
                72.92136175512455
            ],
            [
                -79.97499151084736,
                72.94853685546438
            ],
            [
                -80.17146605197239,
                73.00846708460104
            ],
            [
                -80.42032199855272,
                73.09042546222065
            ],
            [
                -80.5526936774304,
                73.13282288006664
            ],
            [
                -80.39971541544763,
                73.07407022988255
            ],
            [
                -80.03270386358746,
                72.94544809860841
            ],
            [
                -79.89495128233997,
                72.88512916920341
            ],
            [
                -79.25125250822448,
                72.76309397138155
            ],
            [
                -78.47630868773324,
                72.65198513368097
            ],
            [
                -78.11618247525648,
                72.61426064036812
            ],
            [
                -78.71693652518351,
                72.71237847570933
            ],
            [
                -80.00237883059164,
                72.90119427764517
            ],
            [
                -79.50056146213754,
                72.9001444735837
            ],
            [
                -78.96389976811462,
                72.92897218908904
            ],
            [
                -78.58258946228007,
                72.96094233135089
            ],
            [
                -78.56579460500396,
                72.97546393069089
            ],
            [
                -79.12267925665584,
                72.95194601743063
            ],
            [
                -79.99366375380254,
                72.93506304852262
            ],
            [
                -80.29470953588222,
                72.91773762658242
            ],
            [
                -80.57679553946853,
                72.89937327254897
            ],
            [
                -80.67735902084442,
                72.90880729839935
            ],
            [
                -80.5873833769444,
                72.92860754484056
            ]
        ]
    },
    "properties": {
        "trajectory_id": 4591,
        "object_id": 367,
        "label": "F"
    }
}