{
    "type": "Feature",
    "geometry": {
        "type": "LineString",
        "coordinates": [
            [
                -79.63601,
                72.79124
            ],
            [
                -79.8128481711361,
                72.77472269925585
            ],
            [
                -79.61989913571713,
                72.78606404444976
            ],
            [
                -79.73025735485037,
                72.82488934618677
            ],
            [
                -79.63984218671871,
                72.76479483050527
            ],
            [
                -79.64150621648976,
                72.73430917046727
            ],
            [
                -79.87870250111375,
                72.70733207988268
            ],
            [
                -79.83263919052007,
                72.87169155992477
            ],
            [
                -79.69359288091583,
                72.91766937484907
            ],
            [
                -79.6216342256975,
                72.79421362874925
            ],
            [
                -80.05073912045758,
                72.89292061076543
            ],
            [
                -80.32504724694344,
                72.96140978399077
            ],
            [
                -80.44427028211433,
                72.99612774681651
            ],
            [
                -80.43955003065317,
                73.00323734764831
            ],
            [
                -80.34202829724289,
                72.98890143489191
            ],
            [
                -80.18284688656645,
                72.959282856953
            ],
            [
                -79.99314760330681,
                72.92054446223727
            ],
            [
                -79.80407225214688,
                72.87884909915044
            ],
            [
                -79.64676263776963,
                72.8403596160982
            ],
            [
                -79.55236056485796,
                72.81123886148626
            ],
            [
                -79.55200783809482,
                72.7976496837203
            ],
            [
                -79.64947378294825,
                72.80013704987928
            ],
            [
                -79.41970195363598,
                72.80968681960123
            ],
            [
                -79.22269606699786,
                72.95415769953202
            ],
            [
                -79.062856416936,
                73.19015915938114
            ],
            [
                -78.9435062708066,
                73.47402181147673
            ],
            [
                -78.86796889596589,
                73.76207626814697
            ],
            [
                -78.83956755977015,
                74.01065314172003
            ],
            [
                -78.86162552957559,
                74.17608304452409
            ],
            [
                -78.93746607273846,
                74.21469658888725
            ],
            [
                -79.07041245661502,
                74.08282438713775
            ],
            [
                -79.26378794856147,
                73.7367970516037
            ],
            [
                -79.52091581593407,
                73.13294519461328
            ],
            [
                -79.62460815983378,
                72.79945562952322
            ],
            [
                -79.60433809942772,
                72.82766682270871
            ],
            [
                -79.48088293711562,
                72.80709307148257
            ],
            [
                -79.2878077900664,
                72.75139668668373
            ],
            [
                -79.0589034628913,
                72.67399713309416
            ],
            [
                -78.82796076020162,
                72.58831387549583
            ],
            [
                -78.62877048660869,
                72.50776637867074
            ],
            [
                -78.49512344672375,
                72.44577410740088
            ],
            [
                -78.46081044515815,
                72.41575652646821
            ]
        ]
    },
    "properties": {
        "trajectory_id": 4616,
        "object_id": 368,
        "label": "F"
    }
}