{
    "type": "Feature",
    "geometry": {
        "type": "LineString",
        "coordinates": [
            [
                -79.89259282563093,
                73.14421316155783
            ],
            [
                -79.87269296033875,
                73.10656718233112
            ],
            [
                -80.00036624534407,
                73.06161931620721
            ],
            [
                -80.20975656294692,
                73.03582291500642
            ],
            [
                -80.3458364544773,
                73.0393239410397
            ],
            [
                -80.25357846126532,
                73.08226835661799
            ],
            [
                -79.81522963211192,
                73.13878679415387
            ],
            [
                -79.97616452335896,
                73.21382986100704
            ],
            [
                -80.16524826311665,
                73.29624991319517
            ],
            [
                -80.34194907414643,
                73.34514181150944
            ],
            [
                -80.3997386156652,
                73.33888400478787
            ],
            [
                -80.23208854688993,
                73.25585494186846
            ],
            [
                -79.90893709554577,
                73.13443478981031
            ],
            [
                -80.11016601252065,
                73.26574718426234
            ],
            [
                -80.25478347398689,
                73.30896542300451
            ],
            [
                -80.29625374798711,
                73.26124596855018
            ],
            [
                -80.23829918522506,
                73.1833466551518
            ],
            [
                -80.08464213640463,
                73.13602531706192
            ],
            [
                -79.93160808768391,
                73.14816363808791
            ],
            [
                -80.24747089564907,
                73.27601836272785
            ],
            [
                -80.50907322114386,
                73.30981002063125
            ],
            [
                -80.5825907900763,
                73.23776626974956
            ],
            [
                -80.48096477592422,
                73.14088085496226
            ],
            [
                -80.21713635216551,
                73.10014752114876
            ],
            [
                -79.90508426145995,
                73.15722989790318
            ],
            [
                -79.89791990794835,
                73.17190700326506
            ],
            [
                -79.56930105779563,
                73.16381511044723
            ],
            [
                -79.15136008471734,
                73.13307401820607
            ],
            [
                -78.95278916813102,
                73.10796234508696
            ],
            [
                -79.28228048745447,
                73.11675870963538
            ],
            [
                -79.87016469124735,
                73.14412423391283
            ],
            [
                -80.40959070102083,
                73.06064392787083
            ],
            [
                -80.49799887946139,
                72.98366520565126
            ],
            [
                -80.16810563941195,
                72.95246114430994
            ],
            [
                -79.76406240037389,
                72.9747240522845
            ],
            [
                -79.63002058184867,
                73.0581462380126
            ],
            [
                -79.88258808731584,
                73.15226582529527
            ],
            [
                -80.12190487089208,
                73.12265705192986
            ],
            [
                -80.32499626970561,
                73.06360221962572
            ],
            [
                -80.37637972177403,
                73.01371153600786
            ],
            [
                -80.2966716233507,
                73.00048925649497
            ],
            [
                -80.10648837068888,
                73.0514396365057
            ]
        ]
    },
    "properties": {
        "trajectory_id": 4769,
        "object_id": 382,
        "label": "F"
    }
}