{
    "type": "Feature",
    "geometry": {
        "type": "LineString",
        "coordinates": [
            [
                -75.97645886275467,
                72.95390229866585
            ],
            [
                -76.06137767436957,
                72.86789164594161
            ],
            [
                -76.15817576826424,
                72.5728989053603
            ],
            [
                -76.19140668395515,
                72.28062062961803
            ],
            [
                -76.09059097681606,
                72.20853199580355
            ],
            [
                -75.78524920222081,
                72.57410818100574
            ],
            [
                -75.44329013778089,
                72.9406885038583
            ],
            [
                -75.38711496770986,
                72.95566232311003
            ],
            [
                -75.20942893913963,
                73.03533550161464
            ],
            [
                -74.97699763121827,
                73.13498033617562
            ],
            [
                -74.7809889034634,
                73.20848951135952
            ],
            [
                -74.71257061539265,
                73.20975571173283
            ],
            [
                -74.75557397960384,
                73.17236965803174
            ],
            [
                -74.74310359453722,
                73.18243630201563
            ],
            [
                -74.7960003478757,
                73.13160495891655
            ],
            [
                -74.91513360920537,
                73.04782336441411
            ],
            [
                -75.10079865969652,
                72.959478162675
            ],
            [
                -75.35329078051943,
                72.89495599786592
            ],
            [
                -75.472214007984,
                72.87965707160645
            ],
            [
                -75.3129861702574,
                72.88951817533153
            ],
            [
                -75.20887040882275,
                72.89025228753991
            ],
            [
                -75.17107488931173,
                72.88472135470997
            ],
            [
                -75.20633594023812,
                72.87585993660065
            ],
            [
                -75.32138989011557,
                72.86660259297076
            ],
            [
                -75.41536395900711,
                72.85872285763372
            ],
            [
                -75.43330781955692,
                72.8422499233726
            ],
            [
                -75.48930144450901,
                72.84942105695916
            ],
            [
                -75.56086504923417,
                72.86489035658559
            ],
            [
                -75.62675009510801,
                72.87338133206454
            ],
            [
                -75.66570804350616,
                72.85961749320869
            ],
            [
                -75.68639816025852,
                72.83940744086533
            ],
            [
                -76.2862024640941,
                72.78669374797977
            ],
            [
                -76.977189127813,
                72.7904038490796
            ],
            [
                -77.43315437290593,
                72.80884409252504
            ],
            [
                -77.32795250954017,
                72.80030168639348
            ],
            [
                -76.33543784788314,
                72.72306383876237
            ],
            [
                -75.42597543660636,
                72.62765799190869
            ],
            [
                -74.61963248366997,
                72.60119211690854
            ],
            [
                -74.61751076445688,
                72.6024967230777
            ],
            [
                -75.04175916089912,
                72.61857421704454
            ],
            [
                -75.51452655492912,
                72.63642700543744
            ],
            [
                -75.65796182847922,
                72.64305749488476
            ]
        ]
    },
    "properties": {
        "trajectory_id": 4790,
        "object_id": 382,
        "label": "F"
    }
}