{
    "type": "Feature",
    "geometry": {
        "type": "LineString",
        "coordinates": [
            [
                -80.35121335780649,
                72.7502751143587
            ],
            [
                -74.73747549870073,
                72.19397294340662
            ],
            [
                -71.58498545384867,
                71.93979156272061
            ],
            [
                -71.06912254362588,
                71.89403295889362
            ],
            [
                -72.97090177883783,
                72.05412637889046
            ],
            [
                -77.07133817029244,
                72.41750106967612
            ],
            [
                -80.07537350556225,
                72.69869976746146
            ],
            [
                -80.02955236219489,
                72.71041311009344
            ],
            [
                -79.27102176979203,
                72.63296051861514
            ],
            [
                -78.35676900853366,
                72.52472852594003
            ],
            [
                -77.99725773592908,
                72.4727688895773
            ],
            [
                -78.90295160948672,
                72.56413336703591
            ],
            [
                -80.05288502388433,
                72.69296097121456
            ],
            [
                -80.49766662672458,
                72.75585415137496
            ],
            [
                -82.33455754025486,
                73.15210671334033
            ],
            [
                -84.18827259491653,
                73.5824435460703
            ],
            [
                -84.58821593223524,
                73.71854145899428
            ],
            [
                -82.06379169373841,
                73.23207726154212
            ],
            [
                -79.91942162198863,
                72.7731893873958
            ],
            [
                -79.49006813290774,
                72.839014291799
            ],
            [
                -78.70947943633206,
                73.08464444264202
            ],
            [
                -78.05774202494081,
                73.32796437590473
            ],
            [
                -78.01442917748057,
                73.38393219071307
            ],
            [
                -79.05911417269789,
                73.06750598619296
            ],
            [
                -79.96216501557703,
                72.73915076254006
            ],
            [
                -80.95468948654216,
                72.51393836094677
            ],
            [
                -82.99372319075776,
                71.72769944471418
            ],
            [
                -84.87157059830867,
                70.951152736511
            ],
            [
                -85.29330861702473,
                70.71630890007721
            ],
            [
                -82.96401415473565,
                71.55517859915294
            ],
            [
                -79.9548173585623,
                72.77980229054135
            ],
            [
                -79.5530143012129,
                72.6733225751401
            ],
            [
                -79.3578469700215,
                72.6754387211987
            ],
            [
                -79.32219268754204,
                72.74046326363398
            ],
            [
                -79.42494389224903,
                72.8231532379619
            ],
            [
                -79.6449930226171,
                72.87826567969843
            ],
            [
                -79.80071181537622,
                72.89996251734007
            ],
            [
                -79.41795953692113,
                73.08573184486825
            ],
            [
                -78.45217270277261,
                73.11373420003767
            ],
            [
                -77.55078684500293,
                73.04577808552898
            ],
            [
                -77.36124172497978,
                72.9436797992414
            ],
            [
                -78.53097710407107,
                72.86925563907413
            ]
        ]
    },
    "properties": {
        "trajectory_id": 4855,
        "object_id": 402,
        "label": "F"
    }
}