{
    "type": "Feature",
    "geometry": {
        "type": "LineString",
        "coordinates": [
            [
                -81.15393222148109,
                72.26924484469606
            ],
            [
                -80.62099149488756,
                72.48783200806412
            ],
            [
                -79.79021604736847,
                72.90076190010109
            ],
            [
                -79.96208334187872,
                72.77999482906336
            ],
            [
                -80.2082750410962,
                72.6450112153229
            ],
            [
                -80.38207874809899,
                72.54777316605298
            ],
            [
                -80.39081774159585,
                72.54296608035895
            ],
            [
                -80.14181530029555,
                72.68527535734626
            ],
            [
                -79.75455347073489,
                72.9120611549588
            ],
            [
                -79.70811657667763,
                72.8879059585452
            ],
            [
                -79.69153592494511,
                72.73704076792289
            ],
            [
                -79.7131809291928,
                72.56057258406629
            ],
            [
                -79.72597034629965,
                72.47454546322848
            ],
            [
                -79.68282293314475,
                72.5950034616626
            ],
            [
                -79.75785918579388,
                72.8867341457245
            ],
            [
                -79.78258962110799,
                72.86290791905076
            ],
            [
                -80.02709337888759,
                72.89217481066353
            ],
            [
                -80.26972103377634,
                72.97265298252537
            ],
            [
                -80.34734112074787,
                73.03622282495186
            ],
            [
                -80.09682217477571,
                73.0147647282586
            ],
            [
                -79.6774749194353,
                72.93511591808259
            ],
            [
                -81.38071437932346,
                72.6021552450495
            ],
            [
                -82.13850844303713,
                72.5548827170176
            ],
            [
                -81.80994143848329,
                72.73805891995923
            ],
            [
                -80.93031486759223,
                72.96038367779948
            ],
            [
                -80.03493023229436,
                73.03055681446331
            ],
            [
                -79.71325536101347,
                72.9268520486614
            ],
            [
                -80.12044079699479,
                72.88354173506073
            ],
            [
                -80.23235374598984,
                72.89094282504394
            ],
            [
                -80.09307158919678,
                72.92682996515666
            ],
            [
                -79.8579982978423,
                72.95833902161058
            ],
            [
                -79.68253784315317,
                72.95260586061735
            ],
            [
                -79.6642529748149,
                72.93004114779774
            ],
            [
                -80.1221093222554,
                72.82478014612884
            ],
            [
                -79.58905750651903,
                72.75273342485568
            ],
            [
                -78.71643260221461,
                72.72295145629991
            ],
            [
                -78.21720361730767,
                72.74254139100078
            ],
            [
                -78.80433955976355,
                72.81861037949756
            ],
            [
                -79.80225520969806,
                72.89117226060652
            ],
            [
                -80.65077510299047,
                72.98486997852088
            ],
            [
                -80.96832215062832,
                73.00682832167446
            ],
            [
                -80.73536261449324,
                72.9632864827881
            ]
        ]
    },
    "properties": {
        "trajectory_id": 4878,
        "object_id": 407,
        "label": "M"
    }
}