{
    "type": "Feature",
    "geometry": {
        "type": "LineString",
        "coordinates": [
            [
                -79.91846813735926,
                72.7594375513494
            ],
            [
                -79.82120664379553,
                72.79309895076344
            ],
            [
                -79.37379182051714,
                72.72468166722922
            ],
            [
                -79.4708732054885,
                72.33180026503868
            ],
            [
                -79.56449665063256,
                72.29104192335546
            ],
            [
                -79.65020166708499,
                72.46295058822204
            ],
            [
                -79.72315277071095,
                72.707532062674
            ],
            [
                -79.77851447737564,
                72.88479214974704
            ],
            [
                -79.80872899972736,
                72.91038057150723
            ],
            [
                -80.14757638691293,
                72.8179237935164
            ],
            [
                -80.62772681187704,
                72.63322488576623
            ],
            [
                -80.97547247115148,
                72.45206957076178
            ],
            [
                -80.9171055612679,
                72.37024357100817
            ],
            [
                -80.17891827875809,
                72.48353260901064
            ],
            [
                -79.44311963480737,
                72.6799527935182
            ],
            [
                -80.21472624596778,
                72.73057439208227
            ],
            [
                -80.40944924287054,
                72.73950677877542
            ],
            [
                -80.19753517666837,
                72.72351080456389
            ],
            [
                -79.79576155767903,
                72.7042931823694
            ],
            [
                -79.42090589622066,
                72.70356062511378
            ],
            [
                -79.27455377906973,
                72.69920624008363
            ],
            [
                -80.0993964092458,
                72.83749126545483
            ],
            [
                -80.22867119293971,
                72.88281418334341
            ],
            [
                -79.97622524181011,
                72.87493490197707
            ],
            [
                -79.66842628922035,
                72.85584327863184
            ],
            [
                -79.63164206853389,
                72.86752917058378
            ],
            [
                -79.7411175746836,
                72.88820383598795
            ],
            [
                -79.5267502278034,
                72.87098523735061
            ],
            [
                -79.04790290672155,
                72.83066035332946
            ],
            [
                -78.62029355218937,
                72.79571684357896
            ],
            [
                -78.56088225806411,
                72.79473286050604
            ],
            [
                -79.18662911820311,
                72.85628655651773
            ],
            [
                -79.78355240338975,
                72.91687723287025
            ],
            [
                -80.4311291581937,
                72.94056459672663
            ],
            [
                -81.66270357315827,
                73.06540789505547
            ],
            [
                -82.7595436457894,
                73.19731521077018
            ],
            [
                -83.00291737359203,
                73.24219462678408
            ],
            [
                -81.67409275407209,
                73.10595422601051
            ],
            [
                -80.01175624710567,
                72.87499154244655
            ],
            [
                -81.69493800930407,
                72.70531697294464
            ],
            [
                -82.05116127913577,
                72.70354889445774
            ],
            [
                -81.56017784804443,
                72.79201068399196
            ]
        ]
    },
    "properties": {
        "trajectory_id": 4898,
        "object_id": 407,
        "label": "M"
    }
}