{
    "type": "Feature",
    "geometry": {
        "type": "LineString",
        "coordinates": [
            [
                -79.77762564972535,
                72.87366902304511
            ],
            [
                -80.20909048711354,
                72.9173906275107
            ],
            [
                -80.28578985792747,
                72.94606570277877
            ],
            [
                -82.71059011256057,
                73.40257707403626
            ],
            [
                -83.63650160215822,
                73.60174635750873
            ],
            [
                -83.26469055393314,
                73.55753896422442
            ],
            [
                -82.1565558900387,
                73.36017368854034
            ],
            [
                -80.8734965326278,
                73.09986932481337
            ],
            [
                -80.28687860929654,
                72.95487362783977
            ],
            [
                -79.49624263251073,
                72.86818204299323
            ],
            [
                -79.27392918093163,
                72.81534517834292
            ],
            [
                -79.50236557565326,
                72.79659638620963
            ],
            [
                -79.88509722428071,
                72.80992778929982
            ],
            [
                -80.12566953441933,
                72.85333151031985
            ],
            [
                -80.25527660633004,
                72.92546042096136
            ],
            [
                -78.86045183958275,
                72.62778775680344
            ],
            [
                -78.39095132072602,
                72.53479553436185
            ],
            [
                -78.78379358384517,
                72.63609867679116
            ],
            [
                -79.54335925440436,
                72.81071063803768
            ],
            [
                -80.17402895786701,
                72.93764487204737
            ],
            [
                -80.2922538452199,
                72.94108776654745
            ],
            [
                -80.15134800592153,
                73.04640644170239
            ],
            [
                -80.00561423807618,
                73.07011211560369
            ],
            [
                -79.90665336694785,
                73.03852170998887
            ],
            [
                -79.9050346374719,
                72.99725484778381
            ],
            [
                -80.05132729458366,
                72.99193115191436
            ],
            [
                -80.16850330788336,
                72.98650465001684
            ],
            [
                -80.84882226837118,
                73.33461778051783
            ],
            [
                -81.00446227103585,
                73.43773691896985
            ],
            [
                -80.75866658681825,
                73.33864054266112
            ],
            [
                -80.38564243896161,
                73.150098411806
            ],
            [
                -80.159597050709,
                72.98488028661875
            ],
            [
                -80.2415486773089,
                72.95079977066968
            ],
            [
                -80.18430804219967,
                72.9976208720583
            ],
            [
                -80.15943982203447,
                72.97396757681044
            ],
            [
                -80.11699213272587,
                72.90657524833195
            ],
            [
                -80.05218272775923,
                72.83728524947193
            ],
            [
                -79.96022936062009,
                72.80793894307953
            ],
            [
                -79.90071495453236,
                72.81965228693481
            ],
            [
                -79.99098232167474,
                72.79073169508978
            ],
            [
                -80.18346697664742,
                72.63554174142303
            ],
            [
                -80.36693909152498,
                72.46754350229375
            ]
        ]
    },
    "properties": {
        "trajectory_id": 4910,
        "object_id": 407,
        "label": "M"
    }
}