{
    "type": "Feature",
    "geometry": {
        "type": "LineString",
        "coordinates": [
            [
                -79.42965804250555,
                72.83932012336017
            ],
            [
                -79.92069482402621,
                72.85681288625788
            ],
            [
                -80.5939548920338,
                72.75231565616262
            ],
            [
                -81.13567324875265,
                72.61499948925251
            ],
            [
                -81.23208489640696,
                72.5340354417056
            ],
            [
                -80.569424837221,
                72.59859456969997
            ],
            [
                -78.9619440673488,
                72.86717848902049
            ],
            [
                -77.92014365887992,
                72.99658011694564
            ],
            [
                -77.74095048110078,
                72.9450338498651
            ],
            [
                -78.11873242275968,
                72.81653858502334
            ],
            [
                -78.7478573726049,
                72.7150932196649
            ],
            [
                -79.32269321938466,
                72.74469665103423
            ],
            [
                -79.51109621678962,
                72.81240888425982
            ],
            [
                -79.41317413921973,
                72.69981638214837
            ],
            [
                -79.22887480294244,
                72.66213212077756
            ],
            [
                -79.08694969520164,
                72.67704009378176
            ],
            [
                -79.1161503032411,
                72.72222429479532
            ],
            [
                -79.44522811430463,
                72.77536871745261
            ],
            [
                -78.60820266337876,
                72.91540981976293
            ],
            [
                -77.52576115034658,
                73.04162222793296
            ],
            [
                -77.5037462346521,
                73.04175472796109
            ],
            [
                -78.10996279972392,
                72.96829322165337
            ],
            [
                -78.91221572899067,
                72.87372361081584
            ],
            [
                -79.4783099058809,
                72.81053179725461
            ],
            [
                -79.91451371274867,
                72.81146483484882
            ],
            [
                -80.6661650753548,
                72.63916328236074
            ],
            [
                -81.00920404600446,
                72.33138928655731
            ],
            [
                -80.95888795657129,
                72.08440875245539
            ],
            [
                -80.53047413892891,
                72.09448758507195
            ],
            [
                -79.7392199249509,
                72.5578916894239
            ],
            [
                -78.8994135031468,
                72.58096863960161
            ],
            [
                -77.6656230450841,
                71.96919603759773
            ],
            [
                -77.27463957599764,
                72.04081920200505
            ],
            [
                -77.54203568837802,
                72.44666272665984
            ],
            [
                -78.28338397471583,
                72.83755120539843
            ],
            [
                -79.31425702750161,
                72.86430923205708
            ],
            [
                -78.94680650053856,
                72.70675659110408
            ],
            [
                -77.84873451686266,
                72.52121083023562
            ],
            [
                -77.83999124701666,
                72.55933182103126
            ],
            [
                -78.43573363007752,
                72.70436912874325
            ],
            [
                -79.15111860512215,
                72.83957231862371
            ],
            [
                -79.5013031112276,
                72.84819095592489
            ]
        ]
    },
    "properties": {
        "trajectory_id": 4924,
        "object_id": 417,
        "label": "M"
    }
}