{
    "type": "Feature",
    "geometry": {
        "type": "LineString",
        "coordinates": [
            [
                -78.97994961760057,
                72.47424954169057
            ],
            [
                -78.97604077193513,
                72.55685044831557
            ],
            [
                -79.94567320752769,
                72.79746746778977
            ],
            [
                -80.39870151973538,
                72.91977364992798
            ],
            [
                -80.6593231441166,
                73.06052965239611
            ],
            [
                -80.70597905117471,
                73.02359795434946
            ],
            [
                -80.62571640778087,
                72.91017624697965
            ],
            [
                -80.50558238080612,
                72.82146222147819
            ],
            [
                -80.43262413712154,
                72.85865356903662
            ],
            [
                -80.06161487284038,
                72.81059728845617
            ],
            [
                -79.36016713027792,
                72.63984113399175
            ],
            [
                -79.20775298167447,
                72.62702118819324
            ],
            [
                -79.43265963369485,
                72.70772708749531
            ],
            [
                -79.86317429300362,
                72.81754846833266
            ],
            [
                -80.32758416626554,
                72.89207496714
            ],
            [
                -80.15540460673456,
                72.80296407171838
            ],
            [
                -80.29998172779453,
                72.68916370413618
            ],
            [
                -81.1678756018424,
                72.76162094498228
            ],
            [
                -82.07549042176025,
                72.90778493000545
            ],
            [
                -82.33923038043008,
                73.01510479495442
            ],
            [
                -81.27549967073371,
                72.97102967557788
            ],
            [
                -80.40386892075561,
                72.89499366354171
            ],
            [
                -80.27980280002562,
                72.8983457398867
            ],
            [
                -80.0328455303832,
                72.89686706671523
            ],
            [
                -79.83348461219795,
                72.89390476975211
            ],
            [
                -79.85220754583946,
                72.89280597472221
            ],
            [
                -80.2595018316774,
                72.8969178073503
            ],
            [
                -80.37707869681955,
                73.03173111461169
            ],
            [
                -80.45743013955187,
                73.14198684876078
            ],
            [
                -80.5507109729783,
                72.99784126760616
            ],
            [
                -80.62580828604271,
                72.78200429555766
            ],
            [
                -80.65160916768906,
                72.67718585702497
            ],
            [
                -80.5970007068613,
                72.86609587641789
            ],
            [
                -80.531013579885,
                72.92479987954863
            ],
            [
                -82.28818793872378,
                73.14690359717501
            ],
            [
                -84.84524314395064,
                73.47924179265976
            ],
            [
                -86.64415219759624,
                73.71523954512358
            ],
            [
                -86.12688810169348,
                73.64832193368748
            ],
            [
                -81.73542385827463,
                73.07191403747238
            ],
            [
                -80.28367948838724,
                72.90650323194644
            ],
            [
                -80.22904094829269,
                72.76847047983064
            ],
            [
                -80.48336817091828,
                72.54154745222324
            ]
        ]
    },
    "properties": {
        "trajectory_id": 4979,
        "object_id": 428,
        "label": "F"
    }
}