{
    "type": "Feature",
    "geometry": {
        "type": "LineString",
        "coordinates": [
            [
                -80.27303609092192,
                72.98374541198308
            ],
            [
                -79.93052361581768,
                73.02101624859586
            ],
            [
                -79.19723266679985,
                72.96325672880862
            ],
            [
                -77.35826584404168,
                72.87720063735598
            ],
            [
                -77.20851906189753,
                72.84376924086123
            ],
            [
                -78.06416600095841,
                72.85484564239069
            ],
            [
                -79.2413803418154,
                72.90231294501064
            ],
            [
                -80.05633576505943,
                72.9780542517874
            ],
            [
                -80.0821026486471,
                72.98783754274807
            ],
            [
                -79.93493259036919,
                72.97105758776559
            ],
            [
                -79.82279939362456,
                72.95582059827616
            ],
            [
                -79.77646852393048,
                72.94801216497446
            ],
            [
                -79.82670544680411,
                72.95351787855518
            ],
            [
                -80.00427562776271,
                72.97822332971299
            ],
            [
                -80.09767533068384,
                72.97096960727146
            ],
            [
                -80.37133312597672,
                73.03147536059606
            ],
            [
                -80.69421793358615,
                73.20623825426567
            ],
            [
                -80.89137223348011,
                73.36086291956805
            ],
            [
                -80.78783850562668,
                73.36095398779096
            ],
            [
                -80.20865922999391,
                73.07211609022228
            ],
            [
                -80.07143865203557,
                73.01758620374618
            ],
            [
                -80.06714704396055,
                73.05181019620946
            ],
            [
                -79.97222475192997,
                73.02771229840425
            ],
            [
                -79.86545819729594,
                72.98230266422671
            ],
            [
                -79.82563380141059,
                72.95259144757304
            ],
            [
                -79.93153798562597,
                72.97558880233937
            ],
            [
                -80.45062259084449,
                73.23169489028768
            ],
            [
                -81.31618152618863,
                73.67431942655008
            ],
            [
                -81.37649415475674,
                73.63264262602861
            ],
            [
                -80.95290797004807,
                73.3458826279415
            ],
            [
                -80.36677046556173,
                73.05325757150698
            ],
            [
                -79.93942913479707,
                72.9939855959433
            ],
            [
                -79.89858968925314,
                72.9932791458481
            ],
            [
                -79.90054004444544,
                72.96478162703325
            ],
            [
                -79.92125990283809,
                72.96751808926942
            ],
            [
                -79.94199246714345,
                72.98566424803933
            ],
            [
                -79.94398094007377,
                73.00339581882567
            ],
            [
                -79.90846852434137,
                73.00488851711117
            ],
            [
                -81.47282094117263,
                72.84768615666323
            ],
            [
                -83.08434980568566,
                72.64024305690127
            ],
            [
                -82.76510033921544,
                72.57975773293477
            ],
            [
                -81.49180119592194,
                72.63805564497191
            ]
        ]
    },
    "properties": {
        "trajectory_id": 5011,
        "object_id": 430,
        "label": "F"
    }
}