{
    "type": "Feature",
    "geometry": {
        "type": "LineString",
        "coordinates": [
            [
                -80.09062,
                72.90984
            ],
            [
                -79.10692816961281,
                72.66240454766022
            ],
            [
                -78.9067314321645,
                72.62070472091038
            ],
            [
                -79.28302896476897,
                72.73099104788157
            ],
            [
                -79.66274186235634,
                72.8148983257193
            ],
            [
                -80.98460589993714,
                72.20904570475905
            ],
            [
                -81.71567299164268,
                71.96080329153727
            ],
            [
                -81.00726049902957,
                72.33703063299109
            ],
            [
                -79.97276044623769,
                72.77070594713108
            ],
            [
                -79.9813037023166,
                72.77876542745705
            ],
            [
                -80.48947303376987,
                72.75204030507592
            ],
            [
                -80.29396267752432,
                72.87726339270168
            ],
            [
                -79.88186592525614,
                72.92388173720109
            ],
            [
                -79.6477921532778,
                72.84808091820776
            ],
            [
                -80.63489465427996,
                72.6093205785396
            ],
            [
                -80.62450336708707,
                72.68236935968821
            ],
            [
                -80.11084125244136,
                72.82536685088886
            ],
            [
                -79.67567497466183,
                72.82185622417464
            ],
            [
                -80.57543792608952,
                72.88369171340698
            ],
            [
                -80.5602084232908,
                72.883590300111
            ],
            [
                -79.99604225266506,
                72.8454828651297
            ],
            [
                -79.64033815029312,
                72.81941253112704
            ],
            [
                -79.99898254507082,
                72.88040661711551
            ],
            [
                -80.28798295629117,
                72.97343419331023
            ],
            [
                -80.22069235926287,
                72.99867446034794
            ],
            [
                -79.83235895656381,
                72.88041369255993
            ],
            [
                -79.96991918049076,
                72.83526670436063
            ],
            [
                -81.44833911824196,
                72.9454289810535
            ],
            [
                -82.52833459276764,
                73.04864124587115
            ],
            [
                -81.13865109003616,
                72.94960290426327
            ],
            [
                -79.56929743127175,
                72.88344325668591
            ],
            [
                -79.11603608886865,
                72.98742097085777
            ],
            [
                -78.80311220023573,
                72.92133115941593
            ],
            [
                -79.09467359840009,
                72.834021947761
            ],
            [
                -79.59921855413499,
                72.83894589122276
            ],
            [
                -80.87566575753613,
                72.72859079469961
            ],
            [
                -80.84344590905715,
                72.76985836913798
            ],
            [
                -80.20048833406787,
                72.84078013593256
            ],
            [
                -79.70938949766298,
                72.82813117020395
            ],
            [
                -81.09980019464494,
                74.26356137966266
            ],
            [
                -81.5171873170393,
                74.7851621277553
            ],
            [
                -80.99074723417725,
                74.28612130073729
            ],
            [
                -79.72231812510127,
                72.82950706504208
            ],
            [
                -79.95392104925018,
                73.59108169073929
            ],
            [
                -80.45567759295561,
                73.78552227530561
            ],
            [
                -80.67279965558086,
                73.38250963723279
            ],
            [
                -79.99744748551102,
                72.89694698374784
            ],
            [
                -78.60214804348762,
                72.90676237973722
            ],
            [
                -77.69129661724463,
                72.70494612350217
            ],
            [
                -78.38865967578428,
                72.4223945752811
            ],
            [
                -79.44533888566137,
                72.59126083186324
            ],
            [
                -79.76499549824806,
                73.00131874121855
            ],
            [
                -81.42967843207981,
                74.77556595032446
            ],
            [
                -83.1804221202675,
                76.4853067840774
            ],
            [
                -82.51609424394815,
                75.70605108862674
            ],
            [
                -79.72949,
                72.83973
            ]
        ]
    },
    "properties": {
        "trajectory_id": 506,
        "object_id": 257,
        "label": "M"
    }
}