{
    "type": "Feature",
    "geometry": {
        "type": "LineString",
        "coordinates": [
            [
                -80.04834375211381,
                73.10632361549858
            ],
            [
                -80.12969280293363,
                73.09788680488373
            ],
            [
                -80.15150108265276,
                73.1024379143653
            ],
            [
                -80.03033275095804,
                73.13051390002603
            ],
            [
                -79.85881338635326,
                73.17628785844471
            ],
            [
                -79.75690039999273,
                73.20375030799688
            ],
            [
                -79.84455120303099,
                73.17689176705818
            ],
            [
                -79.99119378285558,
                73.13468603935196
            ],
            [
                -80.24120754405263,
                73.12297962667913
            ],
            [
                -80.36760097813027,
                73.10852958761458
            ],
            [
                -80.38148433084044,
                73.0994870532769
            ],
            [
                -80.31775646237627,
                73.10090017601931
            ],
            [
                -80.21131623293087,
                73.11781710819503
            ],
            [
                -80.13808242032314,
                73.13306435925146
            ],
            [
                -79.93584393017227,
                73.72976355953044
            ],
            [
                -80.34343266190042,
                74.00770565840129
            ],
            [
                -80.91598939269039,
                74.00917427747243
            ],
            [
                -81.18340458400966,
                73.78515042978108
            ],
            [
                -80.67556869732559,
                73.38661512836421
            ],
            [
                -80.00515022953438,
                73.12798391800801
            ],
            [
                -81.14755079761349,
                72.95908691233834
            ],
            [
                -82.14799353516936,
                73.07001847424272
            ],
            [
                -82.70245189625527,
                73.28921643427326
            ],
            [
                -82.52110867313966,
                73.4396581510181
            ],
            [
                -81.31414665809152,
                73.34432098306544
            ],
            [
                -80.08480501548141,
                73.1100578181328
            ],
            [
                -80.35185906090604,
                73.12282307795857
            ],
            [
                -80.41419397997397,
                73.11077208257619
            ],
            [
                -80.34375577534755,
                73.09237517768665
            ],
            [
                -80.21336752622952,
                73.08618177906615
            ],
            [
                -80.09585231182274,
                73.11074130249088
            ],
            [
                -80.17969303742363,
                73.14484994067547
            ],
            [
                -77.83319178059054,
                72.97801201539934
            ],
            [
                -77.42107100507562,
                72.97115890484582
            ],
            [
                -78.20509015440706,
                73.05082090619089
            ],
            [
                -79.3757797289665,
                73.13974586446162
            ],
            [
                -80.12367022913443,
                73.1606816246849
            ],
            [
                -80.13350054045108,
                73.17016792608523
            ],
            [
                -80.49477496526647,
                73.36489200544241
            ],
            [
                -80.6192459256544,
                73.29678101472133
            ],
            [
                -80.5679181701062,
                73.11037465296785
            ],
            [
                -80.40179644711326,
                72.95021261922778
            ]
        ]
    },
    "properties": {
        "trajectory_id": 5070,
        "object_id": 432,
        "label": "F"
    }
}