{
    "type": "Feature",
    "geometry": {
        "type": "LineString",
        "coordinates": [
            [
                -79.90831,
                72.90713
            ],
            [
                -80.31402750203813,
                72.82613787029824
            ],
            [
                -80.92786191757233,
                72.84160884677739
            ],
            [
                -80.9898645970146,
                72.89958203697567
            ],
            [
                -79.85758014874179,
                72.91204431549933
            ],
            [
                -79.34929146005332,
                73.07061504529746
            ],
            [
                -78.92886786997072,
                73.01907878517255
            ],
            [
                -79.06969770943506,
                72.84604347731906
            ],
            [
                -79.69877710390793,
                72.87900465834248
            ],
            [
                -80.65402583502934,
                72.58274209111
            ],
            [
                -80.84993253414663,
                72.72210204274414
            ],
            [
                -80.43051278754494,
                73.09667451998432
            ],
            [
                -79.9475652752666,
                73.10928641391962
            ],
            [
                -79.69976702515869,
                72.89760730842968
            ],
            [
                -79.36242167063416,
                72.98298645247338
            ],
            [
                -79.55306513168797,
                73.12617673795616
            ],
            [
                -79.84394786853551,
                73.10722848481034
            ],
            [
                -80.0779834557868,
                73.07332287690639
            ],
            [
                -80.6485188145161,
                73.42409710980755
            ],
            [
                -80.56478220307366,
                72.8877873680758
            ],
            [
                -80.22427102945855,
                72.4670444851271
            ],
            [
                -79.89203938165198,
                72.9121562480725
            ],
            [
                -80.93536878416072,
                72.69075370248163
            ],
            [
                -83.90935569637394,
                72.68077289000242
            ],
            [
                -84.98328190686391,
                72.8241076478008
            ],
            [
                -80.22805402035787,
                72.92501118314537
            ],
            [
                -80.12755940694908,
                72.74077090583955
            ],
            [
                -79.20025355240473,
                72.62755874362972
            ],
            [
                -78.10219948475343,
                72.69535789683837
            ],
            [
                -78.8669472356819,
                72.85584195639439
            ],
            [
                -80.61008871725082,
                73.00692182966026
            ],
            [
                -81.49916027777704,
                73.14430652295675
            ],
            [
                -80.77836824158462,
                73.08893531276819
            ],
            [
                -79.88289495052604,
                72.97521989225682
            ],
            [
                -80.0591137952707,
                72.92920443119635
            ],
            [
                -80.77983589382019,
                72.87950199619621
            ],
            [
                -80.56715116546556,
                72.76198210984761
            ],
            [
                -80.0539979825283,
                72.75002409492211
            ],
            [
                -79.94565390353628,
                72.95038498853826
            ],
            [
                -80.4511989294544,
                73.04633263901754
            ],
            [
                -80.69642004967751,
                73.04043437082977
            ],
            [
                -80.47398293192302,
                72.96677563092115
            ],
            [
                -79.88391315694565,
                72.91937182838633
            ],
            [
                -79.16988699226623,
                73.59979467187416
            ],
            [
                -79.05389931059108,
                74.59216276606251
            ],
            [
                -79.53661545438173,
                74.80240684707462
            ],
            [
                -79.84406556839204,
                73.58892369671571
            ],
            [
                -79.89861063852797,
                72.62132023484861
            ],
            [
                -80.43638994994039,
                72.44141665280151
            ],
            [
                -80.88568395276423,
                72.63711883553117
            ],
            [
                -80.53334581403662,
                72.87562090831368
            ],
            [
                -79.81771325787224,
                72.85881371994398
            ],
            [
                -79.54221654867716,
                72.70868860090918
            ],
            [
                -79.53343187033498,
                72.68036832892449
            ],
            [
                -79.6826875598382,
                72.75758446626311
            ],
            [
                -79.83279,
                72.89919
            ]
        ]
    },
    "properties": {
        "trajectory_id": 543,
        "object_id": 263,
        "label": "M"
    }
}