{
    "type": "Feature",
    "geometry": {
        "type": "LineString",
        "coordinates": [
            [
                -79.90864,
                73.14671
            ],
            [
                -80.4518331734557,
                73.16377116686688
            ],
            [
                -80.55410006741965,
                73.58095636596867
            ],
            [
                -80.03858221941991,
                73.82884029073524
            ],
            [
                -79.70894232436241,
                73.09604587315675
            ],
            [
                -80.37109550981036,
                74.46443249069664
            ],
            [
                -80.26902797215743,
                75.79230365607779
            ],
            [
                -79.36788364605525,
                74.99709405979598
            ],
            [
                -79.27465656694702,
                73.5845588431037
            ],
            [
                -79.8645989904224,
                73.0904663995516
            ],
            [
                -79.2900515052551,
                71.22761720224393
            ],
            [
                -78.54499615588057,
                68.982242613055
            ],
            [
                -78.76656348660245,
                69.71858264710967
            ],
            [
                -79.90165546003847,
                73.29024637034335
            ],
            [
                -79.67210547481665,
                71.90021048252987
            ],
            [
                -79.74066969044677,
                72.06359480064768
            ],
            [
                -79.88452169438713,
                72.8118379692408
            ],
            [
                -79.8806197555847,
                73.1544903228223
            ],
            [
                -79.99316680222373,
                73.035112266831
            ],
            [
                -80.06329142529621,
                72.78298252483113
            ],
            [
                -80.0109871399789,
                72.64204354338713
            ],
            [
                -79.8043439960746,
                72.84713686388196
            ],
            [
                -80.02794490178584,
                73.11149124737452
            ],
            [
                -80.57434352368954,
                73.12651877109045
            ],
            [
                -80.91520594489702,
                73.18459933180318
            ],
            [
                -80.32854366649806,
                73.17067527310232
            ],
            [
                -79.98633190347603,
                73.15610222718064
            ],
            [
                -80.46461645183703,
                73.01612058330171
            ],
            [
                -80.8279357141972,
                72.79207524286694
            ],
            [
                -80.33490658643399,
                72.75808397320161
            ],
            [
                -79.4360875337906,
                72.03109120621728
            ],
            [
                -78.37914261518574,
                69.82641386700969
            ],
            [
                -78.53855922084398,
                70.88293081363084
            ],
            [
                -79.32600647256774,
                72.71016125459073
            ],
            [
                -79.88048268060595,
                73.14566592532809
            ],
            [
                -79.9292830945487,
                73.15084112902352
            ],
            [
                -79.90017577440032,
                73.14746302367874
            ],
            [
                -79.87342326939742,
                73.15123951216096
            ],
            [
                -79.8540197872933,
                73.1603533334573
            ],
            [
                -79.09587687095184,
                70.47683436314982
            ],
            [
                -79.1726416110998,
                70.41718301040534
            ],
            [
                -79.67103327471568,
                71.92165443502361
            ],
            [
                -79.891396785181,
                73.13164073700715
            ],
            [
                -78.9355574698788,
                73.05152399842632
            ],
            [
                -78.63496225469584,
                72.86668263482866
            ],
            [
                -79.15548608177764,
                72.74134333830797
            ],
            [
                -79.73876481521616,
                72.79754475897079
            ],
            [
                -79.68938724255776,
                73.23655842349658
            ],
            [
                -79.91858059593565,
                73.08408694124938
            ],
            [
                -80.42236106038283,
                72.78628588518762
            ],
            [
                -80.3683715338456,
                72.85143474702443
            ],
            [
                -79.54944638263545,
                73.1834052430799
            ],
            [
                -78.871153866908,
                73.14885954796553
            ],
            [
                -78.87094210767003,
                73.00147946785827
            ],
            [
                -79.36948800875977,
                72.86326890762943
            ],
            [
                -79.77082,
                72.83714
            ]
        ]
    },
    "properties": {
        "trajectory_id": 591,
        "object_id": 264,
        "label": "F"
    }
}