{
    "type": "Feature",
    "geometry": {
        "type": "LineString",
        "coordinates": [
            [
                -80.21207,
                72.8031
            ],
            [
                -79.30824986795818,
                72.81165373696636
            ],
            [
                -79.33535983635261,
                72.78903067445042
            ],
            [
                -79.5831160885096,
                72.80494403022487
            ],
            [
                -79.71389790078598,
                72.84806934222345
            ],
            [
                -79.52611053153711,
                72.92550252867711
            ],
            [
                -79.66390997834839,
                72.93667398098079
            ],
            [
                -79.83950040996254,
                72.89798020672684
            ],
            [
                -79.5834861987027,
                72.75718027928735
            ],
            [
                -82.04930766638022,
                74.30232983844647
            ],
            [
                -81.72618012414802,
                74.1035440452366
            ],
            [
                -80.2812902209053,
                73.19975325624615
            ],
            [
                -79.74798879636019,
                72.87678396116021
            ],
            [
                -81.14209263433935,
                72.50257474855383
            ],
            [
                -80.98448311682722,
                72.53940218121943
            ],
            [
                -80.13456046177751,
                72.75002929489503
            ],
            [
                -79.81910321952482,
                72.82817245962295
            ],
            [
                -79.71744728375056,
                72.46990344242732
            ],
            [
                -78.15390702002925,
                72.29261324701866
            ],
            [
                -78.07462184273724,
                72.51573619408649
            ],
            [
                -79.93683483363102,
                72.83960979179227
            ],
            [
                -81.30036300809697,
                72.79423488528337
            ],
            [
                -81.88428000101189,
                72.97300727189833
            ],
            [
                -81.01472759165067,
                73.02532239267876
            ],
            [
                -79.74748507937018,
                72.86692006257285
            ],
            [
                -79.78314212086302,
                72.83993503210345
            ],
            [
                -79.7779955427586,
                72.82964193655374
            ],
            [
                -79.74481291394409,
                72.84790587386316
            ],
            [
                -79.72672506398561,
                72.86771660109393
            ],
            [
                -79.77238655609987,
                72.87588597899965
            ],
            [
                -79.82237536119086,
                72.87499142903584
            ],
            [
                -79.78728772215219,
                72.85468956941862
            ],
            [
                -79.6774556592052,
                72.83810480265637
            ],
            [
                -78.61035240251317,
                72.81868644434694
            ],
            [
                -77.65831122133176,
                72.80773507779024
            ],
            [
                -78.75356908198609,
                72.8345409153559
            ],
            [
                -79.73411191877557,
                72.8101262969492
            ],
            [
                -79.52428032977575,
                72.71135139701488
            ],
            [
                -79.39077201372561,
                72.6806990744505
            ],
            [
                -79.63451818283728,
                72.80083208757655
            ],
            [
                -80.03812693677408,
                72.71824272327564
            ],
            [
                -81.54295704091899,
                72.88281129947242
            ],
            [
                -82.6104516174538,
                73.18883430933364
            ],
            [
                -81.28186350097359,
                73.08137250316484
            ],
            [
                -79.53752053253692,
                72.94640329735873
            ],
            [
                -78.86257935644258,
                73.06117012193133
            ],
            [
                -78.92598976817087,
                73.02852352351674
            ],
            [
                -79.79751429297818,
                72.87959946585396
            ],
            [
                -80.7587868366323,
                73.35364742292768
            ],
            [
                -85.07734142809363,
                74.76107764011383
            ],
            [
                -87.464607130042,
                75.27244795503813
            ],
            [
                -81.3285568681712,
                73.20875028424376
            ],
            [
                -79.5853698548376,
                72.60350686980124
            ],
            [
                -79.32028985548222,
                72.59104022081118
            ],
            [
                -79.47901498175743,
                72.78080516943848
            ],
            [
                -79.91265,
                72.82449
            ]
        ]
    },
    "properties": {
        "trajectory_id": 635,
        "object_id": 274,
        "label": "M"
    }
}