{
    "type": "Feature",
    "geometry": {
        "type": "LineString",
        "coordinates": [
            [
                -80.06222,
                73.09988
            ],
            [
                -80.52917525274044,
                73.32887607687859
            ],
            [
                -81.16616035412105,
                73.31580099694582
            ],
            [
                -81.27770172511929,
                73.08508622413365
            ],
            [
                -80.41170716640073,
                73.06690574196732
            ],
            [
                -79.35449145695723,
                73.34501019688389
            ],
            [
                -79.05779358677299,
                73.76604204956473
            ],
            [
                -79.8380642746393,
                73.85150865105209
            ],
            [
                -80.31537407536135,
                73.47820291683585
            ],
            [
                -80.02827640824104,
                73.04501017279482
            ],
            [
                -80.35154734818585,
                73.13139284216696
            ],
            [
                -80.72954073961318,
                73.75080808298526
            ],
            [
                -80.66526870158921,
                73.86559159258564
            ],
            [
                -80.08178053981389,
                73.12433647756141
            ],
            [
                -80.22886571363736,
                73.10006503397054
            ],
            [
                -80.21824919316734,
                73.1603090184932
            ],
            [
                -80.13811149671561,
                73.1875623145746
            ],
            [
                -79.99822875645441,
                73.1174838541779
            ],
            [
                -78.78571496976784,
                72.5548204152505
            ],
            [
                -78.78123846185102,
                72.40202538769772
            ],
            [
                -79.61139819450551,
                72.6773829176291
            ],
            [
                -80.02884646290455,
                73.10536644803237
            ],
            [
                -77.82495184476754,
                72.91960582601025
            ],
            [
                -76.96840814015175,
                72.90531010246357
            ],
            [
                -78.51177047103025,
                73.09018298110136
            ],
            [
                -80.01047793893879,
                73.13734118501696
            ],
            [
                -79.94214872681624,
                73.16127587071324
            ],
            [
                -79.77169506870628,
                73.10935593512174
            ],
            [
                -79.83445825161797,
                72.99759258102384
            ],
            [
                -80.02759387503303,
                73.02750470666597
            ],
            [
                -80.4637591550448,
                73.16876106083593
            ],
            [
                -81.2248497305501,
                73.23641875512178
            ],
            [
                -81.14895204607389,
                73.19967155649383
            ],
            [
                -80.56408670718486,
                73.1476639726178
            ],
            [
                -80.14770757072759,
                73.14567718622384
            ],
            [
                -80.02491152811027,
                73.06562412677474
            ],
            [
                -80.20137074918321,
                72.454840920321
            ],
            [
                -80.31582907267598,
                72.23726041339431
            ],
            [
                -79.98732821878457,
                73.11729959386089
            ],
            [
                -79.24389263431539,
                73.22545963858904
            ],
            [
                -78.94108391081812,
                73.13040673382953
            ],
            [
                -79.26482929896713,
                73.01200061598608
            ],
            [
                -80.07087977779906,
                73.13075664640213
            ],
            [
                -80.47333756385244,
                73.13245567663776
            ],
            [
                -80.76252166300598,
                73.1456628267402
            ],
            [
                -80.64065711552755,
                73.15297839138557
            ],
            [
                -80.16983239059658,
                73.13230370985524
            ],
            [
                -80.32848136307757,
                73.15278088310284
            ],
            [
                -80.3734392369881,
                73.16319899632263
            ],
            [
                -80.15228893026998,
                73.14695098713707
            ],
            [
                -80.01892503214636,
                73.12287407229772
            ],
            [
                -80.05652779004735,
                73.19831043128724
            ],
            [
                -80.25910350748516,
                73.5231314264328
            ],
            [
                -80.30012567033802,
                73.59822623582076
            ],
            [
                -80.19507948036367,
                73.39290123432994
            ],
            [
                -80.0884,
                73.13444
            ]
        ]
    },
    "properties": {
        "trajectory_id": 655,
        "object_id": 276,
        "label": "F"
    }
}