{
    "type": "Feature",
    "geometry": {
        "type": "LineString",
        "coordinates": [
            [
                -80.14218,
                73.00887
            ],
            [
                -81.03210645945254,
                73.20457092109939
            ],
            [
                -84.3155153065563,
                73.85846454262378
            ],
            [
                -86.57797446802712,
                74.27749192199349
            ],
            [
                -84.17009319533022,
                73.77812934765053
            ],
            [
                -80.06792669267429,
                72.95975040687925
            ],
            [
                -79.9129561456215,
                72.79675609566326
            ],
            [
                -79.76125387984743,
                72.62895883516651
            ],
            [
                -79.72628277421026,
                72.59553082033719
            ],
            [
                -79.9215057075683,
                72.83564424612338
            ],
            [
                -81.74316029627704,
                73.43797386383967
            ],
            [
                -82.97311495092956,
                73.51596841871608
            ],
            [
                -82.3879161545515,
                73.07335389742603
            ],
            [
                -80.9620956759787,
                72.76816102242435
            ],
            [
                -80.08837478546917,
                72.96424139753874
            ],
            [
                -80.17372453178311,
                72.96156251737246
            ],
            [
                -79.95115964682208,
                73.10368877927178
            ],
            [
                -79.7399696683948,
                73.20279164110406
            ],
            [
                -79.94066649455772,
                73.04254755008166
            ],
            [
                -80.31315750137426,
                72.75863201260051
            ],
            [
                -81.46760383309567,
                71.32941843039288
            ],
            [
                -82.38786053780032,
                70.00671607901657
            ],
            [
                -81.91621181038903,
                70.50044352486765
            ],
            [
                -80.15469056600888,
                73.00815464483925
            ],
            [
                -80.24321203149242,
                72.45208332383397
            ],
            [
                -80.35308220019478,
                72.62234739748686
            ],
            [
                -80.31526719704596,
                73.02454539579182
            ],
            [
                -80.07341359193222,
                73.08685375638576
            ],
            [
                -79.58348910354891,
                72.90856441056603
            ],
            [
                -78.828017560475,
                73.46577569243468
            ],
            [
                -78.8209370365879,
                74.36515687265639
            ],
            [
                -79.28445037229835,
                74.52534488743265
            ],
            [
                -79.97677961544738,
                72.98225226253832
            ],
            [
                -79.42300606598612,
                73.21847427554688
            ],
            [
                -79.40751428065614,
                73.2547449149468
            ],
            [
                -79.79124168243605,
                73.11297718735291
            ],
            [
                -80.09179624271394,
                72.9842178280493
            ],
            [
                -80.7257911807218,
                72.81339643491717
            ],
            [
                -81.65203686213971,
                72.5248443871793
            ],
            [
                -81.24112113215273,
                72.55560382255054
            ],
            [
                -80.41159232933094,
                72.76539293481858
            ],
            [
                -80.06311224959663,
                72.98879640322187
            ],
            [
                -81.05207821210183,
                72.97034865179059
            ],
            [
                -81.7318444413982,
                73.03743003593324
            ],
            [
                -81.4682072237415,
                73.11622023799745
            ],
            [
                -80.56554421655653,
                73.07387349233969
            ],
            [
                -80.2224880040394,
                73.08537448821163
            ],
            [
                -80.57981260161444,
                73.59941973838309
            ],
            [
                -79.90406845884928,
                73.3660113087586
            ],
            [
                -79.3517319272411,
                72.96582125604434
            ],
            [
                -80.07746617621265,
                72.9790973564635
            ],
            [
                -80.16339820382552,
                72.99702848320406
            ],
            [
                -80.15974414510741,
                72.96977750896897
            ],
            [
                -80.06029331892599,
                72.90895894416144
            ],
            [
                -80.02968085373443,
                72.91541899410524
            ],
            [
                -80.02512,
                72.984
            ]
        ]
    },
    "properties": {
        "trajectory_id": 681,
        "object_id": 278,
        "label": "M"
    }
}