{
    "type": "Feature",
    "geometry": {
        "type": "LineString",
        "coordinates": [
            [
                -80.05233,
                72.95682
            ],
            [
                -79.78567394975673,
                72.98366123761757
            ],
            [
                -79.671970664931,
                73.0207843184802
            ],
            [
                -79.8133253533921,
                73.0300132090816
            ],
            [
                -80.01482550274063,
                72.99763309144521
            ],
            [
                -79.91561085591059,
                73.12400573571186
            ],
            [
                -79.74659333299465,
                73.27806315622722
            ],
            [
                -79.76224340596538,
                73.19699233056917
            ],
            [
                -79.91901000375539,
                73.03540423506087
            ],
            [
                -79.99780023745429,
                72.99675548872939
            ],
            [
                -79.13919561351632,
                73.006535297093
            ],
            [
                -78.13711730999611,
                72.93248963427635
            ],
            [
                -78.52908323116003,
                72.90353312235501
            ],
            [
                -80.0078527871966,
                72.96652479858005
            ],
            [
                -81.21903196535857,
                73.98575784651759
            ],
            [
                -83.7251967567198,
                75.57345975150966
            ],
            [
                -84.26277575831418,
                75.7945043938636
            ],
            [
                -80.08431362468147,
                73.01301170045016
            ],
            [
                -86.16498118564321,
                74.2735650957415
            ],
            [
                -100.21011696379988,
                78.30184299607397
            ],
            [
                -105.48921511092823,
                80.10654527829132
            ],
            [
                -84.96407898227942,
                74.39435755026166
            ],
            [
                -80.14837226332077,
                73.07176979979519
            ],
            [
                -78.57499919557492,
                73.02531731794987
            ],
            [
                -77.0546710754903,
                72.88357660064086
            ],
            [
                -78.4185342684959,
                72.89740290099309
            ],
            [
                -80.09403137893749,
                72.94585906557526
            ],
            [
                -80.06547183215277,
                72.91171715003884
            ],
            [
                -79.97531811080395,
                72.92510660910953
            ],
            [
                -79.97393911323297,
                72.96249511140442
            ],
            [
                -80.11447331921897,
                72.96579900309895
            ],
            [
                -80.60974715734511,
                72.73766830413953
            ],
            [
                -80.63920985342708,
                72.6051282601595
            ],
            [
                -80.34194074510495,
                72.71333193298364
            ],
            [
                -80.0310586355722,
                72.9749228279435
            ],
            [
                -79.62138920517306,
                73.07524118832417
            ],
            [
                -80.24347292564497,
                73.23032497941443
            ],
            [
                -80.71149684782512,
                73.24819221811579
            ],
            [
                -80.04927810989034,
                72.97772151096582
            ],
            [
                -78.06135570465605,
                72.64148646469653
            ],
            [
                -77.73344343626866,
                72.63537397445835
            ],
            [
                -78.88534184864444,
                72.86148747027117
            ],
            [
                -80.01480933855255,
                72.99055177197094
            ],
            [
                -80.52454183409782,
                72.74063322296556
            ],
            [
                -80.73292026354225,
                72.59945671412646
            ],
            [
                -80.37819767231696,
                72.74919667708019
            ],
            [
                -80.04600726968965,
                72.9512718163927
            ],
            [
                -79.50541100904137,
                73.31943716148956
            ],
            [
                -78.90810518467254,
                73.64314749739835
            ],
            [
                -79.31715600330742,
                73.37481109768738
            ],
            [
                -79.93244114678686,
                73.02083164295523
            ],
            [
                -80.05954193688812,
                72.97164922255948
            ],
            [
                -78.86817626728246,
                72.72071227274441
            ],
            [
                -77.32031138959638,
                72.38835872699765
            ],
            [
                -77.60043472721571,
                72.44661170927577
            ],
            [
                -80.04507,
                72.97168
            ]
        ]
    },
    "properties": {
        "trajectory_id": 682,
        "object_id": 278,
        "label": "M"
    }
}