{
    "type": "Feature",
    "geometry": {
        "type": "LineString",
        "coordinates": [
            [
                -80.06776,
                72.99848
            ],
            [
                -80.02399104335132,
                73.0050591531689
            ],
            [
                -79.78229263483466,
                73.14678487288016
            ],
            [
                -79.64157662021675,
                73.23249479535603
            ],
            [
                -79.92404531681055,
                73.04109670296955
            ],
            [
                -80.17998456304775,
                72.60949966347032
            ],
            [
                -80.42833615090488,
                72.50941817961353
            ],
            [
                -80.49760379494097,
                72.8111175434254
            ],
            [
                -80.22694974015774,
                73.01137712648602
            ],
            [
                -80.47802190646516,
                73.03445531610059
            ],
            [
                -81.69430438333865,
                73.12702223851379
            ],
            [
                -82.09528516054986,
                73.11396617987012
            ],
            [
                -81.17315385921759,
                73.03239741180388
            ],
            [
                -81.59626798228713,
                73.25131436042632
            ],
            [
                -83.74221886033138,
                73.43130732225433
            ],
            [
                -83.5808471381163,
                73.14376855901837
            ],
            [
                -81.88452668856755,
                72.86330964228318
            ],
            [
                -80.18993868582767,
                72.95946783937033
            ],
            [
                -79.89879124439582,
                72.80539831425948
            ],
            [
                -79.41435069563022,
                72.72661636121897
            ],
            [
                -79.31930114516457,
                72.78248256655915
            ],
            [
                -80.03896077567964,
                72.96701582154567
            ],
            [
                -79.73573852468668,
                72.91347266081108
            ],
            [
                -78.78634284534023,
                72.79865351649732
            ],
            [
                -78.39663214844037,
                72.76841044412033
            ],
            [
                -79.88988494332646,
                72.96911455539093
            ],
            [
                -80.61360841135999,
                72.1872443824534
            ],
            [
                -80.87634274666708,
                71.91679243151937
            ],
            [
                -80.52885960067661,
                72.4468970015516
            ],
            [
                -80.11954938654476,
                72.95561555364468
            ],
            [
                -80.06383695404152,
                73.03215107913292
            ],
            [
                -80.66732335264204,
                73.18320448294398
            ],
            [
                -81.28383147176505,
                73.26323626526292
            ],
            [
                -80.9930454846918,
                73.16040794822327
            ],
            [
                -80.05572131836958,
                72.94622963913267
            ],
            [
                -79.85275376591262,
                72.70729765333411
            ],
            [
                -80.03098349826422,
                72.755481939021
            ],
            [
                -80.19928085114364,
                72.90191633082925
            ],
            [
                -80.08994544934727,
                72.94905251544132
            ],
            [
                -79.81862068135995,
                72.99701715795922
            ],
            [
                -79.73317939393651,
                72.95132372876284
            ],
            [
                -79.82702327318276,
                72.91179639270295
            ],
            [
                -80.07657939799263,
                72.98558427588083
            ],
            [
                -79.94143902786344,
                72.99652416451002
            ],
            [
                -79.84054560905555,
                73.0114173072857
            ],
            [
                -79.85390794022014,
                73.0048950762386
            ],
            [
                -79.99285745458847,
                72.97311569499327
            ],
            [
                -79.93953126905876,
                72.79750154506885
            ],
            [
                -79.98724964528492,
                72.60356718777784
            ],
            [
                -80.15801012087522,
                72.65709243172866
            ],
            [
                -80.13079023822185,
                72.8909841899003
            ],
            [
                -80.12969730764775,
                72.97558868365655
            ],
            [
                -79.53232317611263,
                73.34947464957845
            ],
            [
                -78.69160605005557,
                73.78104856447719
            ],
            [
                -79.01016156837142,
                73.54783383750916
            ],
            [
                -80.0197,
                72.96509
            ]
        ]
    },
    "properties": {
        "trajectory_id": 683,
        "object_id": 278,
        "label": "M"
    }
}