{
    "type": "Feature",
    "geometry": {
        "type": "LineString",
        "coordinates": [
            [
                -79.7623,
                72.86737
            ],
            [
                -80.06080293576355,
                73.08053858072304
            ],
            [
                -80.02170851179615,
                72.98468613974157
            ],
            [
                -79.83611968751721,
                72.83641395658823
            ],
            [
                -79.73161350170659,
                72.86815940803
            ],
            [
                -82.33102748183106,
                72.9374267696242
            ],
            [
                -84.83163208168295,
                73.05991938991785
            ],
            [
                -83.86629946460447,
                73.04789709550674
            ],
            [
                -79.79915268910032,
                72.82378393110157
            ],
            [
                -79.48588847134862,
                72.80896992259882
            ],
            [
                -79.80957544824315,
                72.79487381921287
            ],
            [
                -80.01691516077011,
                72.82234095154124
            ],
            [
                -79.85391900804395,
                72.86664292241488
            ],
            [
                -80.48104532525116,
                72.96461409467074
            ],
            [
                -80.60349745316921,
                72.9548794996674
            ],
            [
                -80.19017814354457,
                72.87999241699792
            ],
            [
                -79.87877864716118,
                72.80404602377571
            ],
            [
                -80.56874267645887,
                72.48589880297418
            ],
            [
                -79.79533879434777,
                72.83015432315962
            ],
            [
                -79.39961208226285,
                73.03236631969746
            ],
            [
                -80.01040828319498,
                72.7375222369428
            ],
            [
                -80.10450453084114,
                72.2988788042735
            ],
            [
                -79.77880626628252,
                72.44254856825252
            ],
            [
                -79.73110934582425,
                72.70953523793231
            ],
            [
                -79.81637174918193,
                72.6744858951245
            ],
            [
                -79.48140225198284,
                72.34985149554257
            ],
            [
                -79.48098697329944,
                72.39601759367473
            ],
            [
                -79.68786204471141,
                72.69261242628501
            ],
            [
                -79.80096810401476,
                72.87003530541688
            ],
            [
                -79.81682037607662,
                72.79061978703147
            ],
            [
                -79.9470381101194,
                72.67254887507622
            ],
            [
                -79.90492728068912,
                72.71654260274349
            ],
            [
                -79.48895405130217,
                72.55032742745412
            ],
            [
                -82.76688946991527,
                70.93295030656833
            ],
            [
                -86.77719995220761,
                69.76012714669956
            ],
            [
                -83.73068108423028,
                71.28987687723192
            ],
            [
                -80.19134865034408,
                72.85717829880637
            ],
            [
                -80.01733394290603,
                73.00338069953558
            ],
            [
                -79.8352297057409,
                73.08274013152023
            ],
            [
                -79.95021931033796,
                72.92687047633972
            ],
            [
                -80.14768241192652,
                72.79645143338733
            ],
            [
                -79.30651035421278,
                72.70330685583163
            ],
            [
                -78.43148091402203,
                72.6423290688902
            ],
            [
                -79.41519701550703,
                72.7019237974837
            ],
            [
                -79.98714184948247,
                72.9305873323194
            ],
            [
                -78.60331774458209,
                73.16555578243141
            ],
            [
                -77.5643399700223,
                73.1735473611555
            ],
            [
                -79.22249433839771,
                72.90054095895617
            ],
            [
                -79.11814917412285,
                72.72268194048868
            ],
            [
                -78.63967624871097,
                72.67315694648639
            ],
            [
                -79.04887373533693,
                72.76316184073856
            ],
            [
                -79.80200761580987,
                72.84402570348865
            ],
            [
                -77.20359918536461,
                72.51215448196896
            ],
            [
                -64.1136855800001,
                70.91885110369871
            ],
            [
                -58.059523498813455,
                70.16907604691826
            ],
            [
                -80.03994,
                72.79265
            ]
        ]
    },
    "properties": {
        "trajectory_id": 738,
        "object_id": 283,
        "label": "M"
    }
}