{
    "type": "Feature",
    "geometry": {
        "type": "LineString",
        "coordinates": [
            [
                -79.99137,
                72.88438
            ],
            [
                -79.28697817238066,
                72.8079258859195
            ],
            [
                -79.10064984321308,
                72.83402306727197
            ],
            [
                -79.41760401370261,
                72.90366732551331
            ],
            [
                -79.79479487506924,
                72.8957494977626
            ],
            [
                -79.72349105548597,
                72.84019496483016
            ],
            [
                -79.41453352632489,
                72.83396853143702
            ],
            [
                -79.33538044860848,
                72.88772591124955
            ],
            [
                -79.62226356111465,
                72.9007682326536
            ],
            [
                -79.70342998552596,
                72.84401015211937
            ],
            [
                -79.34681222949457,
                72.7796696581027
            ],
            [
                -79.43256285611832,
                72.76953023002498
            ],
            [
                -79.69510043417176,
                72.81809444640271
            ],
            [
                -79.82156993610892,
                72.87648970120271
            ],
            [
                -81.02492142783956,
                72.69635503247964
            ],
            [
                -82.71506666839643,
                72.43684186631614
            ],
            [
                -82.82745024564578,
                72.41489075427017
            ],
            [
                -79.83600363165857,
                72.85965680186388
            ],
            [
                -79.68529573271066,
                72.71991256257452
            ],
            [
                -79.19209105258783,
                72.6666419803584
            ],
            [
                -78.96706826002469,
                72.7191747118409
            ],
            [
                -79.64245324145669,
                72.83823182232732
            ],
            [
                -80.85642436450247,
                73.00391525912322
            ],
            [
                -83.82527797132208,
                73.504832053382
            ],
            [
                -85.4541620190214,
                73.82283565084721
            ],
            [
                -82.52863058265474,
                73.35889647929068
            ],
            [
                -82.66818648753399,
                73.15396029898112
            ],
            [
                -83.52482204757315,
                73.18690155865079
            ],
            [
                -81.39756219059728,
                72.9258543472421
            ],
            [
                -79.67015571120902,
                72.79801005156551
            ],
            [
                -79.76397807810214,
                72.88218322924877
            ],
            [
                -79.45136018320935,
                72.92629854182354
            ],
            [
                -79.24844923204103,
                72.95785677110747
            ],
            [
                -79.41123687459549,
                72.92983208552798
            ],
            [
                -79.80120612459997,
                72.91373376719761
            ],
            [
                -79.90967036514932,
                73.25715846325203
            ],
            [
                -80.11343591408246,
                73.08042108550691
            ],
            [
                -80.12376680221394,
                72.8292631681334
            ],
            [
                -79.79466657494635,
                72.88592997533272
            ],
            [
                -79.60539869389206,
                72.68532202897926
            ],
            [
                -80.18735041788344,
                72.5579043700233
            ],
            [
                -80.64711144866195,
                72.604367348317
            ],
            [
                -79.77852549032416,
                72.87605522660947
            ],
            [
                -79.80579216271259,
                72.86401426484123
            ],
            [
                -79.73535223285502,
                72.90521043458341
            ],
            [
                -79.69212860507054,
                72.93671739731036
            ],
            [
                -79.77963822090463,
                72.8877322064467
            ],
            [
                -79.47024793273455,
                72.91033189750354
            ],
            [
                -79.21563451490375,
                72.89293718271095
            ],
            [
                -79.46602428912271,
                72.814777967018
            ],
            [
                -79.77868633521241,
                72.81333868843112
            ],
            [
                -79.54858872753007,
                72.80754551724628
            ],
            [
                -77.92355034308757,
                72.52446497829519
            ],
            [
                -76.47545875700135,
                72.28677095493153
            ],
            [
                -77.13161625529507,
                72.40469456168493
            ],
            [
                -79.81705,
                72.86814
            ]
        ]
    },
    "properties": {
        "trajectory_id": 751,
        "object_id": 301,
        "label": "M"
    }
}