{
    "type": "Feature",
    "geometry": {
        "type": "LineString",
        "coordinates": [
            [
                -80.99646,
                71.89742
            ],
            [
                -80.70163219121972,
                72.28100348190105
            ],
            [
                -80.58348673171712,
                72.4126507903919
            ],
            [
                -80.7479217884181,
                72.14264961239374
            ],
            [
                -80.94795655490859,
                71.90174599384939
            ],
            [
                -81.0681991094481,
                71.80747300082388
            ],
            [
                -80.9210029055318,
                71.69019752549299
            ],
            [
                -80.63423462972384,
                71.69989574383638
            ],
            [
                -80.70606342518289,
                71.8139934727145
            ],
            [
                -80.89830793495813,
                71.86943387668694
            ],
            [
                -80.83211957625251,
                71.8305216930535
            ],
            [
                -80.96360367101418,
                71.82977893923028
            ],
            [
                -81.05803042514181,
                71.85746491191219
            ],
            [
                -80.96864252017662,
                71.896141635678
            ],
            [
                -81.08940934704472,
                71.84303003769921
            ],
            [
                -81.06677812378614,
                71.80354963010802
            ],
            [
                -80.97945696628831,
                71.81669535545399
            ],
            [
                -80.966704525573,
                71.89030008197649
            ],
            [
                -81.23441623503403,
                72.04798689525975
            ],
            [
                -81.24137487929222,
                72.05552224635842
            ],
            [
                -81.0691492751466,
                71.95760155603894
            ],
            [
                -80.94726382782996,
                71.88804503908773
            ],
            [
                -81.04557180913135,
                72.04533857839503
            ],
            [
                -80.58948509291939,
                72.37679899625768
            ],
            [
                -80.13638322521118,
                72.49571791815023
            ],
            [
                -80.62570392407383,
                72.08471904459289
            ],
            [
                -83.37491458825758,
                71.46142922521858
            ],
            [
                -85.7627317191912,
                71.59860352031994
            ],
            [
                -84.5788994620097,
                72.35438645117068
            ],
            [
                -81.87240735413194,
                72.41535040526921
            ],
            [
                -80.27584490445182,
                71.88118359089495
            ],
            [
                -78.86176130228236,
                72.2530720968629
            ],
            [
                -79.68691995890211,
                72.23279723993069
            ],
            [
                -80.86647895662531,
                72.02162566738573
            ],
            [
                -80.88615479000931,
                71.93897135643364
            ],
            [
                -82.38734074052086,
                71.07778244503409
            ],
            [
                -81.52751973445939,
                70.99013234946041
            ],
            [
                -80.82072095547458,
                71.52250841919918
            ],
            [
                -82.1692536781445,
                72.3113434585047
            ],
            [
                -82.36710580290398,
                72.26579180439333
            ],
            [
                -82.5395470974128,
                72.10804687373782
            ],
            [
                -82.3360299996658,
                71.9969003930261
            ],
            [
                -81.38356558460006,
                72.09261186409256
            ],
            [
                -81.31672233571356,
                72.21893031273606
            ],
            [
                -82.01585525334097,
                72.63282468125762
            ],
            [
                -82.59151218032999,
                72.85981838762723
            ],
            [
                -81.86826287064254,
                72.35780634778928
            ],
            [
                -81.49097436370366,
                72.11740416754995
            ],
            [
                -81.52071288347211,
                72.17169927608853
            ],
            [
                -81.67618739703059,
                72.12297437786452
            ],
            [
                -81.77932671600749,
                72.10989840432725
            ],
            [
                -81.81681676959901,
                72.16509183254928
            ],
            [
                -82.91343028160108,
                72.11449252861074
            ],
            [
                -84.1114072403489,
                71.93372869841465
            ],
            [
                -83.56732168573498,
                71.92769909555696
            ],
            [
                -81.6683,
                72.17529
            ]
        ]
    },
    "properties": {
        "trajectory_id": 76,
        "object_id": 168,
        "label": "F"
    }
}