{
    "type": "Feature",
    "geometry": {
        "type": "LineString",
        "coordinates": [
            [
                -79.95244,
                73.1205
            ],
            [
                -79.60392377711872,
                73.16810470923778
            ],
            [
                -79.46223376787694,
                73.83293060703127
            ],
            [
                -79.69397401037925,
                74.32536169301304
            ],
            [
                -80.04929766018317,
                73.59689963965704
            ],
            [
                -79.9749596190041,
                72.91904294959343
            ],
            [
                -80.08842035939804,
                72.67512824968625
            ],
            [
                -80.13993514903677,
                72.87917998513396
            ],
            [
                -80.10129167516382,
                73.13455877539374
            ],
            [
                -79.94779100535393,
                73.1303624109247
            ],
            [
                -79.32334194368367,
                73.03916079385758
            ],
            [
                -79.08589378310626,
                72.98389599206557
            ],
            [
                -79.41413099293624,
                73.02982309945362
            ],
            [
                -80.03345307379568,
                73.14382502388064
            ],
            [
                -79.86354155379273,
                72.9873520154165
            ],
            [
                -80.08858769075474,
                73.02396623397908
            ],
            [
                -80.26035683019424,
                73.12450168446817
            ],
            [
                -80.0201302475575,
                73.14769169907125
            ],
            [
                -80.78489308205945,
                73.05921754873404
            ],
            [
                -80.80252038218313,
                73.1233509699317
            ],
            [
                -80.33275419379473,
                73.21837242798355
            ],
            [
                -80.01996396706687,
                73.15119834536866
            ],
            [
                -79.20941696053389,
                72.97844202616832
            ],
            [
                -79.03234317853723,
                72.931630064354
            ],
            [
                -79.58682488382473,
                73.01889693803396
            ],
            [
                -80.00600336258779,
                73.1281366726096
            ],
            [
                -79.41254654136068,
                73.09338301746763
            ],
            [
                -75.15142078412958,
                72.33032949057528
            ],
            [
                -71.59374817870395,
                71.58698945587318
            ],
            [
                -74.5261489096154,
                72.0810291464272
            ],
            [
                -79.99487500801824,
                73.17696946471398
            ],
            [
                -79.9885362800467,
                73.24413213579425
            ],
            [
                -80.14986406820225,
                73.19999330116873
            ],
            [
                -80.18990915449734,
                73.13955916087517
            ],
            [
                -80.19852548631063,
                73.15856658647405
            ],
            [
                -80.69260317388498,
                73.26857183020233
            ],
            [
                -80.43703848953544,
                73.35911199003421
            ],
            [
                -80.03723935637265,
                73.32982148425606
            ],
            [
                -80.02141487957167,
                73.15033920783938
            ],
            [
                -79.80966114649577,
                73.1353573831709
            ],
            [
                -79.86603999000106,
                73.13503060102626
            ],
            [
                -80.00600153494796,
                73.14308219312332
            ],
            [
                -80.04662024169541,
                73.14116749107929
            ],
            [
                -80.17813288202304,
                73.2552062604007
            ],
            [
                -80.5125332351561,
                73.35642462725627
            ],
            [
                -80.66111333389509,
                73.33635010365656
            ],
            [
                -80.29135145799484,
                73.19572355921215
            ],
            [
                -79.66007889576171,
                73.1042050727642
            ],
            [
                -79.35288185568734,
                73.09378067627098
            ],
            [
                -79.50510619832451,
                73.13307008248864
            ],
            [
                -79.84899418885973,
                73.15334976574829
            ],
            [
                -80.59988377804643,
                73.19565359953287
            ],
            [
                -81.62812363805106,
                73.21362812319896
            ],
            [
                -81.04324106002095,
                73.11644666212135
            ],
            [
                -80.16259284810505,
                73.07751171599148
            ],
            [
                -80.02671,
                73.13884
            ]
        ]
    },
    "properties": {
        "trajectory_id": 831,
        "object_id": 333,
        "label": "M"
    }
}