{
    "type": "Feature",
    "geometry": {
        "type": "LineString",
        "coordinates": [
            [
                -79.97262,
                73.15753
            ],
            [
                -82.31750777001075,
                72.58833543440763
            ],
            [
                -82.29084345135632,
                72.46395296264059
            ],
            [
                -80.31842022368873,
                72.82912409473738
            ],
            [
                -79.60425819120923,
                73.12737423969193
            ],
            [
                -79.3225735739426,
                73.09468888173137
            ],
            [
                -77.45709584188884,
                72.7354569457009
            ],
            [
                -76.51074214981595,
                72.45324975949036
            ],
            [
                -78.1991979367047,
                72.76159840130492
            ],
            [
                -79.99402101738895,
                72.99995488616561
            ],
            [
                -80.03397012890778,
                72.66448265119634
            ],
            [
                -80.27265135821966,
                72.7850411559332
            ],
            [
                -80.24958332170448,
                73.04159546751475
            ],
            [
                -80.00838090150745,
                73.14742044914321
            ],
            [
                -79.83697834428168,
                73.05373805556447
            ],
            [
                -79.69632617737714,
                73.0530903627075
            ],
            [
                -79.73687814617358,
                73.10039134679553
            ],
            [
                -80.01315837276233,
                73.14869316326163
            ],
            [
                -80.52995458934541,
                73.16788580718298
            ],
            [
                -80.3168854372962,
                73.00706931865241
            ],
            [
                -79.859762958142,
                72.89875284001835
            ],
            [
                -80.00008239264682,
                73.1322634830783
            ],
            [
                -79.75958058992005,
                72.95089231356813
            ],
            [
                -80.36211513821587,
                72.89297346892252
            ],
            [
                -81.04061440002198,
                73.00185644463082
            ],
            [
                -80.48619186106095,
                73.14216389163226
            ],
            [
                -79.85702875185461,
                72.93252482280609
            ],
            [
                -79.77379509426628,
                72.71161985871922
            ],
            [
                -79.91744903800931,
                72.89424900479146
            ],
            [
                -80.03734483429068,
                73.13216682924214
            ],
            [
                -79.86371584647641,
                73.04777606570626
            ],
            [
                -79.172020453484,
                72.68723924961854
            ],
            [
                -79.26049872126612,
                72.73462710212657
            ],
            [
                -79.69258244658764,
                72.97585636422912
            ],
            [
                -79.95399219397937,
                73.13289278120263
            ],
            [
                -79.63459964375228,
                73.01672380747385
            ],
            [
                -77.96981725465737,
                72.2663534567051
            ],
            [
                -77.5689519872873,
                72.0539572537252
            ],
            [
                -80.07004538812035,
                73.13586358405674
            ],
            [
                -78.94495242865064,
                72.6258443585786
            ],
            [
                -78.53648226029794,
                72.61626483476736
            ],
            [
                -78.9573218244911,
                72.94058057495508
            ],
            [
                -79.9234689569033,
                73.15286079602878
            ],
            [
                -80.22361863512043,
                73.193434749163
            ],
            [
                -79.9616053081946,
                73.06957198582269
            ],
            [
                -79.43966093657357,
                72.91556714057495
            ],
            [
                -79.68895449581214,
                73.03081767915549
            ],
            [
                -79.62165784836294,
                73.16109792783405
            ],
            [
                -78.76755618124359,
                73.07762849662457
            ],
            [
                -78.64103293591292,
                72.9402877174374
            ],
            [
                -79.41205840314446,
                72.99015404886973
            ],
            [
                -80.5981282650532,
                73.05992530271769
            ],
            [
                -81.40263666592351,
                72.93013808657844
            ],
            [
                -80.86707674110602,
                72.96965371098106
            ],
            [
                -80.11921862750276,
                73.07615424282864
            ],
            [
                -80.01392,
                73.1364
            ]
        ]
    },
    "properties": {
        "trajectory_id": 846,
        "object_id": 333,
        "label": "M"
    }
}