{
    "type": "Feature",
    "geometry": {
        "type": "LineString",
        "coordinates": [
            [
                -80.30811,
                73.1655
            ],
            [
                -79.86596793437754,
                73.1544216314502
            ],
            [
                -78.7539082385739,
                73.06973067665375
            ],
            [
                -78.06582272558002,
                72.97544133145368
            ],
            [
                -79.24665540393484,
                73.05295426467376
            ],
            [
                -80.25596621047177,
                73.13537159569117
            ],
            [
                -80.26230669443859,
                73.156517169557
            ],
            [
                -80.01481403955873,
                73.16644240457428
            ],
            [
                -79.89457151762835,
                73.15575634634286
            ],
            [
                -80.48714082714557,
                73.19138389811626
            ],
            [
                -82.74218282684649,
                73.64290641528025
            ],
            [
                -82.09873090052565,
                73.39691205564586
            ],
            [
                -80.49814906594307,
                73.0770154556465
            ],
            [
                -79.89714552426669,
                73.14379776028109
            ],
            [
                -80.46706506966156,
                73.0280758535035
            ],
            [
                -80.48951112064181,
                72.98585668571567
            ],
            [
                -80.25028664220991,
                73.02141076582018
            ],
            [
                -80.09864288512885,
                73.13177171211447
            ],
            [
                -77.73773897321915,
                72.61910437352783
            ],
            [
                -76.1222801067206,
                72.16068950980043
            ],
            [
                -76.58529518220844,
                72.1861439353643
            ],
            [
                -79.38440791853107,
                72.95445497499705
            ],
            [
                -79.64758550724626,
                73.00386242476971
            ],
            [
                -79.53360764839366,
                72.8937703625873
            ],
            [
                -79.71629583876465,
                72.93236071250881
            ],
            [
                -79.89968189989203,
                73.09359369140851
            ],
            [
                -79.41173697477937,
                72.94299782587134
            ],
            [
                -78.987613900899,
                72.789236438857
            ],
            [
                -79.44546947139118,
                72.97513311880986
            ],
            [
                -80.00271949183153,
                73.15417476339712
            ],
            [
                -79.98774907018982,
                73.11283284944923
            ],
            [
                -79.38198694768873,
                72.75719534482658
            ],
            [
                -78.855907597865,
                72.40867786771591
            ],
            [
                -79.14494419977267,
                72.6040457967006
            ],
            [
                -79.89292886955525,
                73.15762779322274
            ],
            [
                -80.4941384483622,
                73.03150541874801
            ],
            [
                -80.32310494207407,
                73.02257896280429
            ],
            [
                -79.9642253045808,
                73.07502772274944
            ],
            [
                -80.03697672811745,
                73.13883086880317
            ],
            [
                -79.15196722605626,
                73.07404430721834
            ],
            [
                -79.20509708125537,
                73.1373030951955
            ],
            [
                -79.69463395379628,
                73.20263755880566
            ],
            [
                -80.04328875886655,
                73.13543770258485
            ],
            [
                -79.33080705337717,
                73.33522186572868
            ],
            [
                -77.23815184003283,
                74.00175503848573
            ],
            [
                -76.17200287354267,
                74.36306933732848
            ],
            [
                -78.69778711443348,
                73.5543195543777
            ],
            [
                -79.39009062634854,
                73.1291093154793
            ],
            [
                -78.2091467203057,
                72.98556461016526
            ],
            [
                -77.97993639587872,
                72.87377176782869
            ],
            [
                -79.0730469051506,
                72.97181544618482
            ],
            [
                -80.07174803721443,
                73.13361590056252
            ],
            [
                -79.244078898589,
                73.16415501268122
            ],
            [
                -78.2469487821479,
                73.19791757536359
            ],
            [
                -78.56373361615209,
                73.18703121672347
            ],
            [
                -79.93657,
                73.14605
            ]
        ]
    },
    "properties": {
        "trajectory_id": 878,
        "object_id": 333,
        "label": "M"
    }
}