{
    "type": "Feature",
    "geometry": {
        "type": "LineString",
        "coordinates": [
            [
                -79.94454,
                73.17261
            ],
            [
                -79.55774435900135,
                72.97871338635407
            ],
            [
                -79.43493409208327,
                72.92757067833325
            ],
            [
                -79.72792631774014,
                73.069912575661
            ],
            [
                -79.96216000803963,
                73.15533560109358
            ],
            [
                -80.05756523502023,
                73.1579315419501
            ],
            [
                -79.64746984634021,
                73.17634994486771
            ],
            [
                -78.96910454756765,
                73.15233526020208
            ],
            [
                -79.13066093447426,
                73.13942567492072
            ],
            [
                -79.96803899304022,
                73.14953593779464
            ],
            [
                -80.10243239663333,
                73.14400832631718
            ],
            [
                -80.14294520736154,
                73.1429059616013
            ],
            [
                -80.06486221091316,
                73.14764542093008
            ],
            [
                -79.75877005053495,
                73.17831873348331
            ],
            [
                -74.90702461440034,
                73.81279111404945
            ],
            [
                -74.90116600027517,
                73.70715331564278
            ],
            [
                -77.4303003609048,
                73.32891815558243
            ],
            [
                -80.17943162537458,
                73.2273170771701
            ],
            [
                -80.58526568805232,
                73.4382021869999
            ],
            [
                -81.37165449074756,
                73.96956366635784
            ],
            [
                -81.40934524529267,
                74.09626429524506
            ],
            [
                -80.00185378843919,
                73.18276200175299
            ],
            [
                -79.3916557999865,
                73.23294100933141
            ],
            [
                -79.2427851681001,
                73.27620751992607
            ],
            [
                -79.67325301768567,
                73.23431353699343
            ],
            [
                -80.01454146733624,
                73.16022213945713
            ],
            [
                -79.97849725571497,
                73.16802389756934
            ],
            [
                -79.92804968686346,
                73.17857986243249
            ],
            [
                -79.94638404961259,
                73.15095051129704
            ],
            [
                -80.00698058202813,
                73.1349981137932
            ],
            [
                -80.09468992554493,
                73.13851050729839
            ],
            [
                -80.03003974220424,
                73.11186215852337
            ],
            [
                -79.76503946843918,
                73.10543487904584
            ],
            [
                -79.72234215506305,
                73.12708194738323
            ],
            [
                -79.8340906220881,
                73.11906108240858
            ],
            [
                -79.65843467957683,
                72.88588218106024
            ],
            [
                -79.94353304809758,
                72.71378007144055
            ],
            [
                -80.16158742270225,
                72.78308143227235
            ],
            [
                -79.8853303510637,
                73.14055731485631
            ],
            [
                -80.10879019523273,
                73.34766721006852
            ],
            [
                -79.90103033528095,
                73.19885655145669
            ],
            [
                -79.74051300936708,
                72.98126415856157
            ],
            [
                -80.27853284024812,
                73.05859255781262
            ],
            [
                -82.48885372862196,
                72.68346294223953
            ],
            [
                -88.10631206994974,
                72.68673562235662
            ],
            [
                -90.6516157486406,
                72.74248122486975
            ],
            [
                -83.3245070780053,
                72.31073830268069
            ],
            [
                -80.66249238355228,
                72.21700795619712
            ],
            [
                -83.9669992124236,
                72.9064928045898
            ],
            [
                -86.51399160584371,
                73.237626382653
            ],
            [
                -83.43686446758895,
                71.93924139715602
            ],
            [
                -79.65974455453932,
                71.10813699761633
            ],
            [
                -79.70301343708239,
                70.91318135986236
            ],
            [
                -80.21000056094482,
                70.43004523765701
            ],
            [
                -79.87595781405392,
                70.16540460160509
            ],
            [
                -78.38939,
                70.13266
            ]
        ]
    },
    "properties": {
        "trajectory_id": 882,
        "object_id": 333,
        "label": "M"
    }
}