{
    "type": "Feature",
    "geometry": {
        "type": "LineString",
        "coordinates": [
            [
                -81.65003,
                66.73964
            ],
            [
                -81.5972829278597,
                66.74286108935974
            ],
            [
                -81.58668595792726,
                66.7302707284459
            ],
            [
                -81.59156806256729,
                66.70591127281148
            ],
            [
                -81.61618811425447,
                66.68410717773813
            ],
            [
                -81.66480498546363,
                66.67918289850755
            ],
            [
                -81.69710898498681,
                66.69486122270303
            ],
            [
                -81.84290191653996,
                66.70198332958603
            ],
            [
                -81.89305872944706,
                66.69071725331497
            ],
            [
                -81.85507819354964,
                66.67390990991608
            ],
            [
                -81.76962967109004,
                66.66312550725904
            ],
            [
                -81.6773838124038,
                66.66992764910238
            ],
            [
                -81.62707303565858,
                66.65809248210053
            ],
            [
                -81.56885081557205,
                66.63103511047315
            ],
            [
                -81.54172835245424,
                66.61410545510617
            ],
            [
                -81.56308214185098,
                66.60798603205069
            ],
            [
                -81.65028867930809,
                66.6133593573577
            ],
            [
                -81.70415543847012,
                66.6206413083697
            ],
            [
                -81.63494989259591,
                66.647695394367
            ],
            [
                -81.60292957749965,
                66.6581912980482
            ],
            [
                -81.6169162252265,
                66.64738175037895
            ],
            [
                -81.68573156782165,
                66.610519482325
            ],
            [
                -81.80309169569867,
                66.54699266676266
            ],
            [
                -81.99375523607561,
                66.53008648438987
            ],
            [
                -82.04272487691334,
                66.54619525156936
            ],
            [
                -81.96975518602912,
                66.57897269625113
            ],
            [
                -81.86683896010297,
                66.59461985454348
            ],
            [
                -81.8259689958148,
                66.55933776255469
            ],
            [
                -81.83292011485561,
                66.52029876157346
            ],
            [
                -81.67584915245263,
                66.53108225313984
            ],
            [
                -81.73085091090157,
                66.55538310903667
            ],
            [
                -81.86927240331426,
                66.57186862497957
            ],
            [
                -81.96246064280264,
                66.55920609668422
            ],
            [
                -81.97266971462113,
                66.50461036992338
            ],
            [
                -81.97964112338126,
                66.52210522263536
            ],
            [
                -81.90893840699943,
                66.55018918826819
            ],
            [
                -81.83295871109055,
                66.56862699673763
            ],
            [
                -81.82224568597306,
                66.56584943458503
            ],
            [
                -81.94734298196528,
                66.53028728835169
            ],
            [
                -82.11595490888689,
                66.51836118657009
            ],
            [
                -82.30535610683233,
                66.56306027889474
            ],
            [
                -82.314310862719,
                66.59617443828691
            ],
            [
                -82.2101219778133,
                66.60363482251793
            ],
            [
                -82.06009225338175,
                66.57137258935916
            ],
            [
                -82.02642776912167,
                66.51253928304797
            ],
            [
                -81.99561938666788,
                66.46452912781933
            ],
            [
                -82.00392900707149,
                66.4592121261676
            ],
            [
                -82.02535321951606,
                66.48094789762452
            ],
            [
                -82.03216150041739,
                66.51261461341448
            ],
            [
                -81.9993898774339,
                66.53621403932104
            ],
            [
                -82.12533381974339,
                66.47626444562133
            ],
            [
                -82.2059618590732,
                66.44315790729459
            ],
            [
                -82.16835028432816,
                66.46318374771958
            ],
            [
                -82.07952156341429,
                66.50300783194257
            ],
            [
                -82.00649816423758,
                66.52929602500984
            ],
            [
                -82.00299,
                66.51925
            ]
        ]
    },
    "properties": {
        "trajectory_id": 893,
        "object_id": 333,
        "label": "M"
    }
}