{
    "type": "Feature",
    "geometry": {
        "type": "LineString",
        "coordinates": [
            [
                -79.97771,
                73.2144
            ],
            [
                -81.38523024358497,
                73.14357314258861
            ],
            [
                -80.8891369839825,
                72.82589123031329
            ],
            [
                -79.20506505933548,
                72.60731253198466
            ],
            [
                -79.28093117107356,
                72.96178880243848
            ],
            [
                -79.72908431979909,
                73.39190449007361
            ],
            [
                -77.58945775426314,
                73.49655553653808
            ],
            [
                -75.81250778663437,
                73.30119004722276
            ],
            [
                -77.30636442347324,
                73.1609011357001
            ],
            [
                -80.00759232583788,
                73.10223864956319
            ],
            [
                -80.5756446608967,
                73.15324671261246
            ],
            [
                -81.374818098359,
                73.752866993212
            ],
            [
                -81.22370242551446,
                73.8909090746854
            ],
            [
                -79.83880143855495,
                73.23792771161656
            ],
            [
                -80.64493628255686,
                73.20835918976432
            ],
            [
                -80.63705722247241,
                73.27722919393383
            ],
            [
                -80.29664860399001,
                73.3097317322642
            ],
            [
                -80.0354366468185,
                73.22416619747396
            ],
            [
                -80.21800573247664,
                73.40563638227172
            ],
            [
                -80.53643339905051,
                73.41616254533955
            ],
            [
                -80.58350432759954,
                73.30683510058611
            ],
            [
                -80.0128953644915,
                73.2081958300069
            ],
            [
                -79.980844244992,
                73.11759629331512
            ],
            [
                -79.97761107313299,
                72.82241395240955
            ],
            [
                -79.99367939989364,
                72.6724685520562
            ],
            [
                -80.00733680138553,
                73.03352290215331
            ],
            [
                -80.53086107203676,
                73.08388993071861
            ],
            [
                -82.72138786616532,
                73.3164513778412
            ],
            [
                -84.19922164333646,
                73.71625126658734
            ],
            [
                -82.37254597283294,
                73.59488816827336
            ],
            [
                -80.29215949488656,
                73.2578125804496
            ],
            [
                -80.76620180410004,
                73.37875852219398
            ],
            [
                -80.73480692618287,
                73.44633972591569
            ],
            [
                -80.50605801771098,
                73.36070548582978
            ],
            [
                -80.03157630358025,
                73.21581462471805
            ],
            [
                -79.65481753260241,
                73.06405916646949
            ],
            [
                -79.73395303519706,
                73.02401282368275
            ],
            [
                -79.94849613616873,
                73.09092905530619
            ],
            [
                -80.00713190384293,
                73.20369362018518
            ],
            [
                -80.62955664189076,
                73.15068570153596
            ],
            [
                -82.40095513428565,
                72.98255999662088
            ],
            [
                -83.07179300605551,
                72.93399797904775
            ],
            [
                -80.29568297312085,
                73.24220309230759
            ],
            [
                -79.16139465682869,
                72.87016569969256
            ],
            [
                -78.89502225328329,
                72.75149264990708
            ],
            [
                -79.40103715780674,
                72.94693413335924
            ],
            [
                -80.01948575320829,
                73.19478496997804
            ],
            [
                -80.15953092108097,
                73.30704295756566
            ],
            [
                -82.69591673186194,
                74.08626740813156
            ],
            [
                -85.18580996777465,
                74.77429202071207
            ],
            [
                -83.53663902772665,
                74.26288558702421
            ],
            [
                -80.15031851813836,
                73.20892659632197
            ],
            [
                -80.11258058126754,
                72.93819114991695
            ],
            [
                -79.94158446180977,
                72.69030082052146
            ],
            [
                -79.86702249046037,
                72.82870044577118
            ],
            [
                -80.00835,
                73.2027
            ]
        ]
    },
    "properties": {
        "trajectory_id": 929,
        "object_id": 335,
        "label": "F"
    }
}