{
    "type": "Feature",
    "geometry": {
        "type": "LineString",
        "coordinates": [
            [
                -79.65553,
                72.82389
            ],
            [
                -79.60234534367856,
                72.98200641540411
            ],
            [
                -78.29408994670067,
                73.13342355178885
            ],
            [
                -77.41185955246661,
                73.14492026304856
            ],
            [
                -78.89806823247793,
                72.93691436778406
            ],
            [
                -79.52593907056462,
                72.82547285633355
            ],
            [
                -79.12205606165469,
                72.76499407268614
            ],
            [
                -79.08423780525808,
                72.6983305112625
            ],
            [
                -79.46592902564937,
                72.74661225539215
            ],
            [
                -79.88712871368168,
                72.7897378744339
            ],
            [
                -79.4744004519285,
                72.82237995438123
            ],
            [
                -78.76966386602966,
                72.96754761195471
            ],
            [
                -78.8990393171711,
                72.9830380260677
            ],
            [
                -79.78018098862697,
                72.8370927386387
            ],
            [
                -79.8975035377626,
                72.71959180188315
            ],
            [
                -79.94379459739567,
                72.75031938676476
            ],
            [
                -79.91638669562764,
                72.82412160521247
            ],
            [
                -79.83647126179342,
                72.84732936632447
            ],
            [
                -79.6873637254835,
                72.74374414920311
            ],
            [
                -79.8396561473237,
                72.64767355554663
            ],
            [
                -79.99144808610725,
                72.6537657989165
            ],
            [
                -79.84554250875775,
                72.85033270288842
            ],
            [
                -79.57259009838545,
                72.94540487154222
            ],
            [
                -79.21071341427623,
                73.09526567099189
            ],
            [
                -79.138901713904,
                73.1257992236171
            ],
            [
                -79.62412304152387,
                72.9102949926708
            ],
            [
                -79.49478677168753,
                72.94008984393061
            ],
            [
                -78.96063872277166,
                72.55760547427181
            ],
            [
                -78.7944040068323,
                72.062480037438
            ],
            [
                -79.32340919775717,
                72.31115754344847
            ],
            [
                -79.56499368747465,
                72.9422570684165
            ],
            [
                -78.52437821519223,
                73.1582456560593
            ],
            [
                -78.25557594313436,
                73.00967018904593
            ],
            [
                -78.9090875845576,
                72.82747196362781
            ],
            [
                -79.76739581815518,
                72.82023459887395
            ],
            [
                -77.97776711612157,
                72.55416523924615
            ],
            [
                -77.96061446944765,
                72.97571382232815
            ],
            [
                -78.90215169274322,
                73.26509250341454
            ],
            [
                -79.75627968656981,
                72.81115088893205
            ],
            [
                -79.09370773258046,
                72.54962358041128
            ],
            [
                -79.10873057042846,
                72.55974005397276
            ],
            [
                -79.5470849144961,
                72.74527320399982
            ],
            [
                -79.77340497090324,
                72.84569078775125
            ],
            [
                -80.24894923245381,
                72.83548962324781
            ],
            [
                -80.51129986421797,
                72.80061148875333
            ],
            [
                -80.31996819015484,
                72.77453496646355
            ],
            [
                -79.88348515365129,
                72.83211876364922
            ],
            [
                -79.18315232335252,
                72.55729683712221
            ],
            [
                -79.02743855780464,
                72.35234672846592
            ],
            [
                -79.51673438810046,
                72.47978826890271
            ],
            [
                -79.85335236118266,
                72.74432555914949
            ],
            [
                -79.87450151452813,
                72.78809580652053
            ],
            [
                -79.77961692346176,
                72.55828590873233
            ],
            [
                -79.3828098804335,
                72.56434540963416
            ],
            [
                -79.31936961661324,
                72.70890231496824
            ],
            [
                -79.83808,
                72.84976
            ]
        ]
    },
    "properties": {
        "trajectory_id": 991,
        "object_id": 339,
        "label": "M"
    }
}