{
    "type": "Feature",
    "geometry": {
        "type": "LineString",
        "coordinates": [
            [
                -122.92455,
                49.1701
            ],
            [
                -122.9246006549712,
                49.170141819374145
            ],
            [
                -122.9245613873774,
                49.17018162549765
            ],
            [
                -122.92456977395355,
                49.17016007356193
            ],
            [
                -122.92457639244215,
                49.17013393534411
            ],
            [
                -122.92456147798815,
                49.170071711755334
            ],
            [
                -122.9246160109443,
                49.17008955640354
            ],
            [
                -122.92456825286766,
                49.17014033808394
            ],
            [
                -122.92450211528566,
                49.17015026630035
            ],
            [
                -122.92459869210145,
                49.17012809839088
            ],
            [
                -122.92458038757174,
                49.17010579067563
            ],
            [
                -122.92456840733537,
                49.17012856583115
            ],
            [
                -122.92454651727346,
                49.170112673161576
            ],
            [
                -122.92457718972592,
                49.1701536846389
            ],
            [
                -122.92453531534628,
                49.17015805297585
            ],
            [
                -122.92457503213349,
                49.17017202995052
            ],
            [
                -122.92465255416995,
                49.17018251668067
            ],
            [
                -122.92456846856614,
                49.170131566804336
            ],
            [
                -122.92461040564264,
                49.170151904134165
            ],
            [
                -122.92455241053823,
                49.17011154577968
            ],
            [
                -122.92454053198793,
                49.170156631959095
            ],
            [
                -122.92460288929226,
                49.17008001061575
            ],
            [
                -122.92458456128736,
                49.17012508705954
            ],
            [
                -122.924547069136,
                49.17018248625846
            ],
            [
                -122.92452949196155,
                49.1701706694849
            ],
            [
                -122.92451955933821,
                49.170170775506975
            ],
            [
                -122.92457466146375,
                49.170139145838135
            ],
            [
                -122.92462186482908,
                49.17005509088138
            ],
            [
                -122.92458666930925,
                49.170157904494026
            ],
            [
                -122.92455342449514,
                49.17016743390107
            ],
            [
                -122.92455607496758,
                49.170193081639695
            ],
            [
                -122.92457847849658,
                49.170186351141865
            ],
            [
                -122.92458184398227,
                49.17012040485878
            ],
            [
                -122.92451953205267,
                49.17017101479808
            ],
            [
                -122.9245999774369,
                49.17007633245153
            ],
            [
                -122.92458259036387,
                49.170113831187216
            ],
            [
                -122.92460587497607,
                49.17008022324896
            ],
            [
                -122.92456584446745,
                49.17014940992129
            ],
            [
                -122.92458124288193,
                49.170151374028976
            ],
            [
                -122.92453787755676,
                49.17017509990672
            ],
            [
                -122.92459273192422,
                49.170090419111204
            ],
            [
                -122.9245859967869,
                49.17009996478488
            ],
            [
                -122.92457759183866,
                49.17014120046316
            ],
            [
                -122.92458022198299,
                49.170091245441625
            ],
            [
                -122.92459837259474,
                49.170132589161895
            ],
            [
                -122.92453150030278,
                49.170153709189584
            ],
            [
                -122.92458266678948,
                49.17014147430315
            ],
            [
                -122.92456328658866,
                49.17014618207989
            ],
            [
                -122.92460250929886,
                49.170098869187605
            ],
            [
                -122.92454772659653,
                49.170170620815966
            ],
            [
                -122.92452831195224,
                49.170175805056644
            ],
            [
                -122.92449245108419,
                49.170192514267015
            ],
            [
                -122.92455963436305,
                49.170172585044774
            ],
            [
                -122.92455302900483,
                49.17013548151548
            ],
            [
                -122.92459993396939,
                49.17013314079262
            ],
            [
                -122.92460027570321,
                49.17007948129254
            ],
            [
                -122.92457453439847,
                49.170114690540615
            ],
            [
                -122.92454457013812,
                49.17014304928389
            ],
            [
                -122.92454962177634,
                49.170126119690686
            ],
            [
                -122.92453393389845,
                49.17014507215748
            ],
            [
                -122.92459824901803,
                49.170138818528415
            ],
            [
                -122.92460978238667,
                49.17006813895588
            ],
            [
                -122.92454772057224,
                49.17010808408561
            ],
            [
                -122.9245693203266,
                49.17011605817306
            ],
            [
                -122.92458030127466,
                49.17010547198761
            ],
            [
                -122.92463728223748,
                49.17008292835038
            ],
            [
                -122.92462877268119,
                49.170133841450905
            ],
            [
                -122.9245727355608,
                49.17010174423613
            ],
            [
                -122.92457233161328,
                49.17012650942756
            ],
            [
                -122.92462016901919,
                49.17008692680912
            ],
            [
                -122.92461001160157,
                49.170111392000614
            ],
            [
                -122.92456780087898,
                49.170128209520804
            ],
            [
                -122.92458813443864,
                49.17009761009593
            ],
            [
                -122.92463274524907,
                49.1701151170635
            ],
            [
                -122.92460533849139,
                49.17011362834054
            ],
            [
                -122.92460795906297,
                49.17007134857669
            ],
            [
                -122.92464974786026,
                49.17012045593661
            ],
            [
                -122.92464198445171,
                49.17013050733342
            ],
            [
                -122.92459711359504,
                49.1700942608395
            ],
            [
                -122.92464,
                49.17011
            ]
        ]
    },
    "properties": {
        "trajectory_id": 1032,
        "object_id": 316009843,
        "label": "TUG"
    }
}