{
    "type": "Feature",
    "geometry": {
        "type": "LineString",
        "coordinates": [
            [
                -123.65008,
                49.17119
            ],
            [
                -123.58961011550211,
                49.143302886413935
            ],
            [
                -123.52932236724749,
                49.1145421247494
            ],
            [
                -123.46864732427412,
                49.085682363422784
            ],
            [
                -123.40905045050025,
                49.05692338592819
            ],
            [
                -123.34896248152705,
                49.02831902086261
            ],
            [
                -123.28528182318153,
                49.00686470948976
            ],
            [
                -123.2143609314225,
                49.00125314635372
            ],
            [
                -123.14711826694781,
                49.00070051496428
            ],
            [
                -123.13190961694248,
                49.005960796110784
            ],
            [
                -123.1319099999181,
                49.005960000094156
            ],
            [
                -123.13191004225675,
                49.00595995384988
            ],
            [
                -123.13286494487637,
                49.005126143215925
            ],
            [
                -123.186007936951,
                49.00644476003495
            ],
            [
                -123.2569911940427,
                49.02540455250732
            ],
            [
                -123.32600367094771,
                49.04838266662598
            ],
            [
                -123.39404482550891,
                49.07238882955742
            ],
            [
                -123.45475799639041,
                49.10317249442242
            ],
            [
                -123.51592647647757,
                49.13335439106672
            ],
            [
                -123.58291753256167,
                49.15875447511383
            ],
            [
                -123.65201144319886,
                49.182890381531976
            ],
            [
                -123.72597248209402,
                49.2029156834857
            ],
            [
                -123.80156012720623,
                49.22104720555503
            ],
            [
                -123.87319617062514,
                49.20543134698374
            ],
            [
                -123.88947954093733,
                49.16775592957728
            ],
            [
                -123.89094973735669,
                49.162779822477006
            ],
            [
                -123.89095000321453,
                49.162795443749474
            ],
            [
                -123.89094999860302,
                49.1627737238849
            ],
            [
                -123.8909500003622,
                49.16278663799615
            ],
            [
                -123.89094999996418,
                49.16279018545527
            ],
            [
                -123.89094999997239,
                49.16279000902664
            ],
            [
                -123.89094999763736,
                49.16279003783951
            ],
            [
                -123.89094999310555,
                49.162790098028466
            ],
            [
                -123.89094999318377,
                49.16279009447083
            ],
            [
                -123.89094979835691,
                49.162792793169594
            ],
            [
                -123.89094985064045,
                49.16279206879235
            ],
            [
                -123.89095032903452,
                49.162781889151894
            ],
            [
                -123.89094950202809,
                49.16277999565005
            ],
            [
                -123.89095022080728,
                49.162780000037905
            ],
            [
                -123.89094014593802,
                49.16278000003551
            ],
            [
                -123.89094009986995,
                49.16278000201477
            ],
            [
                -123.89093951090491,
                49.162779983073904
            ],
            [
                -123.89094958809116,
                49.16277944269027
            ],
            [
                -123.89093805010361,
                49.16278233899918
            ],
            [
                -123.89094196096106,
                49.16279538039981
            ],
            [
                -123.89094971207399,
                49.16279250396444
            ],
            [
                -123.89094968221984,
                49.162769091945805
            ],
            [
                -123.89094963936051,
                49.16276762002696
            ],
            [
                -123.89094989825617,
                49.16277650675923
            ],
            [
                -123.89095002823684,
                49.16278097058686
            ],
            [
                -123.89094999910341,
                49.16277996824658
            ],
            [
                -123.89095000030208,
                49.162779997788526
            ],
            [
                -123.89094998647035,
                49.162780002968056
            ],
            [
                -123.89094997998652,
                49.162780001070146
            ],
            [
                -123.8909475374459,
                49.16278011324049
            ],
            [
                -123.89093986494228,
                49.162779930079424
            ],
            [
                -123.89094515634673,
                49.16277875480691
            ],
            [
                -123.89095122341668,
                49.16278214490429
            ],
            [
                -123.89095038471488,
                49.16278902895623
            ],
            [
                -123.89095000300141,
                49.162790007180796
            ],
            [
                -123.89094727102777,
                49.162782703274836
            ],
            [
                -123.89094204825395,
                49.162772146219886
            ],
            [
                -123.89093734394844,
                49.16277007031928
            ],
            [
                -123.89093936508895,
                49.16277039005912
            ],
            [
                -123.89094964979287,
                49.162768413637956
            ],
            [
                -123.89095001647125,
                49.16279241463929
            ],
            [
                -123.89094989153537,
                49.162796006725515
            ],
            [
                -123.89095086866695,
                49.16280298091443
            ],
            [
                -123.89093440472011,
                49.162778799325885
            ],
            [
                -123.89093974090409,
                49.16279036220412
            ],
            [
                -123.89093891826575,
                49.16278989145579
            ],
            [
                -123.89093230733462,
                49.162790001452805
            ],
            [
                -123.89093841549715,
                49.1627900003849
            ],
            [
                -123.89093066800856,
                49.162790001639166
            ],
            [
                -123.89092956769329,
                49.162790000791105
            ],
            [
                -123.89092997290446,
                49.16278999999071
            ],
            [
                -123.89092733098913,
                49.16278999999831
            ],
            [
                -123.89093994895673,
                49.16279
            ],
            [
                -123.8909299831905,
                49.162789999999994
            ],
            [
                -123.89094,
                49.16279
            ]
        ]
    },
    "properties": {
        "trajectory_id": 1063,
        "object_id": 316011408,
        "label": "PASSENGER"
    }
}