{
    "type": "Feature",
    "geometry": {
        "type": "LineString",
        "coordinates": [
            [
                -122.83933,
                49.22211
            ],
            [
                -122.83935274873336,
                49.222123682623014
            ],
            [
                -122.83933112515768,
                49.22211395930131
            ],
            [
                -122.83935509372243,
                49.222106556365134
            ],
            [
                -122.83934110371817,
                49.22212190566223
            ],
            [
                -122.83936124797192,
                49.22211818774383
            ],
            [
                -122.83934906226618,
                49.22208109618241
            ],
            [
                -122.83939034889202,
                49.22210016859899
            ],
            [
                -122.83933505077353,
                49.22212511150225
            ],
            [
                -122.83935180683444,
                49.22212837067136
            ],
            [
                -122.83934162378267,
                49.22211167557677
            ],
            [
                -122.8393410666423,
                49.2221014081699
            ],
            [
                -122.83936537493894,
                49.222103628200905
            ],
            [
                -122.83934954569011,
                49.222118198515375
            ],
            [
                -122.83934035197821,
                49.22211003192568
            ],
            [
                -122.83935023731067,
                49.22212007819511
            ],
            [
                -122.83934999904638,
                49.22211971558277
            ],
            [
                -122.83935647809507,
                49.22211962163667
            ],
            [
                -122.83935013801477,
                49.222130323854756
            ],
            [
                -122.83934149255452,
                49.22212960868232
            ],
            [
                -122.83935033107717,
                49.22210983494469
            ],
            [
                -122.83932885041594,
                49.22210902041031
            ],
            [
                -122.83932804663237,
                49.22215036573368
            ],
            [
                -122.83935637763454,
                49.222094978035855
            ],
            [
                -122.83929044748746,
                49.222150236605515
            ],
            [
                -122.83932192062446,
                49.22214225163426
            ],
            [
                -122.83928255437671,
                49.22217136608957
            ],
            [
                -122.8393204237556,
                49.22216839128654
            ],
            [
                -122.83931073281136,
                49.2221417811187
            ],
            [
                -122.83931508673739,
                49.2221327099436
            ],
            [
                -122.83932431224373,
                49.22213284452313
            ],
            [
                -122.83931704701946,
                49.22213179399604
            ],
            [
                -122.83932750215253,
                49.222117673854584
            ],
            [
                -122.83931773791205,
                49.22212177736028
            ],
            [
                -122.83934036730854,
                49.22213017733252
            ],
            [
                -122.83932130459807,
                49.22212288369286
            ],
            [
                -122.83935379460598,
                49.22212784790883
            ],
            [
                -122.83934128342017,
                49.222150178661266
            ],
            [
                -122.83936952646152,
                49.222115795778265
            ],
            [
                -122.8393582736756,
                49.22214389948775
            ],
            [
                -122.83933979686945,
                49.22215736957878
            ],
            [
                -122.83933736417092,
                49.222128163538414
            ],
            [
                -122.83935158754976,
                49.22214016433066
            ],
            [
                -122.83935778167972,
                49.22213595317583
            ],
            [
                -122.83934278260038,
                49.22215691647661
            ],
            [
                -122.83928508384156,
                49.22218752304644
            ],
            [
                -122.83930460588145,
                49.22215802620647
            ],
            [
                -122.83933541528955,
                49.222178529857565
            ],
            [
                -122.83933335603564,
                49.22214487945301
            ],
            [
                -122.83932275504122,
                49.22216862368975
            ],
            [
                -122.839320763578,
                49.22214939012366
            ],
            [
                -122.83933990997468,
                49.222129242327924
            ],
            [
                -122.8393334284742,
                49.22215565387989
            ],
            [
                -122.83934699876453,
                49.22215028243177
            ],
            [
                -122.83936348265105,
                49.222113387225704
            ],
            [
                -122.83935892088829,
                49.222107840632674
            ],
            [
                -122.83934919999488,
                49.222120931753324
            ],
            [
                -122.83933923596773,
                49.22211022802376
            ],
            [
                -122.83935933374235,
                49.222112691830176
            ],
            [
                -122.83935881823805,
                49.22212930564714
            ],
            [
                -122.8393779226639,
                49.22213142877266
            ],
            [
                -122.83938222149757,
                49.22210216055037
            ],
            [
                -122.83937387197598,
                49.22211781713591
            ],
            [
                -122.83935799551709,
                49.22212534594913
            ],
            [
                -122.83936929398378,
                49.22212387893144
            ],
            [
                -122.83936350356123,
                49.22212453819103
            ],
            [
                -122.83937152127886,
                49.22212309848372
            ],
            [
                -122.83938722495188,
                49.22213024919253
            ],
            [
                -122.83936541065839,
                49.22213337415937
            ],
            [
                -122.83936302465413,
                49.22213094820401
            ],
            [
                -122.8393846482813,
                49.22214583969542
            ],
            [
                -122.8393508895476,
                49.2221592866858
            ],
            [
                -122.8393611427951,
                49.22215262802937
            ],
            [
                -122.83937353568948,
                49.22213615963159
            ],
            [
                -122.83937179525601,
                49.222127152730415
            ],
            [
                -122.83934662598197,
                49.22213481427906
            ],
            [
                -122.83935768471622,
                49.22214866239176
            ],
            [
                -122.83936249465657,
                49.22213408459861
            ],
            [
                -122.83932307325108,
                49.222186277000304
            ],
            [
                -122.83937,
                49.22212
            ]
        ]
    },
    "properties": {
        "trajectory_id": 1090,
        "object_id": 316011603,
        "label": "TOWING"
    }
}