{
    "type": "Feature",
    "geometry": {
        "type": "LineString",
        "coordinates": [
            [
                -122.30173,
                49.1281
            ],
            [
                -122.30167151344506,
                49.12817836599147
            ],
            [
                -122.31915821018869,
                49.12167710477166
            ],
            [
                -122.34964364753154,
                49.128749655786734
            ],
            [
                -122.37969989804888,
                49.1344044803271
            ],
            [
                -122.40054581558286,
                49.1518549062155
            ],
            [
                -122.42218285546846,
                49.166499222059855
            ],
            [
                -122.44914307518877,
                49.173370083796144
            ],
            [
                -122.44904284491778,
                49.173460418915326
            ],
            [
                -122.44853481190975,
                49.17192172162234
            ],
            [
                -122.44774029413986,
                49.17324540789552
            ],
            [
                -122.44801266454598,
                49.1731941957855
            ],
            [
                -122.44837850357563,
                49.173467486342204
            ],
            [
                -122.45650285885272,
                49.17148746350924
            ],
            [
                -122.46860373726489,
                49.17125685373715
            ],
            [
                -122.47933985201085,
                49.171571292912674
            ],
            [
                -122.47885557017854,
                49.17191396746386
            ],
            [
                -122.47633729912911,
                49.17190953631732
            ],
            [
                -122.49629457822229,
                49.16600458064215
            ],
            [
                -122.51908426010202,
                49.16924355184388
            ],
            [
                -122.54781995883224,
                49.1764937642577
            ],
            [
                -122.574108216051,
                49.18291546490424
            ],
            [
                -122.59199146663858,
                49.1975488286968
            ],
            [
                -122.59129316520344,
                49.20407992393993
            ],
            [
                -122.59171125847995,
                49.204161519620705
            ],
            [
                -122.59123303584707,
                49.20401782471067
            ],
            [
                -122.59181083888745,
                49.203568465908035
            ],
            [
                -122.59786519778893,
                49.20464109875213
            ],
            [
                -122.6006065645766,
                49.20599972865532
            ],
            [
                -122.592929002873,
                49.204532181702064
            ],
            [
                -122.5918120645417,
                49.20446259564228
            ],
            [
                -122.59165457909616,
                49.20423975865925
            ],
            [
                -122.5911207336327,
                49.203924945658294
            ],
            [
                -122.59161865456558,
                49.20426828670762
            ],
            [
                -122.59170139086616,
                49.20417890678642
            ],
            [
                -122.59141332969641,
                49.20405089556838
            ],
            [
                -122.58809402612464,
                49.20180765233829
            ],
            [
                -122.58795472743459,
                49.201517398529184
            ],
            [
                -122.58655964895323,
                49.20050378334254
            ],
            [
                -122.58715428592512,
                49.20049057265636
            ],
            [
                -122.58755216215128,
                49.20117458774253
            ],
            [
                -122.58980596230788,
                49.20275791199788
            ],
            [
                -122.58988219819287,
                49.202700614774486
            ],
            [
                -122.59092066432201,
                49.2038109959025
            ],
            [
                -122.59041721574016,
                49.20330565064668
            ],
            [
                -122.58789559062389,
                49.20130474031912
            ],
            [
                -122.58771196848598,
                49.20137097322368
            ],
            [
                -122.58918432923798,
                49.20240890204515
            ],
            [
                -122.58999887448456,
                49.203189020244444
            ],
            [
                -122.59793918237933,
                49.20420446352352
            ],
            [
                -122.59731044823695,
                49.203794565342925
            ],
            [
                -122.59809180266366,
                49.20399230007708
            ],
            [
                -122.59770990965671,
                49.20416318396377
            ],
            [
                -122.60114822641918,
                49.20666168551828
            ],
            [
                -122.59809608288822,
                49.20411583955401
            ],
            [
                -122.59771670561605,
                49.20358748280691
            ],
            [
                -122.59738477711144,
                49.20379987458303
            ],
            [
                -122.59722791874019,
                49.203482875137254
            ],
            [
                -122.59719793584975,
                49.20345928282581
            ],
            [
                -122.59769153241282,
                49.20390671135601
            ],
            [
                -122.60626647113048,
                49.209970921800846
            ],
            [
                -122.61150067031325,
                49.21203314767717
            ],
            [
                -122.61004095116864,
                49.21191798202596
            ],
            [
                -122.61749927207156,
                49.21245088480777
            ],
            [
                -122.619250634184,
                49.21234394218596
            ],
            [
                -122.60986262138164,
                49.20993360990014
            ],
            [
                -122.59116249316962,
                49.19659826782313
            ],
            [
                -122.58278272963882,
                49.185973427123855
            ],
            [
                -122.5721408594445,
                49.18541441480239
            ],
            [
                -122.56097432078467,
                49.180555270030894
            ],
            [
                -122.53785118619913,
                49.17392557172862
            ],
            [
                -122.51338979000806,
                49.16702713772346
            ],
            [
                -122.48556241730215,
                49.16700150237926
            ],
            [
                -122.45772382325833,
                49.17031045310747
            ],
            [
                -122.43080750617867,
                49.16861649111143
            ],
            [
                -122.40968251786909,
                49.15720091562051
            ],
            [
                -122.39056724287963,
                49.14310305510567
            ],
            [
                -122.36913325645922,
                49.13250409340655
            ],
            [
                -122.34406726601226,
                49.12631347628515
            ],
            [
                -122.31857,
                49.12194
            ]
        ]
    },
    "properties": {
        "trajectory_id": 1114,
        "object_id": 316011730,
        "label": "TUG"
    }
}