{
    "type": "Feature",
    "geometry": {
        "type": "LineString",
        "coordinates": [
            [
                -123.42707,
                48.43197
            ],
            [
                -123.42704989979126,
                48.431979981625815
            ],
            [
                -123.42706957773285,
                48.43198000000006
            ],
            [
                -123.42704998572198,
                48.43198000018854
            ],
            [
                -123.42705059141937,
                48.43197259540164
            ],
            [
                -123.42705780460939,
                48.43196820351256
            ],
            [
                -123.42704975771376,
                48.431961963756315
            ],
            [
                -123.42704998154956,
                48.43199182682265
            ],
            [
                -123.42705020984474,
                48.43198956976337
            ],
            [
                -123.42706380317823,
                48.43197864622247
            ],
            [
                -123.42704894792591,
                48.43198000004144
            ],
            [
                -123.42705824437203,
                48.43198
            ],
            [
                -123.42704729671031,
                48.431979999999406
            ],
            [
                -123.42706983703118,
                48.43198000844827
            ],
            [
                -123.42707574159512,
                48.43195821524595
            ],
            [
                -123.42704786825902,
                48.43196802202629
            ],
            [
                -123.42704999058722,
                48.4319666211738
            ],
            [
                -123.4270774494139,
                48.43197589833703
            ],
            [
                -123.42704712348831,
                48.431970668662494
            ],
            [
                -123.42707093035486,
                48.43198004618561
            ],
            [
                -123.42705434337802,
                48.432008546590964
            ],
            [
                -123.42707017969812,
                48.431979110150436
            ],
            [
                -123.42706182089648,
                48.43198213910373
            ],
            [
                -123.42708019106142,
                48.43198981562545
            ],
            [
                -123.42704934857758,
                48.43199769567595
            ],
            [
                -123.42703998104184,
                48.43200050833681
            ],
            [
                -123.42706844594663,
                48.43199134912608
            ],
            [
                -123.42703968278425,
                48.432008598693564
            ],
            [
                -123.42704220894608,
                48.431969837188035
            ],
            [
                -123.42705035005623,
                48.43197962882955
            ],
            [
                -123.42707015337186,
                48.43197999672685
            ],
            [
                -123.42706815181847,
                48.43197879644137
            ],
            [
                -123.4270435753093,
                48.431996874115924
            ],
            [
                -123.42706373665615,
                48.43198519923634
            ],
            [
                -123.42705193391564,
                48.43197951175721
            ],
            [
                -123.42704990469375,
                48.431970245982576
            ],
            [
                -123.42706218047486,
                48.431977505019624
            ],
            [
                -123.42705687108156,
                48.43199356901933
            ],
            [
                -123.42706832290928,
                48.431979534090246
            ],
            [
                -123.42704123757956,
                48.432018570068905
            ],
            [
                -123.4270484442641,
                48.43201030061975
            ],
            [
                -123.42705068071108,
                48.432002664665625
            ],
            [
                -123.42704891103776,
                48.43198316030582
            ],
            [
                -123.42706178965922,
                48.43200207996489
            ],
            [
                -123.42705087539119,
                48.43198085327611
            ],
            [
                -123.42707493369902,
                48.43200937667826
            ],
            [
                -123.42704164423276,
                48.43197868333082
            ],
            [
                -123.42706982431193,
                48.43198098344609
            ],
            [
                -123.42706700937244,
                48.431979988034016
            ],
            [
                -123.42703373280779,
                48.431984427618346
            ],
            [
                -123.42706806376519,
                48.43198145183434
            ],
            [
                -123.42704795553655,
                48.431982377992085
            ],
            [
                -123.42703784771743,
                48.431980392893514
            ],
            [
                -123.42704482616541,
                48.43198213745968
            ],
            [
                -123.42704816388425,
                48.431979100994965
            ],
            [
                -123.4270466263969,
                48.43198333645262
            ],
            [
                -123.4270784918969,
                48.43201879223827
            ],
            [
                -123.42705186529719,
                48.43198037390114
            ],
            [
                -123.42704230849938,
                48.43199284545383
            ],
            [
                -123.42705344668572,
                48.43200203507903
            ],
            [
                -123.42704955165186,
                48.43198950031006
            ],
            [
                -123.42707839793435,
                48.43199028577712
            ],
            [
                -123.42706929226142,
                48.432029187476566
            ],
            [
                -123.42705071672017,
                48.432009869970436
            ],
            [
                -123.42703908526028,
                48.43202043862268
            ],
            [
                -123.42705060842157,
                48.43198085332742
            ],
            [
                -123.42703944439039,
                48.432010149788006
            ],
            [
                -123.42704151403828,
                48.43199254778888
            ],
            [
                -123.4270553328207,
                48.431970173824546
            ],
            [
                -123.42703768733857,
                48.4319803377922
            ],
            [
                -123.42707018852634,
                48.43198021533836
            ],
            [
                -123.42705190757171,
                48.43197976188043
            ],
            [
                -123.42704802654929,
                48.43196830384503
            ],
            [
                -123.42706360707491,
                48.43198011364844
            ],
            [
                -123.42705212338899,
                48.43197979923008
            ],
            [
                -123.42704856339564,
                48.431979621063356
            ],
            [
                -123.4270385656207,
                48.43197956197574
            ],
            [
                -123.42702866869082,
                48.43197833772618
            ],
            [
                -123.42703990247784,
                48.43198013610967
            ],
            [
                -123.42705,
                48.43197
            ]
        ]
    },
    "properties": {
        "trajectory_id": 1125,
        "object_id": 316012046,
        "label": "TUG"
    }
}