{
    "type": "Feature",
    "geometry": {
        "type": "LineString",
        "coordinates": [
            [
                -122.86199,
                49.21766
            ],
            [
                -122.83706583600154,
                49.21918303603589
            ],
            [
                -122.81370715971008,
                49.21748290951452
            ],
            [
                -122.79539408346011,
                49.21426110751585
            ],
            [
                -122.79555888564919,
                49.21423939467801
            ],
            [
                -122.78419341056824,
                49.2137500409237
            ],
            [
                -122.75980018461998,
                49.21403965030004
            ],
            [
                -122.75000379520215,
                49.2137489076786
            ],
            [
                -122.74759853070483,
                49.21439119012188
            ],
            [
                -122.74386712154573,
                49.21350606267751
            ],
            [
                -122.74370968730148,
                49.21303871252627
            ],
            [
                -122.74937295671744,
                49.21366262539184
            ],
            [
                -122.75939357090544,
                49.214584669424745
            ],
            [
                -122.7792705630175,
                49.21410946706581
            ],
            [
                -122.79338694040125,
                49.21510969987547
            ],
            [
                -122.79566866893445,
                49.21653041076698
            ],
            [
                -122.81052389870531,
                49.217783479314456
            ],
            [
                -122.83420504101092,
                49.219398111761414
            ],
            [
                -122.85688310742145,
                49.21864023649168
            ],
            [
                -122.87880349617497,
                49.215774132631836
            ],
            [
                -122.89588800599554,
                49.20853054723436
            ],
            [
                -122.90882856405194,
                49.20019199398296
            ],
            [
                -122.9229847636449,
                49.19699678099448
            ],
            [
                -122.9352502882087,
                49.19777495749637
            ],
            [
                -122.94512426120345,
                49.19726367420438
            ],
            [
                -122.95804456143198,
                49.191161416305576
            ],
            [
                -122.96664185824585,
                49.18527304811617
            ],
            [
                -122.97174186971324,
                49.18101122208077
            ],
            [
                -122.98368985153391,
                49.18124445527117
            ],
            [
                -122.99345955325595,
                49.18616599693
            ],
            [
                -122.99720482498147,
                49.18891804332277
            ],
            [
                -123.00194487758054,
                49.19202056364454
            ],
            [
                -123.00983650667133,
                49.19529119741775
            ],
            [
                -123.01944617998215,
                49.19826691550526
            ],
            [
                -123.03087084336573,
                49.20120837063682
            ],
            [
                -123.0429752240662,
                49.20375458072294
            ],
            [
                -123.05577154039509,
                49.20434170088874
            ],
            [
                -123.06870540159738,
                49.20359122692941
            ],
            [
                -123.0809763916223,
                49.20102380713468
            ],
            [
                -123.08983362057819,
                49.198381711345064
            ],
            [
                -123.09942483785989,
                49.1985730337326
            ],
            [
                -123.10814587714607,
                49.20045649659586
            ],
            [
                -123.11912763686755,
                49.20223966778415
            ],
            [
                -123.1304010959668,
                49.199356291552974
            ],
            [
                -123.14194816590029,
                49.200639472247545
            ],
            [
                -123.15156322269576,
                49.20590685981457
            ],
            [
                -123.16088345881215,
                49.211976439472906
            ],
            [
                -123.17445595444188,
                49.215366628259254
            ],
            [
                -123.18792400229576,
                49.218688562306134
            ],
            [
                -123.20189807828137,
                49.22196449429904
            ],
            [
                -123.2132975762223,
                49.224540180787336
            ],
            [
                -123.22414364545668,
                49.227181282150056
            ],
            [
                -123.22742553747656,
                49.22864780417009
            ],
            [
                -123.22965215182613,
                49.22943492811567
            ],
            [
                -123.23067292973656,
                49.22938336155516
            ],
            [
                -123.2336239306745,
                49.23170156910642
            ],
            [
                -123.24186956775159,
                49.236497979601836
            ],
            [
                -123.24632353006339,
                49.23941675183544
            ],
            [
                -123.24378911624032,
                49.23774328242278
            ],
            [
                -123.2433171380896,
                49.23748405605496
            ],
            [
                -123.23620922904377,
                49.23354968087105
            ],
            [
                -123.23227043482447,
                49.23150229919579
            ],
            [
                -123.23127242296822,
                49.230879138836336
            ],
            [
                -123.2308471383156,
                49.23047925039356
            ],
            [
                -123.22677154051503,
                49.22856197452631
            ],
            [
                -123.22483603488311,
                49.22755873258988
            ],
            [
                -123.22382574318277,
                49.227582584864116
            ],
            [
                -123.21913759155377,
                49.226458623907945
            ],
            [
                -123.21427506980575,
                49.22491827043206
            ],
            [
                -123.20953494666965,
                49.22371812006057
            ],
            [
                -123.20473225815026,
                49.222700218709804
            ],
            [
                -123.20001754280172,
                49.22172795468773
            ],
            [
                -123.19469086803538,
                49.22052128669684
            ],
            [
                -123.1901439608973,
                49.21961036329034
            ],
            [
                -123.1852657760752,
                49.21738847188221
            ],
            [
                -123.1795372151042,
                49.215666694117466
            ],
            [
                -123.17304496987897,
                49.21485787478209
            ],
            [
                -123.16710419387557,
                49.214077347037296
            ],
            [
                -123.16173875163751,
                49.21222133774386
            ],
            [
                -123.15652,
                49.20975
            ]
        ]
    },
    "properties": {
        "trajectory_id": 1142,
        "object_id": 316012342,
        "label": "TOWING"
    }
}