{
    "type": "Feature",
    "geometry": {
        "type": "LineString",
        "coordinates": [
            [
                -123.42775,
                48.43268
            ],
            [
                -123.42774999580742,
                48.43269016656508
            ],
            [
                -123.42775936118906,
                48.43278382295562
            ],
            [
                -123.42777440932812,
                48.43281050367176
            ],
            [
                -123.42776991445876,
                48.43280085371394
            ],
            [
                -123.42772059701333,
                48.43278929143031
            ],
            [
                -123.42771003334744,
                48.432789968444716
            ],
            [
                -123.42772987689072,
                48.43276980443899
            ],
            [
                -123.4277202921247,
                48.43278000617596
            ],
            [
                -123.42772946877852,
                48.43276983828032
            ],
            [
                -123.42773000424317,
                48.43278058619983
            ],
            [
                -123.42773966848443,
                48.43277986484372
            ],
            [
                -123.42771016519055,
                48.432749278968416
            ],
            [
                -123.42770235688532,
                48.43273999384021
            ],
            [
                -123.4277109291387,
                48.43273977279229
            ],
            [
                -123.42768993943439,
                48.43272269885868
            ],
            [
                -123.4276902503069,
                48.432725026115875
            ],
            [
                -123.42768997226375,
                48.43273001850965
            ],
            [
                -123.42772205577648,
                48.4327399801761
            ],
            [
                -123.42773999215035,
                48.43274986271648
            ],
            [
                -123.42772993861023,
                48.43277041613508
            ],
            [
                -123.42772855163142,
                48.43279981433526
            ],
            [
                -123.42771999691828,
                48.43279992566583
            ],
            [
                -123.42771460804602,
                48.43282545508558
            ],
            [
                -123.42771989835096,
                48.43280910581792
            ],
            [
                -123.42773000147427,
                48.432800295551665
            ],
            [
                -123.42773972323153,
                48.43278027122898
            ],
            [
                -123.42773995887129,
                48.43276898650906
            ],
            [
                -123.4277495136878,
                48.43276813196683
            ],
            [
                -123.42776950372847,
                48.432752153452626
            ],
            [
                -123.42774002697972,
                48.43277998357918
            ],
            [
                -123.42773949417364,
                48.4327597278739
            ],
            [
                -123.42773999984361,
                48.43273999939095
            ],
            [
                -123.4277503678151,
                48.43274000000633
            ],
            [
                -123.4277697395695,
                48.432739927148255
            ],
            [
                -123.42779091815534,
                48.43275000538476
            ],
            [
                -123.42774934750953,
                48.432759899529266
            ],
            [
                -123.42773062764455,
                48.43279094609161
            ],
            [
                -123.42772001433974,
                48.43280858728159
            ],
            [
                -123.4277299922202,
                48.43278131137502
            ],
            [
                -123.42771998695659,
                48.43277015006978
            ],
            [
                -123.4277302997216,
                48.4327700288973
            ],
            [
                -123.42773070351281,
                48.43278009457797
            ],
            [
                -123.42773025916036,
                48.43276999667363
            ],
            [
                -123.42773037112248,
                48.43276545749602
            ],
            [
                -123.42771993105973,
                48.43277381266466
            ],
            [
                -123.42772961706244,
                48.432779246401545
            ],
            [
                -123.42775050474194,
                48.43277752449052
            ],
            [
                -123.42776515165724,
                48.43276135655027
            ],
            [
                -123.42777339590988,
                48.43274536185153
            ],
            [
                -123.42777030400894,
                48.43274911246979
            ],
            [
                -123.42775745115003,
                48.432771074439714
            ],
            [
                -123.4277204338824,
                48.43275980728054
            ],
            [
                -123.42770684086723,
                48.43276556719964
            ],
            [
                -123.42772001508546,
                48.43276981335525
            ],
            [
                -123.42770897450775,
                48.43277006901127
            ],
            [
                -123.42772067190003,
                48.432762781166744
            ],
            [
                -123.42770987748217,
                48.43277046067343
            ],
            [
                -123.42773984469807,
                48.43278226624045
            ],
            [
                -123.42774732672939,
                48.432770210364545
            ],
            [
                -123.42773958127661,
                48.43274951507521
            ],
            [
                -123.42773338173592,
                48.43276049174015
            ],
            [
                -123.42776019852879,
                48.43275015134369
            ],
            [
                -123.42775993498222,
                48.43273999597796
            ],
            [
                -123.42774999557533,
                48.43275011325151
            ],
            [
                -123.42774999567393,
                48.43274618917252
            ],
            [
                -123.42776004501414,
                48.43273994275645
            ],
            [
                -123.42774909465216,
                48.432749909966894
            ],
            [
                -123.42774109912058,
                48.432758562180645
            ],
            [
                -123.4277399762256,
                48.43275000065264
            ],
            [
                -123.4277300205517,
                48.43275000562841
            ],
            [
                -123.42771816793235,
                48.432739923828755
            ],
            [
                -123.42773033266432,
                48.4327499033708
            ],
            [
                -123.42774002210835,
                48.43275002666518
            ],
            [
                -123.4277298277939,
                48.43273965433071
            ],
            [
                -123.42771014988242,
                48.43273994372016
            ],
            [
                -123.42773922263171,
                48.43276978480626
            ],
            [
                -123.42775000456543,
                48.432770925060886
            ],
            [
                -123.4277402733375,
                48.4327501850514
            ],
            [
                -123.4277,
                48.43273
            ]
        ]
    },
    "properties": {
        "trajectory_id": 1191,
        "object_id": 316013711,
        "label": "TUG"
    }
}