{
    "type": "Feature",
    "geometry": {
        "type": "LineString",
        "coordinates": [
            [
                -122.44196,
                47.26568
            ],
            [
                -122.44194116810223,
                47.26559080445001
            ],
            [
                -122.44218455057427,
                47.265661732838545
            ],
            [
                -122.44155947303985,
                47.26559682494047
            ],
            [
                -122.44197781274232,
                47.266377108922356
            ],
            [
                -122.44219676933001,
                47.265843405786704
            ],
            [
                -122.44224169199757,
                47.265973666724925
            ],
            [
                -122.44229594031047,
                47.26580358710536
            ],
            [
                -122.4421892802173,
                47.265787685674304
            ],
            [
                -122.44207999956113,
                47.26585731895336
            ],
            [
                -122.44223267607083,
                47.265759002538175
            ],
            [
                -122.44214179577332,
                47.2658167007262
            ],
            [
                -122.44203241551111,
                47.265816444456135
            ],
            [
                -122.442293923569,
                47.26584582935144
            ],
            [
                -122.44226736207489,
                47.2657100899018
            ],
            [
                -122.44223051814933,
                47.26584654029509
            ],
            [
                -122.44216984047482,
                47.26582452091803
            ],
            [
                -122.44190381447491,
                47.26564877889517
            ],
            [
                -122.44212443519882,
                47.26578401735587
            ],
            [
                -122.44198474684936,
                47.265848564043985
            ],
            [
                -122.44212128800977,
                47.26570258826429
            ],
            [
                -122.44233413041233,
                47.26583646302447
            ],
            [
                -122.44173504960476,
                47.26581698013329
            ],
            [
                -122.4420926777363,
                47.26577800940723
            ],
            [
                -122.44201069347785,
                47.26579391076635
            ],
            [
                -122.44211862373022,
                47.26577981831663
            ],
            [
                -122.44214127149453,
                47.26588428317305
            ],
            [
                -122.44232111207585,
                47.26587016460316
            ],
            [
                -122.4421432402696,
                47.26592695530217
            ],
            [
                -122.44228113110472,
                47.26571560591497
            ],
            [
                -122.44228065504842,
                47.265695811487035
            ],
            [
                -122.44224928269031,
                47.26562904513146
            ],
            [
                -122.44238869346998,
                47.26577860183281
            ],
            [
                -122.44177988318576,
                47.265593149778574
            ],
            [
                -122.44179809565331,
                47.26574966474362
            ],
            [
                -122.44231176726778,
                47.26586620929503
            ],
            [
                -122.44227917420925,
                47.265899844981476
            ],
            [
                -122.44208197270838,
                47.26583672330772
            ],
            [
                -122.44217494664352,
                47.26588834717957
            ],
            [
                -122.44214167484513,
                47.26593519441268
            ],
            [
                -122.44190794635462,
                47.26578461287134
            ],
            [
                -122.44213992897807,
                47.26585330709323
            ],
            [
                -122.44214274872128,
                47.26568810485848
            ],
            [
                -122.44210761480171,
                47.265695900806485
            ],
            [
                -122.44191839957084,
                47.26592044783254
            ],
            [
                -122.44201529235941,
                47.265652035621244
            ],
            [
                -122.44228250452947,
                47.26567955898834
            ],
            [
                -122.44182244504324,
                47.26579139627791
            ],
            [
                -122.44198841437469,
                47.265873652646924
            ],
            [
                -122.44214193869897,
                47.265764829471536
            ],
            [
                -122.44202780578328,
                47.265602458144535
            ],
            [
                -122.44231977654245,
                47.26578281831631
            ],
            [
                -122.44218323682601,
                47.26582373303801
            ],
            [
                -122.4422423401484,
                47.26580165160587
            ],
            [
                -122.4422396967661,
                47.265806347060845
            ],
            [
                -122.4422039769577,
                47.26579508778877
            ],
            [
                -122.44227121206407,
                47.26579821722228
            ],
            [
                -122.44215903527223,
                47.26574759824848
            ],
            [
                -122.44203958272753,
                47.265715384801496
            ],
            [
                -122.44220680757226,
                47.265960891426445
            ],
            [
                -122.44224336652348,
                47.26588116170795
            ],
            [
                -122.44219739491675,
                47.265928534335444
            ],
            [
                -122.44203245829512,
                47.26579208479201
            ],
            [
                -122.44203229306927,
                47.265593630959664
            ],
            [
                -122.442266013086,
                47.26583134791888
            ],
            [
                -122.4422076928749,
                47.265999529448166
            ],
            [
                -122.44200003969006,
                47.26579689983064
            ],
            [
                -122.44223329415753,
                47.2656218726582
            ],
            [
                -122.44197117555558,
                47.26602006932233
            ],
            [
                -122.44174745413716,
                47.26604191903103
            ],
            [
                -122.44214322822666,
                47.265667191465205
            ],
            [
                -122.44224128423659,
                47.26596413654169
            ],
            [
                -122.44221971098762,
                47.2658230340418
            ],
            [
                -122.44223143921731,
                47.2656620932829
            ],
            [
                -122.4421562856785,
                47.265798063149795
            ],
            [
                -122.44201739547009,
                47.26556211491704
            ],
            [
                -122.44215855370847,
                47.265796952127985
            ],
            [
                -122.44223301207207,
                47.26575153366206
            ],
            [
                -122.4421716143043,
                47.26563756288084
            ],
            [
                -122.44223,
                47.26535
            ]
        ]
    },
    "properties": {
        "trajectory_id": 12,
        "object_id": 232010350,
        "label": "CARGO"
    }
}