{
    "type": "Feature",
    "geometry": {
        "type": "LineString",
        "coordinates": [
            [
                -123.0285,
                49.29806
            ],
            [
                -123.02847109431855,
                49.29806995667295
            ],
            [
                -123.02847964978116,
                49.29806405934887
            ],
            [
                -123.02850321840305,
                49.29804370067014
            ],
            [
                -123.02850342468562,
                49.29804942968465
            ],
            [
                -123.02848875154908,
                49.29805602231361
            ],
            [
                -123.02849997723592,
                49.29806028263859
            ],
            [
                -123.0284799951828,
                49.29805722332056
            ],
            [
                -123.02846908261039,
                49.29806091466986
            ],
            [
                -123.02846440776695,
                49.298049089505774
            ],
            [
                -123.0284835143263,
                49.29806007271548
            ],
            [
                -123.02844936616316,
                49.29804966665067
            ],
            [
                -123.02847702431713,
                49.298050110788225
            ],
            [
                -123.02848996565503,
                49.29804970209273
            ],
            [
                -123.02848810796269,
                49.2980487987607
            ],
            [
                -123.02846948857373,
                49.29804833997812
            ],
            [
                -123.02848329547547,
                49.29806196037151
            ],
            [
                -123.02849046978977,
                49.2980605672868
            ],
            [
                -123.02846067198566,
                49.298074142148536
            ],
            [
                -123.02847539041692,
                49.298060854704985
            ],
            [
                -123.02846737125616,
                49.29806446549988
            ],
            [
                -123.0284955628857,
                49.29804534241358
            ],
            [
                -123.02847955572066,
                49.298062940091455
            ],
            [
                -123.02846773311285,
                49.29806001927349
            ],
            [
                -123.02849344390098,
                49.2980600038819
            ],
            [
                -123.02847363822073,
                49.298053515720746
            ],
            [
                -123.02847943566506,
                49.29805764759548
            ],
            [
                -123.02847904621915,
                49.29805259866681
            ],
            [
                -123.02848005136991,
                49.29805998453169
            ],
            [
                -123.02846888138768,
                49.29804815016259
            ],
            [
                -123.02847007767593,
                49.2980596150922
            ],
            [
                -123.02847068631395,
                49.298060031982075
            ],
            [
                -123.02850265193847,
                49.29805940175331
            ],
            [
                -123.02849230504172,
                49.29805305813837
            ],
            [
                -123.02848021342734,
                49.2980603148567
            ],
            [
                -123.02847365041953,
                49.2980602991649
            ],
            [
                -123.02848105335576,
                49.29806213894402
            ],
            [
                -123.02848735163847,
                49.298070870533614
            ],
            [
                -123.02848009215768,
                49.29805999454703
            ],
            [
                -123.02846408476105,
                49.29806559147111
            ],
            [
                -123.02849344694248,
                49.298067719498746
            ],
            [
                -123.0284857686574,
                49.298066342835135
            ],
            [
                -123.0284686797006,
                49.29806916477489
            ],
            [
                -123.02846668480416,
                49.29804634012822
            ],
            [
                -123.02847915128218,
                49.29805976833914
            ],
            [
                -123.0284800046067,
                49.29806118594402
            ],
            [
                -123.02849996564323,
                49.298059986009605
            ],
            [
                -123.02847145089135,
                49.29805968653426
            ],
            [
                -123.02847749653809,
                49.29804999306133
            ],
            [
                -123.02847025336725,
                49.298056010738975
            ],
            [
                -123.0285040416593,
                49.298054905098226
            ],
            [
                -123.02848003203292,
                49.29805999772924
            ],
            [
                -123.02848017024269,
                49.29805938875306
            ],
            [
                -123.02847517439706,
                49.298081263904095
            ],
            [
                -123.02847967432182,
                49.29805889012531
            ],
            [
                -123.02849568299958,
                49.29806052311493
            ],
            [
                -123.0285266847538,
                49.298095343470386
            ],
            [
                -123.02848611072855,
                49.29806102422848
            ],
            [
                -123.02850455128255,
                49.29811069896249
            ],
            [
                -123.02850196100853,
                49.298081205664225
            ],
            [
                -123.02848088184034,
                49.298059660773646
            ],
            [
                -123.02845996536264,
                49.29806887415173
            ],
            [
                -123.02848528552275,
                49.29805634002602
            ],
            [
                -123.0284491775918,
                49.298059977037944
            ],
            [
                -123.02848373493664,
                49.29805169709668
            ],
            [
                -123.02847907858346,
                49.29804995443723
            ],
            [
                -123.02848007859782,
                49.2980501194193
            ],
            [
                -123.0284770656584,
                49.29806279245547
            ],
            [
                -123.02848002518375,
                49.29804999601436
            ],
            [
                -123.0284795900192,
                49.298048910241576
            ],
            [
                -123.028452834716,
                49.29805000036884
            ],
            [
                -123.0284600592928,
                49.298050130281766
            ],
            [
                -123.02847881415681,
                49.29805811204463
            ],
            [
                -123.02848062600698,
                49.29806094392483
            ],
            [
                -123.02847912246841,
                49.298064021730085
            ],
            [
                -123.0284855689161,
                49.298060839054855
            ],
            [
                -123.02848125813287,
                49.29806100092486
            ],
            [
                -123.02847440704092,
                49.298079631127564
            ],
            [
                -123.02847126185051,
                49.29804941651453
            ],
            [
                -123.02849,
                49.29806
            ]
        ]
    },
    "properties": {
        "trajectory_id": 1276,
        "object_id": 316016013,
        "label": "TUG"
    }
}