{
    "type": "Feature",
    "geometry": {
        "type": "LineString",
        "coordinates": [
            [
                -123.03357,
                49.20116
            ],
            [
                -123.03393174394364,
                49.20078967225671
            ],
            [
                -123.03397023184544,
                49.200840864512
            ],
            [
                -123.03391604593048,
                49.200847422895755
            ],
            [
                -123.03394911315601,
                49.20083403993666
            ],
            [
                -123.03392748809226,
                49.20086340980814
            ],
            [
                -123.03399697705828,
                49.20088323473142
            ],
            [
                -123.0339082355168,
                49.20086151307837
            ],
            [
                -123.03394852717737,
                49.200866615380654
            ],
            [
                -123.03379240686999,
                49.20076654090292
            ],
            [
                -123.03371109328297,
                49.20069558918816
            ],
            [
                -123.03387215923591,
                49.20079469917314
            ],
            [
                -123.03397147627179,
                49.20085398099723
            ],
            [
                -123.03392863445265,
                49.200943027441404
            ],
            [
                -123.03396048319361,
                49.20088553081296
            ],
            [
                -123.03390706109809,
                49.200899085155434
            ],
            [
                -123.03394594683816,
                49.20086745769211
            ],
            [
                -123.03390673965077,
                49.200824839708226
            ],
            [
                -123.03400782731703,
                49.20087518284508
            ],
            [
                -123.03395013897361,
                49.20087278943141
            ],
            [
                -123.03396937784824,
                49.20088323582412
            ],
            [
                -123.03400190018824,
                49.200895081558095
            ],
            [
                -123.0339351047608,
                49.20085626769075
            ],
            [
                -123.03393792938864,
                49.20088350211684
            ],
            [
                -123.03396794379564,
                49.20089320983085
            ],
            [
                -123.03399274751035,
                49.200878510962475
            ],
            [
                -123.03392726638815,
                49.20088295981364
            ],
            [
                -123.03394666655035,
                49.20087166644957
            ],
            [
                -123.03394030236926,
                49.200879978095365
            ],
            [
                -123.03395509348998,
                49.200896796552655
            ],
            [
                -123.03392426357878,
                49.20085957859221
            ],
            [
                -123.03390462802184,
                49.20088933426281
            ],
            [
                -123.03391908027619,
                49.20086413564355
            ],
            [
                -123.03384887877047,
                49.20088792832364
            ],
            [
                -123.03394244651331,
                49.20088077940699
            ],
            [
                -123.03388239631225,
                49.200875668644905
            ],
            [
                -123.03391138211929,
                49.200888673719795
            ],
            [
                -123.03388056511086,
                49.20091527528086
            ],
            [
                -123.03394022815344,
                49.20088062874506
            ],
            [
                -123.03394114449449,
                49.2008974081237
            ],
            [
                -123.03391206461083,
                49.20086746150195
            ],
            [
                -123.03397560405595,
                49.200865462142396
            ],
            [
                -123.03388575694903,
                49.20084702142308
            ],
            [
                -123.03389937172165,
                49.20087938096511
            ],
            [
                -123.03388785754072,
                49.20085722003192
            ],
            [
                -123.03390141520349,
                49.20090141105761
            ],
            [
                -123.03392003336911,
                49.2008401820878
            ],
            [
                -123.03390348449192,
                49.20083889156101
            ],
            [
                -123.03386812577564,
                49.200901461575555
            ],
            [
                -123.03390978653543,
                49.200869242418825
            ],
            [
                -123.03390112896086,
                49.20088621902968
            ],
            [
                -123.03389925722914,
                49.200868758265166
            ],
            [
                -123.03389571357027,
                49.20087643896771
            ],
            [
                -123.03389814798612,
                49.20090051606082
            ],
            [
                -123.03388910486328,
                49.200925185796606
            ],
            [
                -123.0338790501911,
                49.2008102849617
            ],
            [
                -123.03393863571881,
                49.200889769049866
            ],
            [
                -123.03388438672238,
                49.200866392488955
            ],
            [
                -123.03393711234915,
                49.200956718280146
            ],
            [
                -123.03392562146063,
                49.20090905984137
            ],
            [
                -123.03390070469209,
                49.200882279846816
            ],
            [
                -123.03399094663826,
                49.200853018523254
            ],
            [
                -123.0339219291572,
                49.20085101281976
            ],
            [
                -123.03391422568761,
                49.20090953310902
            ],
            [
                -123.03389970262685,
                49.20090393279088
            ],
            [
                -123.0338973057953,
                49.200862551298435
            ],
            [
                -123.0339372798156,
                49.200844936500935
            ],
            [
                -123.03396141189668,
                49.200856023240505
            ],
            [
                -123.03391484984792,
                49.200842759515886
            ],
            [
                -123.03391943771146,
                49.20086492631631
            ],
            [
                -123.03389086227367,
                49.20096249131987
            ],
            [
                -123.03394697061066,
                49.200909296320226
            ],
            [
                -123.03389957243402,
                49.20088485712682
            ],
            [
                -123.03389068027727,
                49.200851295895944
            ],
            [
                -123.03391089208492,
                49.200829042382246
            ],
            [
                -123.03391790472573,
                49.200914628770796
            ],
            [
                -123.03386987065363,
                49.200800127028316
            ],
            [
                -123.0338541622709,
                49.2008542945191
            ],
            [
                -123.03389867876365,
                49.20089291698795
            ],
            [
                -123.03396,
                49.20077
            ]
        ]
    },
    "properties": {
        "trajectory_id": 1288,
        "object_id": 316016663,
        "label": "TUG"
    }
}