{
    "type": "Feature",
    "geometry": {
        "type": "LineString",
        "coordinates": [
            [
                -122.77105,
                49.23123
            ],
            [
                -122.77100427119161,
                49.23133225773552
            ],
            [
                -122.77121079186756,
                49.23103520963041
            ],
            [
                -122.79188337242728,
                49.221435828552394
            ],
            [
                -122.82970850207016,
                49.218607582865666
            ],
            [
                -122.83287143260308,
                49.218057877405194
            ],
            [
                -122.83286923668669,
                49.21802020770974
            ],
            [
                -122.83232877536763,
                49.218585247217845
            ],
            [
                -122.85387884546155,
                49.218472096074265
            ],
            [
                -122.8806223801209,
                49.214964296418835
            ],
            [
                -122.89896234420183,
                49.204374428965046
            ],
            [
                -122.91472716410236,
                49.192347292359486
            ],
            [
                -122.92416530065331,
                49.17735602119022
            ],
            [
                -122.93578644387183,
                49.16379863711358
            ],
            [
                -122.95656353645522,
                49.15647635068639
            ],
            [
                -122.97965757700928,
                49.15737911107727
            ],
            [
                -123.00289458367027,
                49.15491918379487
            ],
            [
                -123.0267018375992,
                49.15002017950486
            ],
            [
                -123.0487530633384,
                49.141790807255106
            ],
            [
                -123.06515642955442,
                49.129365709744675
            ],
            [
                -123.08271156250085,
                49.11820842550312
            ],
            [
                -123.1058527732338,
                49.11342556820812
            ],
            [
                -123.12941693783404,
                49.10916393752135
            ],
            [
                -123.15410638637294,
                49.11127091407643
            ],
            [
                -123.17746038606589,
                49.11673396202696
            ],
            [
                -123.19970294941643,
                49.12377004134882
            ],
            [
                -123.22024701081288,
                49.13038393360779
            ],
            [
                -123.24316126924052,
                49.12943728426375
            ],
            [
                -123.2641063037164,
                49.1211763765592
            ],
            [
                -123.2838951536232,
                49.11281889598157
            ],
            [
                -123.30378716392613,
                49.10509945468391
            ],
            [
                -123.3098683160132,
                49.11306796481018
            ],
            [
                -123.31109618831601,
                49.12414539139195
            ],
            [
                -123.3113436800525,
                49.13615771320324
            ],
            [
                -123.3104006767058,
                49.147334071193576
            ],
            [
                -123.30904357856035,
                49.15853039761546
            ],
            [
                -123.30609677181428,
                49.16943596510688
            ],
            [
                -123.30453898507186,
                49.17984636775104
            ],
            [
                -123.3038780229039,
                49.190514501999424
            ],
            [
                -123.3043668309234,
                49.20134869133911
            ],
            [
                -123.30553683896727,
                49.212345967548316
            ],
            [
                -123.30510737579334,
                49.22350779635683
            ],
            [
                -123.30314580221352,
                49.23473155466266
            ],
            [
                -123.30238102848182,
                49.24524558512213
            ],
            [
                -123.30216527085338,
                49.254916763299946
            ],
            [
                -123.30166943512882,
                49.26464779256839
            ],
            [
                -123.29920915395293,
                49.274600138900546
            ],
            [
                -123.29655999907644,
                49.28471319754352
            ],
            [
                -123.29326109935629,
                49.29450321490545
            ],
            [
                -123.29023696244909,
                49.30394971641024
            ],
            [
                -123.28777737573026,
                49.31379163865191
            ],
            [
                -123.28634903527528,
                49.32395432286517
            ],
            [
                -123.28903378831347,
                49.334697829803325
            ],
            [
                -123.29304568487734,
                49.34597558553672
            ],
            [
                -123.29830309865257,
                49.35732812207937
            ],
            [
                -123.30345797548283,
                49.363268638405046
            ],
            [
                -123.30430279725348,
                49.36971250664976
            ],
            [
                -123.3037938460037,
                49.3766856444902
            ],
            [
                -123.30238581742094,
                49.38352417333968
            ],
            [
                -123.30072971163047,
                49.39011488425023
            ],
            [
                -123.29788901362339,
                49.3966536649765
            ],
            [
                -123.29522222731043,
                49.40305053681271
            ],
            [
                -123.2925183639834,
                49.40947962564252
            ],
            [
                -123.29018698570307,
                49.41639334705566
            ],
            [
                -123.2889639588363,
                49.42339821789696
            ],
            [
                -123.28814541194224,
                49.430477238667336
            ],
            [
                -123.2883565354944,
                49.43778644836447
            ],
            [
                -123.28859404292952,
                49.44486154542318
            ],
            [
                -123.28868402871515,
                49.452306102600865
            ],
            [
                -123.28818373708957,
                49.459653629474786
            ],
            [
                -123.28639733727586,
                49.467224756902674
            ],
            [
                -123.28385426629909,
                49.47519971797892
            ],
            [
                -123.28144741905543,
                49.48306244481699
            ],
            [
                -123.2795458873562,
                49.49079875990576
            ],
            [
                -123.27778976382577,
                49.498315526884774
            ],
            [
                -123.27577073850588,
                49.5056086283479
            ],
            [
                -123.27357647601927,
                49.51322078996355
            ],
            [
                -123.27099977535785,
                49.52107383622121
            ],
            [
                -123.26866372328404,
                49.52929646046011
            ],
            [
                -123.26674,
                49.53818
            ]
        ]
    },
    "properties": {
        "trajectory_id": 1291,
        "object_id": 316018604,
        "label": "TOWING"
    }
}