{
    "type": "Feature",
    "geometry": {
        "type": "LineString",
        "coordinates": [
            [
                -122.95634,
                49.19128
            ],
            [
                -122.98471902973944,
                49.18173532886516
            ],
            [
                -122.99888178864863,
                49.18883743943936
            ],
            [
                -122.99871260159061,
                49.18858099298101
            ],
            [
                -122.99881809252932,
                49.18866471009295
            ],
            [
                -122.99694053570865,
                49.18788141699318
            ],
            [
                -122.99711385473364,
                49.1880458735591
            ],
            [
                -123.00029985395099,
                49.190332185209094
            ],
            [
                -123.00019958353302,
                49.19027751766934
            ],
            [
                -122.99951198531046,
                49.189905063759035
            ],
            [
                -122.99956688386773,
                49.18988254755434
            ],
            [
                -123.02420002757403,
                49.1995594621282
            ],
            [
                -123.05704054218864,
                49.20422000902161
            ],
            [
                -123.09288733321283,
                49.19811706731448
            ],
            [
                -123.12780299530337,
                49.200009642174926
            ],
            [
                -123.15968384285581,
                49.211416537850326
            ],
            [
                -123.19700401754423,
                49.220591353903274
            ],
            [
                -123.22931628688653,
                49.22887750371405
            ],
            [
                -123.24090280248046,
                49.235970239788266
            ],
            [
                -123.24136222819287,
                49.23603460690204
            ],
            [
                -123.2392787087224,
                49.23491104459416
            ],
            [
                -123.24164545287032,
                49.236079991769245
            ],
            [
                -123.23862833439256,
                49.23448280021585
            ],
            [
                -123.24135433521181,
                49.23623776559192
            ],
            [
                -123.23828617807933,
                49.23418634532659
            ],
            [
                -123.23775540566936,
                49.23349541864104
            ],
            [
                -123.23764091910905,
                49.233524037494156
            ],
            [
                -123.23498924032234,
                49.23285246292765
            ],
            [
                -123.23735768869209,
                49.23330467327402
            ],
            [
                -123.23846560609539,
                49.234575491318324
            ],
            [
                -123.23854088399641,
                49.23461587805449
            ],
            [
                -123.23729195770542,
                49.23330637437537
            ],
            [
                -123.2359374586041,
                49.2333756823958
            ],
            [
                -123.23661613926578,
                49.2333226759054
            ],
            [
                -123.24026532056261,
                49.2357585953786
            ],
            [
                -123.23834195711025,
                49.233774838543354
            ],
            [
                -123.23690281205933,
                49.23393806416157
            ],
            [
                -123.23321340554091,
                49.232039139884094
            ],
            [
                -123.22481089491154,
                49.228089029127275
            ],
            [
                -123.21914489934255,
                49.22611563972632
            ],
            [
                -123.21186317304708,
                49.22429044627361
            ],
            [
                -123.2067927428257,
                49.22292497625127
            ],
            [
                -123.19584565325658,
                49.22077222450651
            ],
            [
                -123.1871569954627,
                49.21810786549314
            ],
            [
                -123.17797792709239,
                49.215492248820574
            ],
            [
                -123.16894123239098,
                49.214499295557644
            ],
            [
                -123.1605572597802,
                49.21189039943138
            ],
            [
                -123.15328419524702,
                49.20752107190123
            ],
            [
                -123.14696952631081,
                49.202433808475405
            ],
            [
                -123.13781242272532,
                49.19941856044034
            ],
            [
                -123.12841892794295,
                49.19976312214778
            ],
            [
                -123.1107326845513,
                49.200483724940796
            ],
            [
                -123.10869212551994,
                49.200213256000204
            ],
            [
                -123.11239010390646,
                49.201365228816826
            ],
            [
                -123.10926288756575,
                49.2003612235166
            ],
            [
                -123.10817294411777,
                49.1999608058963
            ],
            [
                -123.10495124576387,
                49.1996718846397
            ],
            [
                -123.08110794009015,
                49.200907060318926
            ],
            [
                -123.07251010344683,
                49.20287914047462
            ],
            [
                -123.06790225723077,
                49.20355703953914
            ],
            [
                -123.06111764052412,
                49.204991074077455
            ],
            [
                -123.05573501025896,
                49.204532197895304
            ],
            [
                -123.03989893531391,
                49.20331688058419
            ],
            [
                -123.03390122483962,
                49.201840559190536
            ],
            [
                -123.03097260578309,
                49.20134706779363
            ],
            [
                -123.03007201432729,
                49.20170689142215
            ],
            [
                -123.0137139924738,
                49.19660894315016
            ],
            [
                -122.99768919620972,
                49.18905867132781
            ],
            [
                -122.99059458560993,
                49.184206929356144
            ],
            [
                -122.97820525395935,
                49.1804330492594
            ],
            [
                -122.97472929784311,
                49.18046341551784
            ],
            [
                -122.96806537624006,
                49.18389927384516
            ],
            [
                -122.95678275465617,
                49.19112864147685
            ],
            [
                -122.9580324214169,
                49.19088869763715
            ],
            [
                -122.95580659143263,
                49.19240525878645
            ],
            [
                -122.95046805979904,
                49.194533932047506
            ],
            [
                -122.94213917606022,
                49.19814201142704
            ],
            [
                -122.93271245749156,
                49.19772553304824
            ],
            [
                -122.92426398540464,
                49.19717486562648
            ],
            [
                -122.91629,
                49.19711
            ]
        ]
    },
    "properties": {
        "trajectory_id": 1315,
        "object_id": 316018634,
        "label": "TOWING"
    }
}