{
    "type": "Feature",
    "geometry": {
        "type": "LineString",
        "coordinates": [
            [
                -123.10685,
                49.31236
            ],
            [
                -123.10684248327436,
                49.31234456525755
            ],
            [
                -123.106836080389,
                49.31233454808902
            ],
            [
                -123.10686000445432,
                49.31233000094369
            ],
            [
                -123.10685032993636,
                49.312327102418514
            ],
            [
                -123.10687445850081,
                49.31230646852247
            ],
            [
                -123.10683774210601,
                49.31234492349794
            ],
            [
                -123.10685614083762,
                49.31233999547746
            ],
            [
                -123.10684953101101,
                49.31233281014924
            ],
            [
                -123.10684476358415,
                49.31233651088707
            ],
            [
                -123.10682050781963,
                49.31232995239706
            ],
            [
                -123.1068679674472,
                49.3123188173866
            ],
            [
                -123.10685408422391,
                49.312320769185156
            ],
            [
                -123.1068479449762,
                49.31233096688514
            ],
            [
                -123.10687100482532,
                49.31234930890093
            ],
            [
                -123.1068401967373,
                49.31234000164538
            ],
            [
                -123.10683661869261,
                49.3123220965245
            ],
            [
                -123.10686019205993,
                49.31231921470867
            ],
            [
                -123.1068607651913,
                49.3123203141118
            ],
            [
                -123.10688065602348,
                49.312321982365155
            ],
            [
                -123.10688960474835,
                49.31233068080655
            ],
            [
                -123.10687939175811,
                49.31233415371587
            ],
            [
                -123.10690104647223,
                49.312308761965284
            ],
            [
                -123.10683025950043,
                49.31233595474867
            ],
            [
                -123.10683066397658,
                49.3123193252721
            ],
            [
                -123.10686476585026,
                49.312322618469764
            ],
            [
                -123.10684972553898,
                49.31236206066697
            ],
            [
                -123.10684883094702,
                49.312342815315354
            ],
            [
                -123.1068581312498,
                49.31234163913755
            ],
            [
                -123.10682972121467,
                49.31234472508865
            ],
            [
                -123.10685178439479,
                49.31235101798217
            ],
            [
                -123.10683904980581,
                49.31232962665911
            ],
            [
                -123.10683985812794,
                49.312360287846424
            ],
            [
                -123.10684134220264,
                49.31236100653176
            ],
            [
                -123.10683023659072,
                49.312361446786056
            ],
            [
                -123.10683999837612,
                49.312368394765805
            ],
            [
                -123.1068551460018,
                49.31235049547532
            ],
            [
                -123.10685066784184,
                49.31233937877322
            ],
            [
                -123.10684215748162,
                49.3123533938672
            ],
            [
                -123.10684311799561,
                49.31236004752328
            ],
            [
                -123.10684570156971,
                49.3123546030148
            ],
            [
                -123.10684601391516,
                49.31233877488292
            ],
            [
                -123.10681849928879,
                49.31235449417521
            ],
            [
                -123.10685272743424,
                49.312359369135244
            ],
            [
                -123.10684037616181,
                49.31235393392515
            ],
            [
                -123.10686103959442,
                49.31235001036514
            ],
            [
                -123.10685808833695,
                49.31235198257531
            ],
            [
                -123.1068447398268,
                49.312349438416206
            ],
            [
                -123.10682000921364,
                49.31234990401188
            ],
            [
                -123.10684936448325,
                49.312359972364675
            ],
            [
                -123.10683120025706,
                49.312348622670015
            ],
            [
                -123.1068293287763,
                49.3123509874031
            ],
            [
                -123.1068407229235,
                49.31232004985465
            ],
            [
                -123.10684081123927,
                49.312371618099675
            ],
            [
                -123.1068400467852,
                49.31233954540163
            ],
            [
                -123.10683541292791,
                49.31235066425896
            ],
            [
                -123.10680723457844,
                49.3123482481348
            ],
            [
                -123.10682382490954,
                49.312342088266725
            ],
            [
                -123.10685399515881,
                49.312365614376375
            ],
            [
                -123.10683994762395,
                49.312349949375246
            ],
            [
                -123.10684995295921,
                49.31235655217622
            ],
            [
                -123.10682245575866,
                49.3123481480816
            ],
            [
                -123.10682060554129,
                49.312329862188676
            ],
            [
                -123.10678921404946,
                49.31231972584677
            ],
            [
                -123.10683588790697,
                49.312366178067286
            ],
            [
                -123.10682135022522,
                49.31234054356595
            ],
            [
                -123.1068193989597,
                49.31235016277001
            ],
            [
                -123.10683072294813,
                49.31236368542889
            ],
            [
                -123.10682084532264,
                49.31234824362911
            ],
            [
                -123.10685932109892,
                49.31235725427941
            ],
            [
                -123.10681970879523,
                49.31234774829324
            ],
            [
                -123.10683191131659,
                49.3123528928104
            ],
            [
                -123.10680979845756,
                49.31239030472035
            ],
            [
                -123.10680455985701,
                49.312347677687484
            ],
            [
                -123.10682671968326,
                49.31234580281479
            ],
            [
                -123.1068490712201,
                49.312370529591725
            ],
            [
                -123.10683560096267,
                49.31236028396183
            ],
            [
                -123.10681260347378,
                49.31234880327764
            ],
            [
                -123.1068197785955,
                49.31235021564253
            ],
            [
                -123.10683,
                49.31236
            ]
        ]
    },
    "properties": {
        "trajectory_id": 1323,
        "object_id": 316018851,
        "label": "TUG"
    }
}