{
    "type": "Feature",
    "geometry": {
        "type": "LineString",
        "coordinates": [
            [
                -123.10675,
                49.31187
            ],
            [
                -123.10672443343996,
                49.31189103092078
            ],
            [
                -123.10674864627812,
                49.311849644186445
            ],
            [
                -123.10675991887271,
                49.311870209037856
            ],
            [
                -123.10676272392507,
                49.31188311489957
            ],
            [
                -123.10671929083347,
                49.31191955308745
            ],
            [
                -123.10677181145256,
                49.31187069166435
            ],
            [
                -123.10676952659453,
                49.311880277590184
            ],
            [
                -123.10676040651458,
                49.31187958606297
            ],
            [
                -123.1067717183477,
                49.311881613194764
            ],
            [
                -123.1067496132791,
                49.31189540598267
            ],
            [
                -123.10669507776514,
                49.31186924307572
            ],
            [
                -123.10680897974966,
                49.311908681814494
            ],
            [
                -123.10673936573485,
                49.31189996318721
            ],
            [
                -123.1067196628371,
                49.311929767175094
            ],
            [
                -123.10676560350291,
                49.31190185308817
            ],
            [
                -123.10676979528604,
                49.31190004916457
            ],
            [
                -123.10673891784286,
                49.311870610603606
            ],
            [
                -123.10674062017567,
                49.3118614382737
            ],
            [
                -123.1067331262327,
                49.311881147336805
            ],
            [
                -123.10674865171251,
                49.31188536737127
            ],
            [
                -123.10674154546159,
                49.31189187780197
            ],
            [
                -123.10673026199979,
                49.31187921409699
            ],
            [
                -123.10675109917175,
                49.311893520856344
            ],
            [
                -123.1067298323991,
                49.311907122246026
            ],
            [
                -123.10674485950115,
                49.31187140991443
            ],
            [
                -123.10676014178175,
                49.31189022467915
            ],
            [
                -123.10677319415147,
                49.31184802674236
            ],
            [
                -123.10673951759183,
                49.31191621547354
            ],
            [
                -123.10676747787332,
                49.31187236454502
            ],
            [
                -123.10675843389268,
                49.31185141522823
            ],
            [
                -123.10674073482363,
                49.31187247214893
            ],
            [
                -123.10673073751795,
                49.31187953296402
            ],
            [
                -123.10673332905546,
                49.31186851573654
            ],
            [
                -123.10673002526484,
                49.311869850779814
            ],
            [
                -123.1067116654909,
                49.311852104586066
            ],
            [
                -123.10672094020859,
                49.31185890127662
            ],
            [
                -123.10673020382049,
                49.31185419179447
            ],
            [
                -123.10671016497176,
                49.311869090068754
            ],
            [
                -123.10671321013844,
                49.311840467289265
            ],
            [
                -123.10674878043811,
                49.31186188341185
            ],
            [
                -123.10672278223043,
                49.31187156385923
            ],
            [
                -123.10673602713523,
                49.31189947822616
            ],
            [
                -123.1067201880223,
                49.3119373451778
            ],
            [
                -123.10670855804594,
                49.311910223293964
            ],
            [
                -123.1067326505964,
                49.31190386512115
            ],
            [
                -123.10671088344803,
                49.311900429587965
            ],
            [
                -123.10670760233185,
                49.31185886291158
            ],
            [
                -123.10672944936525,
                49.311889235951256
            ],
            [
                -123.10672801283062,
                49.31188932613941
            ],
            [
                -123.10670076840067,
                49.31193169894179
            ],
            [
                -123.10668108779257,
                49.311909944647425
            ],
            [
                -123.10673670974802,
                49.3119095858553
            ],
            [
                -123.10671715682557,
                49.31188101815128
            ],
            [
                -123.10671996837814,
                49.311905657788074
            ],
            [
                -123.10671860750172,
                49.31190301443806
            ],
            [
                -123.1067355615621,
                49.31188360228384
            ],
            [
                -123.10670920318887,
                49.3118600326968
            ],
            [
                -123.10672838478503,
                49.311879761585914
            ],
            [
                -123.10672379858086,
                49.31189098664447
            ],
            [
                -123.10675996442309,
                49.31185008044184
            ],
            [
                -123.10675094217771,
                49.31186972361455
            ],
            [
                -123.10675426147185,
                49.311867476629295
            ],
            [
                -123.10678981278387,
                49.31183989909154
            ],
            [
                -123.10677188965056,
                49.31186041556498
            ],
            [
                -123.10674447807821,
                49.31188088192463
            ],
            [
                -123.10660619182177,
                49.31149527721387
            ],
            [
                -123.12450257414898,
                49.309600664441675
            ],
            [
                -123.16835977661009,
                49.316837597697045
            ],
            [
                -123.2201992654866,
                49.314383695780194
            ],
            [
                -123.26596782430529,
                49.298026162959715
            ],
            [
                -123.29236994125652,
                49.26783205465594
            ],
            [
                -123.31278727990333,
                49.23513153265307
            ],
            [
                -123.33386571642475,
                49.202258720413404
            ],
            [
                -123.356673308752,
                49.169926665795984
            ],
            [
                -123.38118162237454,
                49.13807194970986
            ],
            [
                -123.40643225320467,
                49.11162490999086
            ],
            [
                -123.41042098503291,
                49.12092518294865
            ],
            [
                -123.40959985253724,
                49.134634132413
            ],
            [
                -123.4073,
                49.15004
            ]
        ]
    },
    "properties": {
        "trajectory_id": 1333,
        "object_id": 316018851,
        "label": "TUG"
    }
}