{
    "type": "Feature",
    "geometry": {
        "type": "LineString",
        "coordinates": [
            [
                -122.3807,
                47.6587
            ],
            [
                -122.38070732589624,
                47.65875333997548
            ],
            [
                -122.38069906422409,
                47.65878027546242
            ],
            [
                -122.38069199426633,
                47.65876915407798
            ],
            [
                -122.38080744726884,
                47.65868114290704
            ],
            [
                -122.38074239819102,
                47.65869779587141
            ],
            [
                -122.38073956729279,
                47.6587199244211
            ],
            [
                -122.38077490916776,
                47.658626075338596
            ],
            [
                -122.38080630066919,
                47.65865498382766
            ],
            [
                -122.38074036277054,
                47.658707527917656
            ],
            [
                -122.3807246153829,
                47.6586865035608
            ],
            [
                -122.38069975584784,
                47.658644603002365
            ],
            [
                -122.38068979452675,
                47.6586888019705
            ],
            [
                -122.38070039782426,
                47.658675747597854
            ],
            [
                -122.38071421910841,
                47.658714258722426
            ],
            [
                -122.3806806556674,
                47.65871952812605
            ],
            [
                -122.38071159050997,
                47.6586879634219
            ],
            [
                -122.38080511260185,
                47.658727828919695
            ],
            [
                -122.38068543038749,
                47.658671810406595
            ],
            [
                -122.38073561783276,
                47.65867252177928
            ],
            [
                -122.3807509877337,
                47.65868373468026
            ],
            [
                -122.380730059759,
                47.65870812727852
            ],
            [
                -122.38075599809095,
                47.658609133279356
            ],
            [
                -122.38085856085314,
                47.65863237976762
            ],
            [
                -122.3807974013297,
                47.658550483171446
            ],
            [
                -122.38081372506151,
                47.658661945005754
            ],
            [
                -122.38074194671486,
                47.658534545531204
            ],
            [
                -122.38067917235915,
                47.65864172386081
            ],
            [
                -122.3807077204233,
                47.658704571805494
            ],
            [
                -122.38077116120498,
                47.65875681119682
            ],
            [
                -122.38070534269193,
                47.65873127958302
            ],
            [
                -122.38073301425611,
                47.65864023504142
            ],
            [
                -122.38069475181253,
                47.658678642996094
            ],
            [
                -122.3806891680724,
                47.65869518098766
            ],
            [
                -122.38068351898403,
                47.658705175813296
            ],
            [
                -122.38072635745735,
                47.65863711807067
            ],
            [
                -122.38075957784369,
                47.65866462824013
            ],
            [
                -122.38077246416695,
                47.658649332850665
            ],
            [
                -122.3807586250472,
                47.658687079126
            ],
            [
                -122.38068372887085,
                47.65870468045492
            ],
            [
                -122.38073398735301,
                47.65870224232113
            ],
            [
                -122.38068781531504,
                47.658757171184185
            ],
            [
                -122.38074157901633,
                47.65861912988444
            ],
            [
                -122.38079285148117,
                47.65861987000622
            ],
            [
                -122.38081567827282,
                47.65866566150599
            ],
            [
                -122.38066986167716,
                47.65869981055158
            ],
            [
                -122.38071835074093,
                47.65869283507075
            ],
            [
                -122.38069366772078,
                47.65868650663461
            ],
            [
                -122.38063319136808,
                47.65869694441707
            ],
            [
                -122.38066627493455,
                47.65870439261426
            ],
            [
                -122.38071943494528,
                47.65874400629024
            ],
            [
                -122.38069542045812,
                47.65869850765852
            ],
            [
                -122.3806922602957,
                47.658705813310554
            ],
            [
                -122.38062521304623,
                47.6587527954962
            ],
            [
                -122.38058313059436,
                47.65879559906941
            ],
            [
                -122.38064926615979,
                47.65872831921271
            ],
            [
                -122.38072793819897,
                47.6586793839111
            ],
            [
                -122.38072957160378,
                47.65875567376378
            ],
            [
                -122.38071286229935,
                47.65865734585273
            ],
            [
                -122.38073666663914,
                47.65869909095924
            ],
            [
                -122.38070437988371,
                47.65865727565467
            ],
            [
                -122.3807030823739,
                47.65873046269709
            ],
            [
                -122.3807375234638,
                47.658649936454054
            ],
            [
                -122.38071399615744,
                47.65868834964568
            ],
            [
                -122.38074014606087,
                47.65868810634014
            ],
            [
                -122.38068123030921,
                47.65873749623285
            ],
            [
                -122.38070235937529,
                47.6586696862715
            ],
            [
                -122.38065601498292,
                47.658747627463995
            ],
            [
                -122.380709114042,
                47.658696898432275
            ],
            [
                -122.38068814309186,
                47.658669845639025
            ],
            [
                -122.38072211805972,
                47.65864150541784
            ],
            [
                -122.38071311905549,
                47.65866874496235
            ],
            [
                -122.38070304239788,
                47.65868381318354
            ],
            [
                -122.38077247415198,
                47.65870253337933
            ],
            [
                -122.38073490584686,
                47.658699206239966
            ],
            [
                -122.38073972629435,
                47.65868716693359
            ],
            [
                -122.38070769868264,
                47.65864537648055
            ],
            [
                -122.3807498530228,
                47.65869329327942
            ],
            [
                -122.38068904401445,
                47.65869203622011
            ],
            [
                -122.3807,
                47.65865
            ]
        ]
    },
    "properties": {
        "trajectory_id": 138,
        "object_id": 303599000,
        "label": "FISHING"
    }
}