{
    "type": "Feature",
    "geometry": {
        "type": "LineString",
        "coordinates": [
            [
                -123.10669,
                49.31214
            ],
            [
                -123.10671836751818,
                49.312149072641546
            ],
            [
                -123.10674502849741,
                49.31216018087549
            ],
            [
                -123.10670302799787,
                49.312130918711034
            ],
            [
                -123.10666086048283,
                49.31210817271385
            ],
            [
                -123.10668702613619,
                49.31213881648016
            ],
            [
                -123.10676146549206,
                49.31211483467512
            ],
            [
                -123.10670972619222,
                49.312139511619904
            ],
            [
                -123.10672559791863,
                49.31217130532812
            ],
            [
                -123.10672975485605,
                49.312169935156376
            ],
            [
                -123.10668923784385,
                49.31216026305056
            ],
            [
                -123.1067003743042,
                49.312160874097565
            ],
            [
                -123.10672682427258,
                49.31218461243394
            ],
            [
                -123.10668277247301,
                49.31215987267331
            ],
            [
                -123.10671007644521,
                49.312162282659614
            ],
            [
                -123.10673688151054,
                49.31217531068595
            ],
            [
                -123.10667457745811,
                49.31219735308311
            ],
            [
                -123.10324686224591,
                49.304457134715314
            ],
            [
                -123.08683153957783,
                49.30053996798269
            ],
            [
                -123.08821174754247,
                49.30036409139934
            ],
            [
                -123.08824226813081,
                49.29899484648124
            ],
            [
                -123.08675752254663,
                49.29810829142138
            ],
            [
                -123.08872620068439,
                49.296938355108075
            ],
            [
                -123.08863388984045,
                49.29935014906136
            ],
            [
                -123.07306368012595,
                49.2979597569558
            ],
            [
                -123.06111951127853,
                49.29817081427556
            ],
            [
                -123.05195009043159,
                49.298377373084975
            ],
            [
                -123.0386059828317,
                49.29576878619634
            ],
            [
                -123.0328189199408,
                49.293011716561864
            ],
            [
                -123.03232197765274,
                49.29219909197346
            ],
            [
                -123.03241628316965,
                49.292191022958995
            ],
            [
                -123.03241963965837,
                49.29219997386375
            ],
            [
                -123.03242586471309,
                49.29220744874613
            ],
            [
                -123.03168934908481,
                49.29201211068041
            ],
            [
                -123.06915075792661,
                49.30069616875538
            ],
            [
                -123.10463576628136,
                49.30933045833979
            ],
            [
                -123.10696724933887,
                49.31271983684414
            ],
            [
                -123.10693835726293,
                49.312739581053314
            ],
            [
                -123.10694296085518,
                49.31273835134902
            ],
            [
                -123.10694216268604,
                49.31273144179179
            ],
            [
                -123.1069537941968,
                49.31276490674475
            ],
            [
                -123.10694838770667,
                49.31277739502969
            ],
            [
                -123.10696897521717,
                49.31280844415067
            ],
            [
                -123.10694164492047,
                49.31277685723243
            ],
            [
                -123.10694443848814,
                49.3127620904074
            ],
            [
                -123.10695425996005,
                49.31273919180288
            ],
            [
                -123.10700098284813,
                49.31272851713091
            ],
            [
                -123.10702874313019,
                49.312749222191115
            ],
            [
                -123.10696974978036,
                49.31271060269495
            ],
            [
                -123.10694171193904,
                49.31272984212578
            ],
            [
                -123.10693977466732,
                49.31272009445031
            ],
            [
                -123.10698222454344,
                49.312720575986596
            ],
            [
                -123.10696733197415,
                49.3127166477661
            ],
            [
                -123.10698776380256,
                49.31271321135112
            ],
            [
                -123.10696969860774,
                49.31273055351223
            ],
            [
                -123.10698775779495,
                49.312708181236154
            ],
            [
                -123.1069898416766,
                49.31269988640764
            ],
            [
                -123.10694213638443,
                49.31268092510308
            ],
            [
                -123.10697654779509,
                49.31270761814309
            ],
            [
                -123.10696960644404,
                49.312701967069835
            ],
            [
                -123.10696928345172,
                49.31267041313265
            ],
            [
                -123.10695954784488,
                49.31269604780495
            ],
            [
                -123.10696422309901,
                49.31270829230055
            ],
            [
                -123.10698059415321,
                49.312696418099044
            ],
            [
                -123.10697913158039,
                49.31268348582246
            ],
            [
                -123.10696768364436,
                49.312695030678555
            ],
            [
                -123.10698479084837,
                49.31268829398771
            ],
            [
                -123.10699070888896,
                49.312703943647996
            ],
            [
                -123.1069328999124,
                49.31270795199386
            ],
            [
                -123.10695473167047,
                49.312748442969905
            ],
            [
                -123.10695363189791,
                49.3127322930816
            ],
            [
                -123.10693441288434,
                49.31273831949813
            ],
            [
                -123.10696844328136,
                49.312744595877014
            ],
            [
                -123.10692736570653,
                49.31270206622543
            ],
            [
                -123.10690238960842,
                49.3126896170891
            ],
            [
                -123.1069308869391,
                49.312731265413966
            ],
            [
                -123.1069496200453,
                49.31271288929944
            ],
            [
                -123.10694605493735,
                49.31270199790188
            ],
            [
                -123.10693327236648,
                49.31269983867571
            ],
            [
                -123.10693,
                49.31267
            ]
        ]
    },
    "properties": {
        "trajectory_id": 1380,
        "object_id": 316020868,
        "label": "TUG"
    }
}