{
    "type": "Feature",
    "geometry": {
        "type": "LineString",
        "coordinates": [
            [
                -123.31441,
                49.17582
            ],
            [
                -123.30841900164769,
                49.19819341093606
            ],
            [
                -123.30251838442679,
                49.22456740980758
            ],
            [
                -123.29840967890024,
                49.25128522564717
            ],
            [
                -123.29048930938495,
                49.27613889838544
            ],
            [
                -123.26266566904243,
                49.294404674560475
            ],
            [
                -123.22509300626383,
                49.3061643139947
            ],
            [
                -123.18598085612254,
                49.31514407328839
            ],
            [
                -123.1455397414264,
                49.31751559141126
            ],
            [
                -123.11308650092997,
                49.30699633489123
            ],
            [
                -123.10695053818881,
                49.310250054622635
            ],
            [
                -123.10698981361382,
                49.31024018171028
            ],
            [
                -123.10696398198363,
                49.310246904131866
            ],
            [
                -123.10696955939723,
                49.31024997949432
            ],
            [
                -123.10697869499559,
                49.310240006734816
            ],
            [
                -123.10699272837296,
                49.31023778074512
            ],
            [
                -123.10698006841052,
                49.310239995790354
            ],
            [
                -123.10695889180687,
                49.310250106299605
            ],
            [
                -123.10697463854032,
                49.3102513153848
            ],
            [
                -123.10698,
                49.31023999999999
            ],
            [
                -123.10698021538995,
                49.310239263639055
            ],
            [
                -123.10698053896921,
                49.31024999876358
            ],
            [
                -123.10697946564265,
                49.310249807301176
            ],
            [
                -123.10695998427568,
                49.31026000009737
            ],
            [
                -123.10695501583292,
                49.31025999999997
            ],
            [
                -123.10695999878912,
                49.310259999912155
            ],
            [
                -123.10696000000178,
                49.3102588271907
            ],
            [
                -123.10695994377693,
                49.31024999970125
            ],
            [
                -123.10698000628672,
                49.31025000000001
            ],
            [
                -123.10695955440639,
                49.31025000000001
            ],
            [
                -123.10698978010271,
                49.310249999999996
            ],
            [
                -123.10698998177307,
                49.31024999999998
            ],
            [
                -123.10698992392236,
                49.31025000000001
            ],
            [
                -123.10698999355127,
                49.31025000000001
            ],
            [
                -123.10698971686375,
                49.31025000000002
            ],
            [
                -123.10699099151746,
                49.31024999989629
            ],
            [
                -123.10699376528376,
                49.310246615238476
            ],
            [
                -123.0997097922215,
                49.30663877209124
            ],
            [
                -123.07381411805957,
                49.29815260151953
            ],
            [
                -123.04196023603949,
                49.29633961949052
            ],
            [
                -123.01213968296676,
                49.29460728129318
            ],
            [
                -122.9828062650563,
                49.29732246995072
            ],
            [
                -122.95029272070359,
                49.296573106294154
            ],
            [
                -122.91670391042531,
                49.29192337457527
            ],
            [
                -122.89785677560286,
                49.29084925296898
            ],
            [
                -122.89769255565723,
                49.29080085188516
            ],
            [
                -122.89826372691046,
                49.291127947093415
            ],
            [
                -122.91319064359628,
                49.29148528674374
            ],
            [
                -122.92954568149221,
                49.294550590651816
            ],
            [
                -122.95239285111452,
                49.29608784144552
            ],
            [
                -122.97423023076708,
                49.299654270396836
            ],
            [
                -122.97803441885233,
                49.30330177827122
            ],
            [
                -122.97603991187952,
                49.30261012143253
            ],
            [
                -122.97637199030086,
                49.30273678320671
            ],
            [
                -122.97662574840179,
                49.30274479727401
            ],
            [
                -122.9766504746369,
                49.30288100831651
            ],
            [
                -122.97659553087415,
                49.3028567242801
            ],
            [
                -122.97663974969561,
                49.30281002557362
            ],
            [
                -122.97662638097637,
                49.302830091208136
            ],
            [
                -122.97649816044935,
                49.30284492151387
            ],
            [
                -122.97663911782122,
                49.302730784687235
            ],
            [
                -122.97665007448977,
                49.302760237749986
            ],
            [
                -122.97656941129311,
                49.30279597754848
            ],
            [
                -122.97647044258585,
                49.30277973302143
            ],
            [
                -122.97628125953842,
                49.302727030642274
            ],
            [
                -122.97621015007088,
                49.30269024753753
            ],
            [
                -122.97622068759306,
                49.302656117376486
            ],
            [
                -122.97625097218513,
                49.30266951141165
            ],
            [
                -122.97627475635916,
                49.302631415034995
            ],
            [
                -122.97635976872037,
                49.30259585849469
            ],
            [
                -122.9813238559159,
                49.30201248881465
            ],
            [
                -122.98453517097178,
                49.300861873671785
            ],
            [
                -122.9951118826323,
                49.29723860432709
            ],
            [
                -123.01773256822285,
                49.29475917250369
            ],
            [
                -123.04047360232907,
                49.29629784780711
            ],
            [
                -123.06752997961807,
                49.30147353253478
            ],
            [
                -123.09417425063522,
                49.30612330290335
            ],
            [
                -123.10556869503091,
                49.30839432620626
            ],
            [
                -123.10693621595016,
                49.30943314623571
            ],
            [
                -123.10694,
                49.30944
            ]
        ]
    },
    "properties": {
        "trajectory_id": 1382,
        "object_id": 316020871,
        "label": "TUG"
    }
}