{
    "type": "Feature",
    "geometry": {
        "type": "LineString",
        "coordinates": [
            [
                -122.77046,
                49.23141
            ],
            [
                -122.77050040270638,
                49.23138014379452
            ],
            [
                -122.77048374622106,
                49.23138442285486
            ],
            [
                -122.77054934416026,
                49.23133698515494
            ],
            [
                -122.77048494210203,
                49.23141793731744
            ],
            [
                -122.77049184355471,
                49.23140338569227
            ],
            [
                -122.77050997244446,
                49.23139001329955
            ],
            [
                -122.7704968100197,
                49.23140357963432
            ],
            [
                -122.77048848233166,
                49.231407808600075
            ],
            [
                -122.77048149313109,
                49.23139882095851
            ],
            [
                -122.77050727374039,
                49.23140565743788
            ],
            [
                -122.77050277689519,
                49.231412506941915
            ],
            [
                -122.77050191351407,
                49.23141061445966
            ],
            [
                -122.770502424707,
                49.23139654853895
            ],
            [
                -122.77051015307543,
                49.2314302288108
            ],
            [
                -122.77050338875421,
                49.23141137168707
            ],
            [
                -122.77050148061893,
                49.23142995917663
            ],
            [
                -122.77049734106514,
                49.23141840295637
            ],
            [
                -122.77050787820775,
                49.231423022296156
            ],
            [
                -122.77048445400449,
                49.23140799302198
            ],
            [
                -122.77050279337854,
                49.23140408679501
            ],
            [
                -122.77048320111402,
                49.23140287202333
            ],
            [
                -122.77049228338727,
                49.231409021622994
            ],
            [
                -122.77049905352881,
                49.231405986703855
            ],
            [
                -122.7704838058431,
                49.231397503723116
            ],
            [
                -122.77049850475848,
                49.23139159686632
            ],
            [
                -122.77047949225968,
                49.23141959325942
            ],
            [
                -122.77049885030294,
                49.23136371288517
            ],
            [
                -122.77049844838714,
                49.23137806122478
            ],
            [
                -122.77048736274051,
                49.23140145168068
            ],
            [
                -122.770549855232,
                49.23139003647767
            ],
            [
                -122.77048963364963,
                49.23139497218188
            ],
            [
                -122.77049920913875,
                49.23140196309629
            ],
            [
                -122.77056055482794,
                49.23134280877037
            ],
            [
                -122.77052769757869,
                49.23138033758093
            ],
            [
                -122.77051558751448,
                49.23139799369351
            ],
            [
                -122.77052802827482,
                49.23139368552091
            ],
            [
                -122.77049018564601,
                49.23139382690657
            ],
            [
                -122.77049263356093,
                49.23139628310149
            ],
            [
                -122.77047085670131,
                49.23138300932494
            ],
            [
                -122.77049027777744,
                49.23138488649616
            ],
            [
                -122.77048196049441,
                49.23142112046664
            ],
            [
                -122.77045145454892,
                49.23140221567128
            ],
            [
                -122.77049634868446,
                49.231388413121955
            ],
            [
                -122.77049671690528,
                49.23141382171517
            ],
            [
                -122.77049003611305,
                49.23139639703654
            ],
            [
                -122.77046906140625,
                49.23141098715045
            ],
            [
                -122.77050042338118,
                49.23140141997873
            ],
            [
                -122.77047998409616,
                49.23140001176413
            ],
            [
                -122.77048968539802,
                49.23142340359125
            ],
            [
                -122.77045922733721,
                49.23141071870144
            ],
            [
                -122.77046988702415,
                49.23139954696744
            ],
            [
                -122.77047395700338,
                49.231408406529845
            ],
            [
                -122.77049215630544,
                49.23139717143132
            ],
            [
                -122.77048021259255,
                49.231399884232175
            ],
            [
                -122.77047370716643,
                49.2314076497638
            ],
            [
                -122.77046590123557,
                49.23140018183036
            ],
            [
                -122.7704638602258,
                49.231402215557175
            ],
            [
                -122.77047031328134,
                49.231400090789286
            ],
            [
                -122.77048186424784,
                49.23140218253603
            ],
            [
                -122.77051062898079,
                49.23139108492943
            ],
            [
                -122.77048462239446,
                49.23144029535582
            ],
            [
                -122.77051078366993,
                49.23140151905619
            ],
            [
                -122.7704860161317,
                49.231394207106504
            ],
            [
                -122.77048852420862,
                49.23138538073528
            ],
            [
                -122.77048212199502,
                49.23139758551692
            ],
            [
                -122.77048025119961,
                49.23139994685296
            ],
            [
                -122.77047108991874,
                49.231410351892116
            ],
            [
                -122.77048688531995,
                49.23139810198011
            ],
            [
                -122.7704881367431,
                49.23139181425069
            ],
            [
                -122.7704800569914,
                49.23140109651351
            ],
            [
                -122.7704701387491,
                49.23140993590473
            ],
            [
                -122.77050127557835,
                49.2313934603629
            ],
            [
                -122.77050028778135,
                49.231390068964124
            ],
            [
                -122.77048636224158,
                49.23141689128029
            ],
            [
                -122.77047992593941,
                49.23137563669488
            ],
            [
                -122.77047908141256,
                49.231401191895856
            ],
            [
                -122.77046948065609,
                49.2313897636903
            ],
            [
                -122.77049233285092,
                49.23139819165316
            ],
            [
                -122.77049,
                49.23141
            ]
        ]
    },
    "properties": {
        "trajectory_id": 1397,
        "object_id": 316020878,
        "label": "TOWING"
    }
}