{
    "type": "Feature",
    "geometry": {
        "type": "LineString",
        "coordinates": [
            [
                -122.99286,
                49.16306
            ],
            [
                -122.99279577964278,
                49.1630318407056
            ],
            [
                -122.99278090028477,
                49.163080824036214
            ],
            [
                -122.99277127978438,
                49.16308316483379
            ],
            [
                -122.99275288371484,
                49.163060981321095
            ],
            [
                -122.99279427471261,
                49.163062411251616
            ],
            [
                -122.99277045588678,
                49.16305002091757
            ],
            [
                -122.99275427969516,
                49.163023176529705
            ],
            [
                -122.9928176158595,
                49.163022919547046
            ],
            [
                -122.99273230104953,
                49.16301514275699
            ],
            [
                -122.99281271714248,
                49.16300487564357
            ],
            [
                -122.99279990315078,
                49.162999541011416
            ],
            [
                -122.99280023994567,
                49.16303020337721
            ],
            [
                -122.99288636126748,
                49.16300775434392
            ],
            [
                -122.99274649704738,
                49.16305366503416
            ],
            [
                -122.99277193868919,
                49.16302993582929
            ],
            [
                -122.99273958871247,
                49.16304713686123
            ],
            [
                -122.99280784113407,
                49.16303835840339
            ],
            [
                -122.99279070816058,
                49.16303663098617
            ],
            [
                -122.99277431309648,
                49.16301596620002
            ],
            [
                -122.99280586142336,
                49.16304782499999
            ],
            [
                -122.99281213720174,
                49.16303926784397
            ],
            [
                -122.99277661433878,
                49.16308815392924
            ],
            [
                -122.99282981031456,
                49.16301938199647
            ],
            [
                -122.99277067605338,
                49.16302171296644
            ],
            [
                -122.99282300583337,
                49.163010717466896
            ],
            [
                -122.9927406381413,
                49.16299834804177
            ],
            [
                -122.99279892538404,
                49.1630023228725
            ],
            [
                -122.99276949949859,
                49.16304990326064
            ],
            [
                -122.99280483877187,
                49.16298873630494
            ],
            [
                -122.99275586282174,
                49.162997936673065
            ],
            [
                -122.99277540457132,
                49.16301890774634
            ],
            [
                -122.99279313946086,
                49.163030249499585
            ],
            [
                -122.99280358151923,
                49.16297230741952
            ],
            [
                -122.99277458863516,
                49.16301945852784
            ],
            [
                -122.99275640073648,
                49.16303569564692
            ],
            [
                -122.99285566877084,
                49.16300439711574
            ],
            [
                -122.99280765484296,
                49.163039519251406
            ],
            [
                -122.99277534838471,
                49.16307570920178
            ],
            [
                -122.99284815943332,
                49.16306432177691
            ],
            [
                -122.99279622776608,
                49.163026820525324
            ],
            [
                -122.99279798309092,
                49.16305221884915
            ],
            [
                -122.99276965443887,
                49.16304187249987
            ],
            [
                -122.99276066857846,
                49.16300085231966
            ],
            [
                -122.99277652573527,
                49.16306879700296
            ],
            [
                -122.992765633775,
                49.16304636529795
            ],
            [
                -122.99273740998824,
                49.16301168006695
            ],
            [
                -122.99286776741727,
                49.16301286958894
            ],
            [
                -122.99281605427369,
                49.163008398532654
            ],
            [
                -122.99281815801663,
                49.163016644323655
            ],
            [
                -122.99281479292648,
                49.1630398329709
            ],
            [
                -122.99282454329733,
                49.163052209600366
            ],
            [
                -122.9927600279518,
                49.163095808657815
            ],
            [
                -122.99278978168789,
                49.163079748958
            ],
            [
                -122.99277935702175,
                49.163055835472065
            ],
            [
                -122.99276058721601,
                49.16306965166118
            ],
            [
                -122.99276587225093,
                49.16305477708842
            ],
            [
                -122.99276877857304,
                49.1630527274633
            ],
            [
                -122.99279344373511,
                49.163121994603756
            ],
            [
                -122.99277914280171,
                49.163049740147756
            ],
            [
                -122.99282133128476,
                49.163000302641976
            ],
            [
                -122.99288069909264,
                49.1630189045211
            ],
            [
                -122.9928158798841,
                49.1630464420664
            ],
            [
                -122.9928107284428,
                49.16302901329976
            ],
            [
                -122.99281170429248,
                49.163015750262694
            ],
            [
                -122.9928259671648,
                49.162993070887595
            ],
            [
                -122.99278290083241,
                49.16302338847169
            ],
            [
                -122.99281385058885,
                49.163020524018705
            ],
            [
                -122.9927451854996,
                49.1630252005085
            ],
            [
                -122.9927976969481,
                49.16299617361099
            ],
            [
                -122.99282293794683,
                49.16301776054472
            ],
            [
                -122.99272612743728,
                49.16296009504574
            ],
            [
                -122.99274627977944,
                49.16301165647431
            ],
            [
                -122.99282381188124,
                49.16304035171535
            ],
            [
                -122.99276951480535,
                49.163051234574766
            ],
            [
                -122.99279956371991,
                49.163052617854326
            ],
            [
                -122.99282473939954,
                49.16306620876445
            ],
            [
                -122.992824304084,
                49.16306622734386
            ],
            [
                -122.99280618579726,
                49.16306075343134
            ],
            [
                -122.99282,
                49.16306
            ]
        ]
    },
    "properties": {
        "trajectory_id": 1446,
        "object_id": 316021382,
        "label": "TUG"
    }
}