{
    "type": "Feature",
    "geometry": {
        "type": "LineString",
        "coordinates": [
            [
                -123.13325,
                49.29495
            ],
            [
                -123.13323138632344,
                49.29495339068404
            ],
            [
                -123.13323014117731,
                49.29497968599436
            ],
            [
                -123.1332398397004,
                49.29494540817865
            ],
            [
                -123.13324373289522,
                49.29502155997041
            ],
            [
                -123.13321030970744,
                49.294950648735
            ],
            [
                -123.1332245012202,
                49.29498204623144
            ],
            [
                -123.13325856994305,
                49.29496015529197
            ],
            [
                -123.13326330687796,
                49.294989192861344
            ],
            [
                -123.13323401246642,
                49.29494054547613
            ],
            [
                -123.1332650216016,
                49.29498081350442
            ],
            [
                -123.13325892645031,
                49.29496558605924
            ],
            [
                -123.13323313139041,
                49.294959417897914
            ],
            [
                -123.13321857815245,
                49.29493505734821
            ],
            [
                -123.13323401289307,
                49.2949598822881
            ],
            [
                -123.13324660600365,
                49.29497592850137
            ],
            [
                -123.13326289434886,
                49.29493442098238
            ],
            [
                -123.13323710570248,
                49.29495691172982
            ],
            [
                -123.13321432843928,
                49.29497176861509
            ],
            [
                -123.13322936907174,
                49.2949497104528
            ],
            [
                -123.13329748881118,
                49.29500222300866
            ],
            [
                -123.13326007904335,
                49.294956320365415
            ],
            [
                -123.1332191472024,
                49.294905076985664
            ],
            [
                -123.13322990967261,
                49.294959873743565
            ],
            [
                -123.1332107369138,
                49.29495715888908
            ],
            [
                -123.13324452995396,
                49.29494834150988
            ],
            [
                -123.13321831943257,
                49.294953596425216
            ],
            [
                -123.13325854494826,
                49.294937856499075
            ],
            [
                -123.13320735057965,
                49.294949796640914
            ],
            [
                -123.13322655399249,
                49.29495845866399
            ],
            [
                -123.13322910839076,
                49.29493671853104
            ],
            [
                -123.13321425050236,
                49.294952931776066
            ],
            [
                -123.13320359258248,
                49.294965448633484
            ],
            [
                -123.13322217318081,
                49.29496793316179
            ],
            [
                -123.13324324343525,
                49.294955523055314
            ],
            [
                -123.13323450886972,
                49.29496708940675
            ],
            [
                -123.13319998965243,
                49.294949939736796
            ],
            [
                -123.13325713983347,
                49.29494720788223
            ],
            [
                -123.13325651752743,
                49.29499185553237
            ],
            [
                -123.13322153208352,
                49.29495328017201
            ],
            [
                -123.13322759715166,
                49.29497384835339
            ],
            [
                -123.13323013409392,
                49.29496905124955
            ],
            [
                -123.13323116826164,
                49.29497045695405
            ],
            [
                -123.13319544775116,
                49.29498435437624
            ],
            [
                -123.13320387056787,
                49.29496967560828
            ],
            [
                -123.13321129857911,
                49.29498308955843
            ],
            [
                -123.13323568735242,
                49.294973371428526
            ],
            [
                -123.13321990088006,
                49.29498947741907
            ],
            [
                -123.1332099895694,
                49.29496152612694
            ],
            [
                -123.13323017468484,
                49.29498012369749
            ],
            [
                -123.13323308030367,
                49.29498035987317
            ],
            [
                -123.1332188819842,
                49.29499194173088
            ],
            [
                -123.13318163983494,
                49.294956029274694
            ],
            [
                -123.13323652708512,
                49.29494759632275
            ],
            [
                -123.1332494825164,
                49.29495997154038
            ],
            [
                -123.13326538372313,
                49.29502335553264
            ],
            [
                -123.13318984761666,
                49.29490605533106
            ],
            [
                -123.13319926797548,
                49.29495002398533
            ],
            [
                -123.13322714186528,
                49.294968125135284
            ],
            [
                -123.13322924708217,
                49.29497342329563
            ],
            [
                -123.13321692935926,
                49.294949565147355
            ],
            [
                -123.13324290923512,
                49.29493009101751
            ],
            [
                -123.13324503594734,
                49.29494642084261
            ],
            [
                -123.13324632778536,
                49.29498282238065
            ],
            [
                -123.13323747619745,
                49.29499180803369
            ],
            [
                -123.1332215561086,
                49.29495948813201
            ],
            [
                -123.13326316388718,
                49.29496105990592
            ],
            [
                -123.13325226805041,
                49.294940086472685
            ],
            [
                -123.13321758973173,
                49.29498204018503
            ],
            [
                -123.1332104025347,
                49.294959621302496
            ],
            [
                -123.13323637069749,
                49.29494222560426
            ],
            [
                -123.13323785692809,
                49.29496039884236
            ],
            [
                -123.13324346717769,
                49.29493828827607
            ],
            [
                -123.13322457034805,
                49.294951056749255
            ],
            [
                -123.13322748623767,
                49.294933016266455
            ],
            [
                -123.133220578845,
                49.2949269750485
            ],
            [
                -123.13323083451877,
                49.29497034495327
            ],
            [
                -123.13322889924402,
                49.29493727925881
            ],
            [
                -123.13322647627508,
                49.294925936305894
            ],
            [
                -123.13326,
                49.29495
            ]
        ]
    },
    "properties": {
        "trajectory_id": 1453,
        "object_id": 316021988,
        "label": "PASSENGER"
    }
}