{
    "type": "Feature",
    "geometry": {
        "type": "LineString",
        "coordinates": [
            [
                -123.46331,
                49.51459
            ],
            [
                -123.46174954525827,
                49.515821360023466
            ],
            [
                -123.46125767585457,
                49.51565139876052
            ],
            [
                -123.46241871642536,
                49.515590187516864
            ],
            [
                -123.46090821599356,
                49.51632633972158
            ],
            [
                -123.46117504908268,
                49.51605430063925
            ],
            [
                -123.46424470819227,
                49.51440812767199
            ],
            [
                -123.46318041001288,
                49.51542807384345
            ],
            [
                -123.46336478262629,
                49.51452022091384
            ],
            [
                -123.46265082698562,
                49.51413482404112
            ],
            [
                -123.46240900782733,
                49.514472562536476
            ],
            [
                -123.4613510115225,
                49.5164681169919
            ],
            [
                -123.46252260591106,
                49.51490121142259
            ],
            [
                -123.46487189030492,
                49.518166813546
            ],
            [
                -123.46656829072555,
                49.51797108743695
            ],
            [
                -123.46755748128419,
                49.51811751118042
            ],
            [
                -123.46696442190132,
                49.51841318213752
            ],
            [
                -123.47000442023379,
                49.51627814530626
            ],
            [
                -123.47079350192227,
                49.51602113578045
            ],
            [
                -123.47414616826298,
                49.51262812201672
            ],
            [
                -123.47504025811813,
                49.50908906417258
            ],
            [
                -123.4732315282779,
                49.505587096683975
            ],
            [
                -123.47121707009752,
                49.502950011145956
            ],
            [
                -123.46874103758547,
                49.50046556150628
            ],
            [
                -123.46731702095445,
                49.49729964536552
            ],
            [
                -123.46448543085893,
                49.49447742177611
            ],
            [
                -123.46240968726742,
                49.49172331983456
            ],
            [
                -123.46186693402737,
                49.48878437390248
            ],
            [
                -123.46178223038285,
                49.485969182128635
            ],
            [
                -123.46300020778509,
                49.48336487143491
            ],
            [
                -123.4641316823194,
                49.48065837875294
            ],
            [
                -123.46382150474592,
                49.47776736300469
            ],
            [
                -123.46365855123754,
                49.47488819686475
            ],
            [
                -123.46454351474753,
                49.47224508957678
            ],
            [
                -123.4649550350319,
                49.46925284486516
            ],
            [
                -123.4643941799276,
                49.46610619257871
            ],
            [
                -123.46376535194221,
                49.46316866265246
            ],
            [
                -123.46367048003054,
                49.460240455132734
            ],
            [
                -123.46275993313836,
                49.45732070907864
            ],
            [
                -123.46176098308962,
                49.45449230971659
            ],
            [
                -123.46094226744347,
                49.451733647366986
            ],
            [
                -123.46045658620862,
                49.44894023143733
            ],
            [
                -123.46032432510033,
                49.44625748602697
            ],
            [
                -123.45987732751396,
                49.44365977416105
            ],
            [
                -123.45975617388686,
                49.4410550045936
            ],
            [
                -123.4589751670701,
                49.43832703763465
            ],
            [
                -123.45913866294015,
                49.435414173962876
            ],
            [
                -123.45835643559488,
                49.432456709262176
            ],
            [
                -123.45826283767303,
                49.429379826506036
            ],
            [
                -123.4546951891357,
                49.4267793526526
            ],
            [
                -123.45246710902124,
                49.42353961605484
            ],
            [
                -123.44808046588086,
                49.42132419984539
            ],
            [
                -123.44144968499253,
                49.421292257982756
            ],
            [
                -123.43513753229541,
                49.42145115220237
            ],
            [
                -123.42952010067273,
                49.42136676795204
            ],
            [
                -123.42411760797762,
                49.42130134117102
            ],
            [
                -123.41883440901647,
                49.420709717286584
            ],
            [
                -123.41383905200722,
                49.42038886904536
            ],
            [
                -123.40899960418643,
                49.42018464095294
            ],
            [
                -123.40431937385402,
                49.42058100756676
            ],
            [
                -123.39973461334614,
                49.421136569817534
            ],
            [
                -123.39511668476516,
                49.42201461172353
            ],
            [
                -123.39034055535836,
                49.423087838063445
            ],
            [
                -123.38505896731482,
                49.42411580857062
            ],
            [
                -123.3794285235218,
                49.42484057386572
            ],
            [
                -123.37346042268257,
                49.425273297405965
            ],
            [
                -123.36714611286904,
                49.42477166230457
            ],
            [
                -123.36043436038997,
                49.42426367019596
            ],
            [
                -123.35323619646634,
                49.425383876007906
            ],
            [
                -123.34607484145414,
                49.42647251470115
            ],
            [
                -123.33939630732289,
                49.427383490650726
            ],
            [
                -123.3330903132682,
                49.42841888579202
            ],
            [
                -123.32697699149901,
                49.429578527559684
            ],
            [
                -123.32089622345792,
                49.43002658695618
            ],
            [
                -123.3149842580283,
                49.429948681346886
            ],
            [
                -123.30901294569203,
                49.42937318472147
            ],
            [
                -123.30342409487997,
                49.427957837500934
            ],
            [
                -123.29812902468392,
                49.42674599648072
            ],
            [
                -123.29504338579585,
                49.423341001007024
            ],
            [
                -123.29347,
                49.41948
            ]
        ]
    },
    "properties": {
        "trajectory_id": 1468,
        "object_id": 316022036,
        "label": "TOWING"
    }
}