{
    "type": "Feature",
    "geometry": {
        "type": "LineString",
        "coordinates": [
            [
                -123.13569,
                49.19634
            ],
            [
                -123.13566749644536,
                49.19631618360589
            ],
            [
                -123.13571343079442,
                49.196390457785
            ],
            [
                -123.13562717890804,
                49.19635677802976
            ],
            [
                -123.13570074518283,
                49.1963112552968
            ],
            [
                -123.13568332559103,
                49.19628175531899
            ],
            [
                -123.13569954173732,
                49.19628248315587
            ],
            [
                -123.1357119594329,
                49.19626641684553
            ],
            [
                -123.13568575303138,
                49.196310785524624
            ],
            [
                -123.1356773885373,
                49.196269265465304
            ],
            [
                -123.1357139522588,
                49.19632142968664
            ],
            [
                -123.1356909918207,
                49.19632193796729
            ],
            [
                -123.13573224047747,
                49.19631696792673
            ],
            [
                -123.13571715773436,
                49.19632378002049
            ],
            [
                -123.13567847287092,
                49.19634570655005
            ],
            [
                -123.13571609407452,
                49.19626708716037
            ],
            [
                -123.13571356793915,
                49.19624751236724
            ],
            [
                -123.13566587898923,
                49.196349524083196
            ],
            [
                -123.13573164426539,
                49.19627087559934
            ],
            [
                -123.13565334788731,
                49.19627228558229
            ],
            [
                -123.13568536132873,
                49.19632271920088
            ],
            [
                -123.13571064093583,
                49.196250103878754
            ],
            [
                -123.13568746034414,
                49.19628138624059
            ],
            [
                -123.1357593826171,
                49.196279014507155
            ],
            [
                -123.13567361627511,
                49.19631325757973
            ],
            [
                -123.13573016579099,
                49.196239924646086
            ],
            [
                -123.13571026487813,
                49.19626518936425
            ],
            [
                -123.13571526899119,
                49.19627714316893
            ],
            [
                -123.13565870875908,
                49.19631327194284
            ],
            [
                -123.13570458596088,
                49.19635550482707
            ],
            [
                -123.13571213192367,
                49.19629908123631
            ],
            [
                -123.1357358918669,
                49.196232238009344
            ],
            [
                -123.135668037677,
                49.1963267055801
            ],
            [
                -123.13565236896409,
                49.19636907324709
            ],
            [
                -123.13566163364476,
                49.196326828551186
            ],
            [
                -123.13563592911987,
                49.196282603196316
            ],
            [
                -123.13577927436994,
                49.19621722870404
            ],
            [
                -123.13576790057301,
                49.19618720604308
            ],
            [
                -123.13573836908155,
                49.19631025088168
            ],
            [
                -123.13571804155322,
                49.19627552859109
            ],
            [
                -123.13567127298394,
                49.19632313939752
            ],
            [
                -123.1357185793459,
                49.19625666895724
            ],
            [
                -123.13569114990453,
                49.19633027584497
            ],
            [
                -123.13572098162271,
                49.19627915152879
            ],
            [
                -123.13570326656767,
                49.19626004037638
            ],
            [
                -123.13573967706812,
                49.196271468426545
            ],
            [
                -123.13573287107918,
                49.19628137285072
            ],
            [
                -123.13566267746963,
                49.19633056873765
            ],
            [
                -123.13571853735526,
                49.196330637251265
            ],
            [
                -123.13571356762478,
                49.196306119245165
            ],
            [
                -123.1357171045414,
                49.19627924390405
            ],
            [
                -123.1357530358662,
                49.196297192517335
            ],
            [
                -123.1357123524225,
                49.196287361978904
            ],
            [
                -123.1357049514705,
                49.19628095184157
            ],
            [
                -123.1357426410029,
                49.19627974548986
            ],
            [
                -123.13574367203816,
                49.196277622680306
            ],
            [
                -123.13584736930457,
                49.19623569817137
            ],
            [
                -123.13571016897433,
                49.19627437419545
            ],
            [
                -123.13567895620157,
                49.196292091350536
            ],
            [
                -123.13565938784899,
                49.196330082819706
            ],
            [
                -123.13565708549872,
                49.19629732225185
            ],
            [
                -123.13567635764477,
                49.19639078847002
            ],
            [
                -123.13570405777075,
                49.19636366200923
            ],
            [
                -123.13577271200018,
                49.19631399051281
            ],
            [
                -123.13571162501832,
                49.196302934418185
            ],
            [
                -123.13566854398287,
                49.19621371636996
            ],
            [
                -123.13570584402925,
                49.19624732288823
            ],
            [
                -123.1356752173632,
                49.19628078384328
            ],
            [
                -123.13571004157585,
                49.19628022989867
            ],
            [
                -123.13573772078303,
                49.19619314180838
            ],
            [
                -123.13572874611393,
                49.19631248946767
            ],
            [
                -123.13569922267477,
                49.196311744094665
            ],
            [
                -123.13571641746881,
                49.19631806395302
            ],
            [
                -123.13573547586253,
                49.19630040642669
            ],
            [
                -123.13572996028519,
                49.196321811680335
            ],
            [
                -123.13569014115848,
                49.19631717721112
            ],
            [
                -123.13571535614399,
                49.19621834583246
            ],
            [
                -123.13572647172626,
                49.196214677204985
            ],
            [
                -123.13561152986459,
                49.196289190163945
            ],
            [
                -123.1357,
                49.19628
            ]
        ]
    },
    "properties": {
        "trajectory_id": 1486,
        "object_id": 316022038,
        "label": "TUG"
    }
}