{
    "type": "Feature",
    "geometry": {
        "type": "LineString",
        "coordinates": [
            [
                -123.13304,
                49.2949
            ],
            [
                -123.13303119192985,
                49.29488234486643
            ],
            [
                -123.13301900598672,
                49.29492307861916
            ],
            [
                -123.13303227202032,
                49.294886097178804
            ],
            [
                -123.13302137256514,
                49.29491790247777
            ],
            [
                -123.1330221978961,
                49.2948671116186
            ],
            [
                -123.1330138993121,
                49.29488549902925
            ],
            [
                -123.13303136357285,
                49.29489826646064
            ],
            [
                -123.13304894198973,
                49.29488085830895
            ],
            [
                -123.13303019180863,
                49.294899374226326
            ],
            [
                -123.13302612500578,
                49.294881343365226
            ],
            [
                -123.13304320360211,
                49.29488961974153
            ],
            [
                -123.1330685284376,
                49.294909707267
            ],
            [
                -123.13302981286974,
                49.29487979684657
            ],
            [
                -123.1330185656007,
                49.29490550395773
            ],
            [
                -123.13303003407171,
                49.29491513209932
            ],
            [
                -123.13305952877138,
                49.294910062252455
            ],
            [
                -123.13306608062861,
                49.29487195326085
            ],
            [
                -123.13303956519634,
                49.294900791749214
            ],
            [
                -123.13309271777312,
                49.29490994227144
            ],
            [
                -123.13307345563413,
                49.29488950924048
            ],
            [
                -123.13304136778234,
                49.29489304307887
            ],
            [
                -123.13305004335717,
                49.294899970027835
            ],
            [
                -123.13303138162605,
                49.294927101670574
            ],
            [
                -123.13304766321056,
                49.29489784354475
            ],
            [
                -123.13305123505613,
                49.294899734080715
            ],
            [
                -123.13304492140267,
                49.29490954072172
            ],
            [
                -123.13300646543577,
                49.294914210842286
            ],
            [
                -123.13304730351241,
                49.294886316998465
            ],
            [
                -123.13304702130262,
                49.29488107373274
            ],
            [
                -123.13302996396385,
                49.29491003525463
            ],
            [
                -123.133022159439,
                49.294911165943724
            ],
            [
                -123.1330276829186,
                49.29488189797118
            ],
            [
                -123.1330405083181,
                49.29490040487285
            ],
            [
                -123.13304163332761,
                49.294885998218604
            ],
            [
                -123.13303790228336,
                49.29489929821327
            ],
            [
                -123.13301944756834,
                49.29487821359388
            ],
            [
                -123.13301875598673,
                49.2949183205825
            ],
            [
                -123.13304387608613,
                49.29489045058678
            ],
            [
                -123.13304662409985,
                49.294884304499746
            ],
            [
                -123.13304202944661,
                49.294898594418754
            ],
            [
                -123.13306000266662,
                49.294908965417704
            ],
            [
                -123.13300636419041,
                49.29489269736225
            ],
            [
                -123.13304989386673,
                49.29489531904122
            ],
            [
                -123.13303075617678,
                49.294893190951164
            ],
            [
                -123.13302395598862,
                49.29488623864722
            ],
            [
                -123.13302902511536,
                49.29490006661464
            ],
            [
                -123.1330232348061,
                49.29492177323213
            ],
            [
                -123.13299746807147,
                49.294917522355775
            ],
            [
                -123.13303245576205,
                49.294898546948474
            ],
            [
                -123.1330323097227,
                49.294886296525135
            ],
            [
                -123.13301253559911,
                49.294903661475324
            ],
            [
                -123.13304178042665,
                49.29488731801178
            ],
            [
                -123.13301954420055,
                49.2948894425529
            ],
            [
                -123.1330226764649,
                49.29488857046285
            ],
            [
                -123.13300970641973,
                49.294889826454785
            ],
            [
                -123.13302174268514,
                49.29489028160753
            ],
            [
                -123.13302462171005,
                49.29490628631539
            ],
            [
                -123.13303168023957,
                49.29491537595987
            ],
            [
                -123.1330361983712,
                49.294933131077805
            ],
            [
                -123.13299985600834,
                49.29488020066291
            ],
            [
                -123.13302134961788,
                49.29489432951893
            ],
            [
                -123.13300943033217,
                49.294888684231864
            ],
            [
                -123.13302946235326,
                49.294880386785636
            ],
            [
                -123.13302395628763,
                49.29490888529349
            ],
            [
                -123.13303479007482,
                49.29490307559524
            ],
            [
                -123.13301275847395,
                49.29490116787555
            ],
            [
                -123.13302533740307,
                49.294913625349515
            ],
            [
                -123.13302640309925,
                49.294903469868125
            ],
            [
                -123.13301988663558,
                49.29489855530559
            ],
            [
                -123.1330092169157,
                49.29489967867741
            ],
            [
                -123.13302029499721,
                49.29489202737979
            ],
            [
                -123.13309535090738,
                49.2948606021907
            ],
            [
                -123.13303040069758,
                49.29490248610658
            ],
            [
                -123.13302177536812,
                49.29487544697727
            ],
            [
                -123.13304045768348,
                49.294885204275054
            ],
            [
                -123.133032965337,
                49.294914440993615
            ],
            [
                -123.13301791114043,
                49.29489077970541
            ],
            [
                -123.13303567417219,
                49.29493220898672
            ],
            [
                -123.13303,
                49.29487
            ]
        ]
    },
    "properties": {
        "trajectory_id": 1502,
        "object_id": 316022498,
        "label": "PASSENGER"
    }
}