{
    "type": "Feature",
    "geometry": {
        "type": "LineString",
        "coordinates": [
            [
                -123.18189,
                49.12304
            ],
            [
                -123.18188176588828,
                49.12307753574545
            ],
            [
                -123.18182354946131,
                49.12315864274753
            ],
            [
                -123.18188001956283,
                49.12314999030858
            ],
            [
                -123.1818294446674,
                49.12310937194995
            ],
            [
                -123.18184453929845,
                49.12315297802791
            ],
            [
                -123.18185012051606,
                49.12319475357902
            ],
            [
                -123.18189385192753,
                49.12308384265224
            ],
            [
                -123.18185927767045,
                49.1231385519045
            ],
            [
                -123.18187530072045,
                49.123170051765456
            ],
            [
                -123.18189908440498,
                49.12312190057768
            ],
            [
                -123.18186955183911,
                49.123117456370395
            ],
            [
                -123.18187052523662,
                49.12310446116623
            ],
            [
                -123.18188058214841,
                49.12314416115471
            ],
            [
                -123.18185953387483,
                49.12311807130974
            ],
            [
                -123.18185220316434,
                49.123132880058684
            ],
            [
                -123.18186856756469,
                49.12316029827273
            ],
            [
                -123.18188467250727,
                49.12313987192388
            ],
            [
                -123.1818402885117,
                49.12312302264719
            ],
            [
                -123.18188263727669,
                49.123138196817145
            ],
            [
                -123.18191787026697,
                49.12309822659664
            ],
            [
                -123.18190990193388,
                49.12316233800275
            ],
            [
                -123.18188892447405,
                49.123142287862166
            ],
            [
                -123.18187566356868,
                49.12314138443632
            ],
            [
                -123.18184320754739,
                49.12317375639333
            ],
            [
                -123.18187399637372,
                49.123148276621734
            ],
            [
                -123.18184856116588,
                49.123131819921944
            ],
            [
                -123.18186912828287,
                49.12311282788669
            ],
            [
                -123.18186892402753,
                49.12315235985835
            ],
            [
                -123.18187215719949,
                49.123115222254896
            ],
            [
                -123.18186237224933,
                49.12312709151607
            ],
            [
                -123.18184518365848,
                49.12312900596734
            ],
            [
                -123.18187342106198,
                49.12311740773029
            ],
            [
                -123.18185083454824,
                49.123177821810366
            ],
            [
                -123.18188189658228,
                49.12310974939721
            ],
            [
                -123.18184573161788,
                49.1231512510985
            ],
            [
                -123.18188270374826,
                49.12312142827244
            ],
            [
                -123.18189279854845,
                49.123208651849204
            ],
            [
                -123.18191366076911,
                49.12316773985826
            ],
            [
                -123.18184724690094,
                49.123139029584806
            ],
            [
                -123.18184726581408,
                49.12309430490019
            ],
            [
                -123.1818628943882,
                49.12314511912435
            ],
            [
                -123.18181457610247,
                49.12314861825462
            ],
            [
                -123.18183946319913,
                49.12313919897462
            ],
            [
                -123.18182734912746,
                49.12313846077738
            ],
            [
                -123.18175862916205,
                49.12320169194585
            ],
            [
                -123.18184209937871,
                49.12311627621371
            ],
            [
                -123.18186990269243,
                49.12314041567697
            ],
            [
                -123.18183045949671,
                49.12313979910596
            ],
            [
                -123.18182168668602,
                49.123149779234616
            ],
            [
                -123.18191937415149,
                49.12311020546738
            ],
            [
                -123.18185715225214,
                49.12312067813891
            ],
            [
                -123.18188192633896,
                49.12312327826096
            ],
            [
                -123.1818737527605,
                49.123097236368075
            ],
            [
                -123.18185483064102,
                49.12313933732441
            ],
            [
                -123.18187184518793,
                49.12316103482668
            ],
            [
                -123.1818128402593,
                49.123102206178956
            ],
            [
                -123.18190075867884,
                49.12316236283001
            ],
            [
                -123.18182658700722,
                49.12310202622815
            ],
            [
                -123.18190842575864,
                49.12315144493965
            ],
            [
                -123.18191199810587,
                49.123150737818236
            ],
            [
                -123.18187764591511,
                49.123117581283935
            ],
            [
                -123.1818453648382,
                49.123077663427765
            ],
            [
                -123.18188499689037,
                49.12309604224519
            ],
            [
                -123.18188980313765,
                49.12307595524979
            ],
            [
                -123.18181022262024,
                49.12318934159435
            ],
            [
                -123.18185135079379,
                49.12314076117354
            ],
            [
                -123.18184296902557,
                49.12310720066724
            ],
            [
                -123.18183039257752,
                49.12314000123068
            ],
            [
                -123.18181880048228,
                49.12314107715875
            ],
            [
                -123.18186759371123,
                49.12315027831205
            ],
            [
                -123.1818731057139,
                49.12311139038599
            ],
            [
                -123.18186613097514,
                49.12314059137883
            ],
            [
                -123.18189366086531,
                49.123108938413
            ],
            [
                -123.18187058579065,
                49.12311038247668
            ],
            [
                -123.18186948121647,
                49.12315604841504
            ],
            [
                -123.18184921071777,
                49.12313806298674
            ],
            [
                -123.18190028165476,
                49.12310819974749
            ],
            [
                -123.18187796748613,
                49.12310968139063
            ],
            [
                -123.18186,
                49.12313
            ]
        ]
    },
    "properties": {
        "trajectory_id": 1515,
        "object_id": 316023452,
        "label": "FISHING"
    }
}