{
    "type": "Feature",
    "geometry": {
        "type": "LineString",
        "coordinates": [
            [
                -123.1845,
                49.18092
            ],
            [
                -123.18449999999999,
                49.18092
            ],
            [
                -123.18450000000003,
                49.180920000000015
            ],
            [
                -123.18450000000001,
                49.18092000000001
            ],
            [
                -123.18450000000004,
                49.18092
            ],
            [
                -123.18450000000001,
                49.18092000000001
            ],
            [
                -123.1845,
                49.18091999999999
            ],
            [
                -123.1845,
                49.18092
            ],
            [
                -123.18450000000001,
                49.180920000000015
            ],
            [
                -123.18449999999997,
                49.18092
            ],
            [
                -123.1845,
                49.18092
            ],
            [
                -123.18450000000001,
                49.18092
            ],
            [
                -123.18449999999997,
                49.18091999999999
            ],
            [
                -123.18449999999999,
                49.18092
            ],
            [
                -123.18449999999999,
                49.18091999999999
            ],
            [
                -123.18449999999999,
                49.18091999999999
            ],
            [
                -123.1845,
                49.18092
            ],
            [
                -123.18449999999997,
                49.18092
            ],
            [
                -123.18450000000001,
                49.18092
            ],
            [
                -123.18450000000003,
                49.18092000000001
            ],
            [
                -123.18449999999999,
                49.18091999999999
            ],
            [
                -123.1845,
                49.18092
            ],
            [
                -123.18449999999997,
                49.18091999999999
            ],
            [
                -123.18450000000001,
                49.18092000000001
            ],
            [
                -123.1845,
                49.18092000000001
            ],
            [
                -123.18450000000001,
                49.18092
            ],
            [
                -123.18450000000001,
                49.18092
            ],
            [
                -123.1845,
                49.18092000000001
            ],
            [
                -123.18450000000001,
                49.18092
            ],
            [
                -123.1845,
                49.18092
            ],
            [
                -123.1845,
                49.18091999999998
            ],
            [
                -123.18450000000001,
                49.18092
            ],
            [
                -123.1845,
                49.18092000000001
            ],
            [
                -123.18449999999996,
                49.18091999999999
            ],
            [
                -123.18449999999999,
                49.18092
            ],
            [
                -123.18449999999999,
                49.18092000000001
            ],
            [
                -123.18450000000003,
                49.18092
            ],
            [
                -123.18450000000001,
                49.18092
            ],
            [
                -123.18450000000001,
                49.18092000000001
            ],
            [
                -123.18449999999999,
                49.18091999999999
            ],
            [
                -123.18450000000003,
                49.18092000000001
            ],
            [
                -123.18450000000001,
                49.18092
            ],
            [
                -123.18450000000001,
                49.18092
            ],
            [
                -123.18450000000001,
                49.18091999999974
            ],
            [
                -123.1845,
                49.180919999706184
            ],
            [
                -123.18450000000001,
                49.180920940164405
            ],
            [
                -123.1845,
                49.1809199704232
            ],
            [
                -123.1845,
                49.180920000002516
            ],
            [
                -123.18450000000003,
                49.18092
            ],
            [
                -123.1845,
                49.18092000000001
            ],
            [
                -123.1845,
                49.18092
            ],
            [
                -123.18450000000001,
                49.180920000000015
            ],
            [
                -123.18450000000001,
                49.18092000000001
            ],
            [
                -123.1845,
                49.18092000000001
            ],
            [
                -123.1845,
                49.18092000000001
            ],
            [
                -123.18450000000001,
                49.180920000000015
            ],
            [
                -123.1845,
                49.18092000000001
            ],
            [
                -123.1845,
                49.18092
            ],
            [
                -123.1845,
                49.18091999999999
            ],
            [
                -123.18449999999999,
                49.18091999999999
            ],
            [
                -123.18450000000001,
                49.180920000000015
            ],
            [
                -123.1845,
                49.18092
            ],
            [
                -123.18449999999999,
                49.180919999999986
            ],
            [
                -123.18449999999999,
                49.18091999999999
            ],
            [
                -123.18450000000001,
                49.18092000000001
            ],
            [
                -123.18449999999999,
                49.18091999999999
            ],
            [
                -123.18449999999996,
                49.18092
            ],
            [
                -123.18450000000001,
                49.18092
            ],
            [
                -123.18450000000001,
                49.180920000000015
            ],
            [
                -123.18449999999996,
                49.18091999999999
            ],
            [
                -123.18450000000003,
                49.180920000000015
            ],
            [
                -123.18450000000001,
                49.18092
            ],
            [
                -123.18449999999999,
                49.18092
            ],
            [
                -123.18449999999997,
                49.18092
            ],
            [
                -123.18449999999999,
                49.18091999999999
            ],
            [
                -123.18449999999997,
                49.180919999999986
            ],
            [
                -123.18450000000003,
                49.18092000000001
            ],
            [
                -123.18449999999999,
                49.18092
            ],
            [
                -123.18450000000006,
                49.180920000000015
            ],
            [
                -123.1845,
                49.18092
            ]
        ]
    },
    "properties": {
        "trajectory_id": 1570,
        "object_id": 316024578,
        "label": "SEARCH AND RESCUE"
    }
}