{
    "type": "Feature",
    "geometry": {
        "type": "LineString",
        "coordinates": [
            [
                -123.02953,
                49.29909
            ],
            [
                -123.02951930816992,
                49.29908642352822
            ],
            [
                -123.02951999998612,
                49.29909051983527
            ],
            [
                -123.02952000000003,
                49.299090000016626
            ],
            [
                -123.02952000000002,
                49.29908999999947
            ],
            [
                -123.02952000000002,
                49.29908999211083
            ],
            [
                -123.02952000000005,
                49.299090016696915
            ],
            [
                -123.02951999999999,
                49.29909000001434
            ],
            [
                -123.02951999999999,
                49.29909
            ],
            [
                -123.02951999999999,
                49.29908999999999
            ],
            [
                -123.02952000000002,
                49.29909
            ],
            [
                -123.02952000000002,
                49.299090000000014
            ],
            [
                -123.02952000000003,
                49.29909000000001
            ],
            [
                -123.02952,
                49.29909000000001
            ],
            [
                -123.02951999999999,
                49.29909000000001
            ],
            [
                -123.02952,
                49.29908999999999
            ],
            [
                -123.02951999999999,
                49.299090000000035
            ],
            [
                -123.02952000000002,
                49.29908999926566
            ],
            [
                -123.02952000000002,
                49.29908016347078
            ],
            [
                -123.02952000000003,
                49.299090508588854
            ],
            [
                -123.02952000064175,
                49.29907953016736
            ],
            [
                -123.02952955863537,
                49.299088038632924
            ],
            [
                -123.02952997275682,
                49.29908040992434
            ],
            [
                -123.0295300000014,
                49.29908205587044
            ],
            [
                -123.02953000000001,
                49.299080001928594
            ],
            [
                -123.02953000000001,
                49.29908000000006
            ],
            [
                -123.02952999999997,
                49.29907999999998
            ],
            [
                -123.02953000000012,
                49.299080000000004
            ],
            [
                -123.02953000247832,
                49.299080000004146
            ],
            [
                -123.02951932380593,
                49.29907993818592
            ],
            [
                -123.02951999714551,
                49.299090003082924
            ],
            [
                -123.02951999999988,
                49.29909000000014
            ],
            [
                -123.02952,
                49.29908999999999
            ],
            [
                -123.02952,
                49.29909
            ],
            [
                -123.02951999999998,
                49.299089999999985
            ],
            [
                -123.02951999999999,
                49.29908999999999
            ],
            [
                -123.02951999999999,
                49.29908999999999
            ],
            [
                -123.02951999999998,
                49.299089999999985
            ],
            [
                -123.02952000000003,
                49.299089999998415
            ],
            [
                -123.02951999999998,
                49.29908993808023
            ],
            [
                -123.0295200010228,
                49.29908947545179
            ],
            [
                -123.02951509553645,
                49.29909004473954
            ],
            [
                -123.02951999990646,
                49.29909000000118
            ],
            [
                -123.02951999600796,
                49.29909
            ],
            [
                -123.02952986700558,
                49.299089999999566
            ],
            [
                -123.0295191454705,
                49.299090003777145
            ],
            [
                -123.02952090847378,
                49.29909123267328
            ],
            [
                -123.02951989488393,
                49.29908151625968
            ],
            [
                -123.0295199283233,
                49.299079960453454
            ],
            [
                -123.02952988321923,
                49.299088936187935
            ],
            [
                -123.02953112988067,
                49.29908960960644
            ],
            [
                -123.02951999968288,
                49.29908606633839
            ],
            [
                -123.02951999999998,
                49.29907999951429
            ],
            [
                -123.02951999999999,
                49.29907999999998
            ],
            [
                -123.02951999999998,
                49.29907999998321
            ],
            [
                -123.02952,
                49.2990798024904
            ],
            [
                -123.02951999999999,
                49.29908958052558
            ],
            [
                -123.02951999999999,
                49.29908966192131
            ],
            [
                -123.02951999999999,
                49.29909115993358
            ],
            [
                -123.02952000000002,
                49.29909053738286
            ],
            [
                -123.02952,
                49.29907999981787
            ],
            [
                -123.02952,
                49.299080000000004
            ],
            [
                -123.02952000000002,
                49.29908
            ],
            [
                -123.02952000000002,
                49.29907999999999
            ],
            [
                -123.02952000000002,
                49.29907999999998
            ],
            [
                -123.02951999999998,
                49.299079999845915
            ],
            [
                -123.02951999999874,
                49.29909102091563
            ],
            [
                -123.02951998408433,
                49.29909000001468
            ],
            [
                -123.02952972226358,
                49.29909
            ],
            [
                -123.02952002115046,
                49.29909000000001
            ],
            [
                -123.02952000000082,
                49.29909
            ],
            [
                -123.02952,
                49.29909
            ],
            [
                -123.02951999997306,
                49.29909000000001
            ],
            [
                -123.02951938505718,
                49.29909
            ],
            [
                -123.02951997003369,
                49.29908999999999
            ],
            [
                -123.02952182995345,
                49.29908999999999
            ],
            [
                -123.02953006613359,
                49.299089999999985
            ],
            [
                -123.02952999995689,
                49.299089999999985
            ],
            [
                -123.02952254140699,
                49.29908999999999
            ],
            [
                -123.02952,
                49.29909
            ]
        ]
    },
    "properties": {
        "trajectory_id": 1597,
        "object_id": 316026483,
        "label": "TUG"
    }
}