{
    "type": "Feature",
    "geometry": {
        "type": "LineString",
        "coordinates": [
            [
                -123.40493,
                48.66974
            ],
            [
                -123.40493443555272,
                48.66971856507819
            ],
            [
                -123.4049315243363,
                48.66972828167891
            ],
            [
                -123.40495902448421,
                48.669730526271636
            ],
            [
                -123.40494015360849,
                48.669741624796025
            ],
            [
                -123.40494944270681,
                48.66970200735489
            ],
            [
                -123.40494250731555,
                48.66971850426244
            ],
            [
                -123.40494847242638,
                48.669719883601466
            ],
            [
                -123.40492130302349,
                48.669730090078126
            ],
            [
                -123.40492382236863,
                48.66972874348902
            ],
            [
                -123.40495541048351,
                48.66972911323782
            ],
            [
                -123.40493016207796,
                48.66973034136695
            ],
            [
                -123.40493716719668,
                48.6697248749118
            ],
            [
                -123.4049306390728,
                48.66972319431154
            ],
            [
                -123.40495158986916,
                48.66972215026565
            ],
            [
                -123.40492962614256,
                48.66971643201364
            ],
            [
                -123.40497169892659,
                48.66972102985314
            ],
            [
                -123.40495538154848,
                48.66973088582454
            ],
            [
                -123.40494224686297,
                48.669728217299905
            ],
            [
                -123.40491820596323,
                48.66971314380869
            ],
            [
                -123.4049371070071,
                48.669730541801094
            ],
            [
                -123.40492003629602,
                48.66971988118905
            ],
            [
                -123.40490930006538,
                48.66971958785258
            ],
            [
                -123.40495560573072,
                48.66971913551839
            ],
            [
                -123.40494272745674,
                48.66974786976998
            ],
            [
                -123.40492995820487,
                48.66972812196245
            ],
            [
                -123.40492938673732,
                48.66971985104173
            ],
            [
                -123.40493112830139,
                48.66971098427118
            ],
            [
                -123.40493022206375,
                48.66971176033839
            ],
            [
                -123.40495034157864,
                48.6697362100415
            ],
            [
                -123.40494825075422,
                48.66975071779364
            ],
            [
                -123.40494894181988,
                48.669725827204125
            ],
            [
                -123.40494210916316,
                48.66973088921294
            ],
            [
                -123.40491103958001,
                48.6697260701444
            ],
            [
                -123.4049530631784,
                48.66971042261444
            ],
            [
                -123.40492770697163,
                48.66973621322056
            ],
            [
                -123.40493278440877,
                48.66971136977812
            ],
            [
                -123.40491267006406,
                48.66971466739361
            ],
            [
                -123.40495167031197,
                48.669723306572436
            ],
            [
                -123.4049189774447,
                48.66974883679295
            ],
            [
                -123.40493859055593,
                48.66972924633921
            ],
            [
                -123.40493283983251,
                48.669723773101175
            ],
            [
                -123.40493788111348,
                48.66973507078691
            ],
            [
                -123.40495561738238,
                48.6697067939422
            ],
            [
                -123.40493873490938,
                48.66973299967538
            ],
            [
                -123.4049481078423,
                48.669722358206094
            ],
            [
                -123.40491881642029,
                48.669709700191234
            ],
            [
                -123.40496102583653,
                48.669724443442114
            ],
            [
                -123.40493838328182,
                48.6697294106866
            ],
            [
                -123.40494301243923,
                48.66972128719049
            ],
            [
                -123.40494063936508,
                48.66972093411557
            ],
            [
                -123.40495215507909,
                48.669727784368405
            ],
            [
                -123.40493014286473,
                48.66972304127786
            ],
            [
                -123.40494501862835,
                48.66972071512612
            ],
            [
                -123.4049362603456,
                48.669727680879205
            ],
            [
                -123.40493203679179,
                48.66971927814429
            ],
            [
                -123.40490644635719,
                48.66971051157285
            ],
            [
                -123.40492941230387,
                48.66972977981913
            ],
            [
                -123.404938285893,
                48.66972743037004
            ],
            [
                -123.40495520527556,
                48.66971939720496
            ],
            [
                -123.40494025058638,
                48.669749078682365
            ],
            [
                -123.40491976738639,
                48.66972777553751
            ],
            [
                -123.40495544826581,
                48.669728901860296
            ],
            [
                -123.40494980994961,
                48.66970953658537
            ],
            [
                -123.40493987527583,
                48.66972033615188
            ],
            [
                -123.4049450307747,
                48.669728898651094
            ],
            [
                -123.40494472024763,
                48.669738556712396
            ],
            [
                -123.40491039455821,
                48.66974023717946
            ],
            [
                -123.40494452479305,
                48.669704108639394
            ],
            [
                -123.40491965508062,
                48.66971881616546
            ],
            [
                -123.40492517977921,
                48.66972659321983
            ],
            [
                -123.404941889533,
                48.669729154735755
            ],
            [
                -123.40490777570415,
                48.669740573593074
            ],
            [
                -123.40493786236611,
                48.669727570822566
            ],
            [
                -123.40492988953267,
                48.66973156571337
            ],
            [
                -123.40493369459156,
                48.66972398690163
            ],
            [
                -123.40492714854813,
                48.66972374804805
            ],
            [
                -123.40494236282214,
                48.66971915176413
            ],
            [
                -123.40493765891068,
                48.669728928298746
            ],
            [
                -123.40495,
                48.66973
            ]
        ]
    },
    "properties": {
        "trajectory_id": 1659,
        "object_id": 316030409,
        "label": "PLEASURE CRAFT"
    }
}