{
    "type": "Feature",
    "geometry": {
        "type": "LineString",
        "coordinates": [
            [
                -125.32661,
                48.08738
            ],
            [
                -125.30966734511638,
                48.11073008457389
            ],
            [
                -125.29335863849542,
                48.13232596657878
            ],
            [
                -125.27666152157134,
                48.15395737424591
            ],
            [
                -125.25711242622903,
                48.178530065779945
            ],
            [
                -125.23914662373284,
                48.20062959594312
            ],
            [
                -125.22026064000309,
                48.22123410900057
            ],
            [
                -125.1976441556772,
                48.243879064566954
            ],
            [
                -125.1769882040798,
                48.26373526474416
            ],
            [
                -125.15848262453599,
                48.28286244759534
            ],
            [
                -125.13744317243238,
                48.30529185436916
            ],
            [
                -125.11690541862403,
                48.327956890986314
            ],
            [
                -125.10100317345639,
                48.348947730051066
            ],
            [
                -125.0827486675473,
                48.37295028989141
            ],
            [
                -125.06341648141189,
                48.39779332237604
            ],
            [
                -125.04728397783859,
                48.418945274055666
            ],
            [
                -125.03223708384557,
                48.439912298347856
            ],
            [
                -125.00800593035119,
                48.461044751648615
            ],
            [
                -124.97749540551699,
                48.477290169678206
            ],
            [
                -124.94228111714031,
                48.48033105616759
            ],
            [
                -124.9063307581434,
                48.479341339626785
            ],
            [
                -124.86862034108529,
                48.4779495491823
            ],
            [
                -124.83034236021687,
                48.47733385026063
            ],
            [
                -124.79133855893353,
                48.4773497599994
            ],
            [
                -124.75284060585568,
                48.47715032757226
            ],
            [
                -124.7121212868265,
                48.47717322630678
            ],
            [
                -124.67637347138206,
                48.465876458188006
            ],
            [
                -124.64157736469619,
                48.45580169062228
            ],
            [
                -124.60517840506604,
                48.44363609047885
            ],
            [
                -124.56827334611302,
                48.431218852696205
            ],
            [
                -124.53202603389752,
                48.4187621206509
            ],
            [
                -124.49638360230615,
                48.40771266219011
            ],
            [
                -124.45812334689094,
                48.39577147840277
            ],
            [
                -124.42324395077212,
                48.38497815829456
            ],
            [
                -124.38401332914759,
                48.37300777668062
            ],
            [
                -124.34546332570879,
                48.360916792050304
            ],
            [
                -124.31172538183618,
                48.350036302864495
            ],
            [
                -124.27365767038856,
                48.33795338143501
            ],
            [
                -124.23263701618839,
                48.32546938302733
            ],
            [
                -124.1966087528983,
                48.31431529151461
            ],
            [
                -124.16272260467616,
                48.30433616547532
            ],
            [
                -124.12897921156151,
                48.29425295741203
            ],
            [
                -124.09515237581338,
                48.28360968581986
            ],
            [
                -124.06098852154139,
                48.27314987111284
            ],
            [
                -124.02718122608862,
                48.26213576044748
            ],
            [
                -123.99720990891451,
                48.25167037865327
            ],
            [
                -123.9621551886493,
                48.23783209218693
            ],
            [
                -123.92938523354171,
                48.22683426469637
            ],
            [
                -123.89534807381854,
                48.22290974641164
            ],
            [
                -123.8594448115737,
                48.22304333224529
            ],
            [
                -123.82287931409694,
                48.22317153717265
            ],
            [
                -123.78617876351684,
                48.22258664977588
            ],
            [
                -123.75264483433413,
                48.22195960132442
            ],
            [
                -123.72307117748632,
                48.2213587747438
            ],
            [
                -123.69229201402784,
                48.221684963544845
            ],
            [
                -123.65681226395843,
                48.22109888831238
            ],
            [
                -123.62209092940404,
                48.220804293266525
            ],
            [
                -123.59108672989973,
                48.220296798845034
            ],
            [
                -123.55706676229154,
                48.22028501414997
            ],
            [
                -123.52448252823218,
                48.21133345144646
            ],
            [
                -123.49511022383139,
                48.20215982702133
            ],
            [
                -123.46777702143946,
                48.19419238915458
            ],
            [
                -123.4387015121721,
                48.18330316484287
            ],
            [
                -123.41007668171234,
                48.16980999813035
            ],
            [
                -123.38272830918893,
                48.15410978548576
            ],
            [
                -123.34438711137828,
                48.15896897306214
            ],
            [
                -123.29964315835986,
                48.16652703557131
            ],
            [
                -123.25530116613321,
                48.177798164993
            ],
            [
                -123.20802214614551,
                48.187796073680964
            ],
            [
                -123.15771801728165,
                48.195519064352226
            ],
            [
                -123.10797031654262,
                48.201214347349065
            ],
            [
                -123.06111416553568,
                48.19958942552786
            ],
            [
                -123.01499093298514,
                48.19584480798723
            ],
            [
                -122.96689820932937,
                48.19240418169397
            ],
            [
                -122.91861955315379,
                48.190467276657564
            ],
            [
                -122.87054832002296,
                48.18852796263832
            ],
            [
                -122.8238076330475,
                48.18290242544191
            ],
            [
                -122.78322786922442,
                48.17301027313704
            ],
            [
                -122.75190799628913,
                48.15878681164217
            ],
            [
                -122.72349,
                48.14427
            ]
        ]
    },
    "properties": {
        "trajectory_id": 176,
        "object_id": 311056900,
        "label": "CARGO"
    }
}