{
    "type": "Feature",
    "geometry": {
        "type": "LineString",
        "coordinates": [
            [
                -123.62254,
                49.17747
            ],
            [
                -123.57686416967533,
                49.164851858329115
            ],
            [
                -123.53023215191449,
                49.15140887735262
            ],
            [
                -123.4831572032168,
                49.137675541556995
            ],
            [
                -123.43456890112317,
                49.12446444573291
            ],
            [
                -123.38514100601051,
                49.11231177994605
            ],
            [
                -123.33879272037623,
                49.101489436407775
            ],
            [
                -123.29815360671905,
                49.10550332103712
            ],
            [
                -123.26392226711474,
                49.119271320416665
            ],
            [
                -123.22782285304925,
                49.13112090314833
            ],
            [
                -123.19399312601767,
                49.12019224691379
            ],
            [
                -123.15807274137016,
                49.10927666306678
            ],
            [
                -123.1167369073878,
                49.10988970832957
            ],
            [
                -123.07760777683613,
                49.1206437624979
            ],
            [
                -123.04808077246786,
                49.14092873607086
            ],
            [
                -123.03374066138294,
                49.14420975367005
            ],
            [
                -123.03378003751916,
                49.14419007301458
            ],
            [
                -123.0337396312139,
                49.14420984452579
            ],
            [
                -123.03376866661792,
                49.14420916914154
            ],
            [
                -123.03374709931593,
                49.14419889705187
            ],
            [
                -123.033739124901,
                49.144254214960135
            ],
            [
                -123.03376815289734,
                49.14419067859195
            ],
            [
                -123.03374858897715,
                49.14421117108228
            ],
            [
                -123.03374996995059,
                49.144212436607816
            ],
            [
                -123.03372992768216,
                49.14418379412659
            ],
            [
                -123.03394062725755,
                49.1442645093545
            ],
            [
                -123.05262946219368,
                49.139221832547356
            ],
            [
                -123.10092898492013,
                49.11366866708332
            ],
            [
                -123.16488510878263,
                49.11104424097868
            ],
            [
                -123.2227955518488,
                49.130439816881356
            ],
            [
                -123.27709483683375,
                49.115351573203256
            ],
            [
                -123.32345236382292,
                49.094731329448734
            ],
            [
                -123.32998747966086,
                49.06155267292609
            ],
            [
                -123.32362974688039,
                49.026987850300245
            ],
            [
                -123.31681032424365,
                48.99181420115433
            ],
            [
                -123.31137284617773,
                48.956779776300124
            ],
            [
                -123.30645780811986,
                48.922044245902484
            ],
            [
                -123.29984121771541,
                48.88809641560729
            ],
            [
                -123.31450087743113,
                48.85933023574301
            ],
            [
                -123.35142630920647,
                48.85530298815491
            ],
            [
                -123.34564741422551,
                48.82510107460887
            ],
            [
                -123.34677215187622,
                48.790947034698185
            ],
            [
                -123.34677563643079,
                48.756335393698386
            ],
            [
                -123.34673611185437,
                48.722602891129235
            ],
            [
                -123.37666252477511,
                48.694670357162174
            ],
            [
                -123.40465014066356,
                48.6901479357295
            ],
            [
                -123.40732156684066,
                48.688761159136895
            ],
            [
                -123.40733428429263,
                48.68875252156958
            ],
            [
                -123.40739042461922,
                48.68875011834358
            ],
            [
                -123.40732529930848,
                48.68875999848784
            ],
            [
                -123.40737005415185,
                48.68871998152627
            ],
            [
                -123.40739287227258,
                48.68874967696728
            ],
            [
                -123.40736761545685,
                48.688790255938265
            ],
            [
                -123.40733880359363,
                48.688723952523034
            ],
            [
                -123.40734966473902,
                48.68875180561181
            ],
            [
                -123.40735354537092,
                48.688761744956985
            ],
            [
                -123.40737963684924,
                48.68879263919482
            ],
            [
                -123.40731583829633,
                48.688731722127294
            ],
            [
                -123.40730331771374,
                48.68871822238979
            ],
            [
                -123.40731193602856,
                48.688757750149094
            ],
            [
                -123.40734568856004,
                48.68873632179235
            ],
            [
                -123.40728302424684,
                48.68873858542881
            ],
            [
                -123.40737128736926,
                48.68874936418251
            ],
            [
                -123.40732332366274,
                48.688744998289536
            ],
            [
                -123.40736891384094,
                48.68873580880359
            ],
            [
                -123.40713853735213,
                48.68884985069337
            ],
            [
                -123.38600380253192,
                48.692835323051625
            ],
            [
                -123.34716609402156,
                48.71772769220164
            ],
            [
                -123.34025377177367,
                48.75203765526555
            ],
            [
                -123.3378853411569,
                48.78741896154891
            ],
            [
                -123.33598933598728,
                48.82365103025966
            ],
            [
                -123.35068592475653,
                48.855079459472556
            ],
            [
                -123.31007563503134,
                48.86183595227409
            ],
            [
                -123.30258732410488,
                48.89518050036115
            ],
            [
                -123.28253365261337,
                48.92796071444004
            ],
            [
                -123.25649582700184,
                48.959771578421936
            ],
            [
                -123.2553202263063,
                48.99430934945645
            ],
            [
                -123.27098327776697,
                49.02696756965767
            ],
            [
                -123.29991859363817,
                49.055837497221134
            ],
            [
                -123.32491,
                49.0845
            ]
        ]
    },
    "properties": {
        "trajectory_id": 1776,
        "object_id": 316033814,
        "label": "CARGO"
    }
}