{
    "type": "Feature",
    "geometry": {
        "type": "LineString",
        "coordinates": [
            [
                -122.97517,
                49.29167
            ],
            [
                -122.9750647268229,
                49.29157155710957
            ],
            [
                -122.9750531523668,
                49.29158491490198
            ],
            [
                -122.97503414019256,
                49.29153525205946
            ],
            [
                -122.97503114363603,
                49.29157111528067
            ],
            [
                -122.97503024187854,
                49.291548297369474
            ],
            [
                -122.97514122163304,
                49.29155163062746
            ],
            [
                -122.97509006375654,
                49.291562567279115
            ],
            [
                -122.97506997490706,
                49.29156961611415
            ],
            [
                -122.97504931136025,
                49.2915700128455
            ],
            [
                -122.97518439702435,
                49.29162221411388
            ],
            [
                -122.9750543982318,
                49.29156248792287
            ],
            [
                -122.97507238255328,
                49.29157467579174
            ],
            [
                -122.97516031598482,
                49.2915041911358
            ],
            [
                -122.97502095941464,
                49.29152508949135
            ],
            [
                -122.97506304641766,
                49.29157029207147
            ],
            [
                -122.97498019136442,
                49.29152135549355
            ],
            [
                -122.97505226352757,
                49.291593714475745
            ],
            [
                -122.97507703506439,
                49.2915905091513
            ],
            [
                -122.97502759400732,
                49.29160065023686
            ],
            [
                -122.97502845428383,
                49.29160571500334
            ],
            [
                -122.97505712814302,
                49.291580395756384
            ],
            [
                -122.97502190442704,
                49.29159641008155
            ],
            [
                -122.97499156152499,
                49.29160849164485
            ],
            [
                -122.97505538593066,
                49.29158922951139
            ],
            [
                -122.97499889761465,
                49.291590170423255
            ],
            [
                -122.97498011762995,
                49.29157010726215
            ],
            [
                -122.97504754543262,
                49.29158639795097
            ],
            [
                -122.97504884361182,
                49.29160481314617
            ],
            [
                -122.97503170962668,
                49.291570960490745
            ],
            [
                -122.97503027741378,
                49.29161009647518
            ],
            [
                -122.97499018599727,
                49.29160032622799
            ],
            [
                -122.97500030551113,
                49.291611385422996
            ],
            [
                -122.97495528347491,
                49.29158839488391
            ],
            [
                -122.97502010110436,
                49.29161201489088
            ],
            [
                -122.97493024338152,
                49.29166229194938
            ],
            [
                -122.97496057286494,
                49.2916903495018
            ],
            [
                -122.97490110226829,
                49.29166997743907
            ],
            [
                -122.97493721733039,
                49.29171317690194
            ],
            [
                -122.97492044674964,
                49.29166347296234
            ],
            [
                -122.97492020099924,
                49.29170449455849
            ],
            [
                -122.9748946106807,
                49.29168458390979
            ],
            [
                -122.97493900338418,
                49.29168779191012
            ],
            [
                -122.97882390229051,
                49.29596686031458
            ],
            [
                -122.99487304960124,
                49.296230594686975
            ],
            [
                -123.01248961214154,
                49.29513239048589
            ],
            [
                -123.03437717711572,
                49.295445358461414
            ],
            [
                -123.05858284653911,
                49.29650547613923
            ],
            [
                -123.07662160790814,
                49.297746913926375
            ],
            [
                -123.09408767475931,
                49.30121178387309
            ],
            [
                -123.11533665758635,
                49.30421951051936
            ],
            [
                -123.12672172759173,
                49.310045294706136
            ],
            [
                -123.14342823336955,
                49.3170027753753
            ],
            [
                -123.16553774389115,
                49.320594813697895
            ],
            [
                -123.18303859739288,
                49.32284694894181
            ],
            [
                -123.19791866567103,
                49.32431654156984
            ],
            [
                -123.21325655305903,
                49.324025763085125
            ],
            [
                -123.2286384343034,
                49.32356932358185
            ],
            [
                -123.24394225281578,
                49.322012793488646
            ],
            [
                -123.25817386701902,
                49.320468873248075
            ],
            [
                -123.27213562281736,
                49.31893998210242
            ],
            [
                -123.28641863425922,
                49.31739095765271
            ],
            [
                -123.30034467380655,
                49.31561908411926
            ],
            [
                -123.31471665251942,
                49.31354673092467
            ],
            [
                -123.32991014155049,
                49.31098653887654
            ],
            [
                -123.34606866362354,
                49.307801942366375
            ],
            [
                -123.3622368461296,
                49.304790680208725
            ],
            [
                -123.37825327533594,
                49.30179295177409
            ],
            [
                -123.39580899987214,
                49.298839984396324
            ],
            [
                -123.41319911526783,
                49.29665927245467
            ],
            [
                -123.4303886752477,
                49.29480036541257
            ],
            [
                -123.44670866810016,
                49.292984043516185
            ],
            [
                -123.462536216133,
                49.29138689088694
            ],
            [
                -123.47867559797965,
                49.28976686832301
            ],
            [
                -123.49484855867638,
                49.28870091170138
            ],
            [
                -123.50963075934584,
                49.28674080498387
            ],
            [
                -123.52405215184486,
                49.284355330477226
            ],
            [
                -123.53804726461996,
                49.28180647459572
            ],
            [
                -123.55168460819868,
                49.2796794935323
            ],
            [
                -123.56484,
                49.27761
            ]
        ]
    },
    "properties": {
        "trajectory_id": 1826,
        "object_id": 316038089,
        "label": "TUG"
    }
}