{
    "type": "Feature",
    "geometry": {
        "type": "LineString",
        "coordinates": [
            [
                -122.66414,
                49.19984
            ],
            [
                -122.66417057824832,
                49.19983944895437
            ],
            [
                -122.66413571295605,
                49.199842829219165
            ],
            [
                -122.66414883359406,
                49.1998396442038
            ],
            [
                -122.66414991579322,
                49.19983985098312
            ],
            [
                -122.66413959385268,
                49.19984021331145
            ],
            [
                -122.66413973399197,
                49.199839992880975
            ],
            [
                -122.6641416994409,
                49.19984001984064
            ],
            [
                -122.66414217572456,
                49.199841486421214
            ],
            [
                -122.66412464012704,
                49.19984012713264
            ],
            [
                -122.6641200710603,
                49.199839709815286
            ],
            [
                -122.6641202453961,
                49.19983993263404
            ],
            [
                -122.6641402115727,
                49.19984000095016
            ],
            [
                -122.6641455751789,
                49.199850650167434
            ],
            [
                -122.66415134617176,
                49.19985101168387
            ],
            [
                -122.66415065365527,
                49.19984973678409
            ],
            [
                -122.66412025119898,
                49.19984986487714
            ],
            [
                -122.66412817454416,
                49.19983976825724
            ],
            [
                -122.66414982400296,
                49.199849909858706
            ],
            [
                -122.6641508351452,
                49.19984890046385
            ],
            [
                -122.6641294152427,
                49.19985004437169
            ],
            [
                -122.66411164805412,
                49.19985432606956
            ],
            [
                -122.66413946663465,
                49.19983995309309
            ],
            [
                -122.6641520026011,
                49.199838263086804
            ],
            [
                -122.66415020629339,
                49.199850011177965
            ],
            [
                -122.66414729618415,
                49.19983983453082
            ],
            [
                -122.66412996877966,
                49.19985002403658
            ],
            [
                -122.66413986936767,
                49.19983002179134
            ],
            [
                -122.66413120002645,
                49.19984604549902
            ],
            [
                -122.66414597529224,
                49.199840932009096
            ],
            [
                -122.66415015543568,
                49.1998397888387
            ],
            [
                -122.66414997556691,
                49.19984975301936
            ],
            [
                -122.66415016476004,
                49.19983957448863
            ],
            [
                -122.66414985423825,
                49.199848067124066
            ],
            [
                -122.66412943491608,
                49.19984015829744
            ],
            [
                -122.66412369347421,
                49.19985221123322
            ],
            [
                -122.66411993616511,
                49.199849063331186
            ],
            [
                -122.66413748162235,
                49.19985147529999
            ],
            [
                -122.6641427137987,
                49.199849687617295
            ],
            [
                -122.66412502415548,
                49.19984163391
            ],
            [
                -122.66414345893665,
                49.199838377120116
            ],
            [
                -122.66414873564182,
                49.199840628956096
            ],
            [
                -122.66411754579751,
                49.19985180065134
            ],
            [
                -122.6641465247729,
                49.199838878360175
            ],
            [
                -122.66411915801234,
                49.19984952226722
            ],
            [
                -122.66414846773414,
                49.199850416876146
            ],
            [
                -122.66413754982432,
                49.19984302562685
            ],
            [
                -122.66413978654535,
                49.19984419215728
            ],
            [
                -122.66411715943069,
                49.19984950904537
            ],
            [
                -122.66415219593306,
                49.19984003553824
            ],
            [
                -122.6641184398533,
                49.19983999440604
            ],
            [
                -122.66415431369114,
                49.19984786462863
            ],
            [
                -122.66413406332539,
                49.1998400180469
            ],
            [
                -122.66415035550163,
                49.199840158584266
            ],
            [
                -122.66414999367395,
                49.19985006619223
            ],
            [
                -122.66414978405686,
                49.199860452775354
            ],
            [
                -122.66415348459736,
                49.199850199546916
            ],
            [
                -122.66414274957413,
                49.19984803631334
            ],
            [
                -122.6641190796408,
                49.19985111588515
            ],
            [
                -122.66415384400503,
                49.199863013337406
            ],
            [
                -122.66414810309465,
                49.19986110917779
            ],
            [
                -122.66415053715659,
                49.199852662534276
            ],
            [
                -122.66413073197873,
                49.19983869110038
            ],
            [
                -122.66413024992833,
                49.19984013251538
            ],
            [
                -122.66410789425458,
                49.19984645191877
            ],
            [
                -122.6641295889913,
                49.1998493800114
            ],
            [
                -122.66413379905211,
                49.19984275952
            ],
            [
                -122.66411938144077,
                49.1998499586615
            ],
            [
                -122.66412975503043,
                49.199840376119525
            ],
            [
                -122.66413992820246,
                49.199859291444994
            ],
            [
                -122.66412021377278,
                49.19985052228871
            ],
            [
                -122.66412769455721,
                49.19985986809084
            ],
            [
                -122.66412940007419,
                49.19984873885848
            ],
            [
                -122.66415105007607,
                49.1998496476408
            ],
            [
                -122.66412992784205,
                49.199861140299944
            ],
            [
                -122.66414161125452,
                49.19986290575173
            ],
            [
                -122.66414546348109,
                49.19985882984854
            ],
            [
                -122.6641305520192,
                49.19985860888951
            ],
            [
                -122.66414829625371,
                49.199850271366834
            ],
            [
                -122.66414,
                49.19985
            ]
        ]
    },
    "properties": {
        "trajectory_id": 1829,
        "object_id": 316038834,
        "label": "TUG"
    }
}