{
    "type": "Feature",
    "geometry": {
        "type": "LineString",
        "coordinates": [
            [
                -123.06087,
                49.29049
            ],
            [
                -123.06086644216596,
                49.29051072229177
            ],
            [
                -123.06087168373641,
                49.29047754143969
            ],
            [
                -123.0608646814934,
                49.290499117410334
            ],
            [
                -123.06087879198235,
                49.29049918181884
            ],
            [
                -123.06086506060393,
                49.29048429871181
            ],
            [
                -123.06085514377645,
                49.29049808167931
            ],
            [
                -123.06085975258068,
                49.29050866637133
            ],
            [
                -123.0608801604231,
                49.2904841846656
            ],
            [
                -123.06087900101713,
                49.29050876854676
            ],
            [
                -123.05886719811468,
                49.29251264726815
            ],
            [
                -123.03361165668865,
                49.29384368912913
            ],
            [
                -122.9928548222647,
                49.29659529975873
            ],
            [
                -122.95733999082461,
                49.2970482118317
            ],
            [
                -122.93685413927881,
                49.29862184341627
            ],
            [
                -122.95222666009973,
                49.295871649107404
            ],
            [
                -122.96013605404369,
                49.2919202096724
            ],
            [
                -122.95754294137612,
                49.291241387355946
            ],
            [
                -122.9548762082864,
                49.29072737701271
            ],
            [
                -122.95466856168518,
                49.29072005459546
            ],
            [
                -122.95465738370322,
                49.290708632014585
            ],
            [
                -122.95465176441365,
                49.29071448055597
            ],
            [
                -122.9546626653481,
                49.29071971156512
            ],
            [
                -122.95464946635849,
                49.29075541098844
            ],
            [
                -122.95467252269397,
                49.29072731407716
            ],
            [
                -122.95467485053628,
                49.29071877769321
            ],
            [
                -122.96744529231758,
                49.29390485505608
            ],
            [
                -123.00198752239125,
                49.29416218109928
            ],
            [
                -123.03617873991588,
                49.29392753046671
            ],
            [
                -123.06123024058678,
                49.29044218317423
            ],
            [
                -123.06084570691038,
                49.290562498301895
            ],
            [
                -123.06086863230587,
                49.29050474670476
            ],
            [
                -123.06087901141223,
                49.29049531746424
            ],
            [
                -123.06088073378402,
                49.290479689415946
            ],
            [
                -123.06086931840123,
                49.29049961119207
            ],
            [
                -123.06087524828104,
                49.29047310957849
            ],
            [
                -123.06087111900955,
                49.290490246938205
            ],
            [
                -123.06087130847207,
                49.29049535828533
            ],
            [
                -123.06088315700606,
                49.29048160365206
            ],
            [
                -123.06086049828691,
                49.29047785552882
            ],
            [
                -123.06088004400834,
                49.29049009072872
            ],
            [
                -123.06085107113141,
                49.29047008583556
            ],
            [
                -123.06089352825042,
                49.29048290808274
            ],
            [
                -123.06087017313362,
                49.29048027778272
            ],
            [
                -123.060864736349,
                49.29048955508425
            ],
            [
                -123.06087900058414,
                49.290488630723054
            ],
            [
                -123.0608748377192,
                49.29050037492913
            ],
            [
                -123.0608600283151,
                49.29050996889663
            ],
            [
                -123.06086538723407,
                49.29046984510737
            ],
            [
                -123.06086796801097,
                49.29049851592094
            ],
            [
                -123.06087205966051,
                49.290475833844496
            ],
            [
                -123.06087660861635,
                49.2904911963603
            ],
            [
                -123.06086987709274,
                49.29049162010297
            ],
            [
                -123.06084991903832,
                49.290488342102876
            ],
            [
                -123.06087070567968,
                49.29049204754117
            ],
            [
                -123.06085546961886,
                49.29049307205221
            ],
            [
                -123.0608705164641,
                49.29048919295413
            ],
            [
                -123.06086039379143,
                49.290488902164164
            ],
            [
                -123.0608683668331,
                49.29048722528855
            ],
            [
                -123.06086044830712,
                49.290489105190034
            ],
            [
                -123.06085949102123,
                49.290499725115446
            ],
            [
                -123.06086877312327,
                49.29048989641209
            ],
            [
                -123.06087428262136,
                49.29049110393089
            ],
            [
                -123.06086874548495,
                49.290501407981104
            ],
            [
                -123.06087107472887,
                49.2904993941147
            ],
            [
                -123.0608681215563,
                49.29049631024801
            ],
            [
                -123.06085215621574,
                49.29050298276276
            ],
            [
                -123.06085874858114,
                49.29049045050159
            ],
            [
                -123.06086909867531,
                49.29049066827029
            ],
            [
                -123.06088004012031,
                49.290478964162354
            ],
            [
                -123.0608848808456,
                49.2904935664447
            ],
            [
                -123.06086960587727,
                49.29048468809834
            ],
            [
                -123.06084714573487,
                49.29047233125837
            ],
            [
                -123.0608895344771,
                49.29049983650135
            ],
            [
                -123.06086834130191,
                49.29047943897584
            ],
            [
                -123.0608880975635,
                49.290489800798404
            ],
            [
                -123.06087730594054,
                49.29049461405122
            ],
            [
                -123.06088030030294,
                49.29048897767382
            ],
            [
                -123.06086341482776,
                49.290484260301575
            ],
            [
                -123.06087,
                49.29049
            ]
        ]
    },
    "properties": {
        "trajectory_id": 183,
        "object_id": 316001104,
        "label": "TUG"
    }
}