{
    "type": "Feature",
    "geometry": {
        "type": "LineString",
        "coordinates": [
            [
                -122.89855,
                49.29011
            ],
            [
                -122.89856399121662,
                49.29010670992043
            ],
            [
                -122.89854023279459,
                49.29011817973457
            ],
            [
                -122.89852901801525,
                49.290096205237326
            ],
            [
                -122.8985414772778,
                49.29009396364667
            ],
            [
                -122.89853437904365,
                49.29009270447645
            ],
            [
                -122.8985712055385,
                49.290120822701546
            ],
            [
                -122.89853923538327,
                49.290118819308994
            ],
            [
                -122.89853787054452,
                49.290090640979166
            ],
            [
                -122.89853004824725,
                49.29009169930721
            ],
            [
                -122.89852094125936,
                49.29009002903016
            ],
            [
                -122.89855680714001,
                49.290099859574894
            ],
            [
                -122.898521584037,
                49.29011026593155
            ],
            [
                -122.89850125678853,
                49.29011125650276
            ],
            [
                -122.89852864569582,
                49.29012016358517
            ],
            [
                -122.89851116386805,
                49.29012111850845
            ],
            [
                -122.89854840947628,
                49.290111777046995
            ],
            [
                -122.89854001809218,
                49.290110006888966
            ],
            [
                -122.89850962722308,
                49.29008093138613
            ],
            [
                -122.8978577887682,
                49.291479901634496
            ],
            [
                -122.92531125612221,
                49.29356332496934
            ],
            [
                -122.95743531386151,
                49.29624367687287
            ],
            [
                -122.97584740286159,
                49.294756633440734
            ],
            [
                -122.97462751933887,
                49.29200483006937
            ],
            [
                -122.97450753183807,
                49.29204683024907
            ],
            [
                -122.9745694374057,
                49.29203887423307
            ],
            [
                -122.97450915064384,
                49.29205875713639
            ],
            [
                -122.9745398111068,
                49.29207069048441
            ],
            [
                -122.97455937402322,
                49.29203452582325
            ],
            [
                -122.97452991266594,
                49.29205006574156
            ],
            [
                -122.97457772427113,
                49.292020105603875
            ],
            [
                -122.97458805533938,
                49.29202553220325
            ],
            [
                -122.97458220546093,
                49.292034718553246
            ],
            [
                -122.97462237856938,
                49.29201910763518
            ],
            [
                -122.97455995694743,
                49.292079726613515
            ],
            [
                -122.97463148850005,
                49.292031674460574
            ],
            [
                -122.97458513269751,
                49.29203297394175
            ],
            [
                -122.97455997631717,
                49.29204001767733
            ],
            [
                -122.97461883281086,
                49.2920272953954
            ],
            [
                -122.97461457626706,
                49.29203111153307
            ],
            [
                -122.97460518225267,
                49.29198932869382
            ],
            [
                -122.97459641567968,
                49.292055465777004
            ],
            [
                -122.97462008605187,
                49.29198195029219
            ],
            [
                -122.97462702377942,
                49.2920155231433
            ],
            [
                -122.97464514251594,
                49.291957444756164
            ],
            [
                -122.97464986900727,
                49.29199011453643
            ],
            [
                -122.9746138239466,
                49.29198192274859
            ],
            [
                -122.97462246429957,
                49.292032300425475
            ],
            [
                -122.97460869705729,
                49.292054966826115
            ],
            [
                -122.97469127524103,
                49.292009440626124
            ],
            [
                -122.9750168967608,
                49.29364945254324
            ],
            [
                -122.99915769500495,
                49.29586887969264
            ],
            [
                -123.03312266606954,
                49.29462023380303
            ],
            [
                -123.06536719918198,
                49.29744060436614
            ],
            [
                -123.0913296897084,
                49.299756918196515
            ],
            [
                -123.11334467187056,
                49.304946156192905
            ],
            [
                -123.13458699905866,
                49.31369482319128
            ],
            [
                -123.16012463516566,
                49.31951528370635
            ],
            [
                -123.18649261722767,
                49.32293933693627
            ],
            [
                -123.21152056733747,
                49.324510006581534
            ],
            [
                -123.23485195558398,
                49.323957612877535
            ],
            [
                -123.25676962559156,
                49.322067759973784
            ],
            [
                -123.27726721282995,
                49.31910691531103
            ],
            [
                -123.29745711210852,
                49.31561448809904
            ],
            [
                -123.31761841817885,
                49.31239600117871
            ],
            [
                -123.33844637445576,
                49.30937806238639
            ],
            [
                -123.36075352165162,
                49.306958164340244
            ],
            [
                -123.38410154593441,
                49.30409762878542
            ],
            [
                -123.40615930832757,
                49.30147322821174
            ],
            [
                -123.42704990357454,
                49.29895344885958
            ],
            [
                -123.44779994688531,
                49.29670360625592
            ],
            [
                -123.46776936889853,
                49.29334029776259
            ],
            [
                -123.48692835657049,
                49.28963960775476
            ],
            [
                -123.50543750847774,
                49.28594205133636
            ],
            [
                -123.52417684745413,
                49.28222598049674
            ],
            [
                -123.5411261120509,
                49.27895721232827
            ],
            [
                -123.55756541016721,
                49.27613192005161
            ],
            [
                -123.57427245947534,
                49.27367322299251
            ],
            [
                -123.5913452718287,
                49.271307112004926
            ],
            [
                -123.60852,
                49.26927
            ]
        ]
    },
    "properties": {
        "trajectory_id": 1843,
        "object_id": 316039153,
        "label": "TUG"
    }
}