{
    "type": "Feature",
    "geometry": {
        "type": "LineString",
        "coordinates": [
            [
                -123.44927,
                48.65238
            ],
            [
                -123.44927000368065,
                48.652379849495055
            ],
            [
                -123.44926868830706,
                48.65238010356085
            ],
            [
                -123.44926999923518,
                48.652380004412066
            ],
            [
                -123.44926087998846,
                48.65236996374252
            ],
            [
                -123.44926998260145,
                48.65236999999798
            ],
            [
                -123.44926999999981,
                48.65236999999998
            ],
            [
                -123.44927,
                48.65237
            ],
            [
                -123.44927000000199,
                48.65237
            ],
            [
                -123.44927007073244,
                48.65236999999998
            ],
            [
                -123.4492599960924,
                48.65236999999999
            ],
            [
                -123.4492600272232,
                48.65237000010664
            ],
            [
                -123.4492599168283,
                48.65237009891637
            ],
            [
                -123.449260000039,
                48.65238000015955
            ],
            [
                -123.44925999999992,
                48.652376066153224
            ],
            [
                -123.44925999861309,
                48.65237001330581
            ],
            [
                -123.44926980521785,
                48.652374225595025
            ],
            [
                -123.44925962488082,
                48.65237042031162
            ],
            [
                -123.44926999934455,
                48.65236999395684
            ],
            [
                -123.44925818494197,
                48.65236999999981
            ],
            [
                -123.4492699989027,
                48.65236999999999
            ],
            [
                -123.44926999999998,
                48.65236999981604
            ],
            [
                -123.44927000000003,
                48.652381095342946
            ],
            [
                -123.44927000000001,
                48.65236999625196
            ],
            [
                -123.44927000000001,
                48.652369134810016
            ],
            [
                -123.44927,
                48.652369999973246
            ],
            [
                -123.44926999999997,
                48.65236999999999
            ],
            [
                -123.44926999999996,
                48.65236999999999
            ],
            [
                -123.44927000000001,
                48.65237
            ],
            [
                -123.44926999999998,
                48.65236999999988
            ],
            [
                -123.44926999999998,
                48.65236999744424
            ],
            [
                -123.44927,
                48.6523702895841
            ],
            [
                -123.44927000000003,
                48.65237000008776
            ],
            [
                -123.44927000000001,
                48.6523699999999
            ],
            [
                -123.44926999999998,
                48.65237000063268
            ],
            [
                -123.44927000000001,
                48.65236965471844
            ],
            [
                -123.44927,
                48.65236999996202
            ],
            [
                -123.44926999999998,
                48.652370000001014
            ],
            [
                -123.44927000000001,
                48.652369895932814
            ],
            [
                -123.44926999999998,
                48.65237863259674
            ],
            [
                -123.44926999999998,
                48.65237355021238
            ],
            [
                -123.44927000000001,
                48.65237000308011
            ],
            [
                -123.44927000000001,
                48.65236880138261
            ],
            [
                -123.44927000000001,
                48.65236999996092
            ],
            [
                -123.44926999999998,
                48.65237
            ],
            [
                -123.44927,
                48.65236999999988
            ],
            [
                -123.44927,
                48.65236999903283
            ],
            [
                -123.44926999999998,
                48.65236915259719
            ],
            [
                -123.44927000000003,
                48.65237000179307
            ],
            [
                -123.44926999999998,
                48.65236999983455
            ],
            [
                -123.44927000000003,
                48.65237300271295
            ],
            [
                -123.44927,
                48.65237023167853
            ],
            [
                -123.44926999999997,
                48.65237000000999
            ],
            [
                -123.44927000000001,
                48.65237000004566
            ],
            [
                -123.44927000000001,
                48.652369758036656
            ],
            [
                -123.44927000000001,
                48.652371339372934
            ],
            [
                -123.44927000000003,
                48.65238002088556
            ],
            [
                -123.44927000000015,
                48.65238010092277
            ],
            [
                -123.44927000482669,
                48.65237017982902
            ],
            [
                -123.44925993195059,
                48.6523700000037
            ],
            [
                -123.44925999999842,
                48.6523709725278
            ],
            [
                -123.44925997726276,
                48.65236872513906
            ],
            [
                -123.44926044985512,
                48.652369999230324
            ],
            [
                -123.44927000028018,
                48.65236999999997
            ],
            [
                -123.44926999809142,
                48.65236999999999
            ],
            [
                -123.44927129817903,
                48.65237
            ],
            [
                -123.44927000003253,
                48.65236999997889
            ],
            [
                -123.44927,
                48.65236946545916
            ],
            [
                -123.44926999999998,
                48.65237999929018
            ],
            [
                -123.44926999999997,
                48.652379999999965
            ],
            [
                -123.44926999999994,
                48.65238
            ],
            [
                -123.4492699999837,
                48.652379999999994
            ],
            [
                -123.44926096241157,
                48.652379999999994
            ],
            [
                -123.44925928691272,
                48.65237999999975
            ],
            [
                -123.44926000120704,
                48.652379989490186
            ],
            [
                -123.44926000000002,
                48.65237001646821
            ],
            [
                -123.44925999999998,
                48.65237000002848
            ],
            [
                -123.44926,
                48.65237980002381
            ],
            [
                -123.44926000000001,
                48.65237999999281
            ],
            [
                -123.44926,
                48.65238
            ]
        ]
    },
    "properties": {
        "trajectory_id": 1881,
        "object_id": 316041898,
        "label": "SEARCH AND RESCUE"
    }
}