{
    "type": "Feature",
    "geometry": {
        "type": "LineString",
        "coordinates": [
            [
                -123.44926,
                48.65238
            ],
            [
                -123.44926000308851,
                48.65237999978638
            ],
            [
                -123.44927588866122,
                48.652378815221226
            ],
            [
                -123.44930972033137,
                48.65237569967402
            ],
            [
                -123.44932666496234,
                48.6523722651217
            ],
            [
                -123.44929167661317,
                48.652370137929296
            ],
            [
                -123.44927038269047,
                48.65237000000137
            ],
            [
                -123.44926001107,
                48.652369999666625
            ],
            [
                -123.4492604095438,
                48.65237971122285
            ],
            [
                -123.44927000038392,
                48.65237999857422
            ],
            [
                -123.44927093740124,
                48.65237999999995
            ],
            [
                -123.449270005625,
                48.65238
            ],
            [
                -123.44927000000031,
                48.65238
            ],
            [
                -123.44927000000001,
                48.65238
            ],
            [
                -123.44927,
                48.65238
            ],
            [
                -123.44927000000138,
                48.65237999999999
            ],
            [
                -123.44926991020893,
                48.65238000141648
            ],
            [
                -123.44925993372743,
                48.65238002079593
            ],
            [
                -123.44926999813659,
                48.652370399003516
            ],
            [
                -123.44927135137429,
                48.65237001775828
            ],
            [
                -123.44926978190239,
                48.6523700000001
            ],
            [
                -123.4492603950229,
                48.65236999990355
            ],
            [
                -123.4492700032862,
                48.65238016653623
            ],
            [
                -123.4492665341472,
                48.65238000003423
            ],
            [
                -123.44926000007433,
                48.6523799992199
            ],
            [
                -123.44926000000002,
                48.65237862121497
            ],
            [
                -123.44926000129763,
                48.65237000123797
            ],
            [
                -123.44925981415027,
                48.652370000000005
            ],
            [
                -123.44926000082053,
                48.652370000000005
            ],
            [
                -123.44927082764158,
                48.65236999999999
            ],
            [
                -123.449269768185,
                48.65237
            ],
            [
                -123.44927000002747,
                48.65237
            ],
            [
                -123.44926999999996,
                48.65236999999998
            ],
            [
                -123.44927000000003,
                48.65237000000001
            ],
            [
                -123.44926999999998,
                48.65236999999999
            ],
            [
                -123.44927000000115,
                48.65237
            ],
            [
                -123.44927007745933,
                48.652370000000005
            ],
            [
                -123.4492690359696,
                48.65237
            ],
            [
                -123.44927000062206,
                48.652370000000005
            ],
            [
                -123.44926999999979,
                48.652370000000005
            ],
            [
                -123.44927000000001,
                48.65237
            ],
            [
                -123.44927,
                48.65237
            ],
            [
                -123.44927,
                48.65237
            ],
            [
                -123.44927,
                48.65236999999999
            ],
            [
                -123.44927000000003,
                48.65237
            ],
            [
                -123.44927,
                48.65237
            ],
            [
                -123.44926999999997,
                48.65236999999999
            ],
            [
                -123.4492700000002,
                48.65237
            ],
            [
                -123.44927000590982,
                48.65236999969818
            ],
            [
                -123.4492703971253,
                48.652379665756655
            ],
            [
                -123.44926991425554,
                48.65237008562972
            ],
            [
                -123.44927000002775,
                48.65236999997229
            ],
            [
                -123.44926999999997,
                48.65236999999998
            ],
            [
                -123.44927000000006,
                48.65237
            ],
            [
                -123.44927000000001,
                48.65237
            ],
            [
                -123.44927000000001,
                48.65237
            ],
            [
                -123.44927000000001,
                48.65237
            ],
            [
                -123.44927000000001,
                48.65237000000001
            ],
            [
                -123.44926999999986,
                48.65237
            ],
            [
                -123.44926999828144,
                48.65237
            ],
            [
                -123.44927014569687,
                48.65237
            ],
            [
                -123.44927784669657,
                48.65237
            ],
            [
                -123.44927999990367,
                48.65236999999999
            ],
            [
                -123.44927999999997,
                48.65236999999999
            ],
            [
                -123.44928,
                48.652370000000005
            ],
            [
                -123.44927999981732,
                48.65237
            ],
            [
                -123.44926605241353,
                48.65237
            ],
            [
                -123.44926999989718,
                48.65237000000001
            ],
            [
                -123.44927000000001,
                48.652370000000005
            ],
            [
                -123.44927,
                48.65237
            ],
            [
                -123.44927,
                48.65237
            ],
            [
                -123.44926999999997,
                48.652370000000005
            ],
            [
                -123.44927000626338,
                48.65236999999999
            ],
            [
                -123.44926971451676,
                48.652370000000005
            ],
            [
                -123.44926999999265,
                48.65236999999998
            ],
            [
                -123.44927000000001,
                48.652370000000005
            ],
            [
                -123.44926999999998,
                48.65237
            ],
            [
                -123.44927,
                48.65237
            ],
            [
                -123.44926999999998,
                48.65236999999998
            ],
            [
                -123.44927,
                48.65237
            ]
        ]
    },
    "properties": {
        "trajectory_id": 1884,
        "object_id": 316041898,
        "label": "SEARCH AND RESCUE"
    }
}