{
    "type": "Feature",
    "geometry": {
        "type": "LineString",
        "coordinates": [
            [
                -123.08362,
                49.2903
            ],
            [
                -123.09283936175234,
                49.28868237678027
            ],
            [
                -123.09281875917479,
                49.2887614572519
            ],
            [
                -123.09274214821156,
                49.28878084108777
            ],
            [
                -123.09296768703699,
                49.28884410903031
            ],
            [
                -123.09276473342284,
                49.28909392282086
            ],
            [
                -123.0950865531864,
                49.29009379520017
            ],
            [
                -123.09188564153125,
                49.293842792289
            ],
            [
                -123.06598931044194,
                49.29119673452284
            ],
            [
                -123.06087238491874,
                49.29050797514944
            ],
            [
                -123.06086924839364,
                49.290499445590015
            ],
            [
                -123.06085526685467,
                49.29049951819966
            ],
            [
                -123.06086905357759,
                49.290500400249044
            ],
            [
                -123.06086789373602,
                49.290487894090326
            ],
            [
                -123.0608850102229,
                49.29049088562079
            ],
            [
                -123.06085935051397,
                49.29047963659082
            ],
            [
                -123.06087614674492,
                49.29050217321469
            ],
            [
                -123.06086623039413,
                49.290498264023356
            ],
            [
                -123.06088471561795,
                49.29051216417196
            ],
            [
                -123.0608898206182,
                49.290499997889086
            ],
            [
                -123.06088608798304,
                49.29048963635733
            ],
            [
                -123.06088081292704,
                49.290499526408546
            ],
            [
                -123.06087584569434,
                49.29050596611146
            ],
            [
                -123.0608580379366,
                49.290501143685894
            ],
            [
                -123.0608693155092,
                49.290487903018466
            ],
            [
                -123.06087525611488,
                49.29049901581127
            ],
            [
                -123.06088002046457,
                49.29049889101787
            ],
            [
                -123.06085317385799,
                49.2904989125895
            ],
            [
                -123.06088869859667,
                49.290490540802935
            ],
            [
                -123.06086314366684,
                49.29048821067129
            ],
            [
                -123.06085966151862,
                49.290545286547825
            ],
            [
                -123.06086944865059,
                49.29048192824534
            ],
            [
                -123.06084625780615,
                49.29049964541534
            ],
            [
                -123.06087957811391,
                49.29049017770055
            ],
            [
                -123.06087434293981,
                49.290501277616215
            ],
            [
                -123.06087930203833,
                49.290491030770575
            ],
            [
                -123.0608797113123,
                49.2904995847197
            ],
            [
                -123.06085063825125,
                49.290480568290754
            ],
            [
                -123.06087116687955,
                49.29049214434598
            ],
            [
                -123.06088076694967,
                49.290491900381525
            ],
            [
                -123.06088999007434,
                49.29050999600271
            ],
            [
                -123.06087284988882,
                49.29050409624479
            ],
            [
                -123.06088555806542,
                49.290509935204774
            ],
            [
                -123.06089329927076,
                49.290506070695564
            ],
            [
                -123.0608811106809,
                49.290509766452644
            ],
            [
                -123.06088798152108,
                49.290485556627715
            ],
            [
                -123.06086073152873,
                49.290490308930984
            ],
            [
                -123.06088991504569,
                49.29048987746959
            ],
            [
                -123.06088628704818,
                49.29050320134191
            ],
            [
                -123.06086043906723,
                49.29048871172911
            ],
            [
                -123.06087503560197,
                49.29049123317994
            ],
            [
                -123.06088166053512,
                49.2905049207903
            ],
            [
                -123.06085703542422,
                49.29048068029856
            ],
            [
                -123.06085872153785,
                49.29049907588972
            ],
            [
                -123.06088020495255,
                49.290519301307256
            ],
            [
                -123.06085468020942,
                49.29047498137193
            ],
            [
                -123.06089197189024,
                49.29052111323468
            ],
            [
                -123.06088975410978,
                49.29050039893372
            ],
            [
                -123.06085905572614,
                49.290511748345985
            ],
            [
                -123.06087220318976,
                49.29051108098729
            ],
            [
                -123.0608882163916,
                49.29050457044577
            ],
            [
                -123.06085541995951,
                49.29047847074899
            ],
            [
                -123.06089082943063,
                49.29051178871856
            ],
            [
                -123.06088166628936,
                49.290497949860914
            ],
            [
                -123.06083744486874,
                49.29048047768919
            ],
            [
                -123.06089682328798,
                49.29049547451129
            ],
            [
                -123.06087682233678,
                49.290494147195616
            ],
            [
                -123.06087667696131,
                49.290491553903166
            ],
            [
                -123.06087807101613,
                49.290490670929415
            ],
            [
                -123.06088161035045,
                49.29049913512778
            ],
            [
                -123.06087019014383,
                49.29050067153558
            ],
            [
                -123.0608870842891,
                49.29048732610115
            ],
            [
                -123.0609006053708,
                49.290490672394434
            ],
            [
                -123.06088383235654,
                49.29050824358671
            ],
            [
                -123.06089035240723,
                49.29052394645518
            ],
            [
                -123.06085834670971,
                49.29050926310406
            ],
            [
                -123.0608592214251,
                49.290501567323545
            ],
            [
                -123.06086537878004,
                49.29050169570695
            ],
            [
                -123.06090426048534,
                49.290533141585996
            ],
            [
                -123.06091,
                49.29053
            ]
        ]
    },
    "properties": {
        "trajectory_id": 189,
        "object_id": 316001104,
        "label": "TUG"
    }
}