{
    "type": "Feature",
    "geometry": {
        "type": "LineString",
        "coordinates": [
            [
                -123.08356,
                49.30964
            ],
            [
                -123.1022184984867,
                49.2953463794239
            ],
            [
                -123.1086337397346,
                49.2869818639225
            ],
            [
                -123.08464332323167,
                49.30870182904205
            ],
            [
                -123.09544220844427,
                49.30618967943916
            ],
            [
                -123.10914261566646,
                49.28680036024591
            ],
            [
                -123.0893615123739,
                49.304196776771676
            ],
            [
                -123.08482670743363,
                49.308373123745575
            ],
            [
                -123.10916125684516,
                49.28681412508309
            ],
            [
                -123.09551632938482,
                49.29634160749382
            ],
            [
                -123.08361057375683,
                49.30958682984864
            ],
            [
                -123.1046953601101,
                49.29197269622051
            ],
            [
                -123.10362169519047,
                49.290091852324366
            ],
            [
                -123.0837877221656,
                49.30942359603593
            ],
            [
                -123.09899690830873,
                49.297941026916824
            ],
            [
                -123.10938979461265,
                49.28670318901282
            ],
            [
                -123.08498624623505,
                49.30823177583301
            ],
            [
                -123.08585277499648,
                49.30737223800162
            ],
            [
                -123.1090459313798,
                49.28683320193626
            ],
            [
                -123.09300668958814,
                49.29772741203173
            ],
            [
                -123.08356537064884,
                49.309681572799214
            ],
            [
                -123.10548711755858,
                49.28895778330983
            ],
            [
                -123.10140940377381,
                49.292237475806814
            ],
            [
                -123.08353185202775,
                49.30967001235932
            ],
            [
                -123.10008611794787,
                49.295598359522295
            ],
            [
                -123.10887830964101,
                49.286898624782594
            ],
            [
                -123.08441217885891,
                49.30885164193676
            ],
            [
                -123.09527395047654,
                49.30588896069558
            ],
            [
                -123.10915642574933,
                49.286821057898436
            ],
            [
                -123.08987493532759,
                49.303709646577985
            ],
            [
                -123.08312372751412,
                49.309737339770635
            ],
            [
                -123.10730856332553,
                49.287658659591834
            ],
            [
                -123.09765231029371,
                49.29462290592072
            ],
            [
                -123.08356595978458,
                49.309597447041924
            ],
            [
                -123.10354136874118,
                49.29152197802397
            ],
            [
                -123.1054853796369,
                49.28903202910225
            ],
            [
                -123.08353560578043,
                49.30964860176348
            ],
            [
                -123.09519465582852,
                49.29851134235959
            ],
            [
                -123.10924965087844,
                49.28674979029052
            ],
            [
                -123.08481867489093,
                49.30837288421348
            ],
            [
                -123.08581288551417,
                49.30586282425802
            ],
            [
                -123.10890278670976,
                49.28688377719185
            ],
            [
                -123.10005600145982,
                49.299830807297155
            ],
            [
                -123.08381532704972,
                49.309531101581925
            ],
            [
                -123.10509086598634,
                49.29122152766791
            ],
            [
                -123.10212050211705,
                49.29131275365738
            ],
            [
                -123.08382350320497,
                49.309396474113115
            ],
            [
                -123.09501713312451,
                49.30024098820121
            ],
            [
                -123.10915432249914,
                49.28681278826352
            ],
            [
                -123.09739987267851,
                49.29483537158812
            ],
            [
                -123.08366113978431,
                49.309449067256296
            ],
            [
                -123.08447046506738,
                49.31072355791704
            ],
            [
                -123.08451336898318,
                49.31073880767153
            ],
            [
                -123.08450256919387,
                49.31069343573709
            ],
            [
                -123.08451016314238,
                49.31074650190338
            ],
            [
                -123.08452114767906,
                49.31078599034169
            ],
            [
                -123.08450305166333,
                49.310712483688114
            ],
            [
                -123.0845166869527,
                49.31073962495012
            ],
            [
                -123.0844637752882,
                49.310720696426145
            ],
            [
                -123.08451743493337,
                49.31072084902739
            ],
            [
                -123.08449441497791,
                49.31070281467515
            ],
            [
                -123.08453190082791,
                49.310681749162384
            ],
            [
                -123.08446941399403,
                49.310711411809386
            ],
            [
                -123.08451986644891,
                49.31073333237708
            ],
            [
                -123.08450099578297,
                49.31075541927596
            ],
            [
                -123.08455441543998,
                49.31075280428562
            ],
            [
                -123.08445576632515,
                49.31071182194692
            ],
            [
                -123.08440434759156,
                49.31071079182139
            ],
            [
                -123.08458810373824,
                49.31072991621962
            ],
            [
                -123.08441525205244,
                49.31069100978404
            ],
            [
                -123.08451086237315,
                49.31074339904947
            ],
            [
                -123.0845194673024,
                49.31071046040063
            ],
            [
                -123.08451138486463,
                49.31070997638252
            ],
            [
                -123.08449189892816,
                49.31072475805
            ],
            [
                -123.08455102252043,
                49.31074230626765
            ],
            [
                -123.0845408665715,
                49.31071839291146
            ],
            [
                -123.08447614114695,
                49.310742348586764
            ],
            [
                -123.0844864780753,
                49.31074903435892
            ],
            [
                -123.08450479574086,
                49.31072938052888
            ],
            [
                -123.08449,
                49.3107
            ]
        ]
    },
    "properties": {
        "trajectory_id": 1915,
        "object_id": 316042365,
        "label": "PASSENGER"
    }
}