{
    "type": "Feature",
    "geometry": {
        "type": "LineString",
        "coordinates": [
            [
                -123.39444,
                48.65382
            ],
            [
                -123.39440732207333,
                48.653812601737044
            ],
            [
                -123.39442079046137,
                48.65381963395021
            ],
            [
                -123.3943989187989,
                48.653821932550485
            ],
            [
                -123.39441241327988,
                48.65381950706369
            ],
            [
                -123.39441819757637,
                48.653821563790245
            ],
            [
                -123.39438400582031,
                48.653818985065726
            ],
            [
                -123.39439504602258,
                48.653822641372905
            ],
            [
                -123.3944186187044,
                48.65381906507276
            ],
            [
                -123.3944027253774,
                48.65381295749968
            ],
            [
                -123.39440706493731,
                48.65380745884368
            ],
            [
                -123.39440610959724,
                48.653817452469774
            ],
            [
                -123.39432983838199,
                48.653824071733276
            ],
            [
                -123.39438048241736,
                48.653808432794385
            ],
            [
                -123.39440723734548,
                48.65381739451621
            ],
            [
                -123.39440761218893,
                48.653820027267294
            ],
            [
                -123.3944046577127,
                48.653825951803064
            ],
            [
                -123.39442022927165,
                48.65382006639864
            ],
            [
                -123.39442860423071,
                48.65382251707648
            ],
            [
                -123.39441995720743,
                48.65382058620935
            ],
            [
                -123.39439714334594,
                48.65382895304522
            ],
            [
                -123.39441686962392,
                48.65382997784122
            ],
            [
                -123.39441238907199,
                48.653829240785115
            ],
            [
                -123.39444240861559,
                48.653824678004355
            ],
            [
                -123.39440996552764,
                48.6538353636451
            ],
            [
                -123.39441151655882,
                48.653827736896396
            ],
            [
                -123.39439898732961,
                48.653829802033606
            ],
            [
                -123.39442047153088,
                48.65381568186202
            ],
            [
                -123.39441052493815,
                48.653829500077116
            ],
            [
                -123.3943912715639,
                48.65382001975591
            ],
            [
                -123.39441030611391,
                48.653810154666765
            ],
            [
                -123.3943793246824,
                48.65381987802983
            ],
            [
                -123.39440067383185,
                48.65381013641161
            ],
            [
                -123.39441969338128,
                48.653819456437745
            ],
            [
                -123.39440921314107,
                48.65382059074396
            ],
            [
                -123.39443180314608,
                48.65382370814867
            ],
            [
                -123.39443062074533,
                48.653811953711106
            ],
            [
                -123.3944093291061,
                48.653820490623
            ],
            [
                -123.39441366284426,
                48.653816663889494
            ],
            [
                -123.39441058221583,
                48.65380883510696
            ],
            [
                -123.39443615173427,
                48.653823491904184
            ],
            [
                -123.39440728014038,
                48.65382006806199
            ],
            [
                -123.394418401107,
                48.65383038048013
            ],
            [
                -123.39441260586936,
                48.65382271251843
            ],
            [
                -123.39441155063844,
                48.653827650630724
            ],
            [
                -123.39441952334279,
                48.65382890255889
            ],
            [
                -123.39442175777408,
                48.653829629396455
            ],
            [
                -123.39440999201298,
                48.653830004818
            ],
            [
                -123.39442818286922,
                48.6538287864791
            ],
            [
                -123.39441953674601,
                48.6538203356055
            ],
            [
                -123.39441995283444,
                48.65381777956596
            ],
            [
                -123.39442874793875,
                48.653825669267846
            ],
            [
                -123.39441271768933,
                48.65382014172502
            ],
            [
                -123.39442871193242,
                48.65382915641393
            ],
            [
                -123.39442297826146,
                48.65382155855675
            ],
            [
                -123.3944111176786,
                48.6538396612649
            ],
            [
                -123.39438383859596,
                48.65385196937708
            ],
            [
                -123.39441198565879,
                48.65380954183227
            ],
            [
                -123.39441655339753,
                48.65381333672537
            ],
            [
                -123.39439408774209,
                48.65380050013871
            ],
            [
                -123.39443255800843,
                48.653818864350676
            ],
            [
                -123.39440017224732,
                48.653809988625426
            ],
            [
                -123.39441589527618,
                48.65380908019949
            ],
            [
                -123.39441330283799,
                48.65380860341997
            ],
            [
                -123.39441863754405,
                48.65381823442274
            ],
            [
                -123.39441459327455,
                48.65381002137141
            ],
            [
                -123.39440974456788,
                48.65380577345253
            ],
            [
                -123.39441866786316,
                48.65381039157472
            ],
            [
                -123.39439852440613,
                48.653800631745554
            ],
            [
                -123.39441001620497,
                48.65381297637204
            ],
            [
                -123.39439808987719,
                48.65381016385867
            ],
            [
                -123.39441544854193,
                48.65382044196074
            ],
            [
                -123.39442172889942,
                48.65382293622879
            ],
            [
                -123.39441771709585,
                48.65381936975204
            ],
            [
                -123.39441013638037,
                48.65381779102628
            ],
            [
                -123.3944178344623,
                48.65381833400115
            ],
            [
                -123.39441576249057,
                48.653821864051096
            ],
            [
                -123.39440933397923,
                48.6538195776435
            ],
            [
                -123.39441015823056,
                48.65382007606651
            ],
            [
                -123.39442,
                48.65382
            ]
        ]
    },
    "properties": {
        "trajectory_id": 1924,
        "object_id": 316042956,
        "label": "PLEASURE CRAFT"
    }
}