{
    "type": "Feature",
    "geometry": {
        "type": "LineString",
        "coordinates": [
            [
                -123.39443,
                48.65382
            ],
            [
                -123.39442929498227,
                48.65381872003243
            ],
            [
                -123.3944295734279,
                48.65381940076796
            ],
            [
                -123.3944201621552,
                48.653819878958984
            ],
            [
                -123.3944325139378,
                48.653820611662354
            ],
            [
                -123.39442996515322,
                48.653820985760944
            ],
            [
                -123.39435536280877,
                48.653797097628875
            ],
            [
                -123.39442875683618,
                48.65379996036255
            ],
            [
                -123.39442884553844,
                48.65379901250113
            ],
            [
                -123.39442994706553,
                48.653800120857326
            ],
            [
                -123.39442959782534,
                48.653800490302096
            ],
            [
                -123.39443098012791,
                48.65379953696846
            ],
            [
                -123.3944301663113,
                48.653800183621556
            ],
            [
                -123.39443828711536,
                48.65377217617257
            ],
            [
                -123.39441692244544,
                48.65380747437894
            ],
            [
                -123.39436726621635,
                48.65379305522699
            ],
            [
                -123.39438653449147,
                48.65381972669401
            ],
            [
                -123.39443032631613,
                48.653799673065016
            ],
            [
                -123.39440029671428,
                48.65381963782629
            ],
            [
                -123.39443002350875,
                48.65379999550643
            ],
            [
                -123.39443129120008,
                48.653796122630055
            ],
            [
                -123.39443005449135,
                48.65379964529636
            ],
            [
                -123.39443094768029,
                48.65379896961014
            ],
            [
                -123.39442060265927,
                48.65380998920546
            ],
            [
                -123.39443012248994,
                48.65380999201333
            ],
            [
                -123.39443161741917,
                48.65380963103013
            ],
            [
                -123.39443005145004,
                48.65380992258388
            ],
            [
                -123.39441941439566,
                48.65381002197565
            ],
            [
                -123.39441030792268,
                48.653821520467126
            ],
            [
                -123.39443333911548,
                48.65380255159641
            ],
            [
                -123.39438912249332,
                48.653823975509574
            ],
            [
                -123.39441024406264,
                48.65380976018022
            ],
            [
                -123.39440215837953,
                48.65382481599922
            ],
            [
                -123.39441006626075,
                48.65381034560768
            ],
            [
                -123.39440122201239,
                48.65381138529907
            ],
            [
                -123.39440379121054,
                48.653813583001146
            ],
            [
                -123.39439952450554,
                48.65380976542104
            ],
            [
                -123.39441760601346,
                48.6538207208697
            ],
            [
                -123.39441444855875,
                48.65382654988471
            ],
            [
                -123.3944099752841,
                48.65380999906696
            ],
            [
                -123.39441054350789,
                48.653809730169144
            ],
            [
                -123.39441003923675,
                48.65380999481369
            ],
            [
                -123.39441616304813,
                48.65380999376902
            ],
            [
                -123.39441694161422,
                48.65380983421531
            ],
            [
                -123.39442005867117,
                48.65381983778984
            ],
            [
                -123.39440229897936,
                48.65382129120262
            ],
            [
                -123.39444581498209,
                48.653831902696
            ],
            [
                -123.39441016154305,
                48.65382003644267
            ],
            [
                -123.39441066832936,
                48.653821420976854
            ],
            [
                -123.39435950212827,
                48.653802367609096
            ],
            [
                -123.39442481174231,
                48.65382232017921
            ],
            [
                -123.39440988506361,
                48.6538199524477
            ],
            [
                -123.39441195014906,
                48.65383034400369
            ],
            [
                -123.39441027857512,
                48.65382945276684
            ],
            [
                -123.39441156415742,
                48.653829956507956
            ],
            [
                -123.3944105893314,
                48.65384519231263
            ],
            [
                -123.3944105135064,
                48.65382031040922
            ],
            [
                -123.39441022100173,
                48.653819930036065
            ],
            [
                -123.39441980922672,
                48.65381992012286
            ],
            [
                -123.39442031202191,
                48.65382007617126
            ],
            [
                -123.39438208503452,
                48.653824466571294
            ],
            [
                -123.39442243671706,
                48.653810404271866
            ],
            [
                -123.39441498019056,
                48.653817658458635
            ],
            [
                -123.3944183513315,
                48.653822033780855
            ],
            [
                -123.39440939921076,
                48.65383175977877
            ],
            [
                -123.39441917040553,
                48.65383071151813
            ],
            [
                -123.3944304656464,
                48.65382052617086
            ],
            [
                -123.39442999710867,
                48.65381998993766
            ],
            [
                -123.39443705257715,
                48.65381343566892
            ],
            [
                -123.39443034241191,
                48.65382010110487
            ],
            [
                -123.39441999553866,
                48.65381003799393
            ],
            [
                -123.39441072175052,
                48.6538100115492
            ],
            [
                -123.39440973344347,
                48.653810024216256
            ],
            [
                -123.39440997274211,
                48.65384001290955
            ],
            [
                -123.39441934890665,
                48.65382875690416
            ],
            [
                -123.39442062309328,
                48.653820716176305
            ],
            [
                -123.39442147148876,
                48.65381999539721
            ],
            [
                -123.3944199282333,
                48.65381956531113
            ],
            [
                -123.39444000148447,
                48.65382000091887
            ],
            [
                -123.39442,
                48.6538
            ]
        ]
    },
    "properties": {
        "trajectory_id": 1928,
        "object_id": 316042956,
        "label": "PLEASURE CRAFT"
    }
}