{
    "type": "Feature",
    "geometry": {
        "type": "LineString",
        "coordinates": [
            [
                -123.93246,
                49.16844
            ],
            [
                -123.93246002235985,
                49.16844000000043
            ],
            [
                -123.93244946683731,
                49.16843999712741
            ],
            [
                -123.93244999791335,
                49.16845000017864
            ],
            [
                -123.93246005479489,
                49.16844099246869
            ],
            [
                -123.9324487650806,
                49.168439999961386
            ],
            [
                -123.93245999860238,
                49.16843936195081
            ],
            [
                -123.93244946537362,
                49.16845086123453
            ],
            [
                -123.93244920593908,
                49.16844936671769
            ],
            [
                -123.93246823247364,
                49.168442489755876
            ],
            [
                -123.9324596159695,
                49.16844819110012
            ],
            [
                -123.9324605471971,
                49.16844971231059
            ],
            [
                -123.9324571462246,
                49.16844312022632
            ],
            [
                -123.9324499661561,
                49.16843776304383
            ],
            [
                -123.93244949224021,
                49.16844001541045
            ],
            [
                -123.93245132665194,
                49.16845133273943
            ],
            [
                -123.93246028052842,
                49.1684397556646
            ],
            [
                -123.93245730901211,
                49.1684399807877
            ],
            [
                -123.93245001227557,
                49.16844249996741
            ],
            [
                -123.9324500025801,
                49.16844020759821
            ],
            [
                -123.9324410096354,
                49.16844000143321
            ],
            [
                -123.93244896344972,
                49.16844101826622
            ],
            [
                -123.9324540254761,
                49.168440943473534
            ],
            [
                -123.9324498969774,
                49.168439999595556
            ],
            [
                -123.932449935049,
                49.16844088286115
            ],
            [
                -123.93245847690791,
                49.16843160134891
            ],
            [
                -123.93245105967335,
                49.16843582739055
            ],
            [
                -123.93245123953768,
                49.16842993602936
            ],
            [
                -123.93245021920893,
                49.1684383881254
            ],
            [
                -123.93246968380278,
                49.168439828836505
            ],
            [
                -123.93246003993056,
                49.168429981126174
            ],
            [
                -123.93245956972707,
                49.16844010206493
            ],
            [
                -123.93244953011036,
                49.168429672727264
            ],
            [
                -123.93245012436803,
                49.168430015389255
            ],
            [
                -123.93245051706975,
                49.16843000003365
            ],
            [
                -123.93246243915867,
                49.16842825130928
            ],
            [
                -123.93246088659525,
                49.16842994018226
            ],
            [
                -123.93244023067953,
                49.16843002310503
            ],
            [
                -123.93244990547954,
                49.1684397232941
            ],
            [
                -123.93245995787811,
                49.168430127832224
            ],
            [
                -123.93246009925012,
                49.16843029066289
            ],
            [
                -123.93244999962681,
                49.16843015866265
            ],
            [
                -123.93245970881081,
                49.1684400654744
            ],
            [
                -123.93246109919966,
                49.16843990862404
            ],
            [
                -123.9324499623834,
                49.168439984604994
            ],
            [
                -123.9324499603053,
                49.16843956338299
            ],
            [
                -123.93245199655425,
                49.16844000047699
            ],
            [
                -123.93245846837284,
                49.1684425429989
            ],
            [
                -123.93245999913398,
                49.16844001803875
            ],
            [
                -123.93244872077193,
                49.16844000547857
            ],
            [
                -123.93244903134838,
                49.168433248955296
            ],
            [
                -123.93245306476452,
                49.168438386302135
            ],
            [
                -123.93245003102679,
                49.168429025785805
            ],
            [
                -123.93244311835556,
                49.168440591459536
            ],
            [
                -123.93245000786801,
                49.16843002603566
            ],
            [
                -123.93245126484464,
                49.168430000882566
            ],
            [
                -123.93244026861683,
                49.16843896183255
            ],
            [
                -123.93244970460488,
                49.16843988957574
            ],
            [
                -123.9324409372771,
                49.16842999448016
            ],
            [
                -123.93245000629278,
                49.16843003939188
            ],
            [
                -123.93244999999932,
                49.16842946544821
            ],
            [
                -123.93244999999382,
                49.168430716659074
            ],
            [
                -123.93244998388631,
                49.168440001878785
            ],
            [
                -123.93244509234242,
                49.168440073161015
            ],
            [
                -123.93244999793693,
                49.16843000010821
            ],
            [
                -123.93245029643106,
                49.16843015961349
            ],
            [
                -123.9324509685038,
                49.168431099920426
            ],
            [
                -123.93244999050445,
                49.16842972460454
            ],
            [
                -123.93244017230766,
                49.168430001946035
            ],
            [
                -123.93245002563913,
                49.16842036599111
            ],
            [
                -123.93244999970827,
                49.168429999995084
            ],
            [
                -123.93245000000353,
                49.16843033543603
            ],
            [
                -123.93244999999999,
                49.1684299925517
            ],
            [
                -123.93244999999595,
                49.16842999651653
            ],
            [
                -123.93245006924252,
                49.16843951010188
            ],
            [
                -123.93245008371156,
                49.1684299189686
            ],
            [
                -123.93244919147001,
                49.168440525268466
            ],
            [
                -123.93245854179067,
                49.1684295691532
            ],
            [
                -123.93245277076939,
                49.16843981275824
            ],
            [
                -123.93245,
                49.16844
            ]
        ]
    },
    "properties": {
        "trajectory_id": 1942,
        "object_id": 316044191,
        "label": "TUG"
    }
}