{
    "type": "Feature",
    "geometry": {
        "type": "LineString",
        "coordinates": [
            [
                -123.93245,
                49.16844
            ],
            [
                -123.9324503252539,
                49.16842137923051
            ],
            [
                -123.93245109959656,
                49.16842301748751
            ],
            [
                -123.93245127665517,
                49.16843047000856
            ],
            [
                -123.93244981075934,
                49.168429296766874
            ],
            [
                -123.9324477331038,
                49.16841906013936
            ],
            [
                -123.9324508099244,
                49.16843960896832
            ],
            [
                -123.93243854025975,
                49.168435717835585
            ],
            [
                -123.93244671086327,
                49.16846279235625
            ],
            [
                -123.9324495812954,
                49.16847626535397
            ],
            [
                -123.93244976446303,
                49.16847343758382
            ],
            [
                -123.93244994021039,
                49.168451714629086
            ],
            [
                -123.93245456909196,
                49.16844116346191
            ],
            [
                -123.93243761133917,
                49.16843908016711
            ],
            [
                -123.9323506652892,
                49.168445628695785
            ],
            [
                -123.93483199974887,
                49.16854540784877
            ],
            [
                -123.91401052713114,
                49.16838323616022
            ],
            [
                -123.8787916626835,
                49.16296445213336
            ],
            [
                -123.84740991407195,
                49.14672402926546
            ],
            [
                -123.81380213908938,
                49.13259336200672
            ],
            [
                -123.78612242151942,
                49.11241141209327
            ],
            [
                -123.76969322437333,
                49.08790097002047
            ],
            [
                -123.75132603314219,
                49.06473711614869
            ],
            [
                -123.73835530087068,
                49.040139084377735
            ],
            [
                -123.73040398215198,
                49.01402016040966
            ],
            [
                -123.72282667772494,
                48.98733837044734
            ],
            [
                -123.71496528741241,
                48.96099281472851
            ],
            [
                -123.71205017768155,
                48.93615618145776
            ],
            [
                -123.7138092448931,
                48.92578003060695
            ],
            [
                -123.71380045723427,
                48.92578993846329
            ],
            [
                -123.71378980961127,
                48.92579018707775
            ],
            [
                -123.70952625423904,
                48.9295136041717
            ],
            [
                -123.67555394931165,
                48.92369675418092
            ],
            [
                -123.65997655207926,
                48.915550723025575
            ],
            [
                -123.67966980504146,
                48.92148637410773
            ],
            [
                -123.68928497333901,
                48.923387607969204
            ],
            [
                -123.69133462995468,
                48.924654005272245
            ],
            [
                -123.69211945368002,
                48.9251018539142
            ],
            [
                -123.69279689710332,
                48.92500116649238
            ],
            [
                -123.69615941979826,
                48.92333432513787
            ],
            [
                -123.6963646478434,
                48.92278544705196
            ],
            [
                -123.70040548762861,
                48.92653328460434
            ],
            [
                -123.70289154027436,
                48.92843654406414
            ],
            [
                -123.7044066113785,
                48.92914469115764
            ],
            [
                -123.70439045461423,
                48.92909966666593
            ],
            [
                -123.7043786292347,
                48.92910200504372
            ],
            [
                -123.70437017821814,
                48.92911156388018
            ],
            [
                -123.704386456815,
                48.92909951814035
            ],
            [
                -123.7099109130539,
                48.92929729234146
            ],
            [
                -123.7138000042869,
                48.926039811176864
            ],
            [
                -123.71382118163163,
                48.92602924692141
            ],
            [
                -123.71380998498556,
                48.926029972343876
            ],
            [
                -123.71380132943676,
                48.92603005935196
            ],
            [
                -123.71380019703957,
                48.926029876883526
            ],
            [
                -123.71381010969792,
                48.92603891187118
            ],
            [
                -123.71380994665728,
                48.92604057575064
            ],
            [
                -123.71380988196815,
                48.92603997339836
            ],
            [
                -123.7138161329994,
                48.926042264258484
            ],
            [
                -123.71381959227384,
                48.92605608206791
            ],
            [
                -123.71381084589935,
                48.926029379489066
            ],
            [
                -123.71381906352276,
                48.92604566409914
            ],
            [
                -123.71380645622925,
                48.92603123119541
            ],
            [
                -123.71382092532863,
                48.92602908242369
            ],
            [
                -123.71381939586182,
                48.92604034283686
            ],
            [
                -123.71381990772102,
                48.926039498103556
            ],
            [
                -123.71381026035692,
                48.92604719798362
            ],
            [
                -123.71380915805007,
                48.92604868927048
            ],
            [
                -123.71381126888397,
                48.92603728371912
            ],
            [
                -123.71380962188506,
                48.92604005078344
            ],
            [
                -123.71382288753917,
                48.92603958168941
            ],
            [
                -123.71380965234061,
                48.92603960429574
            ],
            [
                -123.71381727056269,
                48.926035837301654
            ],
            [
                -123.71378861447668,
                48.9260428609776
            ],
            [
                -123.71378756123059,
                48.92603019571347
            ],
            [
                -123.71380002518542,
                48.926040030987565
            ],
            [
                -123.71380030108267,
                48.9260460074418
            ],
            [
                -123.71379986790043,
                48.926050539318545
            ],
            [
                -123.71380142666247,
                48.92604640388708
            ],
            [
                -123.71379779447481,
                48.92605519342899
            ],
            [
                -123.71382,
                48.92603
            ]
        ]
    },
    "properties": {
        "trajectory_id": 1945,
        "object_id": 316044191,
        "label": "TUG"
    }
}