{
    "type": "Feature",
    "geometry": {
        "type": "LineString",
        "coordinates": [
            [
                -122.66406,
                49.1998
            ],
            [
                -122.6640729662064,
                49.199810551483395
            ],
            [
                -122.66408965060965,
                49.19981062276816
            ],
            [
                -122.66405929387662,
                49.19979061581566
            ],
            [
                -122.66406265804983,
                49.199849742248006
            ],
            [
                -122.664052246237,
                49.19979049869097
            ],
            [
                -122.66407867532183,
                49.19982651373922
            ],
            [
                -122.66404687776365,
                49.199799565150464
            ],
            [
                -122.66407172217546,
                49.199808652135935
            ],
            [
                -122.66404244724653,
                49.19980779997495
            ],
            [
                -122.66402406905915,
                49.199845828614464
            ],
            [
                -122.66406444875953,
                49.199834308914674
            ],
            [
                -122.66410044081208,
                49.19981806650468
            ],
            [
                -122.66405970570788,
                49.199826790846444
            ],
            [
                -122.66410919317083,
                49.19979974329294
            ],
            [
                -122.66406174131706,
                49.199771403896364
            ],
            [
                -122.66406263247342,
                49.199811309941644
            ],
            [
                -122.66409780989575,
                49.199837583097214
            ],
            [
                -122.66409656954134,
                49.19979637818959
            ],
            [
                -122.66406883773354,
                49.19978964804317
            ],
            [
                -122.66409428249915,
                49.199823920950806
            ],
            [
                -122.6641007493371,
                49.199790521051284
            ],
            [
                -122.66406065378605,
                49.19981648909567
            ],
            [
                -122.66411277876146,
                49.199782818602664
            ],
            [
                -122.66410779309919,
                49.19983735991498
            ],
            [
                -122.6641362502984,
                49.199817909944464
            ],
            [
                -122.66406400425845,
                49.19978577763764
            ],
            [
                -122.66406155523872,
                49.199800047236685
            ],
            [
                -122.6640625425664,
                49.19980584282759
            ],
            [
                -122.66409233578946,
                49.19985515254
            ],
            [
                -122.66409426862644,
                49.19979579483392
            ],
            [
                -122.6640653767109,
                49.19974355337572
            ],
            [
                -122.66407123781205,
                49.19981546808058
            ],
            [
                -122.66406125441968,
                49.19982556691945
            ],
            [
                -122.66407990900275,
                49.19981080296694
            ],
            [
                -122.66406727645223,
                49.19978602499872
            ],
            [
                -122.66410050926821,
                49.19984038616749
            ],
            [
                -122.66412118311233,
                49.19981091665608
            ],
            [
                -122.66411615701185,
                49.199891713155104
            ],
            [
                -122.66395439875888,
                49.199852132883706
            ],
            [
                -122.66411906902667,
                49.19980052813877
            ],
            [
                -122.66405783816742,
                49.19980863671311
            ],
            [
                -122.6640964287655,
                49.19977944974201
            ],
            [
                -122.66404922960298,
                49.19983641398319
            ],
            [
                -122.66405315039688,
                49.19981640866597
            ],
            [
                -122.66403687706116,
                49.19983703499524
            ],
            [
                -122.66407731313012,
                49.199830449530424
            ],
            [
                -122.66405851821548,
                49.19983904189196
            ],
            [
                -122.6640888404297,
                49.19979196662375
            ],
            [
                -122.66403312450231,
                49.19979414455516
            ],
            [
                -122.6640934774086,
                49.19981592724666
            ],
            [
                -122.6640923094097,
                49.19982368507775
            ],
            [
                -122.6640818374454,
                49.19981448736931
            ],
            [
                -122.6640797337234,
                49.19983024386964
            ],
            [
                -122.66407641002938,
                49.199849903796895
            ],
            [
                -122.66403489837447,
                49.19980405102443
            ],
            [
                -122.66400839807856,
                49.19977697133165
            ],
            [
                -122.66408601397698,
                49.19980746018173
            ],
            [
                -122.66403225257847,
                49.19982451224542
            ],
            [
                -122.66405242258253,
                49.19979186983963
            ],
            [
                -122.66404787283429,
                49.199821755710516
            ],
            [
                -122.66406508547327,
                49.1998099946134
            ],
            [
                -122.66410696214648,
                49.19978978009762
            ],
            [
                -122.66407654900873,
                49.19983797126657
            ],
            [
                -122.66401301037226,
                49.19980793118657
            ],
            [
                -122.6640778363833,
                49.19979887224721
            ],
            [
                -122.66406033695569,
                49.19982055064263
            ],
            [
                -122.66407378939923,
                49.19980699691379
            ],
            [
                -122.66405999850217,
                49.19981994607489
            ],
            [
                -122.6640396154031,
                49.19984960913902
            ],
            [
                -122.66409163886503,
                49.199806581679496
            ],
            [
                -122.66408500998085,
                49.19981573115232
            ],
            [
                -122.66406109784752,
                49.199856439529434
            ],
            [
                -122.66410874883503,
                49.1998662419806
            ],
            [
                -122.66406851481808,
                49.199778149044995
            ],
            [
                -122.66403320639458,
                49.19981269346989
            ],
            [
                -122.66405584426998,
                49.19983996004094
            ],
            [
                -122.6640632888971,
                49.19983277719522
            ],
            [
                -122.6640520731142,
                49.19982563564689
            ],
            [
                -122.66405,
                49.19983
            ]
        ]
    },
    "properties": {
        "trajectory_id": 1958,
        "object_id": 316045831,
        "label": "TUG"
    }
}