{
    "type": "Feature",
    "geometry": {
        "type": "LineString",
        "coordinates": [
            [
                -123.74206,
                49.42797
            ],
            [
                -123.73852727877996,
                49.42249488190189
            ],
            [
                -123.73466912866581,
                49.416978240199626
            ],
            [
                -123.73060737652966,
                49.41159170951855
            ],
            [
                -123.72659332695594,
                49.40617656229218
            ],
            [
                -123.72337635543063,
                49.4009616229846
            ],
            [
                -123.72018657578461,
                49.395833524013604
            ],
            [
                -123.71700050284956,
                49.390677383943554
            ],
            [
                -123.71410285384927,
                49.38542509399009
            ],
            [
                -123.71120335276967,
                49.3801667600536
            ],
            [
                -123.70851926584761,
                49.3748759105091
            ],
            [
                -123.7059533182556,
                49.369499173497985
            ],
            [
                -123.70349590197044,
                49.363965645613405
            ],
            [
                -123.70118812484729,
                49.35839243546304
            ],
            [
                -123.69903480108167,
                49.35290131566676
            ],
            [
                -123.69719083475209,
                49.34745430320232
            ],
            [
                -123.69545387778376,
                49.341971249558995
            ],
            [
                -123.69393237297477,
                49.33629303516644
            ],
            [
                -123.69229369825187,
                49.33056382835649
            ],
            [
                -123.69055798245456,
                49.32495555861347
            ],
            [
                -123.68916354111532,
                49.31938936750881
            ],
            [
                -123.68805205260477,
                49.313598915230635
            ],
            [
                -123.68703679670688,
                49.30761075899204
            ],
            [
                -123.68587251470089,
                49.30164155880775
            ],
            [
                -123.68446615968756,
                49.295662498391394
            ],
            [
                -123.68176502581704,
                49.29010340810246
            ],
            [
                -123.6773973207047,
                49.28495126547127
            ],
            [
                -123.67237324056897,
                49.280044635994564
            ],
            [
                -123.66724659210213,
                49.27533718680544
            ],
            [
                -123.661700724128,
                49.27067885102798
            ],
            [
                -123.65634711998915,
                49.26612091924851
            ],
            [
                -123.65133199603872,
                49.26150158512538
            ],
            [
                -123.64682622640322,
                49.256944504581654
            ],
            [
                -123.64224976267288,
                49.25264270583838
            ],
            [
                -123.63797752894178,
                49.248506312419735
            ],
            [
                -123.63338900141835,
                49.24441522924486
            ],
            [
                -123.6283204929857,
                49.24035651706817
            ],
            [
                -123.62250955459503,
                49.23624713175171
            ],
            [
                -123.61639262840798,
                49.23188386119612
            ],
            [
                -123.61039215691258,
                49.22744660613677
            ],
            [
                -123.60440950291775,
                49.22297426287179
            ],
            [
                -123.59841400722802,
                49.21836657503912
            ],
            [
                -123.59267854859496,
                49.213608560042175
            ],
            [
                -123.58616067485477,
                49.20930833200514
            ],
            [
                -123.57927427305073,
                49.20508241515813
            ],
            [
                -123.57159291269116,
                49.20058389612414
            ],
            [
                -123.56373433193308,
                49.19606659156749
            ],
            [
                -123.5556951256918,
                49.19130849395829
            ],
            [
                -123.54740726252031,
                49.186748628592326
            ],
            [
                -123.53938408612937,
                49.182047998262696
            ],
            [
                -123.53175678472074,
                49.17686293311805
            ],
            [
                -123.52323658962591,
                49.17220914076064
            ],
            [
                -123.51451431662932,
                49.16772424670391
            ],
            [
                -123.50611123000304,
                49.1634753063081
            ],
            [
                -123.49766914162183,
                49.159646647862324
            ],
            [
                -123.48878258441358,
                49.1556752809499
            ],
            [
                -123.47931670188973,
                49.15211103855521
            ],
            [
                -123.46907790443649,
                49.14850172314231
            ],
            [
                -123.45955215591276,
                49.145503613896
            ],
            [
                -123.44987837749412,
                49.143413915255664
            ],
            [
                -123.43965072047537,
                49.14183919153408
            ],
            [
                -123.42913750467235,
                49.13986329334068
            ],
            [
                -123.41809832435132,
                49.13677900773214
            ],
            [
                -123.40728344609862,
                49.1336695150062
            ],
            [
                -123.39669113554814,
                49.13006723869161
            ],
            [
                -123.38616513327725,
                49.12623661042876
            ],
            [
                -123.3749917914136,
                49.122590925147456
            ],
            [
                -123.3639676417091,
                49.118856342930314
            ],
            [
                -123.35319280458906,
                49.11543028158821
            ],
            [
                -123.34310206017956,
                49.112249589513645
            ],
            [
                -123.33444811999802,
                49.10921948905418
            ],
            [
                -123.32538703406262,
                49.104866532097404
            ],
            [
                -123.31305826892954,
                49.10163496199665
            ],
            [
                -123.29748672351302,
                49.10470660063724
            ],
            [
                -123.2825590859312,
                49.111333495292
            ],
            [
                -123.26875183826778,
                49.11717354791823
            ],
            [
                -123.25584502028083,
                49.12280896292104
            ],
            [
                -123.2426859174435,
                49.12807981061111
            ],
            [
                -123.22798353666877,
                49.12982952148891
            ],
            [
                -123.21362,
                49.12758
            ]
        ]
    },
    "properties": {
        "trajectory_id": 200,
        "object_id": 316001222,
        "label": "TUG"
    }
}