{
    "type": "Feature",
    "geometry": {
        "type": "LineString",
        "coordinates": [
            [
                -123.93225,
                49.16954
            ],
            [
                -123.93226032493548,
                49.16952967534346
            ],
            [
                -123.93226337339044,
                49.16952666797518
            ],
            [
                -123.93225763143622,
                49.16953216047711
            ],
            [
                -123.93226005032028,
                49.16952997909191
            ],
            [
                -123.93226629101615,
                49.1695299924332
            ],
            [
                -123.93225942873889,
                49.169529999757444
            ],
            [
                -123.9322600793236,
                49.16952999996693
            ],
            [
                -123.93226000491745,
                49.16952999885648
            ],
            [
                -123.93226010062747,
                49.169530118469545
            ],
            [
                -123.93226011877371,
                49.16953012094885
            ],
            [
                -123.93225971431106,
                49.169529717456236
            ],
            [
                -123.93226102076396,
                49.169531006458655
            ],
            [
                -123.93225235299509,
                49.169522461934974
            ],
            [
                -123.93226350768576,
                49.16953346162371
            ],
            [
                -123.93225935467721,
                49.16952867590149
            ],
            [
                -123.93225773265718,
                49.169542017335296
            ],
            [
                -123.9322624879477,
                49.16953254764941
            ],
            [
                -123.93225727203651,
                49.169529999888816
            ],
            [
                -123.93225999978355,
                49.16952999999999
            ],
            [
                -123.93226844874336,
                49.169529999999995
            ],
            [
                -123.93225996644411,
                49.16952999999894
            ],
            [
                -123.93228867025553,
                49.16952984594345
            ],
            [
                -123.93112441950225,
                49.16769945997538
            ],
            [
                -123.9310579014722,
                49.16727424677505
            ],
            [
                -123.8968814829008,
                49.17083054584187
            ],
            [
                -123.86198354817081,
                49.17811440355825
            ],
            [
                -123.8593101666681,
                49.177878825012975
            ],
            [
                -123.87689598681801,
                49.17848089364084
            ],
            [
                -123.91332578989747,
                49.16905023035055
            ],
            [
                -123.93129022708,
                49.167041889719904
            ],
            [
                -123.9311897621305,
                49.16721664187151
            ],
            [
                -123.89831929731224,
                49.168487272973465
            ],
            [
                -123.86368429762487,
                49.178156826127044
            ],
            [
                -123.85932029486753,
                49.177879941019825
            ],
            [
                -123.86022120826048,
                49.17790947726875
            ],
            [
                -123.89464921602688,
                49.175136516191294
            ],
            [
                -123.92834983304053,
                49.16824546959991
            ],
            [
                -123.93129104656495,
                49.16702963284223
            ],
            [
                -123.9264130701663,
                49.1674809240319
            ],
            [
                -123.88985727375255,
                49.17217083273255
            ],
            [
                -123.86004916806132,
                49.177930119622246
            ],
            [
                -123.85931386821223,
                49.17787966196061
            ],
            [
                -123.86690028081598,
                49.178102523982886
            ],
            [
                -123.90177350065328,
                49.172408247661714
            ],
            [
                -123.9309636038177,
                49.16745159751953
            ],
            [
                -123.93098054962084,
                49.16663611143273
            ],
            [
                -123.91536591849572,
                49.16753591259064
            ],
            [
                -123.87894359823753,
                49.17467256996013
            ],
            [
                -123.85930378884176,
                49.177879923526376
            ],
            [
                -123.85811380960314,
                49.17873120679539
            ],
            [
                -123.87764193940762,
                49.17850851471731
            ],
            [
                -123.91155489133975,
                49.16902886528429
            ],
            [
                -123.93965856407402,
                49.16822627601536
            ],
            [
                -123.94664201084395,
                49.16794555121047
            ],
            [
                -123.94128390575968,
                49.167524472818855
            ],
            [
                -123.9331769125083,
                49.1671491786281
            ],
            [
                -123.93104630224629,
                49.16700181325898
            ],
            [
                -123.93134498164497,
                49.16699607008194
            ],
            [
                -123.9312583056568,
                49.166879735880975
            ],
            [
                -123.90621142031723,
                49.16855332842814
            ],
            [
                -123.86645499061109,
                49.17826817791901
            ],
            [
                -123.85931505854042,
                49.17787356158614
            ],
            [
                -123.85954325529521,
                49.177849666634884
            ],
            [
                -123.88803666953477,
                49.177450959532145
            ],
            [
                -123.9150172808532,
                49.16830858701615
            ],
            [
                -123.93127946259048,
                49.167037236280194
            ],
            [
                -123.93127824188828,
                49.167042972671936
            ],
            [
                -123.91442331633131,
                49.16737555450559
            ],
            [
                -123.87956757057995,
                49.175997283862785
            ],
            [
                -123.85933024612426,
                49.177880129243086
            ],
            [
                -123.85932574280638,
                49.1778784761859
            ],
            [
                -123.87779486171438,
                49.178859089522994
            ],
            [
                -123.90861097124483,
                49.16882416665872
            ],
            [
                -123.93114611760974,
                49.16729539312465
            ],
            [
                -123.93128693734701,
                49.16703425065001
            ],
            [
                -123.91838977076742,
                49.16762001881126
            ],
            [
                -123.87686081801914,
                49.17572463846303
            ],
            [
                -123.85931157840315,
                49.17789975449052
            ],
            [
                -123.85932,
                49.17788
            ]
        ]
    },
    "properties": {
        "trajectory_id": 2003,
        "object_id": 316047946,
        "label": "PASSENGER"
    }
}