{
    "type": "Feature",
    "geometry": {
        "type": "LineString",
        "coordinates": [
            [
                -122.66077,
                49.19532
            ],
            [
                -122.6590456893197,
                49.19470897179525
            ],
            [
                -122.65928509324041,
                49.19723101489401
            ],
            [
                -122.67888054234103,
                49.19815533425331
            ],
            [
                -122.70219811201329,
                49.20503516230613
            ],
            [
                -122.72583261861948,
                49.210961705506094
            ],
            [
                -122.75090722028516,
                49.213337605978744
            ],
            [
                -122.77822497574483,
                49.21406380373194
            ],
            [
                -122.80689510563302,
                49.21704519759465
            ],
            [
                -122.83681100602945,
                49.21856047724812
            ],
            [
                -122.85493530399162,
                49.218010460637046
            ],
            [
                -122.87799850494194,
                49.2152196390671
            ],
            [
                -122.8956847034035,
                49.206439471668794
            ],
            [
                -122.91028380651957,
                49.19770049456542
            ],
            [
                -122.91932316834081,
                49.18715234640413
            ],
            [
                -122.9247434446219,
                49.176002408028374
            ],
            [
                -122.93394623638727,
                49.166538840410254
            ],
            [
                -122.94674402708529,
                49.158601794442454
            ],
            [
                -122.9639218323962,
                49.157609325323655
            ],
            [
                -122.98171329626288,
                49.15774857132199
            ],
            [
                -122.99951914935424,
                49.15593733045594
            ],
            [
                -123.01765582154682,
                49.15221108058553
            ],
            [
                -123.0371812677508,
                49.147915409831704
            ],
            [
                -123.05263557488924,
                49.13989288821378
            ],
            [
                -123.06549179818755,
                49.12991257220475
            ],
            [
                -123.07990960166896,
                49.12013189864858
            ],
            [
                -123.09964359723558,
                49.11436077697705
            ],
            [
                -123.1200250569284,
                49.110046115686586
            ],
            [
                -123.14225375801576,
                49.10852290417491
            ],
            [
                -123.16528215118143,
                49.1117074861479
            ],
            [
                -123.18698546999548,
                49.11871593249773
            ],
            [
                -123.20683757209932,
                49.126145791691
            ],
            [
                -123.22651462033414,
                49.131390449120815
            ],
            [
                -123.24563655118621,
                49.128220925979086
            ],
            [
                -123.26489589129896,
                49.11999149683471
            ],
            [
                -123.28376389509226,
                49.11209692649733
            ],
            [
                -123.30255338886212,
                49.10456304254255
            ],
            [
                -123.31486059999638,
                49.111661721269044
            ],
            [
                -123.31997587306772,
                49.12023799303887
            ],
            [
                -123.31914657306011,
                49.12749846898722
            ],
            [
                -123.31773301744511,
                49.134397325875824
            ],
            [
                -123.31598596721498,
                49.14260215430293
            ],
            [
                -123.31412822100192,
                49.15097706733355
            ],
            [
                -123.31235095501906,
                49.15937390658242
            ],
            [
                -123.31016386311506,
                49.167774222192925
            ],
            [
                -123.30808966032814,
                49.176332113090524
            ],
            [
                -123.3061200326663,
                49.184912427062336
            ],
            [
                -123.3036089822756,
                49.193832560271964
            ],
            [
                -123.30063434425537,
                49.20336453778742
            ],
            [
                -123.29907747229288,
                49.213179836639846
            ],
            [
                -123.30213470072097,
                49.22207264543285
            ],
            [
                -123.30623542616387,
                49.23041334572401
            ],
            [
                -123.31165819369454,
                49.238156668687516
            ],
            [
                -123.31793707110675,
                49.24547377771297
            ],
            [
                -123.32479592338372,
                49.25272620996461
            ],
            [
                -123.3318686781945,
                49.25989038405884
            ],
            [
                -123.33895414341508,
                49.26620933260361
            ],
            [
                -123.34542842584989,
                49.27163127939483
            ],
            [
                -123.35199197582023,
                49.277131876082585
            ],
            [
                -123.35838219409887,
                49.28252234929297
            ],
            [
                -123.3646371658973,
                49.28826129971153
            ],
            [
                -123.3732569990614,
                49.29315553858164
            ],
            [
                -123.38237384753025,
                49.29820841126472
            ],
            [
                -123.4058963809201,
                49.30771670671171
            ],
            [
                -123.43436687007303,
                49.31885234332386
            ],
            [
                -123.46297171703351,
                49.32967556220778
            ],
            [
                -123.49170350283791,
                49.340345022651704
            ],
            [
                -123.51890432414058,
                49.35199867249021
            ],
            [
                -123.5451597432856,
                49.363758970001456
            ],
            [
                -123.57105441588291,
                49.37550684528249
            ],
            [
                -123.59639720815669,
                49.38744384115232
            ],
            [
                -123.62357993225778,
                49.3974530121709
            ],
            [
                -123.65190739229853,
                49.406861385549306
            ],
            [
                -123.68042399828624,
                49.41651101300527
            ],
            [
                -123.70974688217196,
                49.42598821220013
            ],
            [
                -123.7341086107229,
                49.44024611027516
            ],
            [
                -123.74281739638272,
                49.45211668260881
            ],
            [
                -123.74692645671101,
                49.460418615874715
            ],
            [
                -123.74933729830732,
                49.466541028517454
            ],
            [
                -123.74872,
                49.46682
            ]
        ]
    },
    "properties": {
        "trajectory_id": 201,
        "object_id": 316001222,
        "label": "TUG"
    }
}