{
    "type": "Feature",
    "geometry": {
        "type": "LineString",
        "coordinates": [
            [
                -123.02853,
                49.29803
            ],
            [
                -123.02853000007424,
                49.298029999375885
            ],
            [
                -123.02853386414883,
                49.29802044026104
            ],
            [
                -123.02854234635663,
                49.2980216948169
            ],
            [
                -123.02855758773782,
                49.29801047744549
            ],
            [
                -123.02851919312718,
                49.29803018335141
            ],
            [
                -123.0285189889643,
                49.298031071213344
            ],
            [
                -123.02853000005989,
                49.29801984390394
            ],
            [
                -123.02853,
                49.29802190597847
            ],
            [
                -123.02853000000003,
                49.29803046968373
            ],
            [
                -123.02853,
                49.29802886453645
            ],
            [
                -123.02853000051347,
                49.29802999990165
            ],
            [
                -123.02852266158169,
                49.29803000115009
            ],
            [
                -123.02852033803924,
                49.29803145678853
            ],
            [
                -123.02853893917687,
                49.2980106146048
            ],
            [
                -123.02851464504613,
                49.29803000487281
            ],
            [
                -123.02851352619196,
                49.29803000000013
            ],
            [
                -123.02851966879163,
                49.29803000000041
            ],
            [
                -123.0285200327751,
                49.298029999455096
            ],
            [
                -123.02853479844606,
                49.29803149835421
            ],
            [
                -123.02853395556545,
                49.29802801147591
            ],
            [
                -123.02854498067924,
                49.29802228309197
            ],
            [
                -123.02852059759911,
                49.29803935029205
            ],
            [
                -123.02853758587715,
                49.298033636855074
            ],
            [
                -123.02851060834101,
                49.298039837462035
            ],
            [
                -123.02850995098997,
                49.298039934893886
            ],
            [
                -123.02854877600622,
                49.29801122339728
            ],
            [
                -123.02853092919372,
                49.29801963348612
            ],
            [
                -123.0285300144904,
                49.2980253620242
            ],
            [
                -123.0285299999242,
                49.29801907157581
            ],
            [
                -123.02852643412264,
                49.29803126376929
            ],
            [
                -123.02852397079216,
                49.29802975001635
            ],
            [
                -123.02852999838579,
                49.29802976233481
            ],
            [
                -123.02853000001366,
                49.29802999998596
            ],
            [
                -123.0285302940389,
                49.298029853310865
            ],
            [
                -123.02852503735689,
                49.298034972462766
            ],
            [
                -123.02853035357764,
                49.29802999604279
            ],
            [
                -123.02852951637429,
                49.29803994714147
            ],
            [
                -123.02853078536387,
                49.298029033841004
            ],
            [
                -123.02851964331204,
                49.29803000070349
            ],
            [
                -123.0285308559488,
                49.29802999967097
            ],
            [
                -123.02853000002496,
                49.29803879502648
            ],
            [
                -123.02852999999995,
                49.298030089746305
            ],
            [
                -123.02853000359008,
                49.29802999641653
            ],
            [
                -123.02854467068853,
                49.298025109634295
            ],
            [
                -123.02853923622342,
                49.29803000242494
            ],
            [
                -123.02853001244934,
                49.29802998817329
            ],
            [
                -123.02853000000016,
                49.29804051032774
            ],
            [
                -123.02852999999998,
                49.298030000311904
            ],
            [
                -123.02852999999999,
                49.29803275745861
            ],
            [
                -123.02853,
                49.29803377810767
            ],
            [
                -123.02853,
                49.29802999956734
            ],
            [
                -123.02853,
                49.298030845327766
            ],
            [
                -123.02853000000002,
                49.29803466792155
            ],
            [
                -123.02853000000002,
                49.29805010095532
            ],
            [
                -123.02853000555014,
                49.29804000821216
            ],
            [
                -123.02852343895518,
                49.298051012911124
            ],
            [
                -123.02852999996455,
                49.29803944116109
            ],
            [
                -123.02853000990281,
                49.29805019457338
            ],
            [
                -123.02853106837564,
                49.29804022496229
            ],
            [
                -123.02853978315981,
                49.298038206237166
            ],
            [
                -123.0285099630939,
                49.2980299995675
            ],
            [
                -123.02850651136836,
                49.298035451648126
            ],
            [
                -123.02849961898461,
                49.29803953728663
            ],
            [
                -123.02850000070455,
                49.298050090294645
            ],
            [
                -123.02850835612954,
                49.298039997947
            ],
            [
                -123.02851772915272,
                49.298032518020776
            ],
            [
                -123.02853070760311,
                49.29803138602112
            ],
            [
                -123.02852888412575,
                49.29803058843069
            ],
            [
                -123.02853479422647,
                49.29803005680991
            ],
            [
                -123.02852939484553,
                49.29803045775419
            ],
            [
                -123.02853043412794,
                49.29802993843687
            ],
            [
                -123.02853011252296,
                49.29802005301395
            ],
            [
                -123.02855972219054,
                49.29801007381494
            ],
            [
                -123.02854092899913,
                49.298026906571664
            ],
            [
                -123.02854807684243,
                49.29801970558632
            ],
            [
                -123.02853084458576,
                49.29802047549962
            ],
            [
                -123.02852963130637,
                49.2980200061937
            ],
            [
                -123.02852910313577,
                49.29802090401181
            ],
            [
                -123.02853,
                49.29802
            ]
        ]
    },
    "properties": {
        "trajectory_id": 2018,
        "object_id": 316048473,
        "label": "TUG"
    }
}