{
    "type": "Feature",
    "geometry": {
        "type": "LineString",
        "coordinates": [
            [
                -123.02928,
                49.29802
            ],
            [
                -123.02927018706905,
                49.29801638822584
            ],
            [
                -123.02927137392463,
                49.29802994645352
            ],
            [
                -123.0292646256136,
                49.2980194396917
            ],
            [
                -123.02922779168058,
                49.29800875947149
            ],
            [
                -123.02927394861175,
                49.29803852388593
            ],
            [
                -123.02928683967475,
                49.298029258611905
            ],
            [
                -123.02919094657621,
                49.29802044868629
            ],
            [
                -123.02927704939965,
                49.29802278688993
            ],
            [
                -123.02928054980966,
                49.298066717843064
            ],
            [
                -123.02927638022776,
                49.29807997838695
            ],
            [
                -123.02932171481497,
                49.29808191408182
            ],
            [
                -123.02925831788154,
                49.29803987924613
            ],
            [
                -123.02929544850669,
                49.298037148078095
            ],
            [
                -123.02928989507197,
                49.2979859201308
            ],
            [
                -123.02930255885592,
                49.298025831545765
            ],
            [
                -123.02927002454904,
                49.29801033984941
            ],
            [
                -123.02928739361262,
                49.29802545890946
            ],
            [
                -123.0292662381352,
                49.29804621914265
            ],
            [
                -123.02929212237561,
                49.29802933369526
            ],
            [
                -123.02927116491168,
                49.29801296103735
            ],
            [
                -123.02927336303907,
                49.29804781908449
            ],
            [
                -123.02928194048937,
                49.29804769474023
            ],
            [
                -123.0292788849805,
                49.29802441929183
            ],
            [
                -123.02927887427434,
                49.29803002754037
            ],
            [
                -123.02927079266459,
                49.298027052824914
            ],
            [
                -123.02928284645363,
                49.2980198519731
            ],
            [
                -123.02929308678522,
                49.29801943974272
            ],
            [
                -123.02934776967275,
                49.29800417343549
            ],
            [
                -123.02932251922873,
                49.298024602776906
            ],
            [
                -123.02930097596963,
                49.298036317584724
            ],
            [
                -123.02931918001855,
                49.29803077529671
            ],
            [
                -123.02926942896501,
                49.29804604099542
            ],
            [
                -123.02927954785602,
                49.29800976140226
            ],
            [
                -123.02930342442461,
                49.29804317470909
            ],
            [
                -123.02925652512582,
                49.29803495724175
            ],
            [
                -123.0292607262303,
                49.298025609147025
            ],
            [
                -123.02189306708169,
                49.294781717469256
            ],
            [
                -123.00383262380966,
                49.29539269821822
            ],
            [
                -122.98570028809092,
                49.29738504294643
            ],
            [
                -122.9676395082239,
                49.29702962174793
            ],
            [
                -122.94961362277827,
                49.29601216241281
            ],
            [
                -122.93098401261668,
                49.294586880563074
            ],
            [
                -122.91358806626634,
                49.2913851354641
            ],
            [
                -122.89704665587664,
                49.29350310372424
            ],
            [
                -122.88235368361353,
                49.298214336024074
            ],
            [
                -122.88036488869894,
                49.29940760043472
            ],
            [
                -122.88146274998124,
                49.29940227976653
            ],
            [
                -122.88179183640736,
                49.299388064144665
            ],
            [
                -122.8798618659838,
                49.2998136961576
            ],
            [
                -122.88250971677667,
                49.29952859742252
            ],
            [
                -122.88306787935814,
                49.29958134071017
            ],
            [
                -122.88387727023421,
                49.298194960627434
            ],
            [
                -122.8911761658593,
                49.29596790241639
            ],
            [
                -122.90210232560915,
                49.29313763202976
            ],
            [
                -122.913873648211,
                49.29197728739418
            ],
            [
                -122.92590607026577,
                49.29395840311349
            ],
            [
                -122.93811332174923,
                49.29645920752807
            ],
            [
                -122.95106695932509,
                49.29750086481583
            ],
            [
                -122.96452316692991,
                49.29829396312753
            ],
            [
                -122.97761730641952,
                49.29868884768682
            ],
            [
                -122.99092645102758,
                49.2982190787237
            ],
            [
                -123.00387230130384,
                49.29568494966039
            ],
            [
                -123.01741518737144,
                49.29499457989592
            ],
            [
                -123.032307496839,
                49.29500355636595
            ],
            [
                -123.04632524926545,
                49.29656441817561
            ],
            [
                -123.05927931161308,
                49.29867468637675
            ],
            [
                -123.0715818108792,
                49.30114552403128
            ],
            [
                -123.08375755888142,
                49.30391378582577
            ],
            [
                -123.09290636057352,
                49.306420107995756
            ],
            [
                -123.10020379278782,
                49.3094217639315
            ],
            [
                -123.1044259379247,
                49.310062447084725
            ],
            [
                -123.10442641285306,
                49.31012784228575
            ],
            [
                -123.10422512075075,
                49.309888578241534
            ],
            [
                -123.09065073376578,
                49.306334237695495
            ],
            [
                -123.07483876460414,
                49.30268966602674
            ],
            [
                -123.0605208311411,
                49.29985098450739
            ],
            [
                -123.04722774980425,
                49.29788860273935
            ],
            [
                -123.03554270391129,
                49.296772222479554
            ],
            [
                -123.02923,
                49.29803
            ]
        ]
    },
    "properties": {
        "trajectory_id": 2058,
        "object_id": 316049055,
        "label": "TUG"
    }
}