{
    "type": "Feature",
    "geometry": {
        "type": "LineString",
        "coordinates": [
            [
                -123.51575,
                48.61291
            ],
            [
                -123.51745208253762,
                48.613910888124
            ],
            [
                -123.50634802292494,
                48.60371745623795
            ],
            [
                -123.4889720468025,
                48.58856848759737
            ],
            [
                -123.46863037234542,
                48.57698197417781
            ],
            [
                -123.46762918532195,
                48.577104325059175
            ],
            [
                -123.48600374448245,
                48.58548843078526
            ],
            [
                -123.50458026029541,
                48.60234613615908
            ],
            [
                -123.51745782190426,
                48.6138967592026
            ],
            [
                -123.51126949060803,
                48.608050025194835
            ],
            [
                -123.49444595200615,
                48.592445525974
            ],
            [
                -123.47396289874638,
                48.5780010283531
            ],
            [
                -123.4676288543224,
                48.57711398071555
            ],
            [
                -123.47689100053799,
                48.57945163426472
            ],
            [
                -123.49526008928393,
                48.59342620371849
            ],
            [
                -123.51090033240021,
                48.60936561106071
            ],
            [
                -123.51745462555327,
                48.613913628267404
            ],
            [
                -123.50709333913571,
                48.60458629002945
            ],
            [
                -123.4906071836707,
                48.58840800047151
            ],
            [
                -123.46863263553949,
                48.57699186757757
            ],
            [
                -123.46763027405463,
                48.57711075743311
            ],
            [
                -123.4676300882394,
                48.57711928503631
            ],
            [
                -123.46762104991694,
                48.57710978806757
            ],
            [
                -123.46763014524846,
                48.577109436397436
            ],
            [
                -123.46762993779598,
                48.57710992630809
            ],
            [
                -123.46761998939769,
                48.57710006247144
            ],
            [
                -123.46762606303294,
                48.57710613959185
            ],
            [
                -123.46764035484345,
                48.577110008598055
            ],
            [
                -123.46762907142163,
                48.57710989259374
            ],
            [
                -123.46763013496512,
                48.577099492121704
            ],
            [
                -123.46763045798558,
                48.57710988076596
            ],
            [
                -123.46763194660738,
                48.57712154772092
            ],
            [
                -123.46763008040874,
                48.5771200638927
            ],
            [
                -123.46762999835101,
                48.57712000106618
            ],
            [
                -123.46763000003548,
                48.57711986066888
            ],
            [
                -123.4676299999875,
                48.577123613265385
            ],
            [
                -123.46762999999811,
                48.577110805737455
            ],
            [
                -123.46762999999996,
                48.5771196415962
            ],
            [
                -123.46762999999996,
                48.57710898221569
            ],
            [
                -123.46763000000126,
                48.577109926379336
            ],
            [
                -123.46762999993156,
                48.57711669410428
            ],
            [
                -123.4676300036232,
                48.577108934553216
            ],
            [
                -123.46762981207866,
                48.57710865895011
            ],
            [
                -123.46763913502616,
                48.57711875956373
            ],
            [
                -123.46763969606971,
                48.57711242265232
            ],
            [
                -123.46762730953816,
                48.577109825964484
            ],
            [
                -123.4676299687351,
                48.577109997976024
            ],
            [
                -123.4676299993539,
                48.57711000003198
            ],
            [
                -123.4676300500851,
                48.57710999999953
            ],
            [
                -123.46762088599816,
                48.577110000000005
            ],
            [
                -123.46761943617234,
                48.57710999999993
            ],
            [
                -123.4676197523938,
                48.577110000001355
            ],
            [
                -123.46762000352875,
                48.57710999999851
            ],
            [
                -123.46763025851835,
                48.577109996036704
            ],
            [
                -123.46763047617112,
                48.57711047975747
            ],
            [
                -123.46762998682597,
                48.57711998155034
            ],
            [
                -123.46762992334459,
                48.577109309851174
            ],
            [
                -123.46761918991814,
                48.57711001554121
            ],
            [
                -123.4676200628631,
                48.5771100029099
            ],
            [
                -123.46761705101284,
                48.57710980023121
            ],
            [
                -123.46760862534555,
                48.57710219341378
            ],
            [
                -123.46761002758933,
                48.577100386846425
            ],
            [
                -123.46760999800627,
                48.57709999354368
            ],
            [
                -123.46761008289909,
                48.57709994531072
            ],
            [
                -123.46761768175452,
                48.577097395944236
            ],
            [
                -123.46762007619134,
                48.577109799478954
            ],
            [
                -123.4676250665931,
                48.57711498909414
            ],
            [
                -123.46762985084686,
                48.57711984794295
            ],
            [
                -123.46763007511333,
                48.57712007540216
            ],
            [
                -123.46762730872523,
                48.577117308239934
            ],
            [
                -123.4676200706955,
                48.57711006623478
            ],
            [
                -123.4676199939599,
                48.57711042494533
            ],
            [
                -123.46761999241308,
                48.57711739603173
            ],
            [
                -123.46761988737538,
                48.57711977045396
            ],
            [
                -123.46761021002311,
                48.57711019458391
            ],
            [
                -123.46762013408042,
                48.57712007591425
            ],
            [
                -123.46761994471268,
                48.57711053542319
            ],
            [
                -123.4676294982661,
                48.57712016491767
            ],
            [
                -123.46762029563803,
                48.57711028858698
            ],
            [
                -123.46762,
                48.57711
            ]
        ]
    },
    "properties": {
        "trajectory_id": 206,
        "object_id": 316001235,
        "label": "PASSENGER"
    }
}