{
    "type": "Feature",
    "geometry": {
        "type": "LineString",
        "coordinates": [
            [
                -123.49898,
                48.85706
            ],
            [
                -123.49920252739808,
                48.857329948050825
            ],
            [
                -123.49921497310602,
                48.85739717412987
            ],
            [
                -123.49911755620606,
                48.8573714611732
            ],
            [
                -123.49923791951858,
                48.85752212719791
            ],
            [
                -123.4991655749967,
                48.85736330124566
            ],
            [
                -123.49900450340618,
                48.85704504759787
            ],
            [
                -123.49920963302927,
                48.85746247752383
            ],
            [
                -123.49915057007067,
                48.85733350497311
            ],
            [
                -123.49908543424515,
                48.857298970494526
            ],
            [
                -123.49936870842573,
                48.85756746899193
            ],
            [
                -123.49904126802639,
                48.85720126679362
            ],
            [
                -123.49914075645846,
                48.85735588613928
            ],
            [
                -123.49934570476456,
                48.857534715071935
            ],
            [
                -123.49954514096504,
                48.8576652279866
            ],
            [
                -123.49919192023403,
                48.85731465344472
            ],
            [
                -123.49932648995028,
                48.857523802072805
            ],
            [
                -123.49898676136448,
                48.85721068275368
            ],
            [
                -123.49909442613844,
                48.85730630403579
            ],
            [
                -123.49923270756094,
                48.85734980348706
            ],
            [
                -123.49911284514496,
                48.857338378661275
            ],
            [
                -123.49898832024066,
                48.857247185262466
            ],
            [
                -123.49927984694914,
                48.85733646964749
            ],
            [
                -123.4993100773981,
                48.85740191702813
            ],
            [
                -123.49930470483278,
                48.85743267213604
            ],
            [
                -123.49909176341514,
                48.85733790816406
            ],
            [
                -123.49908080764442,
                48.857238502043195
            ],
            [
                -123.49916665876762,
                48.857371474636956
            ],
            [
                -123.49948969406402,
                48.85720484504407
            ],
            [
                -123.49913384902266,
                48.85740109005154
            ],
            [
                -123.4992925840038,
                48.8573530025281
            ],
            [
                -123.49919058826355,
                48.857411190080825
            ],
            [
                -123.499178297053,
                48.857342024815495
            ],
            [
                -123.4994319507319,
                48.857542403545104
            ],
            [
                -123.4995046939621,
                48.857490046337034
            ],
            [
                -123.49922647974303,
                48.8573990786344
            ],
            [
                -123.49916899703986,
                48.85733972079752
            ],
            [
                -123.49930605818021,
                48.85741713917739
            ],
            [
                -123.49924075118052,
                48.85729122097485
            ],
            [
                -123.49952687800815,
                48.857370437416144
            ],
            [
                -123.49918500584337,
                48.857297250850884
            ],
            [
                -123.49953638385122,
                48.857334288951684
            ],
            [
                -123.49935385170961,
                48.85731662021655
            ],
            [
                -123.49928236435929,
                48.85738860424218
            ],
            [
                -123.49912968087236,
                48.857428120646674
            ],
            [
                -123.49914165417493,
                48.85740078669292
            ],
            [
                -123.49929932672497,
                48.85730481514488
            ],
            [
                -123.49890742460846,
                48.85743163563138
            ],
            [
                -123.4990165596562,
                48.857421780883584
            ],
            [
                -123.49931724871024,
                48.857376373573636
            ],
            [
                -123.49895767953596,
                48.85743804509458
            ],
            [
                -123.49918893669148,
                48.857331582917055
            ],
            [
                -123.49920348918089,
                48.857351834981834
            ],
            [
                -123.49919422293574,
                48.857360946283265
            ],
            [
                -123.49929025130086,
                48.85727740934997
            ],
            [
                -123.49913617893077,
                48.85731797995388
            ],
            [
                -123.49935086204802,
                48.85717449975379
            ],
            [
                -123.49922570227375,
                48.857267915709244
            ],
            [
                -123.49946453446756,
                48.857245391615635
            ],
            [
                -123.4991808074204,
                48.85747333640393
            ],
            [
                -123.49905935299688,
                48.85736760956225
            ],
            [
                -123.49929565558723,
                48.85760743937439
            ],
            [
                -123.49253560679931,
                48.85271746864308
            ],
            [
                -123.47660583410013,
                48.844866088259266
            ],
            [
                -123.45804126132624,
                48.83527607848398
            ],
            [
                -123.43726909660758,
                48.82584881762768
            ],
            [
                -123.41946208424267,
                48.814430655562276
            ],
            [
                -123.40006553992163,
                48.80333947883606
            ],
            [
                -123.3801249398432,
                48.792036799402595
            ],
            [
                -123.36507754912242,
                48.77696494833228
            ],
            [
                -123.37041082595343,
                48.76027298663888
            ],
            [
                -123.38048966202416,
                48.744237761313364
            ],
            [
                -123.38799824273529,
                48.728906073510856
            ],
            [
                -123.39045895797284,
                48.71077460810076
            ],
            [
                -123.3911431549761,
                48.69305706604693
            ],
            [
                -123.39175241630154,
                48.675460826950754
            ],
            [
                -123.4110479663234,
                48.672917770041124
            ],
            [
                -123.41394366959815,
                48.6761883247113
            ],
            [
                -123.41404941632541,
                48.676201363873844
            ],
            [
                -123.41417,
                48.67604
            ]
        ]
    },
    "properties": {
        "trajectory_id": 2065,
        "object_id": 316051351,
        "label": "PLEASURE CRAFT"
    }
}