{
    "type": "Feature",
    "geometry": {
        "type": "LineString",
        "coordinates": [
            [
                -123.57814,
                49.25614
            ],
            [
                -123.45057370901232,
                49.276770000447094
            ],
            [
                -123.34547594949446,
                49.2969483068737
            ],
            [
                -123.21593770220113,
                49.31131321349413
            ],
            [
                -123.13207883649633,
                49.31082826902292
            ],
            [
                -123.11297591662796,
                49.29109826992044
            ],
            [
                -123.11627961007288,
                49.2902503309894
            ],
            [
                -123.11627933235847,
                49.29026195959362
            ],
            [
                -123.11625985628405,
                49.29026922107036
            ],
            [
                -123.11628036948848,
                49.290256274968684
            ],
            [
                -123.11555550327726,
                49.29087137801003
            ],
            [
                -123.12906677518748,
                49.309851829802575
            ],
            [
                -123.2387626503742,
                49.3208152790114
            ],
            [
                -123.37134876710446,
                49.30439503167043
            ],
            [
                -123.50221915661054,
                49.28167722845369
            ],
            [
                -123.63008320928614,
                49.25609071949462
            ],
            [
                -123.75623309031546,
                49.231901796022086
            ],
            [
                -123.85848371937385,
                49.21098412725575
            ],
            [
                -123.9139856867281,
                49.167941302205016
            ],
            [
                -123.92227894680205,
                49.163749820871615
            ],
            [
                -123.92229222296726,
                49.163735726453275
            ],
            [
                -123.92229966939433,
                49.163722489748665
            ],
            [
                -123.9223085360591,
                49.163731500976795
            ],
            [
                -123.92230479393957,
                49.163756081154915
            ],
            [
                -123.8842639385527,
                49.203047341947666
            ],
            [
                -123.77266529942177,
                49.22220275597223
            ],
            [
                -123.63768072258999,
                49.24213314353117
            ],
            [
                -123.50741819677688,
                49.26769833403964
            ],
            [
                -123.37740429288812,
                49.28832878892918
            ],
            [
                -123.24668715531656,
                49.31106226628259
            ],
            [
                -123.14190364665139,
                49.31619213375062
            ],
            [
                -123.1121174982555,
                49.29428516776905
            ],
            [
                -123.11627979519709,
                49.29027086950037
            ],
            [
                -123.11620898841873,
                49.29022964057367
            ],
            [
                -123.11629031223649,
                49.2902745815619
            ],
            [
                -123.11628972708891,
                49.29026872175592
            ],
            [
                -123.11622114059963,
                49.290269989021276
            ],
            [
                -123.10856004987433,
                49.294492230922174
            ],
            [
                -123.15491653259147,
                49.319077505732096
            ],
            [
                -123.29604931188831,
                49.31544691910147
            ],
            [
                -123.43539723930758,
                49.295075047458404
            ],
            [
                -123.57378773852824,
                49.27042542005761
            ],
            [
                -123.70884000366155,
                49.242976698029715
            ],
            [
                -123.84056646090268,
                49.21346131028375
            ],
            [
                -123.91215490443741,
                49.169014027247705
            ],
            [
                -123.92229874321076,
                49.16373301455201
            ],
            [
                -123.92229902099817,
                49.163728437308066
            ],
            [
                -123.92231668106822,
                49.1637224971361
            ],
            [
                -123.922294759486,
                49.1637335056253
            ],
            [
                -123.92228315457872,
                49.163725529911275
            ],
            [
                -123.92230392437469,
                49.16374800225202
            ],
            [
                -123.92228062339836,
                49.16374069169178
            ],
            [
                -123.92228915821222,
                49.163732353764544
            ],
            [
                -123.92228990072088,
                49.16374504454986
            ],
            [
                -123.92232255689458,
                49.16373813218174
            ],
            [
                -123.92229580196985,
                49.16374336192266
            ],
            [
                -123.92232667783243,
                49.16374799642341
            ],
            [
                -123.92233678463744,
                49.16377506906932
            ],
            [
                -123.92231859667059,
                49.163750318630925
            ],
            [
                -123.92228143111285,
                49.16372007052201
            ],
            [
                -123.92227911716755,
                49.163713691926944
            ],
            [
                -123.92231327475903,
                49.16365631579644
            ],
            [
                -123.9223096387847,
                49.163748421837944
            ],
            [
                -123.92228825125518,
                49.16373708779758
            ],
            [
                -123.92228757639643,
                49.16375235606251
            ],
            [
                -123.92230726221575,
                49.163723215861566
            ],
            [
                -123.92230249177898,
                49.163738221036816
            ],
            [
                -123.92230100914402,
                49.163731006799026
            ],
            [
                -123.92231864712736,
                49.16372506353984
            ],
            [
                -123.9223086313199,
                49.16373972864184
            ],
            [
                -123.92234518324483,
                49.1637172882611
            ],
            [
                -123.9223171215761,
                49.16373275432473
            ],
            [
                -123.92230918382455,
                49.163720141070584
            ],
            [
                -123.92236153709635,
                49.163759485568065
            ],
            [
                -123.92229948492458,
                49.16374024423142
            ],
            [
                -123.92227924714607,
                49.163740247551196
            ],
            [
                -123.92230031350675,
                49.16372978313024
            ],
            [
                -123.92231355079713,
                49.163743619646674
            ],
            [
                -123.92232390647752,
                49.16374018839779
            ],
            [
                -123.92229,
                49.16372
            ]
        ]
    },
    "properties": {
        "trajectory_id": 2078,
        "object_id": 316052438,
        "label": "PASSENGER"
    }
}