{
    "type": "Feature",
    "geometry": {
        "type": "LineString",
        "coordinates": [
            [
                -123.46761,
                48.57711
            ],
            [
                -123.46761999261365,
                48.57711999256018
            ],
            [
                -123.46762000127639,
                48.577120001912135
            ],
            [
                -123.46761981327289,
                48.577120001037535
            ],
            [
                -123.46762083745327,
                48.57712000003373
            ],
            [
                -123.4676195743941,
                48.57712000090954
            ],
            [
                -123.4676199770592,
                48.57712001630569
            ],
            [
                -123.46761966760447,
                48.577119109850976
            ],
            [
                -123.46763123362985,
                48.57712134896754
            ],
            [
                -123.46762203550803,
                48.57711024316244
            ],
            [
                -123.46763261883581,
                48.577110958644845
            ],
            [
                -123.46761979243672,
                48.577109324722095
            ],
            [
                -123.46762266769684,
                48.577126121182054
            ],
            [
                -123.46763013490512,
                48.5771198139617
            ],
            [
                -123.46762986964578,
                48.57711994011241
            ],
            [
                -123.46762716320904,
                48.577118546659456
            ],
            [
                -123.46763106740153,
                48.57711424929252
            ],
            [
                -123.46763009496473,
                48.57712021759692
            ],
            [
                -123.46762934126623,
                48.577119983995175
            ],
            [
                -123.46763523564543,
                48.57711999903953
            ],
            [
                -123.4676424411118,
                48.577119998177245
            ],
            [
                -123.46763002860695,
                48.57712000394555
            ],
            [
                -123.46761993397726,
                48.577108385603445
            ],
            [
                -123.46920116029015,
                48.57680758394105
            ],
            [
                -123.4898810043116,
                48.588125763328435
            ],
            [
                -123.50534408263367,
                48.60397471009496
            ],
            [
                -123.51744783036551,
                48.61389953010714
            ],
            [
                -123.51584436242672,
                48.613101325495215
            ],
            [
                -123.49958683282019,
                48.59696076127304
            ],
            [
                -123.48057180817516,
                48.5818172164652
            ],
            [
                -123.46762456977858,
                48.577111292577435
            ],
            [
                -123.47519458001878,
                48.578933477843876
            ],
            [
                -123.49535526295251,
                48.59312192888085
            ],
            [
                -123.511290610881,
                48.61000509448533
            ],
            [
                -123.51745233264202,
                48.613910267361994
            ],
            [
                -123.5070529247924,
                48.60408959637743
            ],
            [
                -123.48961616484651,
                48.58881742466256
            ],
            [
                -123.4692595206586,
                48.57694811209568
            ],
            [
                -123.46762551869882,
                48.57710801704674
            ],
            [
                -123.48542395002856,
                48.58528137487448
            ],
            [
                -123.50283999391792,
                48.601806518784045
            ],
            [
                -123.51745356390236,
                48.61391047181733
            ],
            [
                -123.51717346543467,
                48.613852597727046
            ],
            [
                -123.50260021093956,
                48.59923193904531
            ],
            [
                -123.48425138451589,
                48.58548962677053
            ],
            [
                -123.46767311536955,
                48.57710452409857
            ],
            [
                -123.46757380456494,
                48.57708522395903
            ],
            [
                -123.48748222288208,
                48.58694114475375
            ],
            [
                -123.50326984236834,
                48.60258530147516
            ],
            [
                -123.51745688603275,
                48.61389528082471
            ],
            [
                -123.51510499858257,
                48.61230445402937
            ],
            [
                -123.49805537435267,
                48.598304462968116
            ],
            [
                -123.48151716274377,
                48.58447675946256
            ],
            [
                -123.46762245391089,
                48.57710743401044
            ],
            [
                -123.46763737410133,
                48.57712823738044
            ],
            [
                -123.46764010018848,
                48.57713011297005
            ],
            [
                -123.46764000002547,
                48.577119995880004
            ],
            [
                -123.46764008824766,
                48.57711999999989
            ],
            [
                -123.46763997637731,
                48.57711999994088
            ],
            [
                -123.46764141664408,
                48.57711672727823
            ],
            [
                -123.4676314855794,
                48.57711148889137
            ],
            [
                -123.4675666246214,
                48.57712143586314
            ],
            [
                -123.48756143619077,
                48.58628458388585
            ],
            [
                -123.50331505729736,
                48.60271879214243
            ],
            [
                -123.51745553677348,
                48.613867358479695
            ],
            [
                -123.51744602031349,
                48.613898521084224
            ],
            [
                -123.50533145087925,
                48.60284398853509
            ],
            [
                -123.48624461159305,
                48.587616970459635
            ],
            [
                -123.46773427938533,
                48.57710273753167
            ],
            [
                -123.46748660768588,
                48.57715167202834
            ],
            [
                -123.48740916822887,
                48.58765276237207
            ],
            [
                -123.50521621278706,
                48.60465332785421
            ],
            [
                -123.5174466479989,
                48.613916627102476
            ],
            [
                -123.51715577451264,
                48.613818763025044
            ],
            [
                -123.50120907088912,
                48.59885696048882
            ],
            [
                -123.48334410940886,
                48.58443726966852
            ],
            [
                -123.46761916952036,
                48.577109118554674
            ],
            [
                -123.4676022426774,
                48.577103505747054
            ],
            [
                -123.48892568746918,
                48.58736221339226
            ],
            [
                -123.50508,
                48.60553
            ]
        ]
    },
    "properties": {
        "trajectory_id": 209,
        "object_id": 316001235,
        "label": "PASSENGER"
    }
}