{
    "type": "Feature",
    "geometry": {
        "type": "LineString",
        "coordinates": [
            [
                -123.10689,
                49.31068
            ],
            [
                -123.10687414080579,
                49.31068200886888
            ],
            [
                -123.10694157974412,
                49.3123425084923
            ],
            [
                -123.10688610860063,
                49.312348531223
            ],
            [
                -123.10689568439443,
                49.31235911782369
            ],
            [
                -123.10687041829559,
                49.31233809839341
            ],
            [
                -123.10694759514112,
                49.31239328041173
            ],
            [
                -123.10690477562848,
                49.312371142280014
            ],
            [
                -123.10693988737775,
                49.31234937697356
            ],
            [
                -123.10694972270092,
                49.312372871190206
            ],
            [
                -123.10690716556704,
                49.31237976309546
            ],
            [
                -123.10692971034052,
                49.312376993914455
            ],
            [
                -123.10691182475041,
                49.312370762961116
            ],
            [
                -123.10690961389065,
                49.31238052962587
            ],
            [
                -123.10688233468683,
                49.31237616490277
            ],
            [
                -123.10693574416342,
                49.31241005746273
            ],
            [
                -123.10693577385254,
                49.31237867596813
            ],
            [
                -123.1069201576687,
                49.31236931544999
            ],
            [
                -123.10692464828257,
                49.31238103532846
            ],
            [
                -123.10690782611606,
                49.312379905330516
            ],
            [
                -123.10689946946965,
                49.31239673847082
            ],
            [
                -123.10695389092022,
                49.31237885611824
            ],
            [
                -123.10694576198114,
                49.31238968063938
            ],
            [
                -123.10693799357769,
                49.3123641920589
            ],
            [
                -123.10691974000345,
                49.312365738051966
            ],
            [
                -123.10695945408816,
                49.312386051904994
            ],
            [
                -123.10692193275317,
                49.312388062055874
            ],
            [
                -123.10691014010212,
                49.31238963556728
            ],
            [
                -123.10690871610545,
                49.31238987173643
            ],
            [
                -123.10694058093031,
                49.3123594282887
            ],
            [
                -123.10687277551776,
                49.31240286057695
            ],
            [
                -123.10690592721414,
                49.312387167508504
            ],
            [
                -123.10691727911653,
                49.31238456626669
            ],
            [
                -123.10689934059613,
                49.31237914057064
            ],
            [
                -123.10692254891121,
                49.31237775768431
            ],
            [
                -123.10692334671829,
                49.312385435562966
            ],
            [
                -123.1069088834116,
                49.31237780223026
            ],
            [
                -123.10692659483433,
                49.312389111639405
            ],
            [
                -123.1069226274703,
                49.31239212299467
            ],
            [
                -123.10692867338389,
                49.312407826723
            ],
            [
                -123.10689897134966,
                49.3123829118306
            ],
            [
                -123.1069000586115,
                49.31235081804853
            ],
            [
                -123.10691243727622,
                49.3123679173046
            ],
            [
                -123.10689833803755,
                49.31238572528256
            ],
            [
                -123.10690409052573,
                49.312389141093014
            ],
            [
                -123.10694935519844,
                49.31237647828493
            ],
            [
                -123.10691001922791,
                49.31238982804594
            ],
            [
                -123.10691492313538,
                49.3123844716275
            ],
            [
                -123.10689075640187,
                49.31237991048365
            ],
            [
                -123.10692077741955,
                49.31237626812699
            ],
            [
                -123.10691774828804,
                49.31238591995624
            ],
            [
                -123.10692367964977,
                49.31238227530063
            ],
            [
                -123.1069319368225,
                49.31236907000473
            ],
            [
                -123.10689053876742,
                49.3123904815677
            ],
            [
                -123.10688850154432,
                49.31238879542712
            ],
            [
                -123.10694996443641,
                49.31241013832291
            ],
            [
                -123.106903629475,
                49.31237839218784
            ],
            [
                -123.10691587587665,
                49.31239671971405
            ],
            [
                -123.1069485146606,
                49.312427818764526
            ],
            [
                -123.10692902165147,
                49.31240857944202
            ],
            [
                -123.10693101231767,
                49.312380864153866
            ],
            [
                -123.10688932247542,
                49.31237023731502
            ],
            [
                -123.10696994898544,
                49.31237015359862
            ],
            [
                -123.10690230146812,
                49.31238292885365
            ],
            [
                -123.10692091616038,
                49.312386070355174
            ],
            [
                -123.10692066950764,
                49.31238060818823
            ],
            [
                -123.10692515865449,
                49.31239521756076
            ],
            [
                -123.10691503538858,
                49.31236965366749
            ],
            [
                -123.10687525020342,
                49.31238562643612
            ],
            [
                -123.10692085484719,
                49.31238191291685
            ],
            [
                -123.1069013567965,
                49.312381470202034
            ],
            [
                -123.10691016210944,
                49.3123702817155
            ],
            [
                -123.10691002305695,
                49.312380168012474
            ],
            [
                -123.1069160738498,
                49.31237865414682
            ],
            [
                -123.10691664289708,
                49.31238753501556
            ],
            [
                -123.10690410136598,
                49.31235335142439
            ],
            [
                -123.10690865982461,
                49.3123493574784
            ],
            [
                -123.10690776156248,
                49.312354016967255
            ],
            [
                -123.10692172473671,
                49.31240038441864
            ],
            [
                -123.10691,
                49.31235
            ]
        ]
    },
    "properties": {
        "trajectory_id": 2100,
        "object_id": 316052589,
        "label": "TUG"
    }
}