{
    "type": "Feature",
    "geometry": {
        "type": "LineString",
        "coordinates": [
            [
                -123.10689,
                49.31072
            ],
            [
                -123.10690007670622,
                49.310719965590415
            ],
            [
                -123.10691982393753,
                49.31068483861683
            ],
            [
                -123.10693173149114,
                49.31068082950947
            ],
            [
                -123.10689331704285,
                49.310697564391944
            ],
            [
                -123.10693772434486,
                49.3106909087089
            ],
            [
                -123.10690004948137,
                49.310701017447066
            ],
            [
                -123.10690027578319,
                49.31069022837566
            ],
            [
                -123.10689913826661,
                49.310704856409146
            ],
            [
                -123.10695115368036,
                49.31065912222026
            ],
            [
                -123.10690180000223,
                49.31069534829249
            ],
            [
                -123.10689960853843,
                49.31069603556776
            ],
            [
                -123.10690994673264,
                49.31068077923443
            ],
            [
                -123.10695136941888,
                49.310704164279294
            ],
            [
                -123.10691032835777,
                49.310689873799156
            ],
            [
                -123.10692146217416,
                49.31068682541094
            ],
            [
                -123.1069484229766,
                49.310677553681806
            ],
            [
                -123.1068876220686,
                49.31068572585327
            ],
            [
                -123.1069187155689,
                49.31071139034168
            ],
            [
                -123.10688825904226,
                49.310680851864134
            ],
            [
                -123.10690117374553,
                49.31069423734245
            ],
            [
                -123.10691069527428,
                49.31070990663064
            ],
            [
                -123.10689864294156,
                49.31071520134662
            ],
            [
                -123.10690024536304,
                49.31070977554485
            ],
            [
                -123.10690191644625,
                49.31071165421447
            ],
            [
                -123.10691001768224,
                49.3107205407505
            ],
            [
                -123.10691043590909,
                49.310690328945206
            ],
            [
                -123.10689363984055,
                49.310712648283236
            ],
            [
                -123.10690081671835,
                49.310699491166964
            ],
            [
                -123.10689471705444,
                49.31071840050042
            ],
            [
                -123.10693006765555,
                49.31072073884677
            ],
            [
                -123.1068891216986,
                49.310690697618064
            ],
            [
                -123.10689161777591,
                49.310699156875934
            ],
            [
                -123.10690769878346,
                49.31072268211103
            ],
            [
                -123.10689002044433,
                49.31071858063794
            ],
            [
                -123.10692454288657,
                49.31071766010934
            ],
            [
                -123.10690002863963,
                49.31071025789132
            ],
            [
                -123.10690040521499,
                49.310691401183796
            ],
            [
                -123.10690663592385,
                49.310712671569306
            ],
            [
                -123.1069192048416,
                49.31071833587408
            ],
            [
                -123.10690916349236,
                49.31066936200069
            ],
            [
                -123.10692252257053,
                49.31070748463879
            ],
            [
                -123.1068951144403,
                49.31071556509038
            ],
            [
                -123.1068793897601,
                49.31069106076186
            ],
            [
                -123.10691309915383,
                49.31069027820789
            ],
            [
                -123.10691114992946,
                49.310700632651034
            ],
            [
                -123.10688588613229,
                49.310691234654804
            ],
            [
                -123.10688930315341,
                49.31069822581483
            ],
            [
                -123.10689255257488,
                49.31069686618671
            ],
            [
                -123.10689535191804,
                49.31069019959973
            ],
            [
                -123.10688999777385,
                49.31070002904714
            ],
            [
                -123.10687075466356,
                49.31069763658941
            ],
            [
                -123.10690301760368,
                49.31070357139858
            ],
            [
                -123.10691117905507,
                49.31071151504188
            ],
            [
                -123.10691123561828,
                49.31070115071078
            ],
            [
                -123.10686980379509,
                49.31069170616196
            ],
            [
                -123.10687540368927,
                49.31072663669192
            ],
            [
                -123.10685159564699,
                49.310681028525096
            ],
            [
                -123.1068859297284,
                49.310700575568205
            ],
            [
                -123.10688351635552,
                49.31071852889852
            ],
            [
                -123.10690248868761,
                49.31073206506976
            ],
            [
                -123.10689388992986,
                49.31069483085735
            ],
            [
                -123.106900829218,
                49.31071990823774
            ],
            [
                -123.10690344421103,
                49.31063418795458
            ],
            [
                -123.10688004658421,
                49.310750144749406
            ],
            [
                -123.10684522640288,
                49.31072979042398
            ],
            [
                -123.10686202242262,
                49.310718465110575
            ],
            [
                -123.10688011638481,
                49.31070001476749
            ],
            [
                -123.10692098265613,
                49.31068097548208
            ],
            [
                -123.10689367171993,
                49.31067816089252
            ],
            [
                -123.10688018963276,
                49.31067943377448
            ],
            [
                -123.10688642074439,
                49.31069924150261
            ],
            [
                -123.10686473355992,
                49.310720012469254
            ],
            [
                -123.10689413734036,
                49.31070169873357
            ],
            [
                -123.10688349321447,
                49.310730010716824
            ],
            [
                -123.10688976377605,
                49.31071106323773
            ],
            [
                -123.1069233770577,
                49.310690806122054
            ],
            [
                -123.10686569835593,
                49.310706683847414
            ],
            [
                -123.10685932509233,
                49.31073550602429
            ],
            [
                -123.10689,
                49.31067
            ]
        ]
    },
    "properties": {
        "trajectory_id": 2102,
        "object_id": 316052589,
        "label": "TUG"
    }
}