{
    "type": "Feature",
    "geometry": {
        "type": "LineString",
        "coordinates": [
            [
                -122.51179,
                47.30581
            ],
            [
                -122.51176991715653,
                47.30580978744573
            ],
            [
                -122.5117699236784,
                47.305829840928794
            ],
            [
                -122.51178948956608,
                47.30581969272005
            ],
            [
                -122.51175485914933,
                47.30580402297376
            ],
            [
                -122.5117797434493,
                47.30582024123217
            ],
            [
                -122.51176865610417,
                47.30580075194272
            ],
            [
                -122.51178106764588,
                47.30580032056126
            ],
            [
                -122.51176935937455,
                47.30580911951951
            ],
            [
                -122.51177101973103,
                47.30580140288484
            ],
            [
                -122.51176890519426,
                47.30580932020118
            ],
            [
                -122.51176903044453,
                47.3058007730694
            ],
            [
                -122.5117685674494,
                47.30581109524166
            ],
            [
                -122.51177225548835,
                47.305812684166185
            ],
            [
                -122.5117599341886,
                47.30581005383893
            ],
            [
                -122.51178570876222,
                47.30580638783062
            ],
            [
                -122.51178391047776,
                47.30581206414066
            ],
            [
                -122.51177250512555,
                47.30580904235136
            ],
            [
                -122.51177940204974,
                47.30581022323331
            ],
            [
                -122.51179848714108,
                47.30581864703737
            ],
            [
                -122.51176296647628,
                47.30581629657164
            ],
            [
                -122.51176668541684,
                47.30580923542859
            ],
            [
                -122.51177902878221,
                47.30579964868455
            ],
            [
                -122.51178172942345,
                47.30582511338526
            ],
            [
                -122.51177255018672,
                47.30580552660881
            ],
            [
                -122.51177141852298,
                47.3058062070742
            ],
            [
                -122.51177481753378,
                47.30581224411994
            ],
            [
                -122.51177953726874,
                47.30580465163845
            ],
            [
                -122.51179850650438,
                47.30578501615205
            ],
            [
                -122.5117783661211,
                47.30578872814124
            ],
            [
                -122.5117819861042,
                47.30579025932449
            ],
            [
                -122.51178623594707,
                47.305802327857805
            ],
            [
                -122.51178214075217,
                47.305803529242624
            ],
            [
                -122.51176524701822,
                47.305790176024765
            ],
            [
                -122.51177062151218,
                47.305787823019536
            ],
            [
                -122.51179025526048,
                47.30579328080877
            ],
            [
                -122.51178767286463,
                47.30580562329601
            ],
            [
                -122.51177607598143,
                47.30579641729981
            ],
            [
                -122.51178272437147,
                47.305799582615464
            ],
            [
                -122.5117722287524,
                47.30580399352093
            ],
            [
                -122.51179168469663,
                47.305801193191925
            ],
            [
                -122.51179139378353,
                47.305792196850554
            ],
            [
                -122.51179288820028,
                47.30580034488095
            ],
            [
                -122.51180168439876,
                47.30581461614966
            ],
            [
                -122.51177194830387,
                47.30582152940454
            ],
            [
                -122.51179591216057,
                47.30581046812613
            ],
            [
                -122.51179148930497,
                47.3058086884344
            ],
            [
                -122.51178547545601,
                47.305820270835056
            ],
            [
                -122.51179012710358,
                47.30579882402497
            ],
            [
                -122.51180045674893,
                47.30579079746303
            ],
            [
                -122.51180968062235,
                47.30580014711523
            ],
            [
                -122.51179009812799,
                47.305798544900014
            ],
            [
                -122.51178172675722,
                47.30578948305417
            ],
            [
                -122.51179228868834,
                47.30579945826618
            ],
            [
                -122.5117996269239,
                47.30578999099548
            ],
            [
                -122.5117766784789,
                47.30579083255621
            ],
            [
                -122.51177820898296,
                47.305790147456534
            ],
            [
                -122.51179243362867,
                47.30578723760324
            ],
            [
                -122.51177971107782,
                47.30580000462495
            ],
            [
                -122.51180005329572,
                47.30580002927086
            ],
            [
                -122.51178035957393,
                47.30580018210844
            ],
            [
                -122.51176942684509,
                47.305810231363196
            ],
            [
                -122.51176994044013,
                47.3057996049243
            ],
            [
                -122.51177102763204,
                47.305800491997644
            ],
            [
                -122.51175699953323,
                47.30579895560058
            ],
            [
                -122.51177148456657,
                47.305800478885836
            ],
            [
                -122.5117904138276,
                47.30578948301411
            ],
            [
                -122.51178044961873,
                47.3057996238659
            ],
            [
                -122.51177025366755,
                47.30579003242622
            ],
            [
                -122.5117781169958,
                47.30579205136989
            ],
            [
                -122.51176058303145,
                47.30579916008804
            ],
            [
                -122.5117605561216,
                47.30579389362628
            ],
            [
                -122.51176730655504,
                47.30579834712653
            ],
            [
                -122.51176910773492,
                47.30579372869775
            ],
            [
                -122.5117636803501,
                47.30579327715269
            ],
            [
                -122.51177129615947,
                47.30579535483091
            ],
            [
                -122.51379190667063,
                47.307932393129335
            ],
            [
                -122.53159115497141,
                47.32186804249489
            ],
            [
                -122.55929622951038,
                47.32711913219295
            ],
            [
                -122.57677,
                47.33102
            ]
        ]
    },
    "properties": {
        "trajectory_id": 2113,
        "object_id": 338028795,
        "label": "PLEASURE CRAFT"
    }
}