{
    "type": "Feature",
    "geometry": {
        "type": "LineString",
        "coordinates": [
            [
                -122.33885,
                47.6325
            ],
            [
                -122.33886146221062,
                47.632511342492535
            ],
            [
                -122.33884196467885,
                47.63251713219553
            ],
            [
                -122.33883085749943,
                47.6325090245308
            ],
            [
                -122.33884719777396,
                47.63255622449714
            ],
            [
                -122.33882488969158,
                47.6325382968726
            ],
            [
                -122.33881922482642,
                47.63254215547141
            ],
            [
                -122.3388281615298,
                47.63252920594069
            ],
            [
                -122.33883240873757,
                47.632533545564954
            ],
            [
                -122.33885312731591,
                47.632538925443036
            ],
            [
                -122.33886983508296,
                47.63251997805675
            ],
            [
                -122.33882311538085,
                47.63252608350082
            ],
            [
                -122.3388412882084,
                47.63252994816676
            ],
            [
                -122.33883218395465,
                47.632533062221505
            ],
            [
                -122.33880792125254,
                47.632531790099655
            ],
            [
                -122.33884928060527,
                47.632510370892575
            ],
            [
                -122.33883298960465,
                47.63250690054298
            ],
            [
                -122.33882579050251,
                47.63251419887392
            ],
            [
                -122.33882028280763,
                47.63250936854321
            ],
            [
                -122.33888810342376,
                47.63251465072433
            ],
            [
                -122.33884976978555,
                47.63250433903241
            ],
            [
                -122.33886937482558,
                47.63252159893435
            ],
            [
                -122.33880317454403,
                47.63251526189182
            ],
            [
                -122.33885971051029,
                47.6325103517187
            ],
            [
                -122.33886147709185,
                47.6325004434627
            ],
            [
                -122.33885227276636,
                47.63250209853959
            ],
            [
                -122.33885900454116,
                47.6324998837601
            ],
            [
                -122.33887265918118,
                47.632490286534036
            ],
            [
                -122.33889052310934,
                47.632469818625594
            ],
            [
                -122.33887759263831,
                47.63249367265772
            ],
            [
                -122.33884138332704,
                47.632509454135196
            ],
            [
                -122.33882403439495,
                47.63252657022674
            ],
            [
                -122.33885539582145,
                47.63251083248544
            ],
            [
                -122.33884043343674,
                47.63250993733154
            ],
            [
                -122.33884192798716,
                47.63252256070822
            ],
            [
                -122.33884938299244,
                47.63250944915919
            ],
            [
                -122.33885026296348,
                47.63251025636807
            ],
            [
                -122.3388071135514,
                47.63252332314242
            ],
            [
                -122.33884264885546,
                47.63251764524137
            ],
            [
                -122.33883293516354,
                47.63252574180949
            ],
            [
                -122.33885014012917,
                47.632509934386974
            ],
            [
                -122.33884108495043,
                47.6325203325455
            ],
            [
                -122.33881979492395,
                47.63252000907872
            ],
            [
                -122.33883753169354,
                47.63253629437426
            ],
            [
                -122.33883068099594,
                47.632535465055376
            ],
            [
                -122.33881098568894,
                47.63247758670913
            ],
            [
                -122.33885067681132,
                47.63252033379837
            ],
            [
                -122.33883614481616,
                47.632524461307646
            ],
            [
                -122.33881988942491,
                47.63253985950757
            ],
            [
                -122.33885631356604,
                47.63252647011182
            ],
            [
                -122.33886954147846,
                47.63246519357517
            ],
            [
                -122.33882110075032,
                47.632561556035824
            ],
            [
                -122.33885182276441,
                47.632523856756286
            ],
            [
                -122.33882654735466,
                47.63253337666453
            ],
            [
                -122.33882761486515,
                47.63252383448486
            ],
            [
                -122.3388338954501,
                47.632493736956015
            ],
            [
                -122.33880433827483,
                47.63254736875858
            ],
            [
                -122.33885667742513,
                47.632596994534865
            ],
            [
                -122.3388595332703,
                47.63261907916733
            ],
            [
                -122.33884084962187,
                47.632598808837464
            ],
            [
                -122.33882293203246,
                47.63252081606571
            ],
            [
                -122.33881986359695,
                47.63250925416595
            ],
            [
                -122.33881081750562,
                47.63251843578331
            ],
            [
                -122.33881630086307,
                47.63252823224435
            ],
            [
                -122.33879646201186,
                47.632579659322786
            ],
            [
                -122.33881414643766,
                47.632541712010266
            ],
            [
                -122.33884834652662,
                47.63249274620978
            ],
            [
                -122.33880949435338,
                47.63252925686918
            ],
            [
                -122.33881811493377,
                47.63253129915648
            ],
            [
                -122.33882418580902,
                47.63251551660922
            ],
            [
                -122.33883393185216,
                47.632427781230405
            ],
            [
                -122.33885009780164,
                47.63243491786388
            ],
            [
                -122.33884020488327,
                47.63250011229231
            ],
            [
                -122.33881027143782,
                47.63253709215579
            ],
            [
                -122.33882868466029,
                47.63255504954761
            ],
            [
                -122.33886139103663,
                47.63257004132986
            ],
            [
                -122.33887253235466,
                47.63256882780131
            ],
            [
                -122.338820575023,
                47.63258059229066
            ],
            [
                -122.33884907727618,
                47.632560560950786
            ],
            [
                -122.33885,
                47.63254
            ]
        ]
    },
    "properties": {
        "trajectory_id": 2129,
        "object_id": 338079528,
        "label": "PLEASURE CRAFT"
    }
}