{
    "type": "Feature",
    "geometry": {
        "type": "LineString",
        "coordinates": [
            [
                -123.44863,
                49.10572
            ],
            [
                -123.5102874871477,
                49.13007198052702
            ],
            [
                -123.57336040408069,
                49.15222065640287
            ],
            [
                -123.63646752126084,
                49.17445627392296
            ],
            [
                -123.70147661936467,
                49.19435925096683
            ],
            [
                -123.76763056423098,
                49.21269750795353
            ],
            [
                -123.8353110374381,
                49.216313531362026
            ],
            [
                -123.8838039197303,
                49.18815242913033
            ],
            [
                -123.89094447394933,
                49.16300558968337
            ],
            [
                -123.89094757429197,
                49.163009992524024
            ],
            [
                -123.89095000003748,
                49.163009990517175
            ],
            [
                -123.89089142562176,
                49.162907949468504
            ],
            [
                -123.88677729126998,
                49.18704018972394
            ],
            [
                -123.83513353390146,
                49.21218439037194
            ],
            [
                -123.76814865667168,
                49.205324966946755
            ],
            [
                -123.70298162123044,
                49.18524979643174
            ],
            [
                -123.63807099918324,
                49.165240540040436
            ],
            [
                -123.57928495584326,
                49.138249216019844
            ],
            [
                -123.51979349515281,
                49.111999675292836
            ],
            [
                -123.4604972100133,
                49.08528232718575
            ],
            [
                -123.40220840039562,
                49.05865861942065
            ],
            [
                -123.34310868775773,
                49.031636578927596
            ],
            [
                -123.27858100828531,
                49.01251352317709
            ],
            [
                -123.2090633118202,
                49.00191383169597
            ],
            [
                -123.14033906690766,
                49.002416233806386
            ],
            [
                -123.13211997206352,
                49.005759786991284
            ],
            [
                -123.13211002061287,
                49.00575954249598
            ],
            [
                -123.1321157271742,
                49.005759044720136
            ],
            [
                -123.13364197215392,
                49.004751498935036
            ],
            [
                -123.19696231923976,
                49.00931598848795
            ],
            [
                -123.26398775337333,
                49.02527368857337
            ],
            [
                -123.32210070325307,
                49.052663942246355
            ],
            [
                -123.38044987665535,
                49.07997567695499
            ],
            [
                -123.44133776541196,
                49.104511362313104
            ],
            [
                -123.50132913807137,
                49.13011681325989
            ],
            [
                -123.5637268784397,
                49.15323688629014
            ],
            [
                -123.62726930202146,
                49.17449248784445
            ],
            [
                -123.69249127447534,
                49.1934668341113
            ],
            [
                -123.75881601343745,
                49.21061372465292
            ],
            [
                -123.82620323628151,
                49.21747735603573
            ],
            [
                -123.88281353229046,
                49.19291164969081
            ],
            [
                -123.89091510117252,
                49.1630933539745
            ],
            [
                -123.89094214064426,
                49.16300705306274
            ],
            [
                -123.89139963720174,
                49.1632719548251
            ],
            [
                -123.89151923084395,
                49.16351912367011
            ],
            [
                -123.88650648094449,
                49.189723237407456
            ],
            [
                -123.82398978557234,
                49.21446964062655
            ],
            [
                -123.75245858769038,
                49.19895489858369
            ],
            [
                -123.68161966761545,
                49.179505437263614
            ],
            [
                -123.61637135132787,
                49.153397537373024
            ],
            [
                -123.55275295967354,
                49.12488713350562
            ],
            [
                -123.48834699484611,
                49.09680590513155
            ],
            [
                -123.42327484084483,
                49.06845162019383
            ],
            [
                -123.35853721406599,
                49.03966000457983
            ],
            [
                -123.29004308725003,
                49.01363232621144
            ],
            [
                -123.21224855512608,
                49.00396788934429
            ],
            [
                -123.1381499524254,
                49.00340327393482
            ],
            [
                -123.13211994600539,
                49.005770030557585
            ],
            [
                -123.13214183447342,
                49.00579161717041
            ],
            [
                -123.13214540201733,
                49.005783477288
            ],
            [
                -123.13215185009835,
                49.00579694725103
            ],
            [
                -123.13213971274529,
                49.00579029358405
            ],
            [
                -123.13214000531113,
                49.005791028762296
            ],
            [
                -123.13213999985254,
                49.00577932830444
            ],
            [
                -123.13214000134951,
                49.00579083342257
            ],
            [
                -123.1321399293602,
                49.00578998477094
            ],
            [
                -123.13213785912083,
                49.00578999894015
            ],
            [
                -123.13215087323704,
                49.00579000001605
            ],
            [
                -123.13214052134343,
                49.00579000000633
            ],
            [
                -123.13214316322647,
                49.00578999966039
            ],
            [
                -123.13214936945103,
                49.005789991484846
            ],
            [
                -123.13215004795993,
                49.005790247946514
            ],
            [
                -123.13214433057173,
                49.005798956805066
            ],
            [
                -123.13215273237803,
                49.00579100633063
            ],
            [
                -123.13215001819758,
                49.00579894753194
            ],
            [
                -123.13215000090469,
                49.00579993357398
            ],
            [
                -123.1321499999877,
                49.00580043163404
            ],
            [
                -123.1321500000046,
                49.00579046467486
            ],
            [
                -123.1321499999972,
                49.00579441647757
            ],
            [
                -123.13215,
                49.0058
            ]
        ]
    },
    "properties": {
        "trajectory_id": 218,
        "object_id": 316001245,
        "label": "PASSENGER"
    }
}