{
    "type": "Feature",
    "geometry": {
        "type": "LineString",
        "coordinates": [
            [
                -122.39062,
                47.66368
            ],
            [
                -122.39065213775183,
                47.663680195285586
            ],
            [
                -122.39057053275995,
                47.66367338520365
            ],
            [
                -122.39059984382584,
                47.663635652195936
            ],
            [
                -122.39060157649085,
                47.663671866424025
            ],
            [
                -122.39063121877822,
                47.66365993342612
            ],
            [
                -122.3905969340963,
                47.66362255614404
            ],
            [
                -122.39058286259262,
                47.66368431777404
            ],
            [
                -122.39058964802692,
                47.6636890969479
            ],
            [
                -122.3906089363424,
                47.66365040954923
            ],
            [
                -122.39062229727676,
                47.66363290350354
            ],
            [
                -122.39058281949697,
                47.66367120642285
            ],
            [
                -122.3906271040268,
                47.66372203538324
            ],
            [
                -122.39063815756334,
                47.66367594399487
            ],
            [
                -122.39060933021503,
                47.66368423770836
            ],
            [
                -122.39062181840966,
                47.663692738269944
            ],
            [
                -122.39061599771884,
                47.663679078589546
            ],
            [
                -122.39063856948346,
                47.66369788174988
            ],
            [
                -122.39061544293037,
                47.66367219396458
            ],
            [
                -122.39056971793174,
                47.66368821559069
            ],
            [
                -122.39051022928072,
                47.6636891234485
            ],
            [
                -122.39062022622572,
                47.66372003862751
            ],
            [
                -122.390560465922,
                47.66368673655033
            ],
            [
                -122.39059674605198,
                47.66369055517511
            ],
            [
                -122.39060903185481,
                47.66371891351285
            ],
            [
                -122.39057983526452,
                47.663699916067095
            ],
            [
                -122.3906427652524,
                47.66368578686607
            ],
            [
                -122.39061440857694,
                47.66360203881933
            ],
            [
                -122.39061912866242,
                47.66369433299464
            ],
            [
                -122.39061748399939,
                47.66370067872925
            ],
            [
                -122.39056160950179,
                47.663690518487435
            ],
            [
                -122.3906060823121,
                47.66371108173099
            ],
            [
                -122.39057128732948,
                47.66373094477338
            ],
            [
                -122.39057531727899,
                47.66371618391025
            ],
            [
                -122.39058771525633,
                47.66367648569373
            ],
            [
                -122.39061415079962,
                47.663665736808596
            ],
            [
                -122.39061452713575,
                47.66367336217087
            ],
            [
                -122.39066345899965,
                47.663684632064715
            ],
            [
                -122.39060894804614,
                47.66369175160611
            ],
            [
                -122.39063942504099,
                47.66369223572138
            ],
            [
                -122.39061837923919,
                47.66369944488353
            ],
            [
                -122.39061000100712,
                47.66370998374142
            ],
            [
                -122.39058188767248,
                47.66370621285218
            ],
            [
                -122.39054825675538,
                47.66372137379125
            ],
            [
                -122.39058925033169,
                47.66364758370161
            ],
            [
                -122.39058337905402,
                47.66368317257791
            ],
            [
                -122.3906097074356,
                47.663692086170855
            ],
            [
                -122.39056049248381,
                47.66367619751103
            ],
            [
                -122.39064099940914,
                47.663590775457905
            ],
            [
                -122.39064251923556,
                47.663622608205884
            ],
            [
                -122.39063342913188,
                47.66368602804448
            ],
            [
                -122.3906067162795,
                47.66367206009382
            ],
            [
                -122.39060104988718,
                47.6636840328492
            ],
            [
                -122.39058714317575,
                47.663740299546724
            ],
            [
                -122.39059855551633,
                47.66369992281066
            ],
            [
                -122.39059939878364,
                47.66365797235561
            ],
            [
                -122.39060297404508,
                47.663698569536
            ],
            [
                -122.39058512847281,
                47.66369495623864
            ],
            [
                -122.39057700934129,
                47.663694658326314
            ],
            [
                -122.39051689179945,
                47.66365205359295
            ],
            [
                -122.39058098602388,
                47.663701877367814
            ],
            [
                -122.39062493193438,
                47.6636911014523
            ],
            [
                -122.39062533469125,
                47.66367557573462
            ],
            [
                -122.39061251350752,
                47.66364661447198
            ],
            [
                -122.3906418138655,
                47.66364753958961
            ],
            [
                -122.3905894681283,
                47.663669784966075
            ],
            [
                -122.39058040529959,
                47.66367144929243
            ],
            [
                -122.39063498456154,
                47.66368248512435
            ],
            [
                -122.39060452883511,
                47.66367560563207
            ],
            [
                -122.39061936615019,
                47.663751762505356
            ],
            [
                -122.39064021914947,
                47.663671310964844
            ],
            [
                -122.3906377772283,
                47.66367685917596
            ],
            [
                -122.39063755001808,
                47.663704590070104
            ],
            [
                -122.39057812298014,
                47.66368977180153
            ],
            [
                -122.39070662267198,
                47.663712967788186
            ],
            [
                -122.39058232879138,
                47.66366089160229
            ],
            [
                -122.3906305139909,
                47.66367147551436
            ],
            [
                -122.39065292369136,
                47.663671835184005
            ],
            [
                -122.39058465690522,
                47.663635859952066
            ],
            [
                -122.39063,
                47.66365
            ]
        ]
    },
    "properties": {
        "trajectory_id": 2208,
        "object_id": 338185000,
        "label": "FISHING"
    }
}