{
    "type": "Feature",
    "geometry": {
        "type": "LineString",
        "coordinates": [
            [
                -122.39063,
                47.66368
            ],
            [
                -122.39060442074684,
                47.663734447114564
            ],
            [
                -122.39061478252742,
                47.663702462198586
            ],
            [
                -122.39062106420438,
                47.663669857922116
            ],
            [
                -122.39064992966456,
                47.66369374270925
            ],
            [
                -122.3906753193206,
                47.66371871381588
            ],
            [
                -122.39062468571525,
                47.66367774529015
            ],
            [
                -122.390635258243,
                47.66368660423872
            ],
            [
                -122.39058913836777,
                47.66370946011883
            ],
            [
                -122.39062720078475,
                47.66366787571542
            ],
            [
                -122.39060168485433,
                47.66369956454219
            ],
            [
                -122.39062632616968,
                47.663705188331434
            ],
            [
                -122.39066536804252,
                47.66371444107336
            ],
            [
                -122.39060326850226,
                47.66364603207498
            ],
            [
                -122.39061661267776,
                47.66368207439977
            ],
            [
                -122.39059652776537,
                47.663683245119934
            ],
            [
                -122.39062569076557,
                47.663661256872274
            ],
            [
                -122.39058994554365,
                47.66365939237675
            ],
            [
                -122.39060184810765,
                47.66367978446124
            ],
            [
                -122.39062411839755,
                47.663715564435954
            ],
            [
                -122.39066629503155,
                47.66365445327603
            ],
            [
                -122.39064581586095,
                47.663705796322425
            ],
            [
                -122.39066196123923,
                47.66369547596012
            ],
            [
                -122.39062808264889,
                47.663666594881086
            ],
            [
                -122.39056913828,
                47.66372042155585
            ],
            [
                -122.39058405381812,
                47.66367936165283
            ],
            [
                -122.39062216865368,
                47.66367028700226
            ],
            [
                -122.39069353232084,
                47.6636477018981
            ],
            [
                -122.3906221635055,
                47.663671876142885
            ],
            [
                -122.39063197514042,
                47.66368431766458
            ],
            [
                -122.3906129040765,
                47.66368953285124
            ],
            [
                -122.39066267253438,
                47.663679063067136
            ],
            [
                -122.39060669171529,
                47.663659204878876
            ],
            [
                -122.39059224781126,
                47.66365980355771
            ],
            [
                -122.39054680937804,
                47.66368100241468
            ],
            [
                -122.39058191826949,
                47.66363608309157
            ],
            [
                -122.39055672742803,
                47.66371709661179
            ],
            [
                -122.39059168274552,
                47.66367918671223
            ],
            [
                -122.39054660425448,
                47.66370775822079
            ],
            [
                -122.39062004670527,
                47.663709360388964
            ],
            [
                -122.39063517061217,
                47.66368889628378
            ],
            [
                -122.39064526347431,
                47.66368145900939
            ],
            [
                -122.39059385304957,
                47.663671211395105
            ],
            [
                -122.39061047931449,
                47.663689356169165
            ],
            [
                -122.3905965878319,
                47.66368501834286
            ],
            [
                -122.39057793598862,
                47.66367412530056
            ],
            [
                -122.39058113322501,
                47.66369253563956
            ],
            [
                -122.39061000870628,
                47.663659998692
            ],
            [
                -122.39055750399993,
                47.66367867235171
            ],
            [
                -122.39063372572986,
                47.66368424189652
            ],
            [
                -122.3906234236372,
                47.66365490400546
            ],
            [
                -122.39061911929316,
                47.66368203858958
            ],
            [
                -122.39060713287654,
                47.66365416552162
            ],
            [
                -122.39060704751238,
                47.66368746058626
            ],
            [
                -122.39057401729156,
                47.66366820239895
            ],
            [
                -122.39061229608195,
                47.66370828386715
            ],
            [
                -122.3906334063518,
                47.66370040692286
            ],
            [
                -122.39060382970632,
                47.663692004944124
            ],
            [
                -122.39060590657378,
                47.66367273525336
            ],
            [
                -122.39058055600447,
                47.66371572119006
            ],
            [
                -122.39059462607847,
                47.66369173716411
            ],
            [
                -122.3906026827905,
                47.66366691423395
            ],
            [
                -122.39062682507436,
                47.66368520387828
            ],
            [
                -122.39059812033344,
                47.66367901506517
            ],
            [
                -122.39063792776031,
                47.66373696554243
            ],
            [
                -122.39059218506023,
                47.66369958723261
            ],
            [
                -122.39058848820187,
                47.663681220267144
            ],
            [
                -122.39061665851452,
                47.66366048498238
            ],
            [
                -122.39062414245116,
                47.66366651804494
            ],
            [
                -122.3905868551912,
                47.6636905236562
            ],
            [
                -122.39060282088909,
                47.663667461749554
            ],
            [
                -122.39064223205396,
                47.66367085156774
            ],
            [
                -122.3905799201851,
                47.66370472281901
            ],
            [
                -122.39059887870863,
                47.663668928643986
            ],
            [
                -122.3906196548321,
                47.66367895507752
            ],
            [
                -122.39058337616592,
                47.66362681496765
            ],
            [
                -122.39054020683155,
                47.663682596807604
            ],
            [
                -122.3905879620951,
                47.66368325036315
            ],
            [
                -122.3906201043445,
                47.66366678741209
            ],
            [
                -122.3906,
                47.66364
            ]
        ]
    },
    "properties": {
        "trajectory_id": 2210,
        "object_id": 338185000,
        "label": "FISHING"
    }
}