{
    "type": "Feature",
    "geometry": {
        "type": "LineString",
        "coordinates": [
            [
                -122.39061,
                47.66367
            ],
            [
                -122.39058859144671,
                47.66369889308872
            ],
            [
                -122.39059340672448,
                47.66362264296933
            ],
            [
                -122.39061059352505,
                47.66363848935942
            ],
            [
                -122.39059056494413,
                47.66370499819302
            ],
            [
                -122.39058312512694,
                47.663696956792144
            ],
            [
                -122.39059887172006,
                47.66370463362054
            ],
            [
                -122.39060729607411,
                47.66367922379136
            ],
            [
                -122.390589898484,
                47.66366996713735
            ],
            [
                -122.39061910486973,
                47.6636693713376
            ],
            [
                -122.39060723954609,
                47.66367258657289
            ],
            [
                -122.39061019296057,
                47.66368392573358
            ],
            [
                -122.3906153058425,
                47.66375722557912
            ],
            [
                -122.39059900198612,
                47.663677112368816
            ],
            [
                -122.39062825991743,
                47.66369161063474
            ],
            [
                -122.39059512542362,
                47.66372961167987
            ],
            [
                -122.39063001622777,
                47.66366002557473
            ],
            [
                -122.39062819844015,
                47.66365385983388
            ],
            [
                -122.39061713839881,
                47.663698190054944
            ],
            [
                -122.39061865590247,
                47.66369381964601
            ],
            [
                -122.39062325411157,
                47.66373245296638
            ],
            [
                -122.39057547400468,
                47.66370153111692
            ],
            [
                -122.3906486874236,
                47.66368340071455
            ],
            [
                -122.39064155514573,
                47.66366259436462
            ],
            [
                -122.39058251231116,
                47.663711715574095
            ],
            [
                -122.3906005595591,
                47.66367741066542
            ],
            [
                -122.39066949365845,
                47.66362172789783
            ],
            [
                -122.39057578872202,
                47.66368850088309
            ],
            [
                -122.39056800288576,
                47.663698479286474
            ],
            [
                -122.39063529020513,
                47.66369345113163
            ],
            [
                -122.39071403026668,
                47.66366982319987
            ],
            [
                -122.39062668105512,
                47.66369960506131
            ],
            [
                -122.39063297248518,
                47.66362814475181
            ],
            [
                -122.39054569811032,
                47.663696685782014
            ],
            [
                -122.39059553235187,
                47.663662794553524
            ],
            [
                -122.3905790749478,
                47.663693318896236
            ],
            [
                -122.39062941149409,
                47.663642446349726
            ],
            [
                -122.39059247800921,
                47.663658031390256
            ],
            [
                -122.39064051428471,
                47.66367228462549
            ],
            [
                -122.39062655873401,
                47.663672743617894
            ],
            [
                -122.3906080098827,
                47.66368191066354
            ],
            [
                -122.39060306683248,
                47.66366252920836
            ],
            [
                -122.39061591206288,
                47.66368890666767
            ],
            [
                -122.39061619830774,
                47.66371182089973
            ],
            [
                -122.39057271083918,
                47.66371936743116
            ],
            [
                -122.39072998513733,
                47.66359981091444
            ],
            [
                -122.39057932923261,
                47.66369923291442
            ],
            [
                -122.39058002144571,
                47.66370090516454
            ],
            [
                -122.39058083415885,
                47.66371902229979
            ],
            [
                -122.39057077310538,
                47.66370022749137
            ],
            [
                -122.39057178467576,
                47.66372697539144
            ],
            [
                -122.39056650706377,
                47.663704490180116
            ],
            [
                -122.39057701976446,
                47.6637111339837
            ],
            [
                -122.3905937649598,
                47.66370752044478
            ],
            [
                -122.39059150697595,
                47.66369993977683
            ],
            [
                -122.39058478264828,
                47.66367527420645
            ],
            [
                -122.39059417440113,
                47.66370991416347
            ],
            [
                -122.39057277259688,
                47.66370406024368
            ],
            [
                -122.39059635938622,
                47.66367717206183
            ],
            [
                -122.3905071593147,
                47.663678590868294
            ],
            [
                -122.39061192268045,
                47.66359834061883
            ],
            [
                -122.39057236612534,
                47.66364832054744
            ],
            [
                -122.39061103097801,
                47.663675799577554
            ],
            [
                -122.3905967487095,
                47.66364455978314
            ],
            [
                -122.39059103805516,
                47.66368703295425
            ],
            [
                -122.39060816841024,
                47.66367563154416
            ],
            [
                -122.3905674834201,
                47.66363151029163
            ],
            [
                -122.39060455872433,
                47.663664728437546
            ],
            [
                -122.39066909666137,
                47.663665239957844
            ],
            [
                -122.39062652905318,
                47.663658995848344
            ],
            [
                -122.39062406517466,
                47.66366174915238
            ],
            [
                -122.39065762236157,
                47.663641285673414
            ],
            [
                -122.39062481192214,
                47.6636558174898
            ],
            [
                -122.39063712047322,
                47.66368339459261
            ],
            [
                -122.39063417633186,
                47.66366887162399
            ],
            [
                -122.39059568718642,
                47.66371212789717
            ],
            [
                -122.39057673868324,
                47.66366241294117
            ],
            [
                -122.39060991811677,
                47.66366900702024
            ],
            [
                -122.3905612796941,
                47.66369894846059
            ],
            [
                -122.39058,
                47.66371
            ]
        ]
    },
    "properties": {
        "trajectory_id": 2211,
        "object_id": 338185000,
        "label": "FISHING"
    }
}