{
    "type": "Feature",
    "geometry": {
        "type": "LineString",
        "coordinates": [
            [
                -122.33747,
                47.60057
            ],
            [
                -122.33897835309611,
                47.60111292110059
            ],
            [
                -122.33898480164699,
                47.6011035126513
            ],
            [
                -122.33910470773986,
                47.60088775127393
            ],
            [
                -122.422340868602,
                47.579733227548225
            ],
            [
                -122.46539451281282,
                47.51644380698009
            ],
            [
                -122.46505305606081,
                47.51149832743109
            ],
            [
                -122.43759383710426,
                47.563146276279056
            ],
            [
                -122.36744202725811,
                47.60210309332497
            ],
            [
                -122.33919770353572,
                47.60121472831247
            ],
            [
                -122.37467995532624,
                47.597009807700225
            ],
            [
                -122.43748847589853,
                47.56419685103558
            ],
            [
                -122.46478991617731,
                47.51131965005863
            ],
            [
                -122.45958122926136,
                47.518421396749154
            ],
            [
                -122.42264147684008,
                47.57997130196344
            ],
            [
                -122.34261406811663,
                47.60057165412847
            ],
            [
                -122.33918777026518,
                47.60120145471193
            ],
            [
                -122.40707113228453,
                47.58859613891855
            ],
            [
                -122.45404669138122,
                47.53607874777987
            ],
            [
                -122.46482126761458,
                47.51130737199648
            ],
            [
                -122.4487423555722,
                47.54506309974151
            ],
            [
                -122.40290941538397,
                47.60003590774102
            ],
            [
                -122.33913253655483,
                47.60125892306614
            ],
            [
                -122.33747301953068,
                47.600546737242006
            ],
            [
                -122.33747105919458,
                47.600549435362886
            ],
            [
                -122.33746903230411,
                47.60055148318535
            ],
            [
                -122.33747672293144,
                47.60056059924407
            ],
            [
                -122.33746575870133,
                47.600559282813585
            ],
            [
                -122.3374798805933,
                47.600549953495786
            ],
            [
                -122.33747826441889,
                47.600548474096954
            ],
            [
                -122.3374773218181,
                47.600557532345874
            ],
            [
                -122.33747034330028,
                47.60054909721995
            ],
            [
                -122.33747780473598,
                47.60054923836215
            ],
            [
                -122.33747002379135,
                47.60055074444626
            ],
            [
                -122.33748455695547,
                47.600540584416095
            ],
            [
                -122.33746166523645,
                47.60056188201561
            ],
            [
                -122.3374796372707,
                47.60055058021014
            ],
            [
                -122.33746706979423,
                47.60055412274216
            ],
            [
                -122.33746977014383,
                47.600540598096
            ],
            [
                -122.33749189509321,
                47.60055711089694
            ],
            [
                -122.33748514702332,
                47.60055721818143
            ],
            [
                -122.33747555859236,
                47.60053512863837
            ],
            [
                -122.33749878499609,
                47.60052845350168
            ],
            [
                -122.3374749207416,
                47.60056530521542
            ],
            [
                -122.3374964779495,
                47.60053860475067
            ],
            [
                -122.3374681871926,
                47.60055067504552
            ],
            [
                -122.3374802154244,
                47.60054981668844
            ],
            [
                -122.33746972868938,
                47.60056139680372
            ],
            [
                -122.33748353889925,
                47.600566036401915
            ],
            [
                -122.3374768125455,
                47.600560573028304
            ],
            [
                -122.33747410045935,
                47.60054483652283
            ],
            [
                -122.33747048630312,
                47.6005373047009
            ],
            [
                -122.33746730331674,
                47.60054724619753
            ],
            [
                -122.337468428417,
                47.60054452062378
            ],
            [
                -122.33746862818455,
                47.60056317073014
            ],
            [
                -122.33747590807106,
                47.600544039305206
            ],
            [
                -122.33747124181532,
                47.60057351466935
            ],
            [
                -122.33748419919208,
                47.6005624750393
            ],
            [
                -122.33746957474561,
                47.600558065556044
            ],
            [
                -122.33747550110861,
                47.60056682073564
            ],
            [
                -122.3374821629028,
                47.600567461338805
            ],
            [
                -122.33747279583186,
                47.60057564413676
            ],
            [
                -122.3374974115824,
                47.60055777214089
            ],
            [
                -122.33749479928571,
                47.600543242403354
            ],
            [
                -122.33747682367573,
                47.60055841103978
            ],
            [
                -122.33745419066634,
                47.60057768403308
            ],
            [
                -122.33748215063099,
                47.60056146576092
            ],
            [
                -122.3374871376367,
                47.600551488023775
            ],
            [
                -122.33745969954894,
                47.60055978475981
            ],
            [
                -122.33747229009221,
                47.60055492383589
            ],
            [
                -122.3374710961621,
                47.6005593784554
            ],
            [
                -122.33749041920372,
                47.60055221371354
            ],
            [
                -122.3374713151742,
                47.60054949024558
            ],
            [
                -122.33748025905675,
                47.60054001582332
            ],
            [
                -122.3374699903714,
                47.60056982238922
            ],
            [
                -122.33747096103654,
                47.60057005081913
            ],
            [
                -122.33748015599116,
                47.60055005654491
            ],
            [
                -122.33747000361464,
                47.600548992664756
            ],
            [
                -122.33747977125093,
                47.6005503000756
            ],
            [
                -122.33747,
                47.60056
            ]
        ]
    },
    "properties": {
        "trajectory_id": 2243,
        "object_id": 338224000,
        "label": "PASSENGER"
    }
}