{
    "type": "Feature",
    "geometry": {
        "type": "LineString",
        "coordinates": [
            [
                -122.33747,
                47.60055
            ],
            [
                -122.3387519104628,
                47.600708280795814
            ],
            [
                -122.33897987555437,
                47.60110258117483
            ],
            [
                -122.3389716970399,
                47.60111228465823
            ],
            [
                -122.39998247983151,
                47.597260739249414
            ],
            [
                -122.45209930522822,
                47.54645938099672
            ],
            [
                -122.46479893593659,
                47.51128871618299
            ],
            [
                -122.45940655873831,
                47.532715360108455
            ],
            [
                -122.41170567014049,
                47.591238499955715
            ],
            [
                -122.3390923712835,
                47.60125766787501
            ],
            [
                -122.34073734712112,
                47.601053918025244
            ],
            [
                -122.42604906490143,
                47.58368319449642
            ],
            [
                -122.4624745579064,
                47.5261004245935
            ],
            [
                -122.46476827013169,
                47.51128091676057
            ],
            [
                -122.43647760401296,
                47.55635334814715
            ],
            [
                -122.3758225742655,
                47.60279133282295
            ],
            [
                -122.33911735003224,
                47.60127360809031
            ],
            [
                -122.37551550880269,
                47.597118915578655
            ],
            [
                -122.44473308598553,
                47.55793970074296
            ],
            [
                -122.46485332998046,
                47.511329349070564
            ],
            [
                -122.45894417737722,
                47.52607421117959
            ],
            [
                -122.41715538797891,
                47.58789597759416
            ],
            [
                -122.33978691917416,
                47.601102706852245
            ],
            [
                -122.3374169187897,
                47.600546399233984
            ],
            [
                -122.33747036488886,
                47.60053927871686
            ],
            [
                -122.33746974454166,
                47.600550387826196
            ],
            [
                -122.33746017087108,
                47.60055998543712
            ],
            [
                -122.33747873882169,
                47.60054101134283
            ],
            [
                -122.33746875053622,
                47.60055134813187
            ],
            [
                -122.33748854506793,
                47.600539437046365
            ],
            [
                -122.33747144984699,
                47.600558861515154
            ],
            [
                -122.33747996545031,
                47.600551450952025
            ],
            [
                -122.33746876899674,
                47.6005422196465
            ],
            [
                -122.33746834465629,
                47.60054870123973
            ],
            [
                -122.3374687633466,
                47.60054867389601
            ],
            [
                -122.33747423155982,
                47.600541092927024
            ],
            [
                -122.3374659124019,
                47.60054723884616
            ],
            [
                -122.33747066740564,
                47.60053878413967
            ],
            [
                -122.33747951037859,
                47.60054331440298
            ],
            [
                -122.33747707905698,
                47.600549170671165
            ],
            [
                -122.337462412868,
                47.60056602579597
            ],
            [
                -122.3375038664163,
                47.60053869689485
            ],
            [
                -122.33747819851894,
                47.60054883162129
            ],
            [
                -122.33748847199404,
                47.6005478443307
            ],
            [
                -122.3374767097318,
                47.60055934009541
            ],
            [
                -122.33748699143985,
                47.60053512018377
            ],
            [
                -122.33747159305003,
                47.60055180049373
            ],
            [
                -122.33748183854289,
                47.60054192234532
            ],
            [
                -122.33747108637134,
                47.600555587686884
            ],
            [
                -122.33747149727667,
                47.600556601191826
            ],
            [
                -122.33745883749395,
                47.60055105821711
            ],
            [
                -122.33747100097737,
                47.60055783888261
            ],
            [
                -122.33747738332546,
                47.600556425041404
            ],
            [
                -122.33747805781185,
                47.600567652037846
            ],
            [
                -122.33747690220987,
                47.60055287236128
            ],
            [
                -122.33747042320911,
                47.60056126142839
            ],
            [
                -122.33747857934753,
                47.60056457135806
            ],
            [
                -122.33747573231814,
                47.60056377050932
            ],
            [
                -122.33747748515178,
                47.60056137695127
            ],
            [
                -122.3374865460548,
                47.600568243516655
            ],
            [
                -122.3374807328387,
                47.60056242262441
            ],
            [
                -122.33747486992769,
                47.60055992824263
            ],
            [
                -122.33747783194008,
                47.60054444993879
            ],
            [
                -122.33746957222604,
                47.600550289047995
            ],
            [
                -122.33746136577938,
                47.60056781614038
            ],
            [
                -122.33748919345767,
                47.60055020466841
            ],
            [
                -122.33748030895057,
                47.60055058986404
            ],
            [
                -122.3374617364781,
                47.6005498990048
            ],
            [
                -122.33747040704498,
                47.600559351162886
            ],
            [
                -122.3374808203637,
                47.600549136215896
            ],
            [
                -122.33748282515015,
                47.60055680294357
            ],
            [
                -122.3374710638727,
                47.60055922173871
            ],
            [
                -122.33746007174472,
                47.60056744687361
            ],
            [
                -122.33746816559855,
                47.60054898992419
            ],
            [
                -122.33746026624243,
                47.60056019979485
            ],
            [
                -122.33747158391921,
                47.60055016480296
            ],
            [
                -122.33747924327874,
                47.600540061106884
            ],
            [
                -122.33745998042255,
                47.6005501204881
            ],
            [
                -122.3374700159214,
                47.60056004822988
            ],
            [
                -122.33746,
                47.60057
            ]
        ]
    },
    "properties": {
        "trajectory_id": 2248,
        "object_id": 338224000,
        "label": "PASSENGER"
    }
}