{
    "type": "Feature",
    "geometry": {
        "type": "LineString",
        "coordinates": [
            [
                -123.42289,
                49.09834
            ],
            [
                -123.48827751492018,
                49.121149064870394
            ],
            [
                -123.55484473555754,
                49.14260984148329
            ],
            [
                -123.6210541304354,
                49.16624480860772
            ],
            [
                -123.68735806056112,
                49.190283367524
            ],
            [
                -123.75494099544956,
                49.211849847834756
            ],
            [
                -123.8261924101035,
                49.21760625974672
            ],
            [
                -123.88672477128276,
                49.19312969981624
            ],
            [
                -123.89052793857506,
                49.16371262104447
            ],
            [
                -123.8909486659772,
                49.163026929636274
            ],
            [
                -123.89094998160404,
                49.163019978468824
            ],
            [
                -123.89094452784343,
                49.163017267397365
            ],
            [
                -123.88871759779663,
                49.172968327547004
            ],
            [
                -123.85251586128757,
                49.209525330964155
            ],
            [
                -123.78165547769146,
                49.20942354953047
            ],
            [
                -123.71425289690086,
                49.187757178860366
            ],
            [
                -123.64582755190696,
                49.16686619281808
            ],
            [
                -123.5849272615101,
                49.13891604764543
            ],
            [
                -123.52286891712014,
                49.11122367796674
            ],
            [
                -123.46083860055903,
                49.08303643985546
            ],
            [
                -123.39907705207067,
                49.05518701895812
            ],
            [
                -123.33775804366404,
                49.026778758478905
            ],
            [
                -123.27080891445021,
                49.00643577653539
            ],
            [
                -123.19595993754325,
                48.9991694030363
            ],
            [
                -123.13619807168529,
                49.0030295826566
            ],
            [
                -123.13212179202834,
                49.00577150096577
            ],
            [
                -123.13211995539939,
                49.00577000004045
            ],
            [
                -123.13210999973312,
                49.00577000712357
            ],
            [
                -123.13241880749003,
                49.00549882955621
            ],
            [
                -123.18976779966334,
                49.00827625010493
            ],
            [
                -123.2594677235989,
                49.02430215582423
            ],
            [
                -123.32050737042607,
                49.05209410553944
            ],
            [
                -123.38054127141058,
                49.08109710109715
            ],
            [
                -123.44364191430111,
                49.10610253576357
            ],
            [
                -123.50748528719066,
                49.13141197892325
            ],
            [
                -123.57262506757503,
                49.15520060671317
            ],
            [
                -123.63603938846707,
                49.1806987091766
            ],
            [
                -123.70469568943219,
                49.1996518536067
            ],
            [
                -123.7758614246051,
                49.21564030057085
            ],
            [
                -123.84704434654871,
                49.213190836980715
            ],
            [
                -123.88836286546056,
                49.179462647486716
            ],
            [
                -123.89095913075526,
                49.16309644832057
            ],
            [
                -123.89100734200646,
                49.163197106070974
            ],
            [
                -123.89098692641043,
                49.16314685912284
            ],
            [
                -123.89100806785538,
                49.16322012702865
            ],
            [
                -123.88728020746021,
                49.18023639489214
            ],
            [
                -123.83837873796202,
                49.2121856255697
            ],
            [
                -123.7673456145467,
                49.204294450127954
            ],
            [
                -123.69998711037742,
                49.18160135406453
            ],
            [
                -123.6326924733111,
                49.158775166221396
            ],
            [
                -123.57045932181961,
                49.13246513704327
            ],
            [
                -123.5079443141657,
                49.104993881307855
            ],
            [
                -123.44441963000281,
                49.07647994816202
            ],
            [
                -123.38002107601498,
                49.04826621349452
            ],
            [
                -123.31795508515798,
                49.018808925011314
            ],
            [
                -123.24506247672329,
                49.00429454167611
            ],
            [
                -123.16924381042878,
                48.993356224854416
            ],
            [
                -123.13276550322992,
                49.00535498672119
            ],
            [
                -123.13210291897406,
                49.005752827914385
            ],
            [
                -123.13213056731462,
                49.005778793183
            ],
            [
                -123.13217614830273,
                49.00580637080908
            ],
            [
                -123.13220101524655,
                49.00583093169431
            ],
            [
                -123.13219998879862,
                49.00582998963341
            ],
            [
                -123.13220000032412,
                49.005830000198124
            ],
            [
                -123.13219999385862,
                49.00582999999622
            ],
            [
                -123.13220033648643,
                49.00583000000007
            ],
            [
                -123.13220570480503,
                49.005829999999996
            ],
            [
                -123.13219991619883,
                49.00583
            ],
            [
                -123.13220000152853,
                49.00583
            ],
            [
                -123.13219999994489,
                49.005829999999804
            ],
            [
                -123.13220000147612,
                49.00583000000963
            ],
            [
                -123.13219992493461,
                49.00582999951048
            ],
            [
                -123.1322077465554,
                49.00583002381259
            ],
            [
                -123.1322109582769,
                49.00582882864337
            ],
            [
                -123.13220010152568,
                49.005829517051325
            ],
            [
                -123.13219999847583,
                49.00583000723002
            ],
            [
                -123.13220000025754,
                49.00583000247571
            ],
            [
                -123.13220000000094,
                49.00583001004551
            ],
            [
                -123.13220000000003,
                49.0058297392885
            ],
            [
                -123.1322,
                49.00583
            ]
        ]
    },
    "properties": {
        "trajectory_id": 225,
        "object_id": 316001245,
        "label": "PASSENGER"
    }
}