{
    "type": "Feature",
    "geometry": {
        "type": "LineString",
        "coordinates": [
            [
                -122.38379,
                47.62854
            ],
            [
                -122.38378026125102,
                47.62852047556824
            ],
            [
                -122.38378864636903,
                47.62850113272636
            ],
            [
                -122.38377933334696,
                47.62850927371094
            ],
            [
                -122.38379402184569,
                47.628532878479355
            ],
            [
                -122.38379396339388,
                47.62853422975214
            ],
            [
                -122.38378349366323,
                47.62853564100377
            ],
            [
                -122.38379923112242,
                47.62851726257388
            ],
            [
                -122.3837781892129,
                47.628512528421034
            ],
            [
                -122.38379015398255,
                47.62855688848866
            ],
            [
                -122.3837700030841,
                47.62855751753431
            ],
            [
                -122.38376830604497,
                47.62852628884536
            ],
            [
                -122.38379001917781,
                47.628519914408656
            ],
            [
                -122.3837638303801,
                47.62851369369505
            ],
            [
                -122.38378016160522,
                47.62853451568131
            ],
            [
                -122.38378025221331,
                47.62853029936573
            ],
            [
                -122.38377436287898,
                47.62851318667468
            ],
            [
                -122.3837536531901,
                47.62851543253016
            ],
            [
                -122.3837861084414,
                47.62853448566793
            ],
            [
                -122.38379177481926,
                47.62853078263671
            ],
            [
                -122.38378969538977,
                47.62853913049156
            ],
            [
                -122.38375929247633,
                47.62852043391459
            ],
            [
                -122.38376957468648,
                47.62852292465879
            ],
            [
                -122.38378669378032,
                47.62852287583581
            ],
            [
                -122.38379757686853,
                47.628535624752416
            ],
            [
                -122.38379994208785,
                47.62853998209699
            ],
            [
                -122.38379029132375,
                47.62850923470653
            ],
            [
                -122.38378782273203,
                47.628527858797355
            ],
            [
                -122.3837908177027,
                47.62851064040424
            ],
            [
                -122.38378441392688,
                47.628549168840756
            ],
            [
                -122.38377832201098,
                47.62850003231631
            ],
            [
                -122.38380074214018,
                47.62854005306461
            ],
            [
                -122.38377318629445,
                47.62854175469834
            ],
            [
                -122.38378553640557,
                47.62853908389598
            ],
            [
                -122.38376970336996,
                47.62852638609385
            ],
            [
                -122.38378245984585,
                47.62854100154257
            ],
            [
                -122.38376619980122,
                47.62853063993356
            ],
            [
                -122.3837712735002,
                47.62853211568784
            ],
            [
                -122.38378484843808,
                47.62854148392704
            ],
            [
                -122.38376242579731,
                47.62852843416194
            ],
            [
                -122.38378195905855,
                47.62853021711735
            ],
            [
                -122.38378444787226,
                47.62851959561646
            ],
            [
                -122.38379079527435,
                47.62852935894884
            ],
            [
                -122.38378322783726,
                47.62853288976267
            ],
            [
                -122.38379770810712,
                47.62851800093687
            ],
            [
                -122.38375947112903,
                47.62851374983153
            ],
            [
                -122.38378098325376,
                47.62850692985501
            ],
            [
                -122.38378373303475,
                47.62853303350507
            ],
            [
                -122.38378854542205,
                47.628508855898545
            ],
            [
                -122.38378742099778,
                47.628520688926265
            ],
            [
                -122.38377544949752,
                47.62851582379118
            ],
            [
                -122.38378794546419,
                47.62853882113672
            ],
            [
                -122.38377395194499,
                47.628546294740424
            ],
            [
                -122.38377418969131,
                47.62853613316829
            ],
            [
                -122.38378480831558,
                47.62852557399989
            ],
            [
                -122.38377660968303,
                47.62852127565119
            ],
            [
                -122.38379983704337,
                47.6285301627284
            ],
            [
                -122.38376218336676,
                47.6285402351198
            ],
            [
                -122.3837775790259,
                47.62852605304766
            ],
            [
                -122.3837698747859,
                47.62853131124371
            ],
            [
                -122.38375420779585,
                47.62851263380195
            ],
            [
                -122.38378743243125,
                47.6285213667575
            ],
            [
                -122.38377049147634,
                47.6285338567758
            ],
            [
                -122.38379006151774,
                47.62853003963569
            ],
            [
                -122.38378060961311,
                47.62851977870314
            ],
            [
                -122.38377129371116,
                47.62852950135269
            ],
            [
                -122.38378622495122,
                47.628521014620674
            ],
            [
                -122.383771312489,
                47.6285228378595
            ],
            [
                -122.38376073614243,
                47.628528905423366
            ],
            [
                -122.38379781568264,
                47.62852995613489
            ],
            [
                -122.383778970622,
                47.62853960372613
            ],
            [
                -122.38377071428856,
                47.62854947108848
            ],
            [
                -122.38377990377374,
                47.62852005651745
            ],
            [
                -122.38379324442961,
                47.62853094301103
            ],
            [
                -122.3837563846335,
                47.6285294573087
            ],
            [
                -122.38378018704871,
                47.628536513817295
            ],
            [
                -122.38376963090833,
                47.628540457048025
            ],
            [
                -122.38377958153633,
                47.62853005533363
            ],
            [
                -122.38379297298899,
                47.628525917633574
            ],
            [
                -122.38379,
                47.62854
            ]
        ]
    },
    "properties": {
        "trajectory_id": 2263,
        "object_id": 338250000,
        "label": "FISHING"
    }
}