{
    "type": "Feature",
    "geometry": {
        "type": "LineString",
        "coordinates": [
            [
                -122.77416,
                48.10714
            ],
            [
                -122.77416016879356,
                48.10713965275787
            ],
            [
                -122.77412026360474,
                48.10715980826323
            ],
            [
                -122.77412867654374,
                48.107153444254365
            ],
            [
                -122.77415055510878,
                48.10713904173462
            ],
            [
                -122.77413874267344,
                48.107155913030546
            ],
            [
                -122.77415099176979,
                48.10714144359552
            ],
            [
                -122.77416332255902,
                48.10712631635178
            ],
            [
                -122.77415030876111,
                48.10713960231033
            ],
            [
                -122.77416231089211,
                48.107136297519155
            ],
            [
                -122.77414086935478,
                48.10714876977361
            ],
            [
                -122.77417959359933,
                48.107148430742875
            ],
            [
                -122.77414404147811,
                48.10714221071834
            ],
            [
                -122.77413679023886,
                48.10713726105876
            ],
            [
                -122.77413966871141,
                48.107136758669945
            ],
            [
                -122.7741796143684,
                48.10716002768201
            ],
            [
                -122.77415194109761,
                48.10714904308009
            ],
            [
                -122.77415447404577,
                48.10714561101034
            ],
            [
                -122.77413568986115,
                48.1071408303973
            ],
            [
                -122.77417115862697,
                48.107167997115155
            ],
            [
                -122.77175841491483,
                48.1074951860065
            ],
            [
                -122.75633999114466,
                48.10816175587286
            ],
            [
                -122.73020187663197,
                48.108414462311515
            ],
            [
                -122.69705916018594,
                48.10710257497629
            ],
            [
                -122.67478188609043,
                48.094263091317444
            ],
            [
                -122.66093418695503,
                48.077573965030155
            ],
            [
                -122.64620569554562,
                48.059008938595134
            ],
            [
                -122.62855566564618,
                48.03987590529464
            ],
            [
                -122.60858675288173,
                48.018444409116874
            ],
            [
                -122.5894128791629,
                47.99663094254038
            ],
            [
                -122.57288514060401,
                47.97402302863048
            ],
            [
                -122.55450152466513,
                47.960010766996206
            ],
            [
                -122.54388904000132,
                47.94434873635641
            ],
            [
                -122.5275144099236,
                47.92299724609205
            ],
            [
                -122.51511849753598,
                47.905027855126505
            ],
            [
                -122.5024672081239,
                47.88571999626172
            ],
            [
                -122.4906652696629,
                47.866683786662655
            ],
            [
                -122.48139221806062,
                47.847623130959754
            ],
            [
                -122.47353039928159,
                47.827174031384466
            ],
            [
                -122.46716657127551,
                47.806158696765095
            ],
            [
                -122.46349813921152,
                47.7842993467439
            ],
            [
                -122.46151562453899,
                47.762762616672255
            ],
            [
                -122.46150548377437,
                47.740851496399
            ],
            [
                -122.46292823340337,
                47.718525372170575
            ],
            [
                -122.46368289144638,
                47.69698337963548
            ],
            [
                -122.46357958843348,
                47.6768725690466
            ],
            [
                -122.46549098452904,
                47.65645571802706
            ],
            [
                -122.46766839684557,
                47.63578816904569
            ],
            [
                -122.46782359520637,
                47.61493952269175
            ],
            [
                -122.46766996083466,
                47.59415057951905
            ],
            [
                -122.46764766766997,
                47.573799239330896
            ],
            [
                -122.47232558274946,
                47.55292939373072
            ],
            [
                -122.47696700811531,
                47.5333669388094
            ],
            [
                -122.48524160931595,
                47.515105828186634
            ],
            [
                -122.4942412033572,
                47.49653465894632
            ],
            [
                -122.503784919322,
                47.477765212653125
            ],
            [
                -122.51229430111243,
                47.45843385672046
            ],
            [
                -122.520055164415,
                47.439517431917444
            ],
            [
                -122.5232431521141,
                47.42012832342257
            ],
            [
                -122.5285073456855,
                47.40136552077931
            ],
            [
                -122.53495430333452,
                47.382014020056275
            ],
            [
                -122.54155607577849,
                47.362725424245276
            ],
            [
                -122.55468918594687,
                47.34469687643691
            ],
            [
                -122.56810071145416,
                47.32856096952868
            ],
            [
                -122.58202434302876,
                47.33391998867505
            ],
            [
                -122.58301723206206,
                47.33408503453112
            ],
            [
                -122.58299655640191,
                47.33408748047202
            ],
            [
                -122.58300456440574,
                47.33408656233383
            ],
            [
                -122.58300314322649,
                47.3341007950913
            ],
            [
                -122.58299886455677,
                47.33409929760401
            ],
            [
                -122.58298873733703,
                47.33409006857711
            ],
            [
                -122.58298048095638,
                47.33409052786385
            ],
            [
                -122.58297872489366,
                47.3340894233015
            ],
            [
                -122.58299118455103,
                47.33409014455735
            ],
            [
                -122.58299962293518,
                47.33409025917901
            ],
            [
                -122.58299047889182,
                47.33409986132159
            ],
            [
                -122.58299115161874,
                47.33408001837521
            ],
            [
                -122.58298039067083,
                47.33407990274108
            ],
            [
                -122.5829899698153,
                47.33409007122913
            ],
            [
                -122.583,
                47.33409
            ]
        ]
    },
    "properties": {
        "trajectory_id": 2276,
        "object_id": 338329857,
        "label": "PLEASURE CRAFT"
    }
}