{
    "type": "Feature",
    "geometry": {
        "type": "LineString",
        "coordinates": [
            [
                -122.33383,
                47.40063
            ],
            [
                -122.33466344304658,
                47.40031363741822
            ],
            [
                -122.33633080312232,
                47.40233571583536
            ],
            [
                -122.33770456896187,
                47.401191484922435
            ],
            [
                -122.33668364503468,
                47.40115434519186
            ],
            [
                -122.33666722120755,
                47.40120500182768
            ],
            [
                -122.33823082147663,
                47.40243518152748
            ],
            [
                -122.34789088760607,
                47.40748732449307
            ],
            [
                -122.35836676599388,
                47.4131046852881
            ],
            [
                -122.36699724847352,
                47.41895341655346
            ],
            [
                -122.37579774249922,
                47.42509877830029
            ],
            [
                -122.38389429861752,
                47.43060831776011
            ],
            [
                -122.39222135815896,
                47.437417412461954
            ],
            [
                -122.4001719188666,
                47.444605015494965
            ],
            [
                -122.40648240513895,
                47.45164076912864
            ],
            [
                -122.40417841673266,
                47.459865271063066
            ],
            [
                -122.40103064527959,
                47.46807074554221
            ],
            [
                -122.39879442933209,
                47.47702526392585
            ],
            [
                -122.39902630166844,
                47.48533174668052
            ],
            [
                -122.4007075958992,
                47.49436497894018
            ],
            [
                -122.40038817618571,
                47.50305369428298
            ],
            [
                -122.40873525902424,
                47.508761478977334
            ],
            [
                -122.41843377746473,
                47.5149632068296
            ],
            [
                -122.41819830161582,
                47.52452580447326
            ],
            [
                -122.41978964709836,
                47.5346597020781
            ],
            [
                -122.42141366885528,
                47.54430429864742
            ],
            [
                -122.42338745196145,
                47.55363247319145
            ],
            [
                -122.42458934539971,
                47.56346336369356
            ],
            [
                -122.41990829242478,
                47.57302959330556
            ],
            [
                -122.4111740502096,
                47.581355774656735
            ],
            [
                -122.40168698234008,
                47.588242876789735
            ],
            [
                -122.39474745240216,
                47.593491868747236
            ],
            [
                -122.3936558239818,
                47.596903719571934
            ],
            [
                -122.40171246066481,
                47.598279398306445
            ],
            [
                -122.41778376131401,
                47.597877121268695
            ],
            [
                -122.43562402991218,
                47.59854136688702
            ],
            [
                -122.45321552879511,
                47.60057172473431
            ],
            [
                -122.4687946230605,
                47.59898951371714
            ],
            [
                -122.48302996123334,
                47.59462147015326
            ],
            [
                -122.47726841383577,
                47.59043100584856
            ],
            [
                -122.46456172605949,
                47.589661188066
            ],
            [
                -122.4523464260105,
                47.587851733926556
            ],
            [
                -122.4399013456536,
                47.58587008824349
            ],
            [
                -122.43143765908903,
                47.58286574134595
            ],
            [
                -122.43322431133107,
                47.57726586699239
            ],
            [
                -122.42273387131912,
                47.575529502332515
            ],
            [
                -122.42792967875678,
                47.56969870797784
            ],
            [
                -122.43409956911093,
                47.562838813998646
            ],
            [
                -122.42919258105903,
                47.55896184337316
            ],
            [
                -122.41869729370467,
                47.556934373287284
            ],
            [
                -122.40907997711356,
                47.55497502762545
            ],
            [
                -122.41096958453043,
                47.5483149208127
            ],
            [
                -122.41161189752737,
                47.542222992307785
            ],
            [
                -122.41063494419463,
                47.536981339657764
            ],
            [
                -122.41192314929646,
                47.53172803381499
            ],
            [
                -122.41190154616726,
                47.52814661444773
            ],
            [
                -122.41166890938624,
                47.52423739745936
            ],
            [
                -122.41424905074113,
                47.517474301800355
            ],
            [
                -122.41107454518587,
                47.50941461353755
            ],
            [
                -122.40715153088024,
                47.50169735537989
            ],
            [
                -122.4040030534094,
                47.49415152184486
            ],
            [
                -122.40263847294129,
                47.4864085504895
            ],
            [
                -122.40043904743287,
                47.47865573314619
            ],
            [
                -122.40151155903263,
                47.47086763711024
            ],
            [
                -122.40702979366033,
                47.46367537984466
            ],
            [
                -122.40150829206405,
                47.45840136346338
            ],
            [
                -122.39437432942698,
                47.45244087565349
            ],
            [
                -122.38851436181984,
                47.444611137606216
            ],
            [
                -122.37950855663988,
                47.437186615388136
            ],
            [
                -122.37124739594458,
                47.42897261363655
            ],
            [
                -122.36269723835088,
                47.42161902668981
            ],
            [
                -122.35393655041185,
                47.415312297451464
            ],
            [
                -122.34584930582311,
                47.40917360131647
            ],
            [
                -122.33614027144793,
                47.40279044236455
            ],
            [
                -122.33502595380929,
                47.399836800383
            ],
            [
                -122.33245772018297,
                47.40185240139748
            ],
            [
                -122.3299607844423,
                47.40152162916138
            ],
            [
                -122.32987350069392,
                47.401530939123866
            ],
            [
                -122.32988843734508,
                47.40154163276449
            ],
            [
                -122.32989,
                47.40153
            ]
        ]
    },
    "properties": {
        "trajectory_id": 2278,
        "object_id": 338335406,
        "label": "PLEASURE CRAFT"
    }
}