{
    "type": "Feature",
    "geometry": {
        "type": "LineString",
        "coordinates": [
            [
                -122.58379,
                47.33444
            ],
            [
                -122.5838885973335,
                47.33440978877022
            ],
            [
                -122.58383446028412,
                47.33442723675014
            ],
            [
                -122.58394517029843,
                47.33444078501077
            ],
            [
                -122.5838020736303,
                47.33447424248074
            ],
            [
                -122.58386950868598,
                47.33447377166496
            ],
            [
                -122.58379788662747,
                47.334464093751855
            ],
            [
                -122.58388727351843,
                47.3344226562597
            ],
            [
                -122.58393421971685,
                47.334493262177716
            ],
            [
                -122.58389481559395,
                47.334441205409114
            ],
            [
                -122.58387644865437,
                47.33441693599085
            ],
            [
                -122.5838560398405,
                47.33445021332835
            ],
            [
                -122.5838422006117,
                47.334449199115376
            ],
            [
                -122.58380866851805,
                47.33443768473194
            ],
            [
                -122.58384184561353,
                47.33447046557601
            ],
            [
                -122.58384713120323,
                47.334418382960706
            ],
            [
                -122.58381832876813,
                47.33439531889212
            ],
            [
                -122.58384357867487,
                47.334399233435875
            ],
            [
                -122.58388081527599,
                47.33443032085247
            ],
            [
                -122.58379919529774,
                47.334336299880135
            ],
            [
                -122.58378668347916,
                47.334358894406414
            ],
            [
                -122.58379860188975,
                47.33445172610877
            ],
            [
                -122.58384093917324,
                47.33439606536131
            ],
            [
                -122.58387807907691,
                47.33441023727449
            ],
            [
                -122.58391526037991,
                47.3344081059129
            ],
            [
                -122.58389157361685,
                47.33441456076828
            ],
            [
                -122.58381616043611,
                47.33440493943326
            ],
            [
                -122.58385198797627,
                47.33448323358078
            ],
            [
                -122.58391551126121,
                47.3344367612213
            ],
            [
                -122.58383844880365,
                47.33440939563359
            ],
            [
                -122.58386146611545,
                47.334405347925156
            ],
            [
                -122.58385355011671,
                47.33442327996228
            ],
            [
                -122.58386498682395,
                47.33440902313121
            ],
            [
                -122.58392884656051,
                47.334435887543826
            ],
            [
                -122.58386052786055,
                47.33441938360254
            ],
            [
                -122.58387800408227,
                47.33440095884048
            ],
            [
                -122.58387150079471,
                47.33444391515412
            ],
            [
                -122.58391485246413,
                47.33451189612424
            ],
            [
                -122.5838356063894,
                47.33446789351464
            ],
            [
                -122.58385988585468,
                47.33445111938404
            ],
            [
                -122.58385486625096,
                47.33443843452265
            ],
            [
                -122.58387199575527,
                47.334470527050165
            ],
            [
                -122.58387674669018,
                47.334423892944066
            ],
            [
                -122.58394833817783,
                47.33457395764003
            ],
            [
                -122.58394445397863,
                47.33447091492849
            ],
            [
                -122.58393008628981,
                47.334453628163374
            ],
            [
                -122.58390451179463,
                47.33447023867433
            ],
            [
                -122.58386669154783,
                47.33447797302927
            ],
            [
                -122.58389040599184,
                47.33445297286968
            ],
            [
                -122.58392691160675,
                47.33443090477742
            ],
            [
                -122.5839383117129,
                47.334431234290555
            ],
            [
                -122.58389034705948,
                47.334449445300336
            ],
            [
                -122.58392200989323,
                47.334427479614334
            ],
            [
                -122.58381049633097,
                47.33444140301526
            ],
            [
                -122.58390088314496,
                47.33446257895481
            ],
            [
                -122.58390134129536,
                47.33446335018605
            ],
            [
                -122.58386603499639,
                47.33445986646493
            ],
            [
                -122.58388182775343,
                47.334546201998904
            ],
            [
                -122.58378243114842,
                47.33447239562948
            ],
            [
                -122.58392159943082,
                47.33450985258806
            ],
            [
                -122.58401938945316,
                47.334515914876924
            ],
            [
                -122.58398337825257,
                47.33454317355334
            ],
            [
                -122.58391845905061,
                47.334392509004836
            ],
            [
                -122.58396075271172,
                47.33446046906123
            ],
            [
                -122.5837783825969,
                47.33431774518316
            ],
            [
                -122.58392961051298,
                47.33446109386181
            ],
            [
                -122.58397343403634,
                47.334411025796165
            ],
            [
                -122.5838488056224,
                47.33437990909019
            ],
            [
                -122.58386888892366,
                47.33437070534825
            ],
            [
                -122.58387464174324,
                47.33446851032577
            ],
            [
                -122.58387102552655,
                47.33444966429863
            ],
            [
                -122.58386792431061,
                47.334411837676996
            ],
            [
                -122.5839110587922,
                47.334422193285896
            ],
            [
                -122.58383072692784,
                47.33439813499516
            ],
            [
                -122.5838265683332,
                47.33433412312315
            ],
            [
                -122.58383505510201,
                47.33436344041843
            ],
            [
                -122.58387973379794,
                47.334359891301474
            ],
            [
                -122.58381150802627,
                47.33439215702834
            ],
            [
                -122.58387923638665,
                47.33444064174884
            ],
            [
                -122.58374,
                47.33432
            ]
        ]
    },
    "properties": {
        "trajectory_id": 2291,
        "object_id": 338416267,
        "label": "PLEASURE CRAFT"
    }
}