{
    "type": "Feature",
    "geometry": {
        "type": "LineString",
        "coordinates": [
            [
                -122.38101,
                47.62916
            ],
            [
                -122.38101139190728,
                47.629103161309104
            ],
            [
                -122.38099462351796,
                47.629201696447446
            ],
            [
                -122.38106216012504,
                47.6292595820815
            ],
            [
                -122.38100059601122,
                47.62919105608633
            ],
            [
                -122.38102029151395,
                47.62917027768354
            ],
            [
                -122.38101166338214,
                47.62919574358376
            ],
            [
                -122.38103299454298,
                47.62921629143519
            ],
            [
                -122.3809617436084,
                47.629144788799024
            ],
            [
                -122.38100762326722,
                47.62918105225885
            ],
            [
                -122.38093957438817,
                47.62914989140189
            ],
            [
                -122.38104487233883,
                47.62921684928313
            ],
            [
                -122.38098710411845,
                47.62923919187148
            ],
            [
                -122.38100736476346,
                47.629200774780806
            ],
            [
                -122.38098309221886,
                47.629165462999225
            ],
            [
                -122.38098759139547,
                47.629224658199554
            ],
            [
                -122.38092690591708,
                47.62921317041847
            ],
            [
                -122.38101970484759,
                47.629188146743786
            ],
            [
                -122.38098313347936,
                47.62919821828858
            ],
            [
                -122.38096255661026,
                47.62915803248165
            ],
            [
                -122.38099791408537,
                47.62912080003835
            ],
            [
                -122.38096120695509,
                47.629135683411214
            ],
            [
                -122.38093300721066,
                47.629144980541206
            ],
            [
                -122.3809784532044,
                47.62916944885077
            ],
            [
                -122.38101449396432,
                47.629232701581365
            ],
            [
                -122.38099574484468,
                47.629243092735884
            ],
            [
                -122.38094936864722,
                47.62920087124824
            ],
            [
                -122.38094526039777,
                47.629190289901736
            ],
            [
                -122.38094688490388,
                47.629239909742886
            ],
            [
                -122.38094334678387,
                47.62914646868962
            ],
            [
                -122.38102902723395,
                47.62918689171246
            ],
            [
                -122.38105577516743,
                47.62925536002549
            ],
            [
                -122.3809610458576,
                47.62921436493655
            ],
            [
                -122.38097312773154,
                47.629271887132596
            ],
            [
                -122.38097159608587,
                47.62920030477662
            ],
            [
                -122.38099990573068,
                47.62918044079441
            ],
            [
                -122.38095355336262,
                47.62917768584915
            ],
            [
                -122.38101370220869,
                47.62917418788094
            ],
            [
                -122.38099865917951,
                47.62920092330013
            ],
            [
                -122.38099808926964,
                47.629219436442035
            ],
            [
                -122.38094912385925,
                47.629173882891905
            ],
            [
                -122.38093128197504,
                47.62921894678799
            ],
            [
                -122.38091998386764,
                47.62913103765722
            ],
            [
                -122.38091085982413,
                47.62925217259629
            ],
            [
                -122.38098960172445,
                47.62917849375539
            ],
            [
                -122.38098593504301,
                47.62921894130726
            ],
            [
                -122.38102033992169,
                47.629176852746845
            ],
            [
                -122.38098308341635,
                47.6291659126702
            ],
            [
                -122.38095917909847,
                47.6291988330617
            ],
            [
                -122.38097909098423,
                47.62917114234032
            ],
            [
                -122.38096865780192,
                47.62920667352137
            ],
            [
                -122.38096983965613,
                47.629214314653794
            ],
            [
                -122.38099003769031,
                47.62922000477381
            ],
            [
                -122.38101955562708,
                47.629219799564616
            ],
            [
                -122.3809525152588,
                47.629174288401394
            ],
            [
                -122.38093039414471,
                47.629199766062314
            ],
            [
                -122.38091219764918,
                47.629197254392544
            ],
            [
                -122.38098354732412,
                47.629188923415754
            ],
            [
                -122.38094324923107,
                47.62922359815698
            ],
            [
                -122.38092000136976,
                47.62920999737372
            ],
            [
                -122.38098048154929,
                47.62913580289418
            ],
            [
                -122.38091806068736,
                47.62909665521954
            ],
            [
                -122.38090010233554,
                47.62916956367422
            ],
            [
                -122.38097548803063,
                47.62918704711925
            ],
            [
                -122.38095146119812,
                47.629179614839096
            ],
            [
                -122.3810006130399,
                47.62920205238196
            ],
            [
                -122.38097687026603,
                47.62916660017719
            ],
            [
                -122.38100247055986,
                47.62918142169523
            ],
            [
                -122.38103351247982,
                47.62916961312324
            ],
            [
                -122.38104856458322,
                47.629187335323735
            ],
            [
                -122.38108597179175,
                47.62906668856313
            ],
            [
                -122.38100740576442,
                47.62913805043608
            ],
            [
                -122.38100959248342,
                47.629215749091685
            ],
            [
                -122.3809763347731,
                47.62916735776101
            ],
            [
                -122.38095932909218,
                47.629170814369466
            ],
            [
                -122.38095164163599,
                47.62919399218198
            ],
            [
                -122.38100988381933,
                47.62916502278179
            ],
            [
                -122.38097540606589,
                47.629231948457615
            ],
            [
                -122.3809904004377,
                47.629159883241584
            ],
            [
                -122.38095,
                47.62917
            ]
        ]
    },
    "properties": {
        "trajectory_id": 2413,
        "object_id": 366047000,
        "label": "FISHING"
    }
}