{
    "type": "Feature",
    "geometry": {
        "type": "LineString",
        "coordinates": [
            [
                -122.50372,
                48.75531
            ],
            [
                -122.50365351964028,
                48.75514604577392
            ],
            [
                -122.50374327676857,
                48.75519583545768
            ],
            [
                -122.5038877048581,
                48.754880071151604
            ],
            [
                -122.5037110219224,
                48.75544457609543
            ],
            [
                -122.50397962540298,
                48.755565574996204
            ],
            [
                -122.50384201928104,
                48.755343649519205
            ],
            [
                -122.50330769696735,
                48.75499918189897
            ],
            [
                -122.50385296929565,
                48.75511565455342
            ],
            [
                -122.50386463434259,
                48.75521639844157
            ],
            [
                -122.50369242831123,
                48.75531456778404
            ],
            [
                -122.50377682971057,
                48.75525175084359
            ],
            [
                -122.50353117648763,
                48.75521745093064
            ],
            [
                -122.50373833226725,
                48.755202112114276
            ],
            [
                -122.5036878183238,
                48.75521978163891
            ],
            [
                -122.50368800634529,
                48.75514236583614
            ],
            [
                -122.50375159509632,
                48.75516797507434
            ],
            [
                -122.50371967149984,
                48.75513810054415
            ],
            [
                -122.50380532041638,
                48.7549460736417
            ],
            [
                -122.50374544058823,
                48.75518201238425
            ],
            [
                -122.50370111428772,
                48.75515504721592
            ],
            [
                -122.50358698770106,
                48.75506034731208
            ],
            [
                -122.50337253712233,
                48.75533976659612
            ],
            [
                -122.50360944747725,
                48.755228203810915
            ],
            [
                -122.50377006397835,
                48.755197642591455
            ],
            [
                -122.50359371921478,
                48.755187039209176
            ],
            [
                -122.50372437395619,
                48.75510639682602
            ],
            [
                -122.50381837028299,
                48.755275998131225
            ],
            [
                -122.50367863645654,
                48.75535368856801
            ],
            [
                -122.50367468642173,
                48.75524490113579
            ],
            [
                -122.50389308746571,
                48.75522746244009
            ],
            [
                -122.50379443635511,
                48.75524667291552
            ],
            [
                -122.50372831825295,
                48.755293138727566
            ],
            [
                -122.50380518390259,
                48.75520773458978
            ],
            [
                -122.50375071941431,
                48.755210868482244
            ],
            [
                -122.50380774330485,
                48.755383763826885
            ],
            [
                -122.5037607037959,
                48.75528442710445
            ],
            [
                -122.50358971883307,
                48.755192987453135
            ],
            [
                -122.50370086907414,
                48.755306593996295
            ],
            [
                -122.50394365905458,
                48.755177286069014
            ],
            [
                -122.50349855271752,
                48.75507372172666
            ],
            [
                -122.50383993434131,
                48.75520143147724
            ],
            [
                -122.50369444477167,
                48.75540932600469
            ],
            [
                -122.50380595152663,
                48.75591766202338
            ],
            [
                -122.50371173308986,
                48.7554517865325
            ],
            [
                -122.50380625844109,
                48.75551190934195
            ],
            [
                -122.50321438884366,
                48.75290892562377
            ],
            [
                -122.50336249583086,
                48.755244916260246
            ],
            [
                -122.50327899534169,
                48.75608229684621
            ],
            [
                -122.50375086884394,
                48.75525728910767
            ],
            [
                -122.50381288032658,
                48.75533591986996
            ],
            [
                -122.50347804498438,
                48.754818099492354
            ],
            [
                -122.50283443930806,
                48.754987783133096
            ],
            [
                -122.50369955007581,
                48.75546449082548
            ],
            [
                -122.5037799335622,
                48.75535232624604
            ],
            [
                -122.50373517884027,
                48.75518057449012
            ],
            [
                -122.50372106056099,
                48.755161411715285
            ],
            [
                -122.50367513082811,
                48.75528769350814
            ],
            [
                -122.50363739840482,
                48.75518548917689
            ],
            [
                -122.50359581088252,
                48.75486976369025
            ],
            [
                -122.50385871888453,
                48.75539631751163
            ],
            [
                -122.50364408356903,
                48.75504564663072
            ],
            [
                -122.50383550178071,
                48.75488537927985
            ],
            [
                -122.50374572535328,
                48.75502029546503
            ],
            [
                -122.5038983235411,
                48.75510518580832
            ],
            [
                -122.50411579722883,
                48.7553017306774
            ],
            [
                -122.50373916290928,
                48.755180551785806
            ],
            [
                -122.50428630165271,
                48.75500269846632
            ],
            [
                -122.5038499767173,
                48.75512993418149
            ],
            [
                -122.50360760391783,
                48.75539865356446
            ],
            [
                -122.50378868013901,
                48.75536353412149
            ],
            [
                -122.50389554416397,
                48.755189653282144
            ],
            [
                -122.50364815599684,
                48.75527651373477
            ],
            [
                -122.50376771549816,
                48.75527425776783
            ],
            [
                -122.50375448998402,
                48.755194252258036
            ],
            [
                -122.50372343522045,
                48.755163300369375
            ],
            [
                -122.5037220976651,
                48.75538884677617
            ],
            [
                -122.50380998816554,
                48.75506922758044
            ],
            [
                -122.50369991081836,
                48.75493037575924
            ],
            [
                -122.50367,
                48.75501
            ]
        ]
    },
    "properties": {
        "trajectory_id": 2440,
        "object_id": 366122000,
        "label": "FISHING"
    }
}