{
    "type": "Feature",
    "geometry": {
        "type": "LineString",
        "coordinates": [
            [
                -123.95468,
                49.19387
            ],
            [
                -123.95468000000001,
                49.19386999999999
            ],
            [
                -123.95467999999997,
                49.193869999999905
            ],
            [
                -123.95467999999997,
                49.193869999997375
            ],
            [
                -123.95468000000584,
                49.19387000045631
            ],
            [
                -123.95467999998638,
                49.19386999893224
            ],
            [
                -123.95467999998152,
                49.193869998551605
            ],
            [
                -123.95468000204825,
                49.193870160447446
            ],
            [
                -123.95467999918006,
                49.193869935771986
            ],
            [
                -123.95467999209941,
                49.19386938112656
            ],
            [
                -123.95468077605985,
                49.19379799296103
            ],
            [
                -123.9546799953569,
                49.19387000862198
            ],
            [
                -123.95468000004783,
                49.19386509511458
            ],
            [
                -123.95468000000001,
                49.19385999993818
            ],
            [
                -123.95467999972195,
                49.193859991323876
            ],
            [
                -123.95467787791576,
                49.193793790861555
            ],
            [
                -123.9447512837973,
                49.20531494105085
            ],
            [
                -123.8823164344584,
                49.22838566874947
            ],
            [
                -123.80654322060496,
                49.238236149013666
            ],
            [
                -123.7320295666802,
                49.24993451584808
            ],
            [
                -123.6575404025341,
                49.26156339902911
            ],
            [
                -123.58214035712517,
                49.27258942232685
            ],
            [
                -123.50659899133106,
                49.283090008119615
            ],
            [
                -123.43411358271267,
                49.30078565025485
            ],
            [
                -123.36422921035398,
                49.32345473209719
            ],
            [
                -123.31434955054311,
                49.361422432696024
            ],
            [
                -123.2712349509128,
                49.382343272185416
            ],
            [
                -123.27150012226608,
                49.37621626930695
            ],
            [
                -123.2715000051416,
                49.37621994715403
            ],
            [
                -123.27150019258643,
                49.376217998249246
            ],
            [
                -123.27284861351953,
                49.384537937905876
            ],
            [
                -123.32551701576006,
                49.35573593367104
            ],
            [
                -123.3829192947419,
                49.326105303483494
            ],
            [
                -123.46063302762623,
                49.317042053232576
            ],
            [
                -123.53725032285615,
                49.30375129995255
            ],
            [
                -123.61407467031951,
                49.291397902849994
            ],
            [
                -123.68929763167417,
                49.275718342238065
            ],
            [
                -123.76465219678768,
                49.259365226654346
            ],
            [
                -123.8388979812374,
                49.24139583852416
            ],
            [
                -123.90885477157559,
                49.21866091475862
            ],
            [
                -123.9551916208756,
                49.1958559727746
            ],
            [
                -123.95538396830554,
                49.19370021697552
            ],
            [
                -123.95539136651534,
                49.19370492807474
            ],
            [
                -123.95538016224162,
                49.193701034992884
            ],
            [
                -123.95545024887207,
                49.19519513437898
            ],
            [
                -123.90327097043085,
                49.220486483923665
            ],
            [
                -123.82941817818956,
                49.23474741749941
            ],
            [
                -123.75410683482428,
                49.246735568230534
            ],
            [
                -123.67944416882979,
                49.25902749403529
            ],
            [
                -123.60423817022999,
                49.27106141193553
            ],
            [
                -123.53117432960468,
                49.286727999077286
            ],
            [
                -123.45826407005795,
                49.303378273952106
            ],
            [
                -123.38489581888494,
                49.32007851131421
            ],
            [
                -123.32398646018457,
                49.34705024089771
            ],
            [
                -123.28400558898913,
                49.387791580423034
            ],
            [
                -123.27150339258118,
                49.376223420840994
            ],
            [
                -123.27151004534099,
                49.37622000132
            ],
            [
                -123.27150999998935,
                49.3762198591095
            ],
            [
                -123.27151000308655,
                49.37621786959879
            ],
            [
                -123.27144740615027,
                49.37681428248362
            ],
            [
                -123.28918297676047,
                49.38469922987822
            ],
            [
                -123.33734117164808,
                49.34490222201432
            ],
            [
                -123.40263289984446,
                49.3222237875454
            ],
            [
                -123.47919380865685,
                49.31120359117389
            ],
            [
                -123.55523697378005,
                49.30002607416189
            ],
            [
                -123.6308844680371,
                49.288230856423255
            ],
            [
                -123.70465613755465,
                49.272339024303754
            ],
            [
                -123.77876440501879,
                49.255749566703805
            ],
            [
                -123.85147463699477,
                49.237948603200735
            ],
            [
                -123.91764408970838,
                49.21367103059036
            ],
            [
                -123.95457843784531,
                49.19437331501285
            ],
            [
                -123.95467926176809,
                49.19386003071453
            ],
            [
                -123.95467317465415,
                49.19385999998083
            ],
            [
                -123.9546688489706,
                49.19386000060857
            ],
            [
                -123.95467999750835,
                49.19385994387709
            ],
            [
                -123.95457537310828,
                49.194752957301766
            ],
            [
                -123.90268085815767,
                49.2193339727612
            ],
            [
                -123.82787284883707,
                49.23235412986456
            ],
            [
                -123.7517399998465,
                49.24348650112899
            ],
            [
                -123.67557,
                49.25497
            ]
        ]
    },
    "properties": {
        "trajectory_id": 246,
        "object_id": 316001249,
        "label": "PASSENGER"
    }
}