{
    "type": "Feature",
    "geometry": {
        "type": "LineString",
        "coordinates": [
            [
                -122.35869,
                47.58776
            ],
            [
                -122.35870292843694,
                47.587720074188475
            ],
            [
                -122.35868120311984,
                47.58771951231088
            ],
            [
                -122.35868292489813,
                47.58773317983746
            ],
            [
                -122.35869578587895,
                47.58772215204746
            ],
            [
                -122.35868025909421,
                47.58774260345239
            ],
            [
                -122.35865030355525,
                47.58774928552146
            ],
            [
                -122.35868661354542,
                47.58770090253561
            ],
            [
                -122.35867002584737,
                47.58771000620666
            ],
            [
                -122.35865024752326,
                47.587729595932046
            ],
            [
                -122.35866148968333,
                47.58775079511885
            ],
            [
                -122.35867572770756,
                47.58773641926343
            ],
            [
                -122.35868321475569,
                47.587719714872954
            ],
            [
                -122.3586800331177,
                47.58771950670713
            ],
            [
                -122.35867831171035,
                47.587710264092955
            ],
            [
                -122.35868441977485,
                47.58773230317093
            ],
            [
                -122.35865858873737,
                47.587726829949574
            ],
            [
                -122.35868269281386,
                47.58774762177018
            ],
            [
                -122.3586585471017,
                47.58771318597355
            ],
            [
                -122.35867177393648,
                47.58770075190785
            ],
            [
                -122.35863674819612,
                47.587713090283636
            ],
            [
                -122.35866925601091,
                47.58773049100927
            ],
            [
                -122.35866986437759,
                47.58773511726452
            ],
            [
                -122.35865391574697,
                47.58772029000604
            ],
            [
                -122.35866231946879,
                47.5877480496896
            ],
            [
                -122.35867056684297,
                47.58772943783559
            ],
            [
                -122.35863985245831,
                47.58772013435974
            ],
            [
                -122.35865243394939,
                47.58770093067172
            ],
            [
                -122.35866039265348,
                47.58774046225552
            ],
            [
                -122.3586679188902,
                47.58772977029542
            ],
            [
                -122.35867004460235,
                47.5877304812929
            ],
            [
                -122.35865033746143,
                47.58770981610867
            ],
            [
                -122.35865009455827,
                47.58770997682679
            ],
            [
                -122.35864499739279,
                47.587700428178245
            ],
            [
                -122.35866179489992,
                47.58774112086506
            ],
            [
                -122.35866260055576,
                47.58772996966957
            ],
            [
                -122.35866072409353,
                47.58772354150083
            ],
            [
                -122.35868753656635,
                47.58772282199694
            ],
            [
                -122.35860825491689,
                47.587738560323295
            ],
            [
                -122.3586705721176,
                47.58773012682525
            ],
            [
                -122.35866056790064,
                47.587735984276954
            ],
            [
                -122.35868732865846,
                47.587735534736225
            ],
            [
                -122.35866578709782,
                47.58772774143166
            ],
            [
                -122.3586510153234,
                47.5877422750436
            ],
            [
                -122.3586778601404,
                47.58772384857332
            ],
            [
                -122.35861873228224,
                47.58772665453117
            ],
            [
                -122.35867751905947,
                47.58771875244876
            ],
            [
                -122.35870072393564,
                47.58771031007558
            ],
            [
                -122.3586953003694,
                47.587730900917165
            ],
            [
                -122.3586463125621,
                47.5877291429601
            ],
            [
                -122.35866095557762,
                47.587746178787256
            ],
            [
                -122.35866771441917,
                47.587729848382146
            ],
            [
                -122.3586587470726,
                47.58773999809876
            ],
            [
                -122.35867064234436,
                47.587730087414705
            ],
            [
                -122.35866992113064,
                47.587740046220105
            ],
            [
                -122.35865962418407,
                47.58775097658559
            ],
            [
                -122.35867076724621,
                47.58770888373768
            ],
            [
                -122.3587001389343,
                47.58772485392545
            ],
            [
                -122.35866811119551,
                47.58772128175977
            ],
            [
                -122.3586509305764,
                47.58772558675911
            ],
            [
                -122.35869488259851,
                47.587738117703495
            ],
            [
                -122.35867071971853,
                47.587733171464436
            ],
            [
                -122.35866787046227,
                47.5877211889768
            ],
            [
                -122.35863705431355,
                47.587720367490896
            ],
            [
                -122.3586702125193,
                47.5877404270316
            ],
            [
                -122.35866410048581,
                47.58773256090768
            ],
            [
                -122.35865026954627,
                47.587728800558274
            ],
            [
                -122.35869545425636,
                47.587708628020806
            ],
            [
                -122.35865678126476,
                47.58770288227532
            ],
            [
                -122.35868151021583,
                47.58772384990015
            ],
            [
                -122.3586331759998,
                47.587713533566976
            ],
            [
                -122.35868906356802,
                47.58771123183248
            ],
            [
                -122.35871016542792,
                47.587697853181076
            ],
            [
                -122.35861034984656,
                47.58769928122332
            ],
            [
                -122.3586400841508,
                47.58769809073916
            ],
            [
                -122.35866627599238,
                47.587708009684796
            ],
            [
                -122.3586386354297,
                47.587739814271124
            ],
            [
                -122.35868003586768,
                47.587696734543435
            ],
            [
                -122.35867202738444,
                47.587700534151615
            ],
            [
                -122.35869,
                47.58769
            ]
        ]
    },
    "properties": {
        "trajectory_id": 2517,
        "object_id": 366710820,
        "label": "PASSENGER"
    }
}