{
    "type": "Feature",
    "geometry": {
        "type": "LineString",
        "coordinates": [
            [
                -122.43016,
                47.28427
            ],
            [
                -122.43886809991939,
                47.28858507611982
            ],
            [
                -122.43087695610535,
                47.285242889457365
            ],
            [
                -122.4236399498636,
                47.282158112369956
            ],
            [
                -122.41651797702092,
                47.27887395979099
            ],
            [
                -122.4088719334039,
                47.27493364665385
            ],
            [
                -122.40006271483922,
                47.26988038789188
            ],
            [
                -122.39010517303976,
                47.26391507301825
            ],
            [
                -122.38139911146709,
                47.25803001073484
            ],
            [
                -122.38083681659339,
                47.255646526507256
            ],
            [
                -122.37995875504505,
                47.25494842079718
            ],
            [
                -122.38118837359966,
                47.25870956433921
            ],
            [
                -122.40130735369779,
                47.270527275815574
            ],
            [
                -122.4256191232833,
                47.2856800578668
            ],
            [
                -122.45013473527496,
                47.305311580960364
            ],
            [
                -122.42882049608232,
                47.32812954375591
            ],
            [
                -122.40203876000982,
                47.345731446340636
            ],
            [
                -122.37000423796522,
                47.36537292666689
            ],
            [
                -122.3587765978297,
                47.39162975103318
            ],
            [
                -122.36914965830087,
                47.417368922895655
            ],
            [
                -122.38581730809874,
                47.44168409401594
            ],
            [
                -122.39770849656284,
                47.46809639317532
            ],
            [
                -122.40742652109464,
                47.49426429784707
            ],
            [
                -122.41705135323723,
                47.52077909611288
            ],
            [
                -122.42670896790764,
                47.5470045208031
            ],
            [
                -122.43182649490966,
                47.57247098416243
            ],
            [
                -122.41101212224004,
                47.5949257603624
            ],
            [
                -122.38911672227164,
                47.61656135745998
            ],
            [
                -122.37918740193354,
                47.631430329799954
            ],
            [
                -122.37923977812257,
                47.63166008500922
            ],
            [
                -122.3792400020858,
                47.63167111650243
            ],
            [
                -122.37925731645315,
                47.63165912384775
            ],
            [
                -122.37924250124246,
                47.63166000156156
            ],
            [
                -122.37924017569954,
                47.63166000000004
            ],
            [
                -122.37925973270906,
                47.63166
            ],
            [
                -122.37925006920376,
                47.63165999999999
            ],
            [
                -122.37924949320146,
                47.631660000000004
            ],
            [
                -122.37925997180079,
                47.63165999999998
            ],
            [
                -122.37924907160478,
                47.631659999678
            ],
            [
                -122.37924869390632,
                47.631670996432184
            ],
            [
                -122.37925000007513,
                47.6316699999427
            ],
            [
                -122.3792500006006,
                47.63167
            ],
            [
                -122.37926021475677,
                47.631669999999886
            ],
            [
                -122.3792518882407,
                47.631669991724024
            ],
            [
                -122.3792560060723,
                47.63167024249386
            ],
            [
                -122.37924435260156,
                47.63165574206865
            ],
            [
                -122.37916727054262,
                47.6316154533347
            ],
            [
                -122.37861945146534,
                47.62556983107861
            ],
            [
                -122.37000360955163,
                47.6190092859169
            ],
            [
                -122.3659904457567,
                47.61789107631123
            ],
            [
                -122.36566702910345,
                47.61857173252048
            ],
            [
                -122.36593494977676,
                47.61899163911408
            ],
            [
                -122.37071409324643,
                47.61833522039429
            ],
            [
                -122.3764612372689,
                47.61302342120211
            ],
            [
                -122.3513306018818,
                47.60820535929918
            ],
            [
                -122.3448359579873,
                47.60024580113922
            ],
            [
                -122.34459826806085,
                47.59221211076954
            ],
            [
                -122.34438177410074,
                47.585529842584656
            ],
            [
                -122.34475237949613,
                47.58428259669937
            ],
            [
                -122.34564395225615,
                47.584222793045974
            ],
            [
                -122.35380228170337,
                47.59582385477917
            ],
            [
                -122.38693756914932,
                47.61257269957786
            ],
            [
                -122.41951470492334,
                47.630094656327586
            ],
            [
                -122.44498739432065,
                47.65288541570398
            ],
            [
                -122.4461505918678,
                47.681803900516876
            ],
            [
                -122.44140004482806,
                47.71080999725918
            ],
            [
                -122.43632847060584,
                47.74034394442258
            ],
            [
                -122.43214381103392,
                47.77003218332147
            ],
            [
                -122.44150559044645,
                47.79893204506867
            ],
            [
                -122.45037785548887,
                47.827257341190254
            ],
            [
                -122.4608223286122,
                47.85511483556922
            ],
            [
                -122.47159129348344,
                47.88382478745044
            ],
            [
                -122.48239002099199,
                47.91313940652124
            ],
            [
                -122.50644318450117,
                47.936438048162685
            ],
            [
                -122.54305690225571,
                47.952961604784576
            ],
            [
                -122.57682679017236,
                47.97517033931915
            ],
            [
                -122.60157993960355,
                48.00316352281046
            ],
            [
                -122.62218044104125,
                48.031418243753045
            ],
            [
                -122.63552573874397,
                48.06240616977138
            ],
            [
                -122.64533,
                48.09351
            ]
        ]
    },
    "properties": {
        "trajectory_id": 2549,
        "object_id": 366767140,
        "label": "TOWING"
    }
}