{
    "type": "Feature",
    "geometry": {
        "type": "LineString",
        "coordinates": [
            [
                -123.36784,
                48.13837
            ],
            [
                -123.33851979635132,
                48.15178590532741
            ],
            [
                -123.31074859674001,
                48.16727949696468
            ],
            [
                -123.28605366901833,
                48.1810106873151
            ],
            [
                -123.25984096328327,
                48.19309377178165
            ],
            [
                -123.23219014762745,
                48.20585997617037
            ],
            [
                -123.20497979609898,
                48.21895712265535
            ],
            [
                -123.1787625734342,
                48.23260736570765
            ],
            [
                -123.15219237275195,
                48.24645202520147
            ],
            [
                -123.12484566100042,
                48.25908621881981
            ],
            [
                -123.09664009160753,
                48.270673458060415
            ],
            [
                -123.06902331334238,
                48.2818261282657
            ],
            [
                -123.0401474461344,
                48.294159776935665
            ],
            [
                -123.00987974488389,
                48.307692579591894
            ],
            [
                -122.97927016149112,
                48.32132876256417
            ],
            [
                -122.94754808036892,
                48.3358260732349
            ],
            [
                -122.91576933359377,
                48.34965800534828
            ],
            [
                -122.88535278266778,
                48.36221263347256
            ],
            [
                -122.85371265607397,
                48.374837051393754
            ],
            [
                -122.82388998618285,
                48.38690842276469
            ],
            [
                -122.79685150175791,
                48.39892167262903
            ],
            [
                -122.78037662618422,
                48.417379592780065
            ],
            [
                -122.76353273189454,
                48.437750005741485
            ],
            [
                -122.74876572465908,
                48.45707267233793
            ],
            [
                -122.73518432252511,
                48.474605926600276
            ],
            [
                -122.7211876490026,
                48.49307477966347
            ],
            [
                -122.70270813142434,
                48.51166266505264
            ],
            [
                -122.67040762708342,
                48.51818254346397
            ],
            [
                -122.63703347084153,
                48.52274430102303
            ],
            [
                -122.60142133055894,
                48.523538381264885
            ],
            [
                -122.59318341068094,
                48.51545057342645
            ],
            [
                -122.59347835482008,
                48.51540283885456
            ],
            [
                -122.59351220086995,
                48.51533865800718
            ],
            [
                -122.59353122795122,
                48.515259339362075
            ],
            [
                -122.59354838855234,
                48.51527994426293
            ],
            [
                -122.593480832831,
                48.51528134349124
            ],
            [
                -122.59353591948383,
                48.51516457902738
            ],
            [
                -122.59332588543386,
                48.51515501813615
            ],
            [
                -122.59338999012613,
                48.5150002119534
            ],
            [
                -122.59331160208613,
                48.5149854575072
            ],
            [
                -122.59331996057585,
                48.51499080021426
            ],
            [
                -122.59337763395831,
                48.51500667955354
            ],
            [
                -122.5934543411833,
                48.515072745517074
            ],
            [
                -122.59356817721971,
                48.51514885948805
            ],
            [
                -122.5935589984029,
                48.51532943955831
            ],
            [
                -122.59354682593627,
                48.515325593810786
            ],
            [
                -122.59353644222959,
                48.51539521997673
            ],
            [
                -122.59349704094208,
                48.515451820805346
            ],
            [
                -122.59348525788188,
                48.51548344066518
            ],
            [
                -122.59345642684382,
                48.515499211182764
            ],
            [
                -122.59346712616541,
                48.515494789974014
            ],
            [
                -122.5934158040661,
                48.515544746418286
            ],
            [
                -122.59342862165089,
                48.51556667093602
            ],
            [
                -122.59342727721278,
                48.51556596831208
            ],
            [
                -122.59343201694819,
                48.51554668792314
            ],
            [
                -122.59342929222042,
                48.51555911030912
            ],
            [
                -122.59344584190714,
                48.515546275165384
            ],
            [
                -122.59346197690846,
                48.51553935443728
            ],
            [
                -122.59341062119509,
                48.51555703638697
            ],
            [
                -122.59335154877314,
                48.51556982267748
            ],
            [
                -122.59333891508581,
                48.51558116930502
            ],
            [
                -122.59334061907224,
                48.515580063285995
            ],
            [
                -122.59337457946576,
                48.51555880242334
            ],
            [
                -122.59329639073377,
                48.51557828470203
            ],
            [
                -122.59327198728266,
                48.51557537930244
            ],
            [
                -122.59319433384161,
                48.515550414767
            ],
            [
                -122.5931377152758,
                48.51554252808453
            ],
            [
                -122.59249792983448,
                48.51539261768978
            ],
            [
                -122.58553747844006,
                48.515162971857315
            ],
            [
                -122.57199224765426,
                48.511063826780926
            ],
            [
                -122.56964142282973,
                48.51009632230534
            ],
            [
                -122.56887906415261,
                48.5101334755731
            ],
            [
                -122.56861042925753,
                48.508985501562236
            ],
            [
                -122.56866846135914,
                48.508980777881675
            ],
            [
                -122.56888238318115,
                48.51012505852055
            ],
            [
                -122.57584225949532,
                48.513990323277596
            ],
            [
                -122.59329001363827,
                48.52437086843409
            ],
            [
                -122.61566552926669,
                48.5257160987247
            ],
            [
                -122.6417596921809,
                48.52234886201584
            ],
            [
                -122.65967,
                48.52089
            ]
        ]
    },
    "properties": {
        "trajectory_id": 2551,
        "object_id": 366767140,
        "label": "TOWING"
    }
}