{
    "type": "Feature",
    "geometry": {
        "type": "LineString",
        "coordinates": [
            [
                -122.5938,
                48.51563
            ],
            [
                -122.59350196789033,
                48.515718346633506
            ],
            [
                -122.59372034579869,
                48.51567748726262
            ],
            [
                -122.59406565129318,
                48.51565833132373
            ],
            [
                -122.59405359760576,
                48.51555100469878
            ],
            [
                -122.59381503441553,
                48.515616894627215
            ],
            [
                -122.59382279047647,
                48.51565870127241
            ],
            [
                -122.59424749434555,
                48.515480904578936
            ],
            [
                -122.5943333990245,
                48.51543360244814
            ],
            [
                -122.59436353582082,
                48.51543954473729
            ],
            [
                -122.59422124394337,
                48.51554241816394
            ],
            [
                -122.59420277032501,
                48.515579779042305
            ],
            [
                -122.59428785014074,
                48.515523354029995
            ],
            [
                -122.5942970133581,
                48.5154894459988
            ],
            [
                -122.59416505437623,
                48.51558588286968
            ],
            [
                -122.59414504682768,
                48.51558355440494
            ],
            [
                -122.59416795413192,
                48.51558686910578
            ],
            [
                -122.59405274546856,
                48.51562876712237
            ],
            [
                -122.59405505700389,
                48.515642187039234
            ],
            [
                -122.59395695792563,
                48.51568260363791
            ],
            [
                -122.59400138558466,
                48.5152331704655
            ],
            [
                -122.59672713989947,
                48.52004223689634
            ],
            [
                -122.61171923006435,
                48.52313592121356
            ],
            [
                -122.60941503273732,
                48.52444199331869
            ],
            [
                -122.61036035927697,
                48.52344953803242
            ],
            [
                -122.60933156823377,
                48.524525131573846
            ],
            [
                -122.60666666388722,
                48.527519668445024
            ],
            [
                -122.61043259723581,
                48.52711930939073
            ],
            [
                -122.61021574994707,
                48.527127672243566
            ],
            [
                -122.61125426253736,
                48.52552734426
            ],
            [
                -122.61236270602116,
                48.52445920989839
            ],
            [
                -122.61447634832149,
                48.52414436827685
            ],
            [
                -122.61513766385276,
                48.52375289181275
            ],
            [
                -122.61440828394755,
                48.52272701228734
            ],
            [
                -122.61379942186272,
                48.522417890945356
            ],
            [
                -122.61304927670545,
                48.52233939850046
            ],
            [
                -122.61296198972906,
                48.5223112533605
            ],
            [
                -122.61733792079002,
                48.52360513765278
            ],
            [
                -122.65016527874866,
                48.51761778138918
            ],
            [
                -122.66183709894474,
                48.51276903042401
            ],
            [
                -122.6618634002999,
                48.51273450394189
            ],
            [
                -122.66191918472575,
                48.512738534501686
            ],
            [
                -122.66191872981831,
                48.512741248531505
            ],
            [
                -122.6618997014716,
                48.5127498828745
            ],
            [
                -122.66188245960313,
                48.51270773040844
            ],
            [
                -122.66192142207122,
                48.51274073118675
            ],
            [
                -122.66195054982111,
                48.512728093265196
            ],
            [
                -122.66191070957947,
                48.512617661960284
            ],
            [
                -122.66193535403418,
                48.51267593188805
            ],
            [
                -122.66195228391219,
                48.51264058036172
            ],
            [
                -122.66195815888575,
                48.51264420771423
            ],
            [
                -122.66196692614797,
                48.51262065205425
            ],
            [
                -122.66195131467997,
                48.5126050458085
            ],
            [
                -122.66194383484789,
                48.51261003793081
            ],
            [
                -122.6619278234321,
                48.512593575757336
            ],
            [
                -122.66192656396952,
                48.51260044343326
            ],
            [
                -122.66198244017134,
                48.512688944475265
            ],
            [
                -122.66195550748814,
                48.51266867825538
            ],
            [
                -122.66195889874703,
                48.512655628259026
            ],
            [
                -122.66195146261717,
                48.51266042302781
            ],
            [
                -122.66195833300493,
                48.512689661134424
            ],
            [
                -122.66197655333858,
                48.51268788050984
            ],
            [
                -122.66196523311835,
                48.512652219712635
            ],
            [
                -122.66195395161598,
                48.512685604106736
            ],
            [
                -122.66145702969872,
                48.51253624311438
            ],
            [
                -122.69083239658069,
                48.51326686936184
            ],
            [
                -122.72496726959554,
                48.49658198001959
            ],
            [
                -122.74621717164548,
                48.472533183316344
            ],
            [
                -122.76489978738036,
                48.448079027902146
            ],
            [
                -122.78623491225382,
                48.425351218346144
            ],
            [
                -122.81476526800971,
                48.406331387824316
            ],
            [
                -122.84769779867159,
                48.39215471802971
            ],
            [
                -122.87896155862117,
                48.37917059188315
            ],
            [
                -122.91152170908407,
                48.36674170869727
            ],
            [
                -122.94343863947923,
                48.35458995310743
            ],
            [
                -122.97550622030741,
                48.341202971666995
            ],
            [
                -123.00766376973768,
                48.325811203538336
            ],
            [
                -123.04085994447335,
                48.30984851561738
            ],
            [
                -123.07520361754358,
                48.29458994307356
            ],
            [
                -123.10706,
                48.28308
            ]
        ]
    },
    "properties": {
        "trajectory_id": 2558,
        "object_id": 366767150,
        "label": "TUG"
    }
}