{
    "type": "Feature",
    "geometry": {
        "type": "LineString",
        "coordinates": [
            [
                -122.89053,
                48.57922
            ],
            [
                -122.92974255697955,
                48.584843826710106
            ],
            [
                -122.93336980381659,
                48.58714819324894
            ],
            [
                -122.94345770041475,
                48.59714967402725
            ],
            [
                -122.94345874030518,
                48.5971384913032
            ],
            [
                -122.94347371307668,
                48.59715523411713
            ],
            [
                -122.92777383455477,
                48.58932056678994
            ],
            [
                -122.87422014069844,
                48.574751999046946
            ],
            [
                -122.83699555820507,
                48.544301266633745
            ],
            [
                -122.78724079196621,
                48.52717048102317
            ],
            [
                -122.72807156861178,
                48.52589884976214
            ],
            [
                -122.67289541341336,
                48.51896059065289
            ],
            [
                -122.67739780619715,
                48.50753893632516
            ],
            [
                -122.67741272374242,
                48.507487959205974
            ],
            [
                -122.68574000989165,
                48.516919571023124
            ],
            [
                -122.74639632866987,
                48.52338096625249
            ],
            [
                -122.80535357777613,
                48.52896534762823
            ],
            [
                -122.8451388291645,
                48.555571723800085
            ],
            [
                -122.89077843478576,
                48.57431233975861
            ],
            [
                -122.93111717292285,
                48.54747217075255
            ],
            [
                -122.98704710619953,
                48.54162683117085
            ],
            [
                -123.0138304803342,
                48.53586276127559
            ],
            [
                -123.0138599216008,
                48.53585010532864
            ],
            [
                -123.0137787058438,
                48.53600493690354
            ],
            [
                -122.98359958552042,
                48.5418692566706
            ],
            [
                -122.92916673756012,
                48.548907159318816
            ],
            [
                -122.88555274348562,
                48.57659896775383
            ],
            [
                -122.88291642733526,
                48.57097707548495
            ],
            [
                -122.85782743279094,
                48.56693837264119
            ],
            [
                -122.82245123585051,
                48.53392869797661
            ],
            [
                -122.76389862749225,
                48.527092716848315
            ],
            [
                -122.70513305629609,
                48.523541230222776
            ],
            [
                -122.67647397735578,
                48.50862333495705
            ],
            [
                -122.67746625495161,
                48.507546922238035
            ],
            [
                -122.67565097692955,
                48.51111914227856
            ],
            [
                -122.72111956124,
                48.530901522013494
            ],
            [
                -122.78156609067717,
                48.52769084448191
            ],
            [
                -122.83156360983497,
                48.541741614553516
            ],
            [
                -122.86811293338695,
                48.57249672886971
            ],
            [
                -122.88290849870708,
                48.57097861330233
            ],
            [
                -122.90257477840711,
                48.584467535953415
            ],
            [
                -122.92968126185038,
                48.58480108976716
            ],
            [
                -122.94340813546141,
                48.59708539496988
            ],
            [
                -122.94345220685209,
                48.5971421612189
            ],
            [
                -122.92907555542135,
                48.589266647866395
            ],
            [
                -122.90588252595566,
                48.56526722841439
            ],
            [
                -122.95077014711666,
                48.539028713965195
            ],
            [
                -123.00621884301974,
                48.54360302522844
            ],
            [
                -123.01383113214509,
                48.53586274086376
            ],
            [
                -122.9923378526513,
                48.54250942535412
            ],
            [
                -122.93240655276138,
                48.545942166783384
            ],
            [
                -122.89210295486464,
                48.57438696060716
            ],
            [
                -122.84573251644248,
                48.554668229615295
            ],
            [
                -122.80369096567871,
                48.52772473952138
            ],
            [
                -122.74364405071927,
                48.523360258421306
            ],
            [
                -122.68779264007405,
                48.521043311251375
            ],
            [
                -122.67736431263106,
                48.50753950883097
            ],
            [
                -122.67740331902738,
                48.5075391173819
            ],
            [
                -122.6774019913785,
                48.50752487128961
            ],
            [
                -122.67738894394174,
                48.507519801551084
            ],
            [
                -122.6773998708733,
                48.50755427278695
            ],
            [
                -122.67740747672914,
                48.50756807090197
            ],
            [
                -122.67739757580519,
                48.5075274141553
            ],
            [
                -122.67738116306198,
                48.507513349778705
            ],
            [
                -122.67738999204133,
                48.50751998105689
            ],
            [
                -122.67738226993146,
                48.50752304195629
            ],
            [
                -122.67737978903577,
                48.50750857509691
            ],
            [
                -122.6773830858944,
                48.50753208211404
            ],
            [
                -122.67738116535625,
                48.50753580067426
            ],
            [
                -122.67738978879369,
                48.50750605948219
            ],
            [
                -122.67738841700859,
                48.50753027637776
            ],
            [
                -122.67738977770647,
                48.50751993037656
            ],
            [
                -122.67741414068084,
                48.50752757802473
            ],
            [
                -122.6774078330031,
                48.50755176347172
            ],
            [
                -122.67742569541268,
                48.50754491698546
            ],
            [
                -122.67741942700519,
                48.50754056692073
            ],
            [
                -122.67742119250788,
                48.50754833537452
            ],
            [
                -122.6774072916975,
                48.507535192878464
            ],
            [
                -122.67742012535575,
                48.507549522776024
            ],
            [
                -122.67742,
                48.50754
            ]
        ]
    },
    "properties": {
        "trajectory_id": 2564,
        "object_id": 366772750,
        "label": "PASSENGER"
    }
}