{
    "type": "Feature",
    "geometry": {
        "type": "LineString",
        "coordinates": [
            [
                -122.88289,
                48.57099
            ],
            [
                -122.90382412554213,
                48.585904126488614
            ],
            [
                -122.92967114673418,
                48.584915647524504
            ],
            [
                -122.93896329480171,
                48.591520015449355
            ],
            [
                -122.94347822060209,
                48.59712889536717
            ],
            [
                -122.94349035912353,
                48.597130035790734
            ],
            [
                -122.93820381510282,
                48.59150192521421
            ],
            [
                -122.87994452064969,
                48.57920817324981
            ],
            [
                -122.83931509740535,
                48.54871422266694
            ],
            [
                -122.78940379625132,
                48.52765753593878
            ],
            [
                -122.72646887853399,
                48.52339527250206
            ],
            [
                -122.68996773626597,
                48.52791048450202
            ],
            [
                -122.67202964967986,
                48.523671097288506
            ],
            [
                -122.67743643262229,
                48.50751489652759
            ],
            [
                -122.67739183880512,
                48.50749924427064
            ],
            [
                -122.67748365267884,
                48.50750147927392
            ],
            [
                -122.69528537958183,
                48.521791842531144
            ],
            [
                -122.75464134856097,
                48.526866906391156
            ],
            [
                -122.80951878938913,
                48.528830817644554
            ],
            [
                -122.8457328629688,
                48.557251242392184
            ],
            [
                -122.8914175999774,
                48.57282139968813
            ],
            [
                -122.9356939727823,
                48.546289076392284
            ],
            [
                -122.99746626437465,
                48.545242682807086
            ],
            [
                -123.01382902349862,
                48.535863174123406
            ],
            [
                -123.01386973500372,
                48.53585947022121
            ],
            [
                -123.01348668111584,
                48.53638632060819
            ],
            [
                -122.97465016016211,
                48.54148964997077
            ],
            [
                -122.92305299154651,
                48.55256731227339
            ],
            [
                -122.87905285715884,
                48.57350586227176
            ],
            [
                -122.88185592856443,
                48.57178703810194
            ],
            [
                -122.84565251044792,
                48.553638152792345
            ],
            [
                -122.80632869353664,
                48.527636671352255
            ],
            [
                -122.74747672034012,
                48.524972234989484
            ],
            [
                -122.6870890999707,
                48.52278777405329
            ],
            [
                -122.67733381386283,
                48.50761003620493
            ],
            [
                -122.67740892335769,
                48.50752058385958
            ],
            [
                -122.68077214539404,
                48.520077800878674
            ],
            [
                -122.73617622724862,
                48.527381933422355
            ],
            [
                -122.79629178219454,
                48.52830375019757
            ],
            [
                -122.84183782484263,
                48.55114624421401
            ],
            [
                -122.88117723157924,
                48.57199091208667
            ],
            [
                -122.87923102964669,
                48.57337349056912
            ],
            [
                -122.92068859752966,
                48.589108551336366
            ],
            [
                -122.92732627029514,
                48.58935223778168
            ],
            [
                -122.94346333659944,
                48.59714235532774
            ],
            [
                -122.9276206386478,
                48.589717286226
            ],
            [
                -122.90362209433496,
                48.56799988098288
            ],
            [
                -122.9471797050924,
                48.54103337671391
            ],
            [
                -123.00808904468472,
                48.543227702410015
            ],
            [
                -123.01385249728219,
                48.535870586655555
            ],
            [
                -122.99546568762048,
                48.54243742115493
            ],
            [
                -122.93923640937824,
                48.541970082602504
            ],
            [
                -122.89785554202506,
                48.57120926912093
            ],
            [
                -122.85603303008021,
                48.55889189877351
            ],
            [
                -122.81987006381087,
                48.52891552531514
            ],
            [
                -122.76154784684059,
                48.52584594791331
            ],
            [
                -122.70155325083068,
                48.52298110977726
            ],
            [
                -122.67721378298931,
                48.50766317838784
            ],
            [
                -122.6773598186212,
                48.50748981831287
            ],
            [
                -122.67742066101829,
                48.507521113882554
            ],
            [
                -122.6774007318267,
                48.50748966916282
            ],
            [
                -122.67736721906523,
                48.507492964758455
            ],
            [
                -122.67743992789184,
                48.50750261037787
            ],
            [
                -122.67741356309533,
                48.507502906833054
            ],
            [
                -122.67740826046347,
                48.50756183223868
            ],
            [
                -122.67747379780434,
                48.50748037255631
            ],
            [
                -122.67738082826861,
                48.50758237016469
            ],
            [
                -122.67743597805087,
                48.50748808499843
            ],
            [
                -122.67745436593796,
                48.507556110082284
            ],
            [
                -122.67739658136075,
                48.50751172961082
            ],
            [
                -122.67736677601516,
                48.50750129356255
            ],
            [
                -122.67740121469983,
                48.507505100425576
            ],
            [
                -122.6774006830393,
                48.50752554317728
            ],
            [
                -122.677407250043,
                48.50754241759524
            ],
            [
                -122.677426446221,
                48.507518546117424
            ],
            [
                -122.67740725981423,
                48.50750748102033
            ],
            [
                -122.67735316895114,
                48.50753310789304
            ],
            [
                -122.67740684340522,
                48.50751801693401
            ],
            [
                -122.67738785664778,
                48.50751802271172
            ],
            [
                -122.67736,
                48.50761
            ]
        ]
    },
    "properties": {
        "trajectory_id": 2569,
        "object_id": 366772750,
        "label": "PASSENGER"
    }
}