{
    "type": "Feature",
    "geometry": {
        "type": "LineString",
        "coordinates": [
            [
                -123.00458,
                48.54396
            ],
            [
                -123.01386052751405,
                48.5358568289435
            ],
            [
                -123.01384924565265,
                48.535860146505755
            ],
            [
                -123.01387787502404,
                48.535797483163755
            ],
            [
                -122.99022779618167,
                48.54234916836068
            ],
            [
                -122.93166665064615,
                48.54687670660535
            ],
            [
                -122.88998626558438,
                48.57558085850735
            ],
            [
                -122.84585956963653,
                48.55193458068855
            ],
            [
                -122.79871154668115,
                48.52784106494196
            ],
            [
                -122.73706253000117,
                48.5228994033739
            ],
            [
                -122.69468085191701,
                48.51344804404291
            ],
            [
                -122.67708659512586,
                48.507430115771974
            ],
            [
                -122.67694305347824,
                48.507349557575694
            ],
            [
                -122.67618445786682,
                48.513605659492306
            ],
            [
                -122.73209201373749,
                48.522229376533055
            ],
            [
                -122.78871616451895,
                48.52764247484232
            ],
            [
                -122.83338789729552,
                48.54277629613802
            ],
            [
                -122.86839259836684,
                48.57161347629682
            ],
            [
                -122.88291181577783,
                48.57100346630127
            ],
            [
                -122.89747814477676,
                48.581972984735586
            ],
            [
                -122.91894275203138,
                48.58848787197617
            ],
            [
                -122.94348349044758,
                48.59714517984202
            ],
            [
                -122.94349023090196,
                48.59712949961985
            ],
            [
                -122.94342335132686,
                48.596933745184735
            ],
            [
                -122.91369090087746,
                48.58799503151348
            ],
            [
                -122.88211312949208,
                48.57150231344609
            ],
            [
                -122.86824417245671,
                48.573077128376845
            ],
            [
                -122.83085183516715,
                48.540441454124945
            ],
            [
                -122.7773004458404,
                48.527485668448385
            ],
            [
                -122.71745254527778,
                48.52489528876925
            ],
            [
                -122.67202581202044,
                48.51250458178119
            ],
            [
                -122.67743139278164,
                48.50746247860913
            ],
            [
                -122.67739990326713,
                48.50750793480554
            ],
            [
                -122.69225148620994,
                48.51678260877969
            ],
            [
                -122.7502805682297,
                48.522194311123364
            ],
            [
                -122.80928339976333,
                48.528291235538155
            ],
            [
                -122.84682821782462,
                48.556905664696586
            ],
            [
                -122.88293735387496,
                48.57099697652531
            ],
            [
                -122.88868497217886,
                48.57884848700845
            ],
            [
                -122.93946603367885,
                48.59282840320205
            ],
            [
                -122.9434962950006,
                48.59714260235983
            ],
            [
                -122.94346565226361,
                48.59714332946477
            ],
            [
                -122.93522273213588,
                48.5900836477237
            ],
            [
                -122.88298951756494,
                48.57830748833529
            ],
            [
                -122.84088347917859,
                48.550574612963516
            ],
            [
                -122.79905051200187,
                48.52744461000789
            ],
            [
                -122.7406960123609,
                48.52631056495308
            ],
            [
                -122.67805790162723,
                48.52047817097786
            ],
            [
                -122.67740669064436,
                48.50754012645981
            ],
            [
                -122.67739152935135,
                48.50753691047256
            ],
            [
                -122.67737881245685,
                48.5075438783049
            ],
            [
                -122.67739288340744,
                48.507511460809525
            ],
            [
                -122.67739023412726,
                48.5075168681268
            ],
            [
                -122.6773865964364,
                48.50752945043819
            ],
            [
                -122.6774211125458,
                48.507551692251
            ],
            [
                -122.6774254150205,
                48.50756112408435
            ],
            [
                -122.67740060559368,
                48.50752367378837
            ],
            [
                -122.67738928354575,
                48.50752801782046
            ],
            [
                -122.6774208565683,
                48.50755988152102
            ],
            [
                -122.67741959090863,
                48.50758095864678
            ],
            [
                -122.67740241555094,
                48.50752622019447
            ],
            [
                -122.67740353912457,
                48.50754055347666
            ],
            [
                -122.67741506648476,
                48.5075339304357
            ],
            [
                -122.67741708721834,
                48.507509490187836
            ],
            [
                -122.6773939139273,
                48.50755155204757
            ],
            [
                -122.67740705710163,
                48.50753637453308
            ],
            [
                -122.67738442608989,
                48.50756000160202
            ],
            [
                -122.67740358457537,
                48.50754001564297
            ],
            [
                -122.67740894962438,
                48.50754940254972
            ],
            [
                -122.67740827506191,
                48.50753219369313
            ],
            [
                -122.67740027058444,
                48.50754004256593
            ],
            [
                -122.67741134505758,
                48.50754025763921
            ],
            [
                -122.67740350712498,
                48.507534896269796
            ],
            [
                -122.67742220599621,
                48.50754521639466
            ],
            [
                -122.67740425116828,
                48.50753997129125
            ],
            [
                -122.67738416250423,
                48.507549926546105
            ],
            [
                -122.67740382558299,
                48.50754474913487
            ],
            [
                -122.67741805405696,
                48.50753791863786
            ],
            [
                -122.67740031143478,
                48.50751997554843
            ],
            [
                -122.67741,
                48.50753
            ]
        ]
    },
    "properties": {
        "trajectory_id": 2573,
        "object_id": 366772750,
        "label": "PASSENGER"
    }
}