{
    "type": "Feature",
    "geometry": {
        "type": "LineString",
        "coordinates": [
            [
                -122.49201,
                47.51541
            ],
            [
                -122.443959470425,
                47.528235050147785
            ],
            [
                -122.39806453752007,
                47.52314070156475
            ],
            [
                -122.39686322030664,
                47.52318711876203
            ],
            [
                -122.3968352449007,
                47.52317180097635
            ],
            [
                -122.44190618320751,
                47.517614440182086
            ],
            [
                -122.46382162507463,
                47.51114424659083
            ],
            [
                -122.46349341929479,
                47.51220403186117
            ],
            [
                -122.4956693375527,
                47.51316951222564
            ],
            [
                -122.49565618537088,
                47.5131882503685
            ],
            [
                -122.48956470307219,
                47.51385845076557
            ],
            [
                -122.4632626770492,
                47.51106940208504
            ],
            [
                -122.45686374594074,
                47.5131913948214
            ],
            [
                -122.40513083400076,
                47.52166324809198
            ],
            [
                -122.39688183688408,
                47.52317993236491
            ],
            [
                -122.39878105808653,
                47.523208710190666
            ],
            [
                -122.45328225583778,
                47.51576771747954
            ],
            [
                -122.46328269744552,
                47.511058099897774
            ],
            [
                -122.46241202983046,
                47.51193977880203
            ],
            [
                -122.49535690208282,
                47.5133230845224
            ],
            [
                -122.49482423364942,
                47.51372676361961
            ],
            [
                -122.46383794033702,
                47.51925344662599
            ],
            [
                -122.4077878825596,
                47.52234749631977
            ],
            [
                -122.39689144193714,
                47.523181659639846
            ],
            [
                -122.40786360088448,
                47.52169540684523
            ],
            [
                -122.46184809243086,
                47.5141212724848
            ],
            [
                -122.46387966999676,
                47.511158506961145
            ],
            [
                -122.46385993663485,
                47.51113298429864
            ],
            [
                -122.4638833079327,
                47.51114079954424
            ],
            [
                -122.46387825259578,
                47.51114538592031
            ],
            [
                -122.4638732104151,
                47.51113112842613
            ],
            [
                -122.46388076495668,
                47.5111356141063
            ],
            [
                -122.46387128634326,
                47.511134820697556
            ],
            [
                -122.46384872462063,
                47.511154621622325
            ],
            [
                -122.46385796429261,
                47.511144403934054
            ],
            [
                -122.46387774270633,
                47.51114061834284
            ],
            [
                -122.46387954596834,
                47.51113564713383
            ],
            [
                -122.46387800769539,
                47.511124532698815
            ],
            [
                -122.46387222189107,
                47.51116002489612
            ],
            [
                -122.46387039404786,
                47.51113928728151
            ],
            [
                -122.46379987863847,
                47.511159797652724
            ],
            [
                -122.43056511099034,
                47.51927776141612
            ],
            [
                -122.39689650449901,
                47.52320388771891
            ],
            [
                -122.39583340637779,
                47.5232698683771
            ],
            [
                -122.41873269656656,
                47.52214411651964
            ],
            [
                -122.46276010310388,
                47.513665364624615
            ],
            [
                -122.46383730401416,
                47.51113441224782
            ],
            [
                -122.48030036673262,
                47.51729368960182
            ],
            [
                -122.49565471063308,
                47.51318116722313
            ],
            [
                -122.4698182415752,
                47.51973192694956
            ],
            [
                -122.41354715405649,
                47.522790775679404
            ],
            [
                -122.39689912341179,
                47.523192025836444
            ],
            [
                -122.40834488253836,
                47.523058123065894
            ],
            [
                -122.4592768421956,
                47.51695053136822
            ],
            [
                -122.46385638813702,
                47.51112850253769
            ],
            [
                -122.46770934179199,
                47.514693905690166
            ],
            [
                -122.49560495441312,
                47.51316460629245
            ],
            [
                -122.48254883111989,
                47.51708779145523
            ],
            [
                -122.42595377594161,
                47.52120369466428
            ],
            [
                -122.39693486153799,
                47.52320778877901
            ],
            [
                -122.398211835842,
                47.52326217464257
            ],
            [
                -122.42480976361307,
                47.5279737089906
            ],
            [
                -122.4638669904485,
                47.511641104737244
            ],
            [
                -122.46565888185823,
                47.515668521119196
            ],
            [
                -122.49555062913157,
                47.51319912706608
            ],
            [
                -122.49562354979925,
                47.51316528685308
            ],
            [
                -122.49562061662706,
                47.51318041579288
            ],
            [
                -122.49563060384398,
                47.51316172025707
            ],
            [
                -122.49561949630163,
                47.51316085723052
            ],
            [
                -122.4956040900234,
                47.513180082289004
            ],
            [
                -122.49563090901987,
                47.51318274871736
            ],
            [
                -122.49561525098234,
                47.51318227024903
            ],
            [
                -122.49562837430419,
                47.513165428270135
            ],
            [
                -122.49561096024107,
                47.51319214519974
            ],
            [
                -122.49564916755966,
                47.51318068817507
            ],
            [
                -122.49562483462529,
                47.513167538846545
            ],
            [
                -122.48984605849529,
                47.51514269120532
            ],
            [
                -122.46382593704034,
                47.511135432825476
            ],
            [
                -122.46382928369222,
                47.51114998252153
            ],
            [
                -122.46383,
                47.51114
            ]
        ]
    },
    "properties": {
        "trajectory_id": 2647,
        "object_id": 366773070,
        "label": "PASSENGER"
    }
}