{
    "type": "Feature",
    "geometry": {
        "type": "LineString",
        "coordinates": [
            [
                -123.30376,
                48.82372
            ],
            [
                -123.25987389398058,
                48.81396514067968
            ],
            [
                -123.21508784951578,
                48.80424615702504
            ],
            [
                -123.20157026579805,
                48.798470638107645
            ],
            [
                -123.20162368263641,
                48.79839737483453
            ],
            [
                -123.24086248897882,
                48.80938577882522
            ],
            [
                -123.2898020244984,
                48.82072478114337
            ],
            [
                -123.33551155014099,
                48.83282057969366
            ],
            [
                -123.32519472662077,
                48.844441149924315
            ],
            [
                -123.3251900203079,
                48.84446008081082
            ],
            [
                -123.32519000253646,
                48.84445996937666
            ],
            [
                -123.32518996529564,
                48.84446001635756
            ],
            [
                -123.33305768739103,
                48.84565448756175
            ],
            [
                -123.32709751315461,
                48.85845883176044
            ],
            [
                -123.31276014918683,
                48.875866208909585
            ],
            [
                -123.31458610250762,
                48.876182266474174
            ],
            [
                -123.30866218858608,
                48.866217243906696
            ],
            [
                -123.34576706451128,
                48.86015764196418
            ],
            [
                -123.33657907987828,
                48.83095778216399
            ],
            [
                -123.32713419876528,
                48.79975609100038
            ],
            [
                -123.31594867193634,
                48.800174815822324
            ],
            [
                -123.3290514282003,
                48.7855748794974
            ],
            [
                -123.35532262686593,
                48.75697435191402
            ],
            [
                -123.38938828131784,
                48.73239693954886
            ],
            [
                -123.40302747289357,
                48.70130022274315
            ],
            [
                -123.4094698117327,
                48.689022903699325
            ],
            [
                -123.40947000110293,
                48.68902000194946
            ],
            [
                -123.40751071908346,
                48.689800500171835
            ],
            [
                -123.39700353635547,
                48.719239920213695
            ],
            [
                -123.37315460319579,
                48.74828809460518
            ],
            [
                -123.34591799698732,
                48.77508114906374
            ],
            [
                -123.316793914112,
                48.799411131704666
            ],
            [
                -123.32168092539312,
                48.79850282430847
            ],
            [
                -123.33319721989727,
                48.82726252155784
            ],
            [
                -123.32543439235819,
                48.844815561267666
            ],
            [
                -123.3253204502123,
                48.844791145733495
            ],
            [
                -123.3229754379344,
                48.82795919534793
            ],
            [
                -123.27564899642604,
                48.81720031904394
            ],
            [
                -123.2294804219003,
                48.807508005029305
            ],
            [
                -123.20142825123735,
                48.798327034494235
            ],
            [
                -123.20812283506564,
                48.802891281214066
            ],
            [
                -123.25572641600407,
                48.812631031927076
            ],
            [
                -123.30251476458214,
                48.82321949120156
            ],
            [
                -123.33943504343812,
                48.81307601968732
            ],
            [
                -123.35491304521497,
                48.781277033403825
            ],
            [
                -123.37566325554032,
                48.7510390251255
            ],
            [
                -123.3955714702392,
                48.72175892187225
            ],
            [
                -123.40552765471291,
                48.69200027469651
            ],
            [
                -123.40933001925114,
                48.68869855274929
            ],
            [
                -123.40932998515392,
                48.68869981409501
            ],
            [
                -123.40932977315576,
                48.68869985637273
            ],
            [
                -123.40932627055052,
                48.68869998524238
            ],
            [
                -123.40931894745233,
                48.68869998272364
            ],
            [
                -123.40931998559809,
                48.6886999439647
            ],
            [
                -123.40932000027897,
                48.68870357640149
            ],
            [
                -123.40931999999091,
                48.688702594218846
            ],
            [
                -123.4093200002025,
                48.688705861428566
            ],
            [
                -123.40931998910352,
                48.68870412851369
            ],
            [
                -123.40932058998027,
                48.68869287015242
            ],
            [
                -123.40931498503701,
                48.68869569582134
            ],
            [
                -123.4093199942836,
                48.68869044168067
            ],
            [
                -123.4093185749994,
                48.68869136734848
            ],
            [
                -123.40931877807353,
                48.68869714356349
            ],
            [
                -123.40932013063784,
                48.688689179901466
            ],
            [
                -123.40932523982525,
                48.68868203411638
            ],
            [
                -123.40932580195495,
                48.68868050731088
            ],
            [
                -123.40933189690918,
                48.6886900364218
            ],
            [
                -123.40934503219084,
                48.68867797006117
            ],
            [
                -123.40935149794842,
                48.68868687986896
            ],
            [
                -123.40934049601434,
                48.688689712348506
            ],
            [
                -123.40932983224306,
                48.68870017853866
            ],
            [
                -123.40933000725374,
                48.688699995845155
            ],
            [
                -123.40932979262568,
                48.68870005331579
            ],
            [
                -123.40931965141569,
                48.688691321798
            ],
            [
                -123.40931999682257,
                48.688689457988914
            ],
            [
                -123.40931945833547,
                48.68869019003133
            ],
            [
                -123.40932040067821,
                48.68870006308803
            ],
            [
                -123.40933029425798,
                48.68868972608179
            ],
            [
                -123.40932000948465,
                48.68869999036836
            ],
            [
                -123.40932,
                48.6887
            ]
        ]
    },
    "properties": {
        "trajectory_id": 266,
        "object_id": 316001252,
        "label": "PASSENGER"
    }
}