{
    "type": "Feature",
    "geometry": {
        "type": "LineString",
        "coordinates": [
            [
                -123.01362,
                48.53554
            ],
            [
                -123.01360921529934,
                48.53553043690486
            ],
            [
                -123.01360387068799,
                48.535533557449874
            ],
            [
                -123.01360976096763,
                48.53556597735787
            ],
            [
                -123.01361159267451,
                48.535560042077044
            ],
            [
                -123.01359913040667,
                48.53556926444211
            ],
            [
                -123.01360025604536,
                48.53555940470917
            ],
            [
                -123.01360999717367,
                48.53552999823685
            ],
            [
                -123.01363239139293,
                48.53554966875924
            ],
            [
                -123.01360990064649,
                48.53554028564914
            ],
            [
                -123.0136237742618,
                48.535548792527415
            ],
            [
                -123.01359089347243,
                48.53557845244531
            ],
            [
                -123.01284642718949,
                48.536179174195595
            ],
            [
                -123.0135449312789,
                48.535627281144684
            ],
            [
                -123.01387184272161,
                48.53582753246692
            ],
            [
                -123.00386375085324,
                48.54318315821307
            ],
            [
                -122.9638875254599,
                48.54124903805822
            ],
            [
                -122.92728214728113,
                48.549663261480575
            ],
            [
                -122.90194157308115,
                48.57593703569347
            ],
            [
                -122.92842690687414,
                48.5867775012569
            ],
            [
                -122.9295051347829,
                48.58618430956797
            ],
            [
                -122.94350573283778,
                48.59715786821637
            ],
            [
                -122.9427499929848,
                48.59635743636103
            ],
            [
                -122.90968426433352,
                48.58683926182473
            ],
            [
                -122.91018848520679,
                48.56457521276851
            ],
            [
                -122.93805869016654,
                48.54144801182795
            ],
            [
                -122.98618542286721,
                48.54340765110181
            ],
            [
                -123.01281525635969,
                48.53611271472032
            ],
            [
                -123.01261363860951,
                48.53806788540623
            ],
            [
                -123.01386226794453,
                48.53582737969849
            ],
            [
                -123.00552796217958,
                48.54381682270153
            ],
            [
                -122.96064313352514,
                48.539943349657676
            ],
            [
                -122.92216363331555,
                48.55425218683614
            ],
            [
                -122.900180501997,
                48.582626354877846
            ],
            [
                -122.94235983056562,
                48.59353678143598
            ],
            [
                -122.94308495337442,
                48.5967386771302
            ],
            [
                -122.92972079910855,
                48.584905501779744
            ],
            [
                -122.92476005572037,
                48.58862419904968
            ],
            [
                -122.88462117312154,
                48.57834451565347
            ],
            [
                -122.88290178836472,
                48.570979927994294
            ],
            [
                -122.87876072483762,
                48.57308437076678
            ],
            [
                -122.90723675687799,
                48.58679687367502
            ],
            [
                -122.92967619687272,
                48.584913901617725
            ],
            [
                -122.94277083303344,
                48.59617448671646
            ],
            [
                -122.94296391949928,
                48.5965597099824
            ],
            [
                -122.90696586336786,
                48.58585923173215
            ],
            [
                -122.91463783492668,
                48.56127619392254
            ],
            [
                -122.94689354896165,
                48.53916825232678
            ],
            [
                -122.99121559499838,
                48.54376535515895
            ],
            [
                -123.01358852266016,
                48.536030143683654
            ],
            [
                -123.01340465041643,
                48.53639336228121
            ],
            [
                -122.97609467923814,
                48.541334945211936
            ],
            [
                -122.93036125508557,
                48.54831108943795
            ],
            [
                -122.9007284374342,
                48.57352864776346
            ],
            [
                -122.93185037742384,
                48.58964168800892
            ],
            [
                -122.94348010516137,
                48.59716162744
            ],
            [
                -122.94125745871644,
                48.594725690827026
            ],
            [
                -122.92962573009038,
                48.584893213090915
            ],
            [
                -122.91954789336661,
                48.58866658494035
            ],
            [
                -122.88364244355772,
                48.57699339743973
            ],
            [
                -122.88289315532518,
                48.57096877763854
            ],
            [
                -122.8784923896398,
                48.572688525816176
            ],
            [
                -122.9091629690403,
                48.56291486796362
            ],
            [
                -122.94094734314353,
                48.54089214142792
            ],
            [
                -122.97856916441343,
                48.54210023992917
            ],
            [
                -123.01173955687004,
                48.539272368687215
            ],
            [
                -123.01385994020869,
                48.5358338244986
            ],
            [
                -123.01321848653183,
                48.5368163884302
            ],
            [
                -122.97071801132392,
                48.540995100695966
            ],
            [
                -122.92389932328904,
                48.55273992180764
            ],
            [
                -122.90248547712956,
                48.5825942715963
            ],
            [
                -122.94184460493278,
                48.595268475523625
            ],
            [
                -122.94193859411904,
                48.59531697231593
            ],
            [
                -122.92964075463306,
                48.58491557062954
            ],
            [
                -122.92585021372025,
                48.58775251081749
            ],
            [
                -122.88129322256324,
                48.57645927914742
            ],
            [
                -122.88287904832113,
                48.57096770879896
            ],
            [
                -122.88609146504109,
                48.57763886097006
            ],
            [
                -122.92693486177016,
                48.587780887598385
            ],
            [
                -122.9301,
                48.58745
            ]
        ]
    },
    "properties": {
        "trajectory_id": 2663,
        "object_id": 366773090,
        "label": "PASSENGER"
    }
}