{
    "type": "Feature",
    "geometry": {
        "type": "LineString",
        "coordinates": [
            [
                -122.41569,
                47.26715
            ],
            [
                -122.41561820658559,
                47.267149681850796
            ],
            [
                -122.41562904643133,
                47.26712066818247
            ],
            [
                -122.41562533488954,
                47.26716101198236
            ],
            [
                -122.41560857531113,
                47.267135605526605
            ],
            [
                -122.41560507101453,
                47.26713946099914
            ],
            [
                -122.4155937935818,
                47.2672034078533
            ],
            [
                -122.41557866605045,
                47.267193107771874
            ],
            [
                -122.41564296648927,
                47.26714089092048
            ],
            [
                -122.41564847530029,
                47.26718239997542
            ],
            [
                -122.41568913799219,
                47.26718423020681
            ],
            [
                -122.41552997588882,
                47.26712333450718
            ],
            [
                -122.41557200843152,
                47.267146992103754
            ],
            [
                -122.41556369478182,
                47.26716497733631
            ],
            [
                -122.4156112940784,
                47.26716755848017
            ],
            [
                -122.41561099537047,
                47.2671435644304
            ],
            [
                -122.41558867371737,
                47.267157713725645
            ],
            [
                -122.41561911522928,
                47.2671559911855
            ],
            [
                -122.41561436171659,
                47.26714145787144
            ],
            [
                -122.41560992617205,
                47.26715188477198
            ],
            [
                -122.41562755799762,
                47.2671797158949
            ],
            [
                -122.4156086588528,
                47.26716565845158
            ],
            [
                -122.41564918722138,
                47.267184951649895
            ],
            [
                -122.41559521433746,
                47.26716790911472
            ],
            [
                -122.41559615622509,
                47.26714083114577
            ],
            [
                -122.41554445270927,
                47.267129922989
            ],
            [
                -122.41552083049275,
                47.267074481261176
            ],
            [
                -122.41553401112529,
                47.267138161235664
            ],
            [
                -122.41562040273305,
                47.26716004309719
            ],
            [
                -122.4156215898527,
                47.267170823630124
            ],
            [
                -122.41568484352626,
                47.26713625864469
            ],
            [
                -122.41565565221683,
                47.26715335632408
            ],
            [
                -122.41558796927892,
                47.26716771801402
            ],
            [
                -122.41563999907899,
                47.26717914220803
            ],
            [
                -122.41563643561966,
                47.26713642438398
            ],
            [
                -122.41558585159058,
                47.267126537887194
            ],
            [
                -122.41559877780414,
                47.26715409926704
            ],
            [
                -122.41551126163769,
                47.26737379758676
            ],
            [
                -122.41822425448584,
                47.26995670322256
            ],
            [
                -122.42297664640232,
                47.273913908769494
            ],
            [
                -122.42667948101581,
                47.277220826273826
            ],
            [
                -122.45047041597425,
                47.29760047440762
            ],
            [
                -122.4353604848417,
                47.33015514209942
            ],
            [
                -122.38619322954871,
                47.35938321847708
            ],
            [
                -122.36131680938811,
                47.39072578164432
            ],
            [
                -122.39112863644408,
                47.44318413390249
            ],
            [
                -122.41077209295534,
                47.49038180423036
            ],
            [
                -122.4286712415885,
                47.53807336095415
            ],
            [
                -122.44502262974787,
                47.586840454026294
            ],
            [
                -122.45195369075617,
                47.63413405883539
            ],
            [
                -122.45243273480271,
                47.68715439067419
            ],
            [
                -122.43934028767057,
                47.73732402246649
            ],
            [
                -122.43922228535709,
                47.78708135531083
            ],
            [
                -122.45517623695936,
                47.83582400757057
            ],
            [
                -122.4747487236124,
                47.882421127106326
            ],
            [
                -122.50656162076996,
                47.92509561254851
            ],
            [
                -122.54532501759222,
                47.96571543755665
            ],
            [
                -122.58489682803912,
                48.00620552534398
            ],
            [
                -122.61913496607076,
                48.04849079912378
            ],
            [
                -122.64189734564704,
                48.09449618210926
            ],
            [
                -122.68469654713509,
                48.131828182886125
            ],
            [
                -122.73897689467192,
                48.16392753408333
            ],
            [
                -122.79786632608312,
                48.19047642754031
            ],
            [
                -122.86689668676398,
                48.19845144029838
            ],
            [
                -122.9382177240455,
                48.20199447659146
            ],
            [
                -123.00998410953972,
                48.20547818734123
            ],
            [
                -123.08011345718974,
                48.209282539198384
            ],
            [
                -123.14744304085949,
                48.201865429413964
            ],
            [
                -123.21029687836314,
                48.18314624369409
            ],
            [
                -123.27236212165502,
                48.16484930328156
            ],
            [
                -123.32842089136273,
                48.14746738228532
            ],
            [
                -123.37248983366204,
                48.14050750968233
            ],
            [
                -123.39196349807625,
                48.16821745423709
            ],
            [
                -123.42083719440221,
                48.20330614946677
            ],
            [
                -123.45186682594539,
                48.240297495868184
            ],
            [
                -123.51441541864284,
                48.25125079114481
            ],
            [
                -123.58397220448279,
                48.257020511257124
            ],
            [
                -123.65474344436052,
                48.26257915142557
            ],
            [
                -123.72382383550743,
                48.26826165139193
            ],
            [
                -123.79229,
                48.27437
            ]
        ]
    },
    "properties": {
        "trajectory_id": 2672,
        "object_id": 366793000,
        "label": "CARGO"
    }
}