{
    "type": "Feature",
    "geometry": {
        "type": "LineString",
        "coordinates": [
            [
                -122.61517,
                48.52181
            ],
            [
                -122.61520630552488,
                48.521814739674234
            ],
            [
                -122.61513565691865,
                48.52181507656689
            ],
            [
                -122.61517974103339,
                48.52180894081002
            ],
            [
                -122.61516984859409,
                48.52181729474017
            ],
            [
                -122.61516025657546,
                48.52180025208352
            ],
            [
                -122.6151237281894,
                48.52186410028408
            ],
            [
                -122.61517997850008,
                48.52177972424958
            ],
            [
                -122.61519107779097,
                48.52182044726925
            ],
            [
                -122.61516277324617,
                48.521802548767546
            ],
            [
                -122.61519989947791,
                48.52179027510662
            ],
            [
                -122.61516639192048,
                48.52180737427077
            ],
            [
                -122.61518879008031,
                48.521782410793115
            ],
            [
                -122.61526677465987,
                48.52188032140623
            ],
            [
                -122.59009057590234,
                48.52458561137178
            ],
            [
                -122.5646476382343,
                48.5328768124578
            ],
            [
                -122.57562058833163,
                48.552317712559784
            ],
            [
                -122.5881007419155,
                48.57146837025496
            ],
            [
                -122.60257134732882,
                48.590225466173926
            ],
            [
                -122.61950113261182,
                48.60869034876197
            ],
            [
                -122.63740151255678,
                48.62760213640658
            ],
            [
                -122.6552773573158,
                48.64613871678608
            ],
            [
                -122.67272333642649,
                48.66334059558725
            ],
            [
                -122.69130040149327,
                48.68047522593939
            ],
            [
                -122.71108671208734,
                48.69845398037389
            ],
            [
                -122.72966524488535,
                48.717775871522264
            ],
            [
                -122.73467307221999,
                48.74024865092166
            ],
            [
                -122.73436560184456,
                48.7634517397875
            ],
            [
                -122.72983448575098,
                48.786087085057616
            ],
            [
                -122.7205998545968,
                48.80132264327385
            ],
            [
                -122.72054199274824,
                48.80188143034773
            ],
            [
                -122.72050635881543,
                48.802050173252134
            ],
            [
                -122.7204879486171,
                48.802069818737145
            ],
            [
                -122.72051025999865,
                48.80205768870505
            ],
            [
                -122.72052945605168,
                48.80206958635212
            ],
            [
                -122.72054182985708,
                48.8020716997909
            ],
            [
                -122.72051009493859,
                48.802050738633454
            ],
            [
                -122.72062819362006,
                48.80203074185049
            ],
            [
                -122.7207000001011,
                48.80202000208017
            ],
            [
                -122.7207095367324,
                48.802030666973515
            ],
            [
                -122.72058817115868,
                48.802039908007735
            ],
            [
                -122.72047881316801,
                48.80200018017939
            ],
            [
                -122.72047302988238,
                48.80201812255356
            ],
            [
                -122.7205951464704,
                48.80200752206355
            ],
            [
                -122.72078387735053,
                48.80193091028402
            ],
            [
                -122.72084224352298,
                48.80179116819491
            ],
            [
                -122.72077788803577,
                48.801736050357526
            ],
            [
                -122.7207447948831,
                48.80171235253459
            ],
            [
                -122.72075817013562,
                48.80167354712096
            ],
            [
                -122.7208012207567,
                48.801628383127294
            ],
            [
                -122.72071206721115,
                48.80158441378665
            ],
            [
                -122.72061092213356,
                48.80156009286339
            ],
            [
                -122.72059937324208,
                48.80156646521438
            ],
            [
                -122.72059562219317,
                48.80159018925977
            ],
            [
                -122.72060202446303,
                48.80156384624407
            ],
            [
                -122.72068499214969,
                48.80157287257443
            ],
            [
                -122.72080133402504,
                48.80158578023665
            ],
            [
                -122.72088290867171,
                48.801607606657754
            ],
            [
                -122.72096099832699,
                48.8016401330451
            ],
            [
                -122.72097746214901,
                48.80163377396261
            ],
            [
                -122.721004410043,
                48.80168204519574
            ],
            [
                -122.72100655746085,
                48.80167557684451
            ],
            [
                -122.72099277108155,
                48.80165530390138
            ],
            [
                -122.72100672267423,
                48.80166330153136
            ],
            [
                -122.72104174032025,
                48.80167519912382
            ],
            [
                -122.72105118706712,
                48.80166496341418
            ],
            [
                -122.72105366049627,
                48.80166017783137
            ],
            [
                -122.72106701531222,
                48.80168505272793
            ],
            [
                -122.72107466569533,
                48.801717564833446
            ],
            [
                -122.72103277326194,
                48.801796999594885
            ],
            [
                -122.72096762045501,
                48.80188964631244
            ],
            [
                -122.72090872803228,
                48.80195430999534
            ],
            [
                -122.72087628797505,
                48.801979568052374
            ],
            [
                -122.72085031773808,
                48.801986931504786
            ],
            [
                -122.72079988449508,
                48.801991823036396
            ],
            [
                -122.720793650393,
                48.80201165368932
            ],
            [
                -122.72076141130596,
                48.80203106006566
            ],
            [
                -122.7207107263832,
                48.802059764433814
            ],
            [
                -122.7206798887411,
                48.80204978927824
            ],
            [
                -122.72072,
                48.80204
            ]
        ]
    },
    "properties": {
        "trajectory_id": 2743,
        "object_id": 366887970,
        "label": "TUG"
    }
}