{
    "type": "Feature",
    "geometry": {
        "type": "LineString",
        "coordinates": [
            [
                -122.61517,
                48.5218
            ],
            [
                -122.61517440075458,
                48.52180577423352
            ],
            [
                -122.61523346717887,
                48.52176708541047
            ],
            [
                -122.61529173080976,
                48.52174038083456
            ],
            [
                -122.61529307755649,
                48.52174972904493
            ],
            [
                -122.6151813933283,
                48.52181919858075
            ],
            [
                -122.61519404118258,
                48.52182066396789
            ],
            [
                -122.61515547036971,
                48.5218344113903
            ],
            [
                -122.61517994333016,
                48.52184922400606
            ],
            [
                -122.61523157715635,
                48.521810570879104
            ],
            [
                -122.61517782000888,
                48.521822965780956
            ],
            [
                -122.61518547799902,
                48.52181909078795
            ],
            [
                -122.615197695954,
                48.52183289424831
            ],
            [
                -122.61518479652814,
                48.52183261818874
            ],
            [
                -122.61515001251234,
                48.52182000914449
            ],
            [
                -122.61519402926714,
                48.521800644306474
            ],
            [
                -122.61518375197576,
                48.52177952028981
            ],
            [
                -122.61518735139018,
                48.52180768262255
            ],
            [
                -122.61518006144152,
                48.52182053574645
            ],
            [
                -122.61519918626321,
                48.521820139077235
            ],
            [
                -122.61517714873409,
                48.52184772441387
            ],
            [
                -122.61518924570971,
                48.521801718881214
            ],
            [
                -122.61519038074421,
                48.5218404246631
            ],
            [
                -122.61121577066974,
                48.52334631791983
            ],
            [
                -122.58058422433517,
                48.524405340541854
            ],
            [
                -122.56623546521705,
                48.53986237080984
            ],
            [
                -122.58089504468337,
                48.55967314956773
            ],
            [
                -122.5936805884567,
                48.5795669370159
            ],
            [
                -122.61007076947882,
                48.59847447181861
            ],
            [
                -122.6283430091844,
                48.617762471832755
            ],
            [
                -122.64695076159553,
                48.63570708132688
            ],
            [
                -122.66567864493585,
                48.65376187208888
            ],
            [
                -122.68380751201602,
                48.671586027546304
            ],
            [
                -122.70213769489948,
                48.6906414255466
            ],
            [
                -122.72357878290805,
                48.70994685733375
            ],
            [
                -122.73407955277989,
                48.731608085640424
            ],
            [
                -122.73808641473242,
                48.75264636122433
            ],
            [
                -122.74359109698895,
                48.7749090137602
            ],
            [
                -122.74980074986065,
                48.79739893162865
            ],
            [
                -122.75581176424464,
                48.81939211010383
            ],
            [
                -122.75963745156028,
                48.83459288323341
            ],
            [
                -122.76209728338883,
                48.8448434031165
            ],
            [
                -122.76302751166322,
                48.853663182194005
            ],
            [
                -122.76367844151028,
                48.85813589069785
            ],
            [
                -122.76460949418905,
                48.85976956966587
            ],
            [
                -122.76279197763272,
                48.86145605552038
            ],
            [
                -122.76229796508453,
                48.86236915057606
            ],
            [
                -122.76231943092253,
                48.86239151700826
            ],
            [
                -122.76312630665042,
                48.86211631322417
            ],
            [
                -122.76931181439721,
                48.85370719476705
            ],
            [
                -122.77253373237082,
                48.82888178035812
            ],
            [
                -122.76979201869585,
                48.80183110460267
            ],
            [
                -122.76674178666178,
                48.77454871319972
            ],
            [
                -122.76027019901323,
                48.746770197020936
            ],
            [
                -122.75226901215171,
                48.71886224274578
            ],
            [
                -122.7376618373766,
                48.69217598971509
            ],
            [
                -122.72389015901611,
                48.66529597510324
            ],
            [
                -122.73193243019718,
                48.63702384860828
            ],
            [
                -122.75099806731983,
                48.61103780990055
            ],
            [
                -122.75731794170164,
                48.583310184932905
            ],
            [
                -122.75317755248334,
                48.55452429550679
            ],
            [
                -122.74710618171206,
                48.52533511308202
            ],
            [
                -122.74056115555679,
                48.49573793970186
            ],
            [
                -122.73868012768662,
                48.46569838023135
            ],
            [
                -122.75468086260558,
                48.442623911956844
            ],
            [
                -122.78625941836896,
                48.42241125165084
            ],
            [
                -122.82213779760033,
                48.40297070148687
            ],
            [
                -122.8593899795141,
                48.387357803919954
            ],
            [
                -122.89565879676624,
                48.37237339966234
            ],
            [
                -122.93232628131042,
                48.357758641198934
            ],
            [
                -122.96875238425885,
                48.34292710440527
            ],
            [
                -123.00478549761048,
                48.32632083323162
            ],
            [
                -123.04279550631983,
                48.30971320966182
            ],
            [
                -123.08335960224743,
                48.293127806045014
            ],
            [
                -123.12192089184721,
                48.276533393793116
            ],
            [
                -123.12607246562476,
                48.26363504751796
            ],
            [
                -123.09727002564024,
                48.25666288372408
            ],
            [
                -123.06814244382713,
                48.24964542960595
            ],
            [
                -123.03685107465651,
                48.24202311584117
            ],
            [
                -123.00454,
                48.23447
            ]
        ]
    },
    "properties": {
        "trajectory_id": 2753,
        "object_id": 366887970,
        "label": "TUG"
    }
}