{
    "type": "Feature",
    "geometry": {
        "type": "LineString",
        "coordinates": [
            [
                -122.4757,
                47.33914
            ],
            [
                -122.47610164002121,
                47.33911063083343
            ],
            [
                -122.47604522998701,
                47.339100811734056
            ],
            [
                -122.47607091157144,
                47.33918512092308
            ],
            [
                -122.47616571870208,
                47.33908312240635
            ],
            [
                -122.47612341635278,
                47.33908584314131
            ],
            [
                -122.4760663246349,
                47.339134416573756
            ],
            [
                -122.47600987923842,
                47.339080327107744
            ],
            [
                -122.47609051493181,
                47.339042638322425
            ],
            [
                -122.47598931560617,
                47.339074983802305
            ],
            [
                -122.47578126394468,
                47.339009869026185
            ],
            [
                -122.47581973655817,
                47.33907498564767
            ],
            [
                -122.47582276621311,
                47.33901946302653
            ],
            [
                -122.47556115389368,
                47.33893538103811
            ],
            [
                -122.47538565357138,
                47.33891296957872
            ],
            [
                -122.47534457715084,
                47.33905599403964
            ],
            [
                -122.47550282169391,
                47.33901525801974
            ],
            [
                -122.47578110199855,
                47.33903494236381
            ],
            [
                -122.4759902514577,
                47.339109628834784
            ],
            [
                -122.47598485549219,
                47.33904952004728
            ],
            [
                -122.47606662400918,
                47.339086704251706
            ],
            [
                -122.47622547358021,
                47.339143669571065
            ],
            [
                -122.47606067485812,
                47.33900194445263
            ],
            [
                -122.47539990536077,
                47.33903952346769
            ],
            [
                -122.47503419403311,
                47.33897507271157
            ],
            [
                -122.47601267714244,
                47.339046373594414
            ],
            [
                -122.47591299466393,
                47.33910640219287
            ],
            [
                -122.47576924266126,
                47.33906556767636
            ],
            [
                -122.47550756824856,
                47.339019840671824
            ],
            [
                -122.47499249751277,
                47.33901296571977
            ],
            [
                -122.47535156139332,
                47.33909038202853
            ],
            [
                -122.47572906336427,
                47.33903009218163
            ],
            [
                -122.47538359451312,
                47.33907395030702
            ],
            [
                -122.47552711051948,
                47.33909869814657
            ],
            [
                -122.475766734783,
                47.339045635047704
            ],
            [
                -122.47528049825291,
                47.33907099322875
            ],
            [
                -122.4755134882224,
                47.33909960568439
            ],
            [
                -122.47585979229946,
                47.33898903698847
            ],
            [
                -122.47559045723284,
                47.33909470561133
            ],
            [
                -122.47544061781785,
                47.33897482053731
            ],
            [
                -122.47554649520424,
                47.339076882029076
            ],
            [
                -122.47532012175485,
                47.338981427678554
            ],
            [
                -122.47492769726435,
                47.33896865185462
            ],
            [
                -122.47533322775371,
                47.33895701027293
            ],
            [
                -122.4754736666254,
                47.33882983381393
            ],
            [
                -122.47535134573809,
                47.339033522240875
            ],
            [
                -122.47524519017793,
                47.33882880230691
            ],
            [
                -122.47501073113352,
                47.33873775094765
            ],
            [
                -122.47492741640573,
                47.338981279554396
            ],
            [
                -122.4753433404873,
                47.33879566765165
            ],
            [
                -122.47546529336101,
                47.339041507352675
            ],
            [
                -122.47548335491365,
                47.33891064245623
            ],
            [
                -122.47538579086967,
                47.338973083798884
            ],
            [
                -122.47549525334627,
                47.33850465883617
            ],
            [
                -122.47619973510088,
                47.33542586153813
            ],
            [
                -122.47153951292165,
                47.314114604754415
            ],
            [
                -122.44267548294441,
                47.294494732004516
            ],
            [
                -122.42523905226297,
                47.29074698813184
            ],
            [
                -122.41201362025345,
                47.28612324117829
            ],
            [
                -122.40545906468134,
                47.28199322070713
            ],
            [
                -122.39887755662058,
                47.27863649588619
            ],
            [
                -122.3929645183053,
                47.27718602522436
            ],
            [
                -122.38996330102582,
                47.27663211686644
            ],
            [
                -122.38989929368462,
                47.27678345440689
            ],
            [
                -122.38988513568255,
                47.27681666282626
            ],
            [
                -122.38992398095793,
                47.27678947080321
            ],
            [
                -122.38992806335042,
                47.27680721663392
            ],
            [
                -122.38986359117143,
                47.27681587516738
            ],
            [
                -122.38986755924637,
                47.276783323384436
            ],
            [
                -122.38987854492989,
                47.27680213563791
            ],
            [
                -122.38985787688948,
                47.2768008515
            ],
            [
                -122.38987325173538,
                47.27682907532754
            ],
            [
                -122.389857045721,
                47.276821102975056
            ],
            [
                -122.389866976131,
                47.27680941095589
            ],
            [
                -122.38987592330564,
                47.27681812930968
            ],
            [
                -122.38984354363598,
                47.27682850114999
            ],
            [
                -122.3898582412968,
                47.27680813845849
            ],
            [
                -122.38987017727655,
                47.27681923332347
            ],
            [
                -122.38985075422966,
                47.27680894586665
            ],
            [
                -122.38984,
                47.27679
            ]
        ]
    },
    "properties": {
        "trajectory_id": 2759,
        "object_id": 366904000,
        "label": "TOWING"
    }
}