{
    "type": "Feature",
    "geometry": {
        "type": "LineString",
        "coordinates": [
            [
                -122.38214,
                47.62864
            ],
            [
                -122.38213337476319,
                47.62859750394151
            ],
            [
                -122.38212745205146,
                47.628632603963574
            ],
            [
                -122.38212830651416,
                47.62859006233545
            ],
            [
                -122.38213103271079,
                47.6286022162406
            ],
            [
                -122.38207794063655,
                47.628633650371874
            ],
            [
                -122.38211467629371,
                47.62861845369175
            ],
            [
                -122.38211044440418,
                47.628589253905965
            ],
            [
                -122.38209217664557,
                47.62859918041557
            ],
            [
                -122.38209974107416,
                47.62863960391314
            ],
            [
                -122.38210487514937,
                47.62863752231081
            ],
            [
                -122.38215356920185,
                47.628620733369075
            ],
            [
                -122.38212269195417,
                47.628610459643184
            ],
            [
                -122.38212157176655,
                47.628598195208745
            ],
            [
                -122.38210934817297,
                47.628606769765874
            ],
            [
                -122.38214397818604,
                47.62861489284829
            ],
            [
                -122.38211166364975,
                47.628628979296955
            ],
            [
                -122.38213156020106,
                47.628619938175596
            ],
            [
                -122.3821054206637,
                47.6286252641819
            ],
            [
                -122.38209939180896,
                47.62861012233012
            ],
            [
                -122.38212007176378,
                47.628608389515215
            ],
            [
                -122.38215933151402,
                47.628612626401626
            ],
            [
                -122.38215095847151,
                47.62862597709759
            ],
            [
                -122.38212894120134,
                47.628643258036604
            ],
            [
                -122.38213606634635,
                47.62864030765762
            ],
            [
                -122.38216388284225,
                47.62863107779663
            ],
            [
                -122.38214924390739,
                47.62861058700118
            ],
            [
                -122.38214059500189,
                47.628620050571236
            ],
            [
                -122.3821367088415,
                47.62859486548037
            ],
            [
                -122.38213022451588,
                47.62862091024672
            ],
            [
                -122.38212314350699,
                47.62862069359206
            ],
            [
                -122.38212153393634,
                47.62861848633822
            ],
            [
                -122.38213844205279,
                47.62860970686596
            ],
            [
                -122.3821232401334,
                47.6286112022942
            ],
            [
                -122.3821274930552,
                47.62861725635076
            ],
            [
                -122.38210164603468,
                47.62861766571673
            ],
            [
                -122.38213391313194,
                47.62863899766594
            ],
            [
                -122.38218373270713,
                47.62861076802918
            ],
            [
                -122.38212387553499,
                47.62862317248023
            ],
            [
                -122.38212331437246,
                47.62862511671745
            ],
            [
                -122.38210254578178,
                47.62861462151259
            ],
            [
                -122.38216087817389,
                47.62863713517019
            ],
            [
                -122.38214058097368,
                47.628626320798965
            ],
            [
                -122.38214306620799,
                47.628635519927236
            ],
            [
                -122.38211213311266,
                47.628647641171135
            ],
            [
                -122.38212188848571,
                47.628619078154934
            ],
            [
                -122.38213855221613,
                47.62858671163692
            ],
            [
                -122.38212215407829,
                47.62859959010389
            ],
            [
                -122.3821586870637,
                47.628600824653624
            ],
            [
                -122.38214959217815,
                47.628599083434004
            ],
            [
                -122.38215112314032,
                47.62860074155502
            ],
            [
                -122.3821021383426,
                47.62861737777616
            ],
            [
                -122.38210934165514,
                47.62861924349657
            ],
            [
                -122.3821208643981,
                47.628630757731
            ],
            [
                -122.38210590518592,
                47.62862433752501
            ],
            [
                -122.38214681619668,
                47.62862193820495
            ],
            [
                -122.38212978688472,
                47.62860036004961
            ],
            [
                -122.38211021605429,
                47.62862066274879
            ],
            [
                -122.38211546234743,
                47.628630363226065
            ],
            [
                -122.38211644258888,
                47.62861059823322
            ],
            [
                -122.38214841356466,
                47.628616438920744
            ],
            [
                -122.38214440843488,
                47.628629849744364
            ],
            [
                -122.38212201993902,
                47.62861747210746
            ],
            [
                -122.38216018569854,
                47.62861008285098
            ],
            [
                -122.38216032012292,
                47.62859079317307
            ],
            [
                -122.38213900715566,
                47.628593138946975
            ],
            [
                -122.38213920905883,
                47.62862167184207
            ],
            [
                -122.38211576676284,
                47.628632868427424
            ],
            [
                -122.38214764840737,
                47.62861362171476
            ],
            [
                -122.3821456284021,
                47.62858655208725
            ],
            [
                -122.38211552265109,
                47.62862109032799
            ],
            [
                -122.38214214787818,
                47.62861538140585
            ],
            [
                -122.3821431909859,
                47.62859055688399
            ],
            [
                -122.38214012536584,
                47.62860105475262
            ],
            [
                -122.38217763496606,
                47.62861387296045
            ],
            [
                -122.38214965177855,
                47.62860829322532
            ],
            [
                -122.38218644744708,
                47.62859696957407
            ],
            [
                -122.38218009381833,
                47.628600367619775
            ],
            [
                -122.38213087291179,
                47.62857869271589
            ],
            [
                -122.38214,
                47.62861
            ]
        ]
    },
    "properties": {
        "trajectory_id": 2788,
        "object_id": 366947000,
        "label": "FISHING"
    }
}