{
    "type": "Feature",
    "geometry": {
        "type": "LineString",
        "coordinates": [
            [
                -122.33843,
                47.54634
            ],
            [
                -122.33092645958781,
                47.539696536336216
            ],
            [
                -122.3193301187574,
                47.53241518002028
            ],
            [
                -122.30981227448908,
                47.52641381581554
            ],
            [
                -122.30465467266262,
                47.514074202757925
            ],
            [
                -122.30397585897843,
                47.512753948183146
            ],
            [
                -122.30392093453175,
                47.512799004041014
            ],
            [
                -122.30667780377884,
                47.519467002612615
            ],
            [
                -122.30642968689799,
                47.51954969518353
            ],
            [
                -122.30644978918902,
                47.51956182970215
            ],
            [
                -122.30643026658478,
                47.51955010808306
            ],
            [
                -122.3064427744546,
                47.519516897513526
            ],
            [
                -122.30642657464533,
                47.51952018793662
            ],
            [
                -122.30644817434332,
                47.51956739168313
            ],
            [
                -122.30648890465964,
                47.51954353801045
            ],
            [
                -122.30647037957571,
                47.51958687814182
            ],
            [
                -122.30643093814147,
                47.51954080382463
            ],
            [
                -122.30643939380651,
                47.51954424438398
            ],
            [
                -122.3064827247708,
                47.51951317996842
            ],
            [
                -122.30646429775355,
                47.51956200836328
            ],
            [
                -122.30641478364326,
                47.51955960127934
            ],
            [
                -122.30647064319128,
                47.51952201390659
            ],
            [
                -122.30643219500354,
                47.51955944147226
            ],
            [
                -122.30644398391412,
                47.51953661990783
            ],
            [
                -122.30642968802813,
                47.51955011609978
            ],
            [
                -122.30642542634699,
                47.51952055086676
            ],
            [
                -122.30646159646535,
                47.519517388382056
            ],
            [
                -122.30642119132749,
                47.51955718423363
            ],
            [
                -122.30643898413085,
                47.51954372683288
            ],
            [
                -122.3064557823823,
                47.51955638847766
            ],
            [
                -122.3064165869113,
                47.51954854727507
            ],
            [
                -122.30642168068576,
                47.51953940313471
            ],
            [
                -122.30642526834293,
                47.51956084759882
            ],
            [
                -122.30644207150281,
                47.519533340730554
            ],
            [
                -122.30643691540817,
                47.51955377757481
            ],
            [
                -122.30640010538781,
                47.51955885945478
            ],
            [
                -122.30642901326289,
                47.519530182529
            ],
            [
                -122.30643589368643,
                47.51953072826417
            ],
            [
                -122.30644063081817,
                47.51952736509256
            ],
            [
                -122.30639153749966,
                47.519565804955356
            ],
            [
                -122.30641982092341,
                47.51954882353008
            ],
            [
                -122.30643206742492,
                47.519558018191944
            ],
            [
                -122.30642993184122,
                47.51954981500605
            ],
            [
                -122.30640935396298,
                47.51955945787866
            ],
            [
                -122.30641071048684,
                47.51956050820468
            ],
            [
                -122.3064299419424,
                47.51957011265085
            ],
            [
                -122.30643128679229,
                47.519568419555746
            ],
            [
                -122.30641862791853,
                47.51958387489072
            ],
            [
                -122.30642991039855,
                47.519571268651426
            ],
            [
                -122.30641889585489,
                47.51952226200165
            ],
            [
                -122.30646722772369,
                47.519550930809494
            ],
            [
                -122.30643057539436,
                47.519558982907924
            ],
            [
                -122.30643202452657,
                47.519541140622586
            ],
            [
                -122.30642476682696,
                47.51954210144956
            ],
            [
                -122.30646276886019,
                47.519583904510085
            ],
            [
                -122.30641392934388,
                47.51952769506379
            ],
            [
                -122.30644509276448,
                47.51953040431465
            ],
            [
                -122.30643589400418,
                47.519550956841705
            ],
            [
                -122.3064402135467,
                47.51955853388683
            ],
            [
                -122.30641114742275,
                47.51954817415577
            ],
            [
                -122.30643316278581,
                47.51953973060852
            ],
            [
                -122.30613620283486,
                47.517489876414075
            ],
            [
                -122.30351763626453,
                47.51254247675533
            ],
            [
                -122.30351049957002,
                47.51249919646294
            ],
            [
                -122.3056622020711,
                47.51675421363724
            ],
            [
                -122.3108027759829,
                47.52729690014692
            ],
            [
                -122.32200155253284,
                47.53416557683107
            ],
            [
                -122.33285545564492,
                47.541029015013144
            ],
            [
                -122.3405174513018,
                47.551154468333806
            ],
            [
                -122.3475954275146,
                47.565354739069036
            ],
            [
                -122.35519864344079,
                47.57248601463712
            ],
            [
                -122.3602075531115,
                47.58511239340018
            ],
            [
                -122.35788292660015,
                47.59740151335396
            ],
            [
                -122.35737161171772,
                47.59936159548787
            ],
            [
                -122.35793441206707,
                47.59850633847224
            ],
            [
                -122.35782516210438,
                47.59954544408868
            ],
            [
                -122.35942191016457,
                47.59607387051896
            ],
            [
                -122.3598058955011,
                47.58017122590374
            ],
            [
                -122.35437699977558,
                47.57185901585427
            ],
            [
                -122.3461,
                47.5618
            ]
        ]
    },
    "properties": {
        "trajectory_id": 2921,
        "object_id": 366993250,
        "label": "TUG"
    }
}