{
    "type": "Feature",
    "geometry": {
        "type": "LineString",
        "coordinates": [
            [
                -122.22042,
                47.98018
            ],
            [
                -122.22043087898618,
                47.9801992345965
            ],
            [
                -122.2204299702894,
                47.98020050758604
            ],
            [
                -122.22042316276934,
                47.98018019627327
            ],
            [
                -122.22039947763487,
                47.98020229317102
            ],
            [
                -122.22041861940602,
                47.980198546881034
            ],
            [
                -122.22042230938123,
                47.98018762295393
            ],
            [
                -122.22043143804038,
                47.980194929625604
            ],
            [
                -122.22044633017039,
                47.98019945547192
            ],
            [
                -122.22043927861182,
                47.980176170174005
            ],
            [
                -122.22042806674496,
                47.98018970854797
            ],
            [
                -122.22043052123234,
                47.98018058689476
            ],
            [
                -122.2204280290957,
                47.98016992596346
            ],
            [
                -122.22044048226229,
                47.98017452802749
            ],
            [
                -122.22044751822767,
                47.980179509388556
            ],
            [
                -122.22042283747012,
                47.980169526205685
            ],
            [
                -122.22039894961941,
                47.980196507992254
            ],
            [
                -122.22042739664607,
                47.980180295461835
            ],
            [
                -122.220413472043,
                47.98018482098012
            ],
            [
                -122.22045044629576,
                47.98018079454457
            ],
            [
                -122.22041780937384,
                47.98018832537175
            ],
            [
                -122.22042044547703,
                47.980198347829955
            ],
            [
                -122.22042026579344,
                47.98022022555206
            ],
            [
                -122.22043197225801,
                47.98017145191845
            ],
            [
                -122.22041441109943,
                47.98019212549587
            ],
            [
                -122.22044854400602,
                47.980173886674585
            ],
            [
                -122.22041749142082,
                47.98017006074877
            ],
            [
                -122.22041535491371,
                47.98017952053832
            ],
            [
                -122.22043032540367,
                47.9801699139166
            ],
            [
                -122.22041999959988,
                47.98017963311862
            ],
            [
                -122.22041785734639,
                47.98017707095312
            ],
            [
                -122.22042653417535,
                47.98017191807854
            ],
            [
                -122.22041997023973,
                47.980180752297976
            ],
            [
                -122.22043098226553,
                47.98018025961007
            ],
            [
                -122.22042989552834,
                47.980170693557874
            ],
            [
                -122.22041101957907,
                47.98017540764191
            ],
            [
                -122.22042541007589,
                47.98017157559194
            ],
            [
                -122.22039666945771,
                47.98017038622545
            ],
            [
                -122.22040082722681,
                47.98016996205343
            ],
            [
                -122.22042478560085,
                47.98017168469349
            ],
            [
                -122.2204240306222,
                47.98019792526343
            ],
            [
                -122.22039926296267,
                47.98018024399644
            ],
            [
                -122.22037753967207,
                47.98017975717711
            ],
            [
                -122.22043880446174,
                47.98018872380695
            ],
            [
                -122.22039957047816,
                47.98016899995521
            ],
            [
                -122.22042931008819,
                47.98020016289966
            ],
            [
                -122.22042600585094,
                47.98020514914827
            ],
            [
                -122.22042744116389,
                47.98017293087331
            ],
            [
                -122.22042013394439,
                47.98019493062454
            ],
            [
                -122.22040127243268,
                47.98016909688449
            ],
            [
                -122.2204234228536,
                47.98019243047283
            ],
            [
                -122.2203884781988,
                47.98017063117613
            ],
            [
                -122.22041993175726,
                47.980180329603165
            ],
            [
                -122.2203968000914,
                47.98017246003735
            ],
            [
                -122.22039951868997,
                47.98016957318768
            ],
            [
                -122.22043455296767,
                47.980178524029675
            ],
            [
                -122.22041982890953,
                47.98017510185659
            ],
            [
                -122.22040005955982,
                47.9801800550754
            ],
            [
                -122.2204082135135,
                47.98016386922364
            ],
            [
                -122.22042390312703,
                47.98017163782412
            ],
            [
                -122.22042013500938,
                47.98014990912786
            ],
            [
                -122.22042166838506,
                47.98016485521565
            ],
            [
                -122.22040356024281,
                47.98015840075113
            ],
            [
                -122.22044838344853,
                47.98017260022666
            ],
            [
                -122.22041908027727,
                47.98022148388029
            ],
            [
                -122.22044339114298,
                47.980205622654466
            ],
            [
                -122.22043969712547,
                47.98016009084234
            ],
            [
                -122.22041182090106,
                47.980200446612095
            ],
            [
                -122.2204218977498,
                47.98019738740622
            ],
            [
                -122.22041767855428,
                47.98020399937371
            ],
            [
                -122.22044466108989,
                47.980178635665055
            ],
            [
                -122.22042382254995,
                47.980186992107704
            ],
            [
                -122.22039698657478,
                47.980192197043664
            ],
            [
                -122.22043233843381,
                47.98016749973057
            ],
            [
                -122.22038615250615,
                47.980149006360925
            ],
            [
                -122.22043074381244,
                47.980168904962866
            ],
            [
                -122.22042962520494,
                47.98018090064265
            ],
            [
                -122.22040298169905,
                47.98018845560334
            ],
            [
                -122.22043005253389,
                47.98017287740903
            ],
            [
                -122.22042,
                47.98018
            ]
        ]
    },
    "properties": {
        "trajectory_id": 2940,
        "object_id": 367001790,
        "label": "TOWING"
    }
}