{
    "type": "Feature",
    "geometry": {
        "type": "LineString",
        "coordinates": [
            [
                -122.3664,
                47.65617
            ],
            [
                -122.36631682371056,
                47.65617753248296
            ],
            [
                -122.3663183174462,
                47.656184043178904
            ],
            [
                -122.36633085651823,
                47.65618991930313
            ],
            [
                -122.36631747755968,
                47.656173403128705
            ],
            [
                -122.36630608098486,
                47.656181654408435
            ],
            [
                -122.36633123952284,
                47.65619411139776
            ],
            [
                -122.36634220057773,
                47.656169817970046
            ],
            [
                -122.3663298989021,
                47.65619933610979
            ],
            [
                -122.36632975686429,
                47.656168554207326
            ],
            [
                -122.36630715363553,
                47.65617905587312
            ],
            [
                -122.36632139465941,
                47.65618382357425
            ],
            [
                -122.36631873563357,
                47.656199190174554
            ],
            [
                -122.36632978553804,
                47.65616735982234
            ],
            [
                -122.36630606170893,
                47.65618204119222
            ],
            [
                -122.36632900341738,
                47.656169967449706
            ],
            [
                -122.36632810000104,
                47.65617095636902
            ],
            [
                -122.36632379977286,
                47.65616958421963
            ],
            [
                -122.36633072497344,
                47.656169272321186
            ],
            [
                -122.36633034541636,
                47.65618111413964
            ],
            [
                -122.3662959084248,
                47.65617949069108
            ],
            [
                -122.36636694859446,
                47.65613562413597
            ],
            [
                -122.36632028484344,
                47.65615365420815
            ],
            [
                -122.36632789172472,
                47.65617608932353
            ],
            [
                -122.36633797370078,
                47.656178311744156
            ],
            [
                -122.36634557992528,
                47.65617141933389
            ],
            [
                -122.36631973865313,
                47.65617988097245
            ],
            [
                -122.36631925701724,
                47.65616696172714
            ],
            [
                -122.36632994738945,
                47.65614848619031
            ],
            [
                -122.36633871304707,
                47.65616818921037
            ],
            [
                -122.36633318177803,
                47.656169479388716
            ],
            [
                -122.36632314990443,
                47.656181563698
            ],
            [
                -122.36631846913235,
                47.65616785555413
            ],
            [
                -122.36630797432863,
                47.65616322213426
            ],
            [
                -122.36632582752587,
                47.656171833662334
            ],
            [
                -122.36631998315939,
                47.656170007315986
            ],
            [
                -122.3663500740755,
                47.6561706955221
            ],
            [
                -122.36634482452858,
                47.65618403455598
            ],
            [
                -122.36629611289185,
                47.65617590130251
            ],
            [
                -122.36632964876141,
                47.656120157296954
            ],
            [
                -122.36632010400699,
                47.65616326326083
            ],
            [
                -122.36632571552622,
                47.656168547476696
            ],
            [
                -122.3663202421931,
                47.65612094918595
            ],
            [
                -122.36629931986654,
                47.656179704462375
            ],
            [
                -122.36631930032291,
                47.65617852572325
            ],
            [
                -122.36631689094172,
                47.65618004757616
            ],
            [
                -122.36633012640823,
                47.65617019784871
            ],
            [
                -122.36634109149506,
                47.65616905300831
            ],
            [
                -122.36632715939025,
                47.656174646581114
            ],
            [
                -122.36632910683588,
                47.65615124440449
            ],
            [
                -122.36631981461319,
                47.65618005727097
            ],
            [
                -122.36633287523884,
                47.65616899390477
            ],
            [
                -122.36632997638897,
                47.656129827164335
            ],
            [
                -122.3663326334192,
                47.656171919894724
            ],
            [
                -122.3663152270697,
                47.65616072544756
            ],
            [
                -122.36632095374905,
                47.65617848220197
            ],
            [
                -122.36629610136397,
                47.65613562246609
            ],
            [
                -122.36633917653725,
                47.65617875176723
            ],
            [
                -122.36632805104763,
                47.656171627192464
            ],
            [
                -122.36632199424011,
                47.6561780264355
            ],
            [
                -122.36630882006153,
                47.656184906792845
            ],
            [
                -122.36631336396248,
                47.65616808865562
            ],
            [
                -122.36634194874428,
                47.65615653593733
            ],
            [
                -122.36631171219386,
                47.656158841306954
            ],
            [
                -122.36630052132645,
                47.656150014459996
            ],
            [
                -122.36630296871277,
                47.6561700720549
            ],
            [
                -122.36632199335442,
                47.656150448009356
            ],
            [
                -122.36631965502953,
                47.65616628053667
            ],
            [
                -122.36635280028196,
                47.656172121762374
            ],
            [
                -122.36632729557016,
                47.65614997131424
            ],
            [
                -122.36632992828973,
                47.656179961307835
            ],
            [
                -122.36634915239743,
                47.65616935688124
            ],
            [
                -122.36632333207214,
                47.656154232886244
            ],
            [
                -122.36632609421582,
                47.65617097205495
            ],
            [
                -122.3663000088041,
                47.656170309632856
            ],
            [
                -122.36633263944651,
                47.65616947911771
            ],
            [
                -122.36632007795485,
                47.6561695986959
            ],
            [
                -122.36631794887077,
                47.65617311271042
            ],
            [
                -122.36631998716531,
                47.656130574470005
            ],
            [
                -122.3663,
                47.65617
            ]
        ]
    },
    "properties": {
        "trajectory_id": 2974,
        "object_id": 367046940,
        "label": "FISHING"
    }
}