{
    "type": "Feature",
    "geometry": {
        "type": "LineString",
        "coordinates": [
            [
                -122.36635,
                47.65618
            ],
            [
                -122.3663422805254,
                47.65615943454103
            ],
            [
                -122.36650424777139,
                47.65629275898297
            ],
            [
                -122.36659918932773,
                47.65625137838003
            ],
            [
                -122.36658413360654,
                47.65616106518703
            ],
            [
                -122.36641621958816,
                47.65614816199437
            ],
            [
                -122.36631962099581,
                47.65616936856885
            ],
            [
                -122.366324890869,
                47.656173849109024
            ],
            [
                -122.36630703794413,
                47.65616780678379
            ],
            [
                -122.36631247660593,
                47.65620588716202
            ],
            [
                -122.36635005332626,
                47.656169053361644
            ],
            [
                -122.36632980495006,
                47.65616998071731
            ],
            [
                -122.36635634844576,
                47.6561705140949
            ],
            [
                -122.3663194600282,
                47.65615445342244
            ],
            [
                -122.36634183885917,
                47.65617578141057
            ],
            [
                -122.36633216929555,
                47.65617897837242
            ],
            [
                -122.36629964769507,
                47.65616993570026
            ],
            [
                -122.36634486193728,
                47.65618427347298
            ],
            [
                -122.36635120419895,
                47.65617431203058
            ],
            [
                -122.36632252715353,
                47.65612100760203
            ],
            [
                -122.36633034224458,
                47.65617935107558
            ],
            [
                -122.36633130365637,
                47.65616557551467
            ],
            [
                -122.36635070035143,
                47.656152407473265
            ],
            [
                -122.366314189577,
                47.6561751067022
            ],
            [
                -122.36629468173186,
                47.65617915965607
            ],
            [
                -122.36631535413393,
                47.65618105643899
            ],
            [
                -122.36637032113345,
                47.65615158922816
            ],
            [
                -122.36632013083418,
                47.6561700860402
            ],
            [
                -122.36632997251515,
                47.656149945960266
            ],
            [
                -122.36631482160615,
                47.65616623244167
            ],
            [
                -122.36631510311574,
                47.65618579705593
            ],
            [
                -122.36634249770651,
                47.656195484063076
            ],
            [
                -122.36633100985894,
                47.6561508248844
            ],
            [
                -122.36630344085673,
                47.65612019748206
            ],
            [
                -122.36628016336894,
                47.656169735901365
            ],
            [
                -122.3663324339876,
                47.65614611485117
            ],
            [
                -122.3663104596137,
                47.65616480885146
            ],
            [
                -122.36633989559371,
                47.65617216118899
            ],
            [
                -122.36628039792207,
                47.65612023333349
            ],
            [
                -122.36632088066249,
                47.65617007121859
            ],
            [
                -122.36628560954274,
                47.65615362893445
            ],
            [
                -122.3663726752754,
                47.65618535850687
            ],
            [
                -122.36632903126397,
                47.65614942491206
            ],
            [
                -122.36635068114816,
                47.6561214820308
            ],
            [
                -122.3664084508582,
                47.65613168559251
            ],
            [
                -122.36633733303375,
                47.65617314532095
            ],
            [
                -122.3663198201752,
                47.65615097383562
            ],
            [
                -122.36630371708382,
                47.65615035524266
            ],
            [
                -122.3663303296818,
                47.6561217109115
            ],
            [
                -122.36633021373002,
                47.65613303676381
            ],
            [
                -122.36631973276603,
                47.65612817736678
            ],
            [
                -122.36632535711914,
                47.656143757150254
            ],
            [
                -122.36632597923226,
                47.656114782682835
            ],
            [
                -122.36634426998474,
                47.65622238801101
            ],
            [
                -122.36634039930311,
                47.65615797986584
            ],
            [
                -122.36632430168324,
                47.65612768185039
            ],
            [
                -122.36632634315039,
                47.65615446135946
            ],
            [
                -122.366330189513,
                47.656169861811165
            ],
            [
                -122.36632915005217,
                47.65613069120671
            ],
            [
                -122.36633320673731,
                47.65618313633269
            ],
            [
                -122.36634823881208,
                47.65617499364876
            ],
            [
                -122.36631415668975,
                47.656164153416704
            ],
            [
                -122.3663420575178,
                47.65617013776377
            ],
            [
                -122.366354088516,
                47.656163314222105
            ],
            [
                -122.36632076603318,
                47.656181276054355
            ],
            [
                -122.36631789690504,
                47.65616853776349
            ],
            [
                -122.36632923732819,
                47.65616925697825
            ],
            [
                -122.36632087705324,
                47.65613397263463
            ],
            [
                -122.36632208851049,
                47.65617323641105
            ],
            [
                -122.36629266996061,
                47.65615998266373
            ],
            [
                -122.36634492604485,
                47.65615662175309
            ],
            [
                -122.36632899290011,
                47.6561691678033
            ],
            [
                -122.36630937691992,
                47.656183232841606
            ],
            [
                -122.36635596243227,
                47.65617180543061
            ],
            [
                -122.36633863048908,
                47.65615333483923
            ],
            [
                -122.36632908786258,
                47.65616907164397
            ],
            [
                -122.36633916998869,
                47.656168015148246
            ],
            [
                -122.36634411092771,
                47.65617262117722
            ],
            [
                -122.36631304117859,
                47.65614868773079
            ],
            [
                -122.36637,
                47.65618
            ]
        ]
    },
    "properties": {
        "trajectory_id": 2981,
        "object_id": 367046940,
        "label": "FISHING"
    }
}