{
    "type": "Feature",
    "geometry": {
        "type": "LineString",
        "coordinates": [
            [
                -122.50562,
                48.75404
            ],
            [
                -122.5056454405313,
                48.754032510713984
            ],
            [
                -122.50561867112643,
                48.75400780074392
            ],
            [
                -122.50564273193098,
                48.75407967403372
            ],
            [
                -122.50562540304257,
                48.75404995627987
            ],
            [
                -122.50561779780585,
                48.7540575443062
            ],
            [
                -122.50564010548023,
                48.75405026734256
            ],
            [
                -122.50564457222032,
                48.754033764979646
            ],
            [
                -122.50561559306749,
                48.75405459747496
            ],
            [
                -122.50561238367867,
                48.75405554916667
            ],
            [
                -122.505607122087,
                48.754051811658854
            ],
            [
                -122.50562167096105,
                48.754028076902124
            ],
            [
                -122.50563154855281,
                48.754040017749034
            ],
            [
                -122.50562494819584,
                48.75405007696269
            ],
            [
                -122.50562458775971,
                48.75405853480151
            ],
            [
                -122.5056159030035,
                48.754053362572606
            ],
            [
                -122.5056307322515,
                48.7540643081783
            ],
            [
                -122.5056308330957,
                48.75406036425038
            ],
            [
                -122.50563861544437,
                48.75405570405632
            ],
            [
                -122.50561928459972,
                48.754069777435774
            ],
            [
                -122.50567939833878,
                48.75407679292532
            ],
            [
                -122.50566955699828,
                48.75407723552327
            ],
            [
                -122.50561533549661,
                48.75406805969898
            ],
            [
                -122.5056388104285,
                48.754067687433526
            ],
            [
                -122.50561958776865,
                48.75408144644951
            ],
            [
                -122.50564149247805,
                48.75406498372587
            ],
            [
                -122.50564094196218,
                48.754061751993866
            ],
            [
                -122.505649361477,
                48.754056552910825
            ],
            [
                -122.50561512487009,
                48.75408364360034
            ],
            [
                -122.50561585287645,
                48.75406304073643
            ],
            [
                -122.50564715160482,
                48.754086438659755
            ],
            [
                -122.50562655585307,
                48.75406377897323
            ],
            [
                -122.50559212541938,
                48.754068833856834
            ],
            [
                -122.50560155178526,
                48.75405188719552
            ],
            [
                -122.5055802063288,
                48.75406056097179
            ],
            [
                -122.50560860494772,
                48.754089708979095
            ],
            [
                -122.50562001378344,
                48.75408525802734
            ],
            [
                -122.50559971824336,
                48.75404347301672
            ],
            [
                -122.50559719562015,
                48.75406416668073
            ],
            [
                -122.5056186580947,
                48.75407927208158
            ],
            [
                -122.50564315392764,
                48.75408169931451
            ],
            [
                -122.50564091051005,
                48.75406513789
            ],
            [
                -122.50562655534372,
                48.75405352803676
            ],
            [
                -122.5056098060108,
                48.75409321102121
            ],
            [
                -122.50561225509281,
                48.754109683665476
            ],
            [
                -122.50565654038593,
                48.75405259690678
            ],
            [
                -122.50559723367124,
                48.75408585667203
            ],
            [
                -122.50561068553527,
                48.754094625592735
            ],
            [
                -122.50561926301978,
                48.75410030971531
            ],
            [
                -122.50562662943086,
                48.754070156948195
            ],
            [
                -122.50561100008784,
                48.754066572912784
            ],
            [
                -122.50562747111073,
                48.75408874012551
            ],
            [
                -122.50561245357787,
                48.75408337007054
            ],
            [
                -122.50561841884374,
                48.754071378030986
            ],
            [
                -122.50562281802209,
                48.75405543148317
            ],
            [
                -122.50556833830227,
                48.75408779953844
            ],
            [
                -122.50558786286976,
                48.75407050106145
            ],
            [
                -122.50561196155495,
                48.7540423397642
            ],
            [
                -122.50559900705768,
                48.75406038808741
            ],
            [
                -122.50561996101976,
                48.75406981902556
            ],
            [
                -122.50565577388193,
                48.75408543786759
            ],
            [
                -122.50560452382237,
                48.75408273979124
            ],
            [
                -122.50562108320511,
                48.75405816150708
            ],
            [
                -122.50563747319308,
                48.75412043586418
            ],
            [
                -122.505618803613,
                48.75404124210205
            ],
            [
                -122.50569028464483,
                48.75402046637895
            ],
            [
                -122.50564950856422,
                48.75405079355338
            ],
            [
                -122.50564714081345,
                48.75406016714755
            ],
            [
                -122.50566921458778,
                48.75404025143375
            ],
            [
                -122.50563320189039,
                48.754060235506884
            ],
            [
                -122.50563518919712,
                48.75406071586372
            ],
            [
                -122.50565976321697,
                48.75405879341756
            ],
            [
                -122.50562041079252,
                48.75406020286335
            ],
            [
                -122.50562390807951,
                48.754065555046864
            ],
            [
                -122.50565834491374,
                48.754088115786026
            ],
            [
                -122.50565198289232,
                48.75406853208192
            ],
            [
                -122.50563086273296,
                48.75404168725715
            ],
            [
                -122.50561862013464,
                48.75406646109705
            ],
            [
                -122.50561693552979,
                48.75405949877886
            ],
            [
                -122.50562,
                48.75405
            ]
        ]
    },
    "properties": {
        "trajectory_id": 2986,
        "object_id": 367048390,
        "label": "FISHING"
    }
}