{
    "type": "Feature",
    "geometry": {
        "type": "LineString",
        "coordinates": [
            [
                -122.50563,
                48.75405
            ],
            [
                -122.50562929504869,
                48.75405151135918
            ],
            [
                -122.5056328240942,
                48.75403567414566
            ],
            [
                -122.50565177268888,
                48.754054375401005
            ],
            [
                -122.50561076534433,
                48.75405356001706
            ],
            [
                -122.50562346077433,
                48.75405850248526
            ],
            [
                -122.50562985876479,
                48.75409006266417
            ],
            [
                -122.50564109746732,
                48.75405861765242
            ],
            [
                -122.50563985468905,
                48.75406990893222
            ],
            [
                -122.50563007025693,
                48.75406982280635
            ],
            [
                -122.50562216945023,
                48.75405777155055
            ],
            [
                -122.50564928639248,
                48.754077237444676
            ],
            [
                -122.50564978538296,
                48.75407102346329
            ],
            [
                -122.50566028345264,
                48.75407024903737
            ],
            [
                -122.50564648818248,
                48.75405022861606
            ],
            [
                -122.50563996352051,
                48.754050403259306
            ],
            [
                -122.50563888676209,
                48.754078855035395
            ],
            [
                -122.50566405477478,
                48.75407531679809
            ],
            [
                -122.50563857789801,
                48.75406761952662
            ],
            [
                -122.50564037685412,
                48.754068904999514
            ],
            [
                -122.5056300712529,
                48.75407095080798
            ],
            [
                -122.50563803678934,
                48.75405961481171
            ],
            [
                -122.50566014095912,
                48.754063251191056
            ],
            [
                -122.50561854905389,
                48.754080042772244
            ],
            [
                -122.50563822369593,
                48.75407107058018
            ],
            [
                -122.5056410541803,
                48.75404718531852
            ],
            [
                -122.50565332822883,
                48.75406271130364
            ],
            [
                -122.50565654835893,
                48.75406828493739
            ],
            [
                -122.50565083969924,
                48.75405921446953
            ],
            [
                -122.50565506574601,
                48.75408289842177
            ],
            [
                -122.50563622941249,
                48.75406416396661
            ],
            [
                -122.50564570587024,
                48.75405032011151
            ],
            [
                -122.50562175804123,
                48.75403854315057
            ],
            [
                -122.50562060189709,
                48.754042517174874
            ],
            [
                -122.50562522066383,
                48.75405538680507
            ],
            [
                -122.50565170566065,
                48.75404127070689
            ],
            [
                -122.50562407080866,
                48.75405001033826
            ],
            [
                -122.50562938394884,
                48.75405972217963
            ],
            [
                -122.5056154561649,
                48.75406250043731
            ],
            [
                -122.50562777880778,
                48.75405257605749
            ],
            [
                -122.50562393503499,
                48.75404299023518
            ],
            [
                -122.50561140007218,
                48.75407801964751
            ],
            [
                -122.50561428153131,
                48.75407733953459
            ],
            [
                -122.50563125260412,
                48.75407093801677
            ],
            [
                -122.5056290164565,
                48.75406911406241
            ],
            [
                -122.50561510039608,
                48.75406785647281
            ],
            [
                -122.50566049358447,
                48.75406137436792
            ],
            [
                -122.50563313169101,
                48.754059748069125
            ],
            [
                -122.50562964365727,
                48.75406496710302
            ],
            [
                -122.5056122903348,
                48.75405844675817
            ],
            [
                -122.50562880828844,
                48.75407366985829
            ],
            [
                -122.50564718089551,
                48.75404790858139
            ],
            [
                -122.50559976823634,
                48.75406029085756
            ],
            [
                -122.50561256574464,
                48.75406086955691
            ],
            [
                -122.50563793545354,
                48.754061031149256
            ],
            [
                -122.50559093536252,
                48.7540486649359
            ],
            [
                -122.50560995091845,
                48.75406012242684
            ],
            [
                -122.50561515006693,
                48.7540485120762
            ],
            [
                -122.50562819342545,
                48.75403971237523
            ],
            [
                -122.50564725341519,
                48.754067562013326
            ],
            [
                -122.50562633918945,
                48.754057495651445
            ],
            [
                -122.50564125696997,
                48.754037908852744
            ],
            [
                -122.50562984315977,
                48.754081477319914
            ],
            [
                -122.50562864282247,
                48.7540289588447
            ],
            [
                -122.50560877658788,
                48.754030596798536
            ],
            [
                -122.50562492421184,
                48.75402022732926
            ],
            [
                -122.5056339956766,
                48.75405250442446
            ],
            [
                -122.50562439716278,
                48.7540580483647
            ],
            [
                -122.50562880442547,
                48.75405420362449
            ],
            [
                -122.50562597383981,
                48.75405905848428
            ],
            [
                -122.50560194413674,
                48.75403253601672
            ],
            [
                -122.50559726938488,
                48.754061822761166
            ],
            [
                -122.50562809757638,
                48.75404803695038
            ],
            [
                -122.50564210810654,
                48.754071315452705
            ],
            [
                -122.50562715190198,
                48.75406106137253
            ],
            [
                -122.50560792325321,
                48.75406801364485
            ],
            [
                -122.50561812731956,
                48.75406299745245
            ],
            [
                -122.50562581509571,
                48.7540461180885
            ],
            [
                -122.50563738076907,
                48.75406722709836
            ],
            [
                -122.50564,
                48.75404
            ]
        ]
    },
    "properties": {
        "trajectory_id": 2989,
        "object_id": 367048390,
        "label": "FISHING"
    }
}