{
    "type": "Feature",
    "geometry": {
        "type": "LineString",
        "coordinates": [
            [
                -122.33995,
                47.64599
            ],
            [
                -122.33977916648684,
                47.645990445426264
            ],
            [
                -122.33982634653087,
                47.646006719068765
            ],
            [
                -122.33983154850371,
                47.64604634125047
            ],
            [
                -122.3398245049716,
                47.64600343810326
            ],
            [
                -122.33987197550552,
                47.64600069379835
            ],
            [
                -122.3398059679657,
                47.64609304220209
            ],
            [
                -122.33982348973642,
                47.64606289836153
            ],
            [
                -122.3398668018566,
                47.645957585467656
            ],
            [
                -122.33984957928658,
                47.64600942125583
            ],
            [
                -122.33978082506695,
                47.64620093267082
            ],
            [
                -122.33985361688183,
                47.64609799258103
            ],
            [
                -122.33985383863828,
                47.64604523049189
            ],
            [
                -122.33991037491381,
                47.645999676513995
            ],
            [
                -122.33977921691273,
                47.64600299198161
            ],
            [
                -122.33982965356593,
                47.64603274811775
            ],
            [
                -122.33982834071631,
                47.64601420449075
            ],
            [
                -122.3398986565391,
                47.64617580684083
            ],
            [
                -122.34004146366875,
                47.64610820019159
            ],
            [
                -122.33995893898003,
                47.646078797802616
            ],
            [
                -122.33986851790446,
                47.645997483729694
            ],
            [
                -122.33988760176003,
                47.646054690262595
            ],
            [
                -122.33986003928548,
                47.64603999046799
            ],
            [
                -122.33983175875618,
                47.645939756716594
            ],
            [
                -122.33992696353677,
                47.646023322683426
            ],
            [
                -122.33989374326214,
                47.646002316733984
            ],
            [
                -122.33987658315334,
                47.64602598988702
            ],
            [
                -122.33986415291776,
                47.645995784887276
            ],
            [
                -122.3398682366436,
                47.64605160834512
            ],
            [
                -122.33986996822408,
                47.6460600124824
            ],
            [
                -122.33981863974502,
                47.646096307867474
            ],
            [
                -122.33987705044031,
                47.646094062306844
            ],
            [
                -122.3398945914914,
                47.645991633184096
            ],
            [
                -122.33988215223664,
                47.64605461324666
            ],
            [
                -122.33979821198422,
                47.645972594611585
            ],
            [
                -122.3398846510793,
                47.64601716001674
            ],
            [
                -122.33968739696466,
                47.64596442278514
            ],
            [
                -122.33986929262961,
                47.64600978777257
            ],
            [
                -122.33994350070017,
                47.6460038216165
            ],
            [
                -122.3398853584762,
                47.645984293494436
            ],
            [
                -122.33989919387548,
                47.646070369155
            ],
            [
                -122.33984377356222,
                47.64606648009904
            ],
            [
                -122.33993423690342,
                47.6460481497432
            ],
            [
                -122.33981761957075,
                47.6460148615946
            ],
            [
                -122.33985535036031,
                47.64602742420738
            ],
            [
                -122.33985864927764,
                47.64597994143702
            ],
            [
                -122.33989554480908,
                47.64600266552175
            ],
            [
                -122.33986052773459,
                47.64597861834743
            ],
            [
                -122.33983996443011,
                47.64598998783407
            ],
            [
                -122.33983613221925,
                47.64593060225683
            ],
            [
                -122.33984764763912,
                47.64599632929525
            ],
            [
                -122.33989493279459,
                47.64601751033042
            ],
            [
                -122.33983233751337,
                47.64596024062456
            ],
            [
                -122.33984142890613,
                47.645948633644196
            ],
            [
                -122.33978526091992,
                47.64600633249667
            ],
            [
                -122.33980728246128,
                47.64598003756773
            ],
            [
                -122.33980148453792,
                47.64599103747624
            ],
            [
                -122.33985427799999,
                47.64604219273642
            ],
            [
                -122.33987231056133,
                47.64598170174306
            ],
            [
                -122.33982388032224,
                47.6460281516857
            ],
            [
                -122.33979386346032,
                47.646010375928476
            ],
            [
                -122.33985806799218,
                47.64587387761301
            ],
            [
                -122.33988577976929,
                47.64601361179889
            ],
            [
                -122.33986405888068,
                47.646088265139696
            ],
            [
                -122.33980971542792,
                47.64607909915596
            ],
            [
                -122.33979363136056,
                47.646170821388715
            ],
            [
                -122.33979560499165,
                47.64608597946775
            ],
            [
                -122.33976958697606,
                47.646091724011
            ],
            [
                -122.33982085209483,
                47.64601371723652
            ],
            [
                -122.33981294339343,
                47.64610701265969
            ],
            [
                -122.33980894151391,
                47.64608160915533
            ],
            [
                -122.33983180702309,
                47.646064471389735
            ],
            [
                -122.33981891933598,
                47.64603086631911
            ],
            [
                -122.33987024885167,
                47.64601089767892
            ],
            [
                -122.33983165214744,
                47.64605547505019
            ],
            [
                -122.33979057200224,
                47.64596595655415
            ],
            [
                -122.33982808877091,
                47.64608025843344
            ],
            [
                -122.33983018398808,
                47.645999514378616
            ],
            [
                -122.3398587570779,
                47.64596120174261
            ],
            [
                -122.33989,
                47.64607
            ]
        ]
    },
    "properties": {
        "trajectory_id": 3025,
        "object_id": 367108570,
        "label": "FISHING"
    }
}