{
    "type": "Feature",
    "geometry": {
        "type": "LineString",
        "coordinates": [
            [
                -122.33297,
                47.62911
            ],
            [
                -122.33296996413466,
                47.62910061399018
            ],
            [
                -122.3329654889551,
                47.6291046518289
            ],
            [
                -122.33294273934095,
                47.62908016785801
            ],
            [
                -122.3329835301865,
                47.629075049423655
            ],
            [
                -122.33295848047904,
                47.629092405606855
            ],
            [
                -122.33295944825568,
                47.629140411702835
            ],
            [
                -122.3329693329287,
                47.62910995878191
            ],
            [
                -122.3329517334788,
                47.6291118607751
            ],
            [
                -122.33292941080805,
                47.629099711186164
            ],
            [
                -122.3329505728407,
                47.62908865429011
            ],
            [
                -122.33295178269874,
                47.62909413931796
            ],
            [
                -122.33294149846108,
                47.629096624385056
            ],
            [
                -122.33292197920979,
                47.62912257077136
            ],
            [
                -122.33292480449192,
                47.62910771489374
            ],
            [
                -122.33293615208069,
                47.62913006013708
            ],
            [
                -122.33292892598132,
                47.629121475944714
            ],
            [
                -122.33293074456289,
                47.62913044680614
            ],
            [
                -122.33293006898967,
                47.629110055430665
            ],
            [
                -122.33293964101047,
                47.629117779225176
            ],
            [
                -122.33295316273163,
                47.62911014302625
            ],
            [
                -122.33295875522086,
                47.629117960134515
            ],
            [
                -122.33296945882434,
                47.629102282459044
            ],
            [
                -122.33296957797918,
                47.629091841344234
            ],
            [
                -122.33297017852452,
                47.6290690022804
            ],
            [
                -122.33295860057588,
                47.62905898614434
            ],
            [
                -122.33297774741763,
                47.62907995297567
            ],
            [
                -122.33296984148105,
                47.62908001120243
            ],
            [
                -122.33298998177833,
                47.62909992080722
            ],
            [
                -122.33296662198715,
                47.62910294329109
            ],
            [
                -122.33297638944514,
                47.629124837454754
            ],
            [
                -122.33297820263408,
                47.62910894668499
            ],
            [
                -122.33301381916029,
                47.62910878604358
            ],
            [
                -122.33297724401883,
                47.629090373166235
            ],
            [
                -122.33296043937497,
                47.6291043849388
            ],
            [
                -122.33294998521647,
                47.62908962848016
            ],
            [
                -122.33296967567864,
                47.629110427014616
            ],
            [
                -122.33295808734907,
                47.62910347898484
            ],
            [
                -122.33297788014832,
                47.62911206415444
            ],
            [
                -122.33297071442158,
                47.6291199178882
            ],
            [
                -122.33296259486531,
                47.62910863431217
            ],
            [
                -122.33295612683854,
                47.629114539698236
            ],
            [
                -122.33296446494893,
                47.62912476890974
            ],
            [
                -122.33292867559038,
                47.629122661490534
            ],
            [
                -122.33294015372738,
                47.62910126568228
            ],
            [
                -122.33293528792021,
                47.629110093998094
            ],
            [
                -122.3329494444938,
                47.62911277822331
            ],
            [
                -122.3329383746316,
                47.62910999922236
            ],
            [
                -122.33293002375312,
                47.62910003012635
            ],
            [
                -122.33294179288592,
                47.62912283797241
            ],
            [
                -122.33295022867966,
                47.62910576517143
            ],
            [
                -122.33293289045734,
                47.62911619403643
            ],
            [
                -122.33293973206408,
                47.62910431673132
            ],
            [
                -122.33292941288647,
                47.629092989577074
            ],
            [
                -122.33292949427697,
                47.629119792179665
            ],
            [
                -122.33293115355858,
                47.629120059122044
            ],
            [
                -122.33292952076862,
                47.62909866386877
            ],
            [
                -122.33293106570257,
                47.62911103862545
            ],
            [
                -122.33292937727356,
                47.629109806978406
            ],
            [
                -122.33291562504694,
                47.62910866813607
            ],
            [
                -122.33293585291804,
                47.62911937786354
            ],
            [
                -122.33292592562367,
                47.629109949554476
            ],
            [
                -122.33292193310359,
                47.629099677302705
            ],
            [
                -122.33293337397915,
                47.62911003209459
            ],
            [
                -122.33293181366089,
                47.62910759107888
            ],
            [
                -122.33293069982298,
                47.6290907286681
            ],
            [
                -122.3329402516514,
                47.62909894037949
            ],
            [
                -122.33292814532194,
                47.62910367525653
            ],
            [
                -122.33292976269904,
                47.62909197788952
            ],
            [
                -122.33293847140617,
                47.629090958398265
            ],
            [
                -122.33295820536516,
                47.629081381702235
            ],
            [
                -122.33296002201148,
                47.62909996694451
            ],
            [
                -122.33293989486722,
                47.62911979531215
            ],
            [
                -122.33296774846455,
                47.62911035393362
            ],
            [
                -122.33294993489733,
                47.62910007544042
            ],
            [
                -122.33294969191671,
                47.62914840407717
            ],
            [
                -122.3329805730536,
                47.62912485697573
            ],
            [
                -122.33296088833579,
                47.62912264775687
            ],
            [
                -122.33297043432749,
                47.6291098687345
            ],
            [
                -122.33296,
                47.6291
            ]
        ]
    },
    "properties": {
        "trajectory_id": 3058,
        "object_id": 367122360,
        "label": "PASSENGER"
    }
}