{
    "type": "Feature",
    "geometry": {
        "type": "LineString",
        "coordinates": [
            [
                -122.34531,
                47.57413
            ],
            [
                -122.3452989758785,
                47.57409357855416
            ],
            [
                -122.34524687802613,
                47.574183285190365
            ],
            [
                -122.34521490982586,
                47.57428847164672
            ],
            [
                -122.34523247663722,
                47.57418393957263
            ],
            [
                -122.34521937114592,
                47.57417380890608
            ],
            [
                -122.34520792710046,
                47.57416081088214
            ],
            [
                -122.34522617141015,
                47.57415454239628
            ],
            [
                -122.34526945641201,
                47.57412924484744
            ],
            [
                -122.34522035623127,
                47.57410100211584
            ],
            [
                -122.3452688663085,
                47.57414252049494
            ],
            [
                -122.34521577281505,
                47.57413116411034
            ],
            [
                -122.34519855048053,
                47.57415233500777
            ],
            [
                -122.34518195650331,
                47.57412641855067
            ],
            [
                -122.34468070892453,
                47.575538903884386
            ],
            [
                -122.34332421323636,
                47.58784063643137
            ],
            [
                -122.34330136518246,
                47.587800063061515
            ],
            [
                -122.34412459170022,
                47.588729735649956
            ],
            [
                -122.34570598050472,
                47.590112637647266
            ],
            [
                -122.34574194081512,
                47.59013967764713
            ],
            [
                -122.34472476171679,
                47.58125757305062
            ],
            [
                -122.34513888885103,
                47.57343854882057
            ],
            [
                -122.34500987181764,
                47.573549975055066
            ],
            [
                -122.3450174807424,
                47.57352200686283
            ],
            [
                -122.34499155162104,
                47.57358951132378
            ],
            [
                -122.34505845557966,
                47.573424559816466
            ],
            [
                -122.34505885887266,
                47.57348407554531
            ],
            [
                -122.34506948420291,
                47.57348988249153
            ],
            [
                -122.34506338423094,
                47.573340113491966
            ],
            [
                -122.3450202453766,
                47.57353472136059
            ],
            [
                -122.34543099623738,
                47.573319108140005
            ],
            [
                -122.34500857662617,
                47.57354872318726
            ],
            [
                -122.34506345746883,
                47.57350036422687
            ],
            [
                -122.3450497505034,
                47.573515838992456
            ],
            [
                -122.34503724508892,
                47.5735354360448
            ],
            [
                -122.34501630658546,
                47.57350570034144
            ],
            [
                -122.34513006428499,
                47.57350359612404
            ],
            [
                -122.34502500910592,
                47.573541740347984
            ],
            [
                -122.34498090548256,
                47.57354789343746
            ],
            [
                -122.34494080819219,
                47.57350752043051
            ],
            [
                -122.34497982972735,
                47.573491091698834
            ],
            [
                -122.34502523065997,
                47.57353047405192
            ],
            [
                -122.3450243905727,
                47.57355193749555
            ],
            [
                -122.34501075462225,
                47.57357973693835
            ],
            [
                -122.34499103279768,
                47.57364836723283
            ],
            [
                -122.34496784000956,
                47.573510786561606
            ],
            [
                -122.34501833050508,
                47.57348483276578
            ],
            [
                -122.3449797299227,
                47.57357726816327
            ],
            [
                -122.34497253575262,
                47.57357213574495
            ],
            [
                -122.34504872749777,
                47.573512157591665
            ],
            [
                -122.34502339449544,
                47.573527423228256
            ],
            [
                -122.34503585492024,
                47.57355780509455
            ],
            [
                -122.34500178605145,
                47.57351634733019
            ],
            [
                -122.34502954872346,
                47.5735397131534
            ],
            [
                -122.34500977005719,
                47.573571191382165
            ],
            [
                -122.34497269550089,
                47.57358603658745
            ],
            [
                -122.34501937662475,
                47.57355959099377
            ],
            [
                -122.34503080631191,
                47.57360706365189
            ],
            [
                -122.34496059185912,
                47.57356088330258
            ],
            [
                -122.34500124513643,
                47.57359756580109
            ],
            [
                -122.34502661716158,
                47.573666276495125
            ],
            [
                -122.34503510498251,
                47.573567869153436
            ],
            [
                -122.34498245875784,
                47.57358160287937
            ],
            [
                -122.34502255370091,
                47.57346632732051
            ],
            [
                -122.34511407510536,
                47.573529066485705
            ],
            [
                -122.34505264404844,
                47.57353122944985
            ],
            [
                -122.34515226563633,
                47.573557055340444
            ],
            [
                -122.34501682936512,
                47.573580348533504
            ],
            [
                -122.34505737973959,
                47.573539711461606
            ],
            [
                -122.34501825627373,
                47.57354669414503
            ],
            [
                -122.34500802244825,
                47.57355745726177
            ],
            [
                -122.34498212890036,
                47.573597189764826
            ],
            [
                -122.3450314102382,
                47.57351280961728
            ],
            [
                -122.345027944798,
                47.57356303531698
            ],
            [
                -122.34504517682973,
                47.57353915204144
            ],
            [
                -122.34503433870844,
                47.57358225774946
            ],
            [
                -122.34501891110664,
                47.57354417667271
            ],
            [
                -122.34495414843362,
                47.57354265795679
            ],
            [
                -122.34502029662912,
                47.5735390088952
            ],
            [
                -122.345,
                47.57352
            ]
        ]
    },
    "properties": {
        "trajectory_id": 3098,
        "object_id": 367183360,
        "label": "TOWING"
    }
}