{
    "type": "Feature",
    "geometry": {
        "type": "LineString",
        "coordinates": [
            [
                -122.34502,
                47.57351
            ],
            [
                -122.34497833736476,
                47.573534452768214
            ],
            [
                -122.34451063672559,
                47.57914890070244
            ],
            [
                -122.34572073629289,
                47.590104486209285
            ],
            [
                -122.34566522234478,
                47.59014376825846
            ],
            [
                -122.34578118578014,
                47.590109662259955
            ],
            [
                -122.34570148903339,
                47.59017959836973
            ],
            [
                -122.3457163589685,
                47.5901152253313
            ],
            [
                -122.34559624940216,
                47.590029355822004
            ],
            [
                -122.34574071297564,
                47.590131280466544
            ],
            [
                -122.34582860162406,
                47.59012499121319
            ],
            [
                -122.3457528505893,
                47.590129281092445
            ],
            [
                -122.34573115895593,
                47.5901294793938
            ],
            [
                -122.34571217220872,
                47.59013044442544
            ],
            [
                -122.34581470341101,
                47.590056312078005
            ],
            [
                -122.34573011199618,
                47.590131242162144
            ],
            [
                -122.34583237581326,
                47.590138219920135
            ],
            [
                -122.3457412454256,
                47.5901274637703
            ],
            [
                -122.34574762406994,
                47.59002666890628
            ],
            [
                -122.34571314718998,
                47.59015220520497
            ],
            [
                -122.34576170311685,
                47.59010870971396
            ],
            [
                -122.34582491527735,
                47.59005949335419
            ],
            [
                -122.34571967591992,
                47.59010659574198
            ],
            [
                -122.34583700796108,
                47.590015291435684
            ],
            [
                -122.34573496736775,
                47.590094737548895
            ],
            [
                -122.34572004045256,
                47.59005394760697
            ],
            [
                -122.34569346291273,
                47.59017450805574
            ],
            [
                -122.34570334933846,
                47.59013612185896
            ],
            [
                -122.34576447229574,
                47.59018080762328
            ],
            [
                -122.34570621276833,
                47.59011474992241
            ],
            [
                -122.34574803473879,
                47.59011881818197
            ],
            [
                -122.34577965619413,
                47.5901061993286
            ],
            [
                -122.34578045415728,
                47.59008906291276
            ],
            [
                -122.3457519855258,
                47.590137600735154
            ],
            [
                -122.34573526024211,
                47.590136613473504
            ],
            [
                -122.34575204652168,
                47.59012146446139
            ],
            [
                -122.34569344028115,
                47.590131227537604
            ],
            [
                -122.34579720465844,
                47.59011116876417
            ],
            [
                -122.34574162303075,
                47.59010794870869
            ],
            [
                -122.3456929525466,
                47.59014968357701
            ],
            [
                -122.34566212942616,
                47.59018679718093
            ],
            [
                -122.34574066138563,
                47.59015009202444
            ],
            [
                -122.34573524935357,
                47.590155707757766
            ],
            [
                -122.34583378162998,
                47.58985673605081
            ],
            [
                -122.34571476498058,
                47.59019394195662
            ],
            [
                -122.34573052439747,
                47.59014895692803
            ],
            [
                -122.34574353994283,
                47.59011423503344
            ],
            [
                -122.34575266680727,
                47.59011136491697
            ],
            [
                -122.34574967452761,
                47.590159612201795
            ],
            [
                -122.34573432662403,
                47.59012523541611
            ],
            [
                -122.34575502959427,
                47.590146532799494
            ],
            [
                -122.34577847028734,
                47.590128762776864
            ],
            [
                -122.3457761346342,
                47.59011248971118
            ],
            [
                -122.34575014614305,
                47.590070067167204
            ],
            [
                -122.34573110413857,
                47.59009791588151
            ],
            [
                -122.34570115944354,
                47.59015030648272
            ],
            [
                -122.34577610924734,
                47.5901391296642
            ],
            [
                -122.3458064577275,
                47.59021000870235
            ],
            [
                -122.3457161499174,
                47.590093521028805
            ],
            [
                -122.34574582389169,
                47.59017279429289
            ],
            [
                -122.34573531412191,
                47.59015010347252
            ],
            [
                -122.34572796656414,
                47.590097455019276
            ],
            [
                -122.34573451824059,
                47.59010383849587
            ],
            [
                -122.34573991708076,
                47.59015777490625
            ],
            [
                -122.34580091894118,
                47.59011841289019
            ],
            [
                -122.34578301282595,
                47.590127878040875
            ],
            [
                -122.34578649095309,
                47.59010241473016
            ],
            [
                -122.34575080897962,
                47.590131748908284
            ],
            [
                -122.3457649610629,
                47.5901236418331
            ],
            [
                -122.34575097820411,
                47.59010806060521
            ],
            [
                -122.3457900400008,
                47.59006005126901
            ],
            [
                -122.34573750631827,
                47.59017096345491
            ],
            [
                -122.34573955504392,
                47.59018087930117
            ],
            [
                -122.34568175881134,
                47.59019138158906
            ],
            [
                -122.34578344989522,
                47.59013843498018
            ],
            [
                -122.34571711742386,
                47.59019219245526
            ],
            [
                -122.34573791569383,
                47.590120346973364
            ],
            [
                -122.34572790302558,
                47.590065598850636
            ],
            [
                -122.34573826647458,
                47.589998463037674
            ],
            [
                -122.34574,
                47.59014
            ]
        ]
    },
    "properties": {
        "trajectory_id": 3099,
        "object_id": 367183360,
        "label": "TOWING"
    }
}