{
    "type": "Feature",
    "geometry": {
        "type": "LineString",
        "coordinates": [
            [
                -123.57395,
                48.88138
            ],
            [
                -123.57395,
                48.88137999999995
            ],
            [
                -123.57395000000004,
                48.88137999999996
            ],
            [
                -123.57395000000004,
                48.88137999999997
            ],
            [
                -123.57395000000002,
                48.88138000000001
            ],
            [
                -123.57395000000002,
                48.881380000000014
            ],
            [
                -123.57395000000001,
                48.88138
            ],
            [
                -123.57394999999998,
                48.88138
            ],
            [
                -123.57394999999997,
                48.881379999999986
            ],
            [
                -123.57395000000005,
                48.881380000000014
            ],
            [
                -123.57394999999909,
                48.88138000000061
            ],
            [
                -123.57395000783623,
                48.88137999477562
            ],
            [
                -123.57391974541585,
                48.881400156054454
            ],
            [
                -123.57835801976891,
                48.88096089467062
            ],
            [
                -123.61382712001728,
                48.872369719081185
            ],
            [
                -123.63708566089339,
                48.86561013816833
            ],
            [
                -123.63705273171257,
                48.865603412128905
            ],
            [
                -123.63706176132946,
                48.86564181382955
            ],
            [
                -123.63706999899998,
                48.865649077354796
            ],
            [
                -123.63706999751653,
                48.86565002180558
            ],
            [
                -123.6370480145201,
                48.86561687577938
            ],
            [
                -123.63707119649416,
                48.86565101791924
            ],
            [
                -123.63706029520965,
                48.865650000764035
            ],
            [
                -123.63706634644413,
                48.86562370800935
            ],
            [
                -123.63300247566451,
                48.86698003136682
            ],
            [
                -123.60785963500358,
                48.87408764607871
            ],
            [
                -123.58289124458595,
                48.881064586027854
            ],
            [
                -123.57392989836491,
                48.88137997752352
            ],
            [
                -123.57395663758861,
                48.88138302213587
            ],
            [
                -123.59134228850898,
                48.8775900510612
            ],
            [
                -123.61431937221246,
                48.87185413533096
            ],
            [
                -123.63585513875522,
                48.86606869041401
            ],
            [
                -123.63706915360342,
                48.86562975766659
            ],
            [
                -123.62711202727446,
                48.86871822591944
            ],
            [
                -123.60194955849558,
                48.875706228331396
            ],
            [
                -123.5778297035269,
                48.88138574551132
            ],
            [
                -123.57393006376573,
                48.88138988065893
            ],
            [
                -123.58084819094297,
                48.879762386803904
            ],
            [
                -123.60967472633568,
                48.87201295989125
            ],
            [
                -123.63651439388676,
                48.86575213283095
            ],
            [
                -123.63706966443087,
                48.86563003364613
            ],
            [
                -123.62633106988537,
                48.86909581933805
            ],
            [
                -123.6017101357255,
                48.87548958602158
            ],
            [
                -123.57852254610971,
                48.88127730235466
            ],
            [
                -123.57393732614119,
                48.88136855364348
            ],
            [
                -123.5766014707392,
                48.88092204885003
            ],
            [
                -123.60567356378543,
                48.8734176397143
            ],
            [
                -123.63412389583202,
                48.866579670083574
            ],
            [
                -123.63708118973156,
                48.86561044683735
            ],
            [
                -123.62878072546958,
                48.86837135033128
            ],
            [
                -123.604769619656,
                48.87532107650208
            ],
            [
                -123.58060076447187,
                48.881324701438125
            ],
            [
                -123.57392978407137,
                48.88137979049322
            ],
            [
                -123.57251561929758,
                48.88167949460359
            ],
            [
                -123.5949439855509,
                48.87607766369838
            ],
            [
                -123.62458230895794,
                48.86923098092672
            ],
            [
                -123.63708210431697,
                48.865619839093675
            ],
            [
                -123.63707999752852,
                48.86562000027642
            ],
            [
                -123.63707894328518,
                48.865620120787575
            ],
            [
                -123.6272424788239,
                48.8680694365749
            ],
            [
                -123.6034886271159,
                48.87482135706522
            ],
            [
                -123.58024701527864,
                48.88140047318841
            ],
            [
                -123.57394881826475,
                48.88137333204444
            ],
            [
                -123.57394000059737,
                48.88137999960849
            ],
            [
                -123.57393996810282,
                48.8813800066559
            ],
            [
                -123.58206552272436,
                48.87965801008747
            ],
            [
                -123.60777648578319,
                48.872800706803666
            ],
            [
                -123.63358977471096,
                48.866626375969204
            ],
            [
                -123.6370795562825,
                48.86562116668502
            ],
            [
                -123.63160838323749,
                48.867857324457106
            ],
            [
                -123.60669863198886,
                48.873971748695226
            ],
            [
                -123.58221306856146,
                48.8808694258281
            ],
            [
                -123.57393972944485,
                48.88137019521347
            ],
            [
                -123.57389180055397,
                48.881336891219796
            ],
            [
                -123.59705093408809,
                48.87656112141914
            ],
            [
                -123.62407836054078,
                48.86901004760106
            ],
            [
                -123.63706484433746,
                48.86560275468006
            ],
            [
                -123.6370876827541,
                48.865610299470646
            ],
            [
                -123.61892153724547,
                48.87086209126231
            ],
            [
                -123.58879,
                48.87858
            ]
        ]
    },
    "properties": {
        "trajectory_id": 319,
        "object_id": 316001266,
        "label": "PASSENGER"
    }
}