{
    "type": "Feature",
    "geometry": {
        "type": "LineString",
        "coordinates": [
            [
                -123.4518,
                48.76949
            ],
            [
                -123.4517895443656,
                48.769516583973285
            ],
            [
                -123.45178999417602,
                48.76951997578726
            ],
            [
                -123.45179011073769,
                48.769520113894465
            ],
            [
                -123.45179013431647,
                48.769520095674714
            ],
            [
                -123.4517983450393,
                48.769522499454425
            ],
            [
                -123.45179995726798,
                48.76950977256341
            ],
            [
                -123.45180006909229,
                48.7695030701799
            ],
            [
                -123.45179999650242,
                48.769491227156685
            ],
            [
                -123.45180000137412,
                48.76951809513002
            ],
            [
                -123.45180000005217,
                48.769519948639314
            ],
            [
                -123.45180000000003,
                48.76952000000139
            ],
            [
                -123.45180000185722,
                48.76952000016609
            ],
            [
                -123.45180051250878,
                48.76952004582491
            ],
            [
                -123.45177997898483,
                48.76952002172427
            ],
            [
                -123.45276474647481,
                48.768179700603746
            ],
            [
                -123.42592523070506,
                48.74448332528082
            ],
            [
                -123.40742758215808,
                48.71718944538232
            ],
            [
                -123.4064792953624,
                48.691631575295446
            ],
            [
                -123.40959296136232,
                48.68943775125715
            ],
            [
                -123.40891629764576,
                48.68964345939345
            ],
            [
                -123.40155653561754,
                48.715553240391145
            ],
            [
                -123.42406949258302,
                48.74152757153308
            ],
            [
                -123.45087909950568,
                48.765847403336466
            ],
            [
                -123.45177986802504,
                48.76950951727345
            ],
            [
                -123.45178075745527,
                48.76951012441007
            ],
            [
                -123.44445357735754,
                48.76140172405097
            ],
            [
                -123.42115617596336,
                48.737702856895496
            ],
            [
                -123.40415521182523,
                48.71184651757484
            ],
            [
                -123.40532870375232,
                48.69641733598361
            ],
            [
                -123.40957266883389,
                48.689428326838005
            ],
            [
                -123.40956993935737,
                48.68940993985104
            ],
            [
                -123.40956904117529,
                48.68941502144503
            ],
            [
                -123.40632455925521,
                48.69348831105108
            ],
            [
                -123.4102811094086,
                48.72109072459034
            ],
            [
                -123.4301457579494,
                48.74893865226003
            ],
            [
                -123.45216602557296,
                48.7693200476948
            ],
            [
                -123.4517799956713,
                48.76951001257872
            ],
            [
                -123.45178000024038,
                48.76950999997924
            ],
            [
                -123.45179061726961,
                48.76950906697537
            ],
            [
                -123.43902367359024,
                48.75641447741102
            ],
            [
                -123.41769408155527,
                48.73264051896388
            ],
            [
                -123.40149916919927,
                48.706094263176254
            ],
            [
                -123.40944725475846,
                48.68947550690193
            ],
            [
                -123.40956001686939,
                48.68940962775598
            ],
            [
                -123.40955077615422,
                48.68939856694918
            ],
            [
                -123.40895020379949,
                48.68969909353174
            ],
            [
                -123.40471287869423,
                48.71399644520478
            ],
            [
                -123.42223732984648,
                48.74045182491372
            ],
            [
                -123.44907612086965,
                48.76451436722242
            ],
            [
                -123.45177006147085,
                48.76951044781673
            ],
            [
                -123.45176999745054,
                48.76950999849157
            ],
            [
                -123.45177165671105,
                48.7695110153059
            ],
            [
                -123.43532961791094,
                48.753366558438955
            ],
            [
                -123.41422656397347,
                48.727707374149496
            ],
            [
                -123.40495858385665,
                48.69943276111712
            ],
            [
                -123.40955070293865,
                48.68944424095123
            ],
            [
                -123.40958976073762,
                48.68942977171115
            ],
            [
                -123.40957929785763,
                48.689419269332234
            ],
            [
                -123.40958474411036,
                48.68942262625919
            ],
            [
                -123.40130335065156,
                48.70546113794029
            ],
            [
                -123.4144721893397,
                48.732516196364614
            ],
            [
                -123.439755760588,
                48.75698558772663
            ],
            [
                -123.45178237889567,
                48.76949516260376
            ],
            [
                -123.45177999983486,
                48.76950998198618
            ],
            [
                -123.45181874789603,
                48.76947141639949
            ],
            [
                -123.43282021502237,
                48.7514043160811
            ],
            [
                -123.41113444710278,
                48.72510725333721
            ],
            [
                -123.40588757173578,
                48.69722037410357
            ],
            [
                -123.40931979689917,
                48.68911085978115
            ],
            [
                -123.40932000000788,
                48.6891000204549
            ],
            [
                -123.40931999998303,
                48.689103207218906
            ],
            [
                -123.4093200620523,
                48.68910008244045
            ],
            [
                -123.4042679280411,
                48.70011798758262
            ],
            [
                -123.41148898562429,
                48.72667977767762
            ],
            [
                -123.43369368584248,
                48.75195002174095
            ],
            [
                -123.45195103961939,
                48.76943208931087
            ],
            [
                -123.4517799996945,
                48.769509999710664
            ],
            [
                -123.45178032657917,
                48.769510661341776
            ],
            [
                -123.43607,
                48.75363
            ]
        ]
    },
    "properties": {
        "trajectory_id": 327,
        "object_id": 316001267,
        "label": "PASSENGER"
    }
}