{
    "type": "Feature",
    "geometry": {
        "type": "LineString",
        "coordinates": [
            [
                -122.32835,
                47.63504
            ],
            [
                -122.32834925758148,
                47.635045281198764
            ],
            [
                -122.32833137674893,
                47.63504381835414
            ],
            [
                -122.32834922923392,
                47.63506481197884
            ],
            [
                -122.32835153758688,
                47.63505888406111
            ],
            [
                -122.32836982141713,
                47.63507080174588
            ],
            [
                -122.32834254377549,
                47.63507064541097
            ],
            [
                -122.32840135162604,
                47.635039357310625
            ],
            [
                -122.32837042276958,
                47.63504282702636
            ],
            [
                -122.32835000319481,
                47.63504028587731
            ],
            [
                -122.32836012452545,
                47.63506030375112
            ],
            [
                -122.32838055074224,
                47.63504938788764
            ],
            [
                -122.32836947904163,
                47.63503349043785
            ],
            [
                -122.32835919723969,
                47.63505005598712
            ],
            [
                -122.32839131224098,
                47.635044125702514
            ],
            [
                -122.32836157885521,
                47.63504973362931
            ],
            [
                -122.32837023857307,
                47.635041209560306
            ],
            [
                -122.32834010061482,
                47.63500990323596
            ],
            [
                -122.32838187081046,
                47.6350379085347
            ],
            [
                -122.32837546302099,
                47.63505651338573
            ],
            [
                -122.32838031015123,
                47.63503585937333
            ],
            [
                -122.32835269523758,
                47.63505421280236
            ],
            [
                -122.32835202857311,
                47.635033051673524
            ],
            [
                -122.32837183101415,
                47.635058335659
            ],
            [
                -122.32837924348341,
                47.635041475546075
            ],
            [
                -122.32832125371073,
                47.63506661690188
            ],
            [
                -122.32835215559463,
                47.63506663374828
            ],
            [
                -122.3283681365162,
                47.635021390884106
            ],
            [
                -122.32832141922124,
                47.63506719384683
            ],
            [
                -122.32835033873091,
                47.63506952725848
            ],
            [
                -122.32836419241836,
                47.6350494743413
            ],
            [
                -122.32833877429175,
                47.635046584326766
            ],
            [
                -122.32834979413732,
                47.63506945018575
            ],
            [
                -122.32834831995315,
                47.63503940287179
            ],
            [
                -122.32834522570847,
                47.63503524384242
            ],
            [
                -122.32832797766977,
                47.6350472542869
            ],
            [
                -122.32838388293102,
                47.635061390183566
            ],
            [
                -122.32835894365316,
                47.635065039902955
            ],
            [
                -122.32834982748247,
                47.63506086177157
            ],
            [
                -122.32835007806591,
                47.63503890359599
            ],
            [
                -122.32836457147535,
                47.63504098987606
            ],
            [
                -122.3283400186129,
                47.63504002710993
            ],
            [
                -122.3283916860512,
                47.63502150350343
            ],
            [
                -122.32834854243184,
                47.635045905385674
            ],
            [
                -122.32835945078186,
                47.63503971001143
            ],
            [
                -122.32835276633159,
                47.63503973031339
            ],
            [
                -122.32834427842651,
                47.63504179176541
            ],
            [
                -122.32834975745521,
                47.63503182838837
            ],
            [
                -122.32834265520094,
                47.63504878815972
            ],
            [
                -122.32834720729976,
                47.63503938332674
            ],
            [
                -122.32833859083121,
                47.635060852642525
            ],
            [
                -122.32833507316863,
                47.635051477681
            ],
            [
                -122.32832467252926,
                47.63504026880622
            ],
            [
                -122.32835998107917,
                47.635059956096455
            ],
            [
                -122.32834548886838,
                47.635048403708744
            ],
            [
                -122.32835567682666,
                47.63504482790513
            ],
            [
                -122.32832964542582,
                47.635067463033714
            ],
            [
                -122.32833070669628,
                47.635048131447
            ],
            [
                -122.32833984897239,
                47.63503067400211
            ],
            [
                -122.3283339847085,
                47.635039576038864
            ],
            [
                -122.32833973568923,
                47.635049279108074
            ],
            [
                -122.32834112187815,
                47.6350430200026
            ],
            [
                -122.32834090655606,
                47.63503679609267
            ],
            [
                -122.32832953954971,
                47.635046330285
            ],
            [
                -122.32836997868964,
                47.635049988002464
            ],
            [
                -122.32833456227357,
                47.63505143142492
            ],
            [
                -122.32831574231159,
                47.63504584216893
            ],
            [
                -122.3283464964975,
                47.63503831368752
            ],
            [
                -122.3283490589342,
                47.635059755973764
            ],
            [
                -122.32832895528102,
                47.63502998194701
            ],
            [
                -122.32835710773297,
                47.63505093337858
            ],
            [
                -122.32833821419791,
                47.63506292565024
            ],
            [
                -122.32836817046224,
                47.635032759694035
            ],
            [
                -122.32835916169067,
                47.63504645915845
            ],
            [
                -122.32834680337312,
                47.635066459010254
            ],
            [
                -122.32833775987174,
                47.63501012913465
            ],
            [
                -122.32833995323769,
                47.63506059204078
            ],
            [
                -122.32833677006599,
                47.6350430946987
            ],
            [
                -122.32835974299616,
                47.6350385810931
            ],
            [
                -122.32835,
                47.63502
            ]
        ]
    },
    "properties": {
        "trajectory_id": 3277,
        "object_id": 367390380,
        "label": "FISHING"
    }
}