{
    "type": "Feature",
    "geometry": {
        "type": "LineString",
        "coordinates": [
            [
                -122.50523,
                48.75501
            ],
            [
                -122.50524980141728,
                48.75499631805661
            ],
            [
                -122.50525730892224,
                48.755000818198745
            ],
            [
                -122.5052118721607,
                48.75500160025096
            ],
            [
                -122.50524286204154,
                48.75497380566633
            ],
            [
                -122.50522743911776,
                48.75501350692738
            ],
            [
                -122.50520914284503,
                48.755043412675285
            ],
            [
                -122.5052205530079,
                48.755048556205885
            ],
            [
                -122.50522425788928,
                48.75504782801848
            ],
            [
                -122.50523686598675,
                48.75502536392231
            ],
            [
                -122.5052305871646,
                48.75505082569019
            ],
            [
                -122.50522629311142,
                48.75503356554032
            ],
            [
                -122.50521023570765,
                48.755029783520385
            ],
            [
                -122.50525130309543,
                48.755053182457054
            ],
            [
                -122.50523073883038,
                48.755060599001055
            ],
            [
                -122.50520472349588,
                48.75504037240028
            ],
            [
                -122.50518520348847,
                48.755056820047024
            ],
            [
                -122.50523671960096,
                48.755054267628324
            ],
            [
                -122.50522984662359,
                48.7550699253425
            ],
            [
                -122.50524832042889,
                48.75504010418864
            ],
            [
                -122.50519876865565,
                48.75500884685049
            ],
            [
                -122.50524192474813,
                48.7550471342145
            ],
            [
                -122.50524080835504,
                48.75504041206726
            ],
            [
                -122.50527477868579,
                48.75501711374864
            ],
            [
                -122.50526543767151,
                48.754999257607984
            ],
            [
                -122.50529040364923,
                48.7549984701267
            ],
            [
                -122.50525889482226,
                48.75499204896882
            ],
            [
                -122.5052197177661,
                48.755030006010784
            ],
            [
                -122.50527635662421,
                48.75503823942532
            ],
            [
                -122.50522951341001,
                48.75503271734497
            ],
            [
                -122.5052200638286,
                48.75505022527055
            ],
            [
                -122.50523729896466,
                48.7550176494698
            ],
            [
                -122.50525177201584,
                48.75501825978878
            ],
            [
                -122.5052555158415,
                48.755012224398094
            ],
            [
                -122.5052239372023,
                48.75503266077022
            ],
            [
                -122.50524963750588,
                48.75502993989144
            ],
            [
                -122.50520793211028,
                48.755009392834324
            ],
            [
                -122.5052198176276,
                48.75502009347165
            ],
            [
                -122.50523027550861,
                48.75503293688305
            ],
            [
                -122.50524800097834,
                48.75502895250675
            ],
            [
                -122.50522773332537,
                48.755030611654966
            ],
            [
                -122.50519016695124,
                48.75503436191674
            ],
            [
                -122.50521282140818,
                48.75502093683491
            ],
            [
                -122.50522980777956,
                48.75500989361596
            ],
            [
                -122.50521367973599,
                48.75503390943624
            ],
            [
                -122.50521736351793,
                48.75502092829706
            ],
            [
                -122.5051963302662,
                48.755017893643966
            ],
            [
                -122.50520496995229,
                48.75504807630159
            ],
            [
                -122.50520325499625,
                48.75503105630509
            ],
            [
                -122.50522270713769,
                48.755058228157424
            ],
            [
                -122.50522070802182,
                48.75506662412155
            ],
            [
                -122.50523056822117,
                48.755033171108806
            ],
            [
                -122.50519915839129,
                48.75504065082548
            ],
            [
                -122.50521757044649,
                48.75502056674037
            ],
            [
                -122.50522288434418,
                48.755051266689925
            ],
            [
                -122.50522807140715,
                48.75506046093562
            ],
            [
                -122.50525274343816,
                48.75506784227629
            ],
            [
                -122.505198580504,
                48.75502859007404
            ],
            [
                -122.5052498970747,
                48.75501548197114
            ],
            [
                -122.50521015926196,
                48.755081142759416
            ],
            [
                -122.50524976243088,
                48.7550499332031
            ],
            [
                -122.50524817841298,
                48.755017683654025
            ],
            [
                -122.50520217556108,
                48.755012550687155
            ],
            [
                -122.5052147884003,
                48.75501968396969
            ],
            [
                -122.50514991692866,
                48.75501574872352
            ],
            [
                -122.50514128541857,
                48.75504337842573
            ],
            [
                -122.50517691656799,
                48.75504075019528
            ],
            [
                -122.50521957244302,
                48.755040530596766
            ],
            [
                -122.50522119648909,
                48.75503110989406
            ],
            [
                -122.505208232215,
                48.75500868256469
            ],
            [
                -122.50522401785814,
                48.755012634069715
            ],
            [
                -122.50523829630217,
                48.755023336444445
            ],
            [
                -122.50522812781598,
                48.75501567854058
            ],
            [
                -122.50524032282732,
                48.75503316762487
            ],
            [
                -122.5052575495455,
                48.7550387844525
            ],
            [
                -122.5052299548449,
                48.75506006057726
            ],
            [
                -122.50522017540098,
                48.75507011420134
            ],
            [
                -122.50527021297331,
                48.7550631409747
            ],
            [
                -122.50524049581922,
                48.75507975930713
            ],
            [
                -122.50523,
                48.75505
            ]
        ]
    },
    "properties": {
        "trajectory_id": 3324,
        "object_id": 367434290,
        "label": "FISHING"
    }
}