{
    "type": "Feature",
    "geometry": {
        "type": "LineString",
        "coordinates": [
            [
                -122.50791,
                48.75509
            ],
            [
                -122.50792984799104,
                48.755080574975636
            ],
            [
                -122.50792037721776,
                48.75506056782249
            ],
            [
                -122.50794602391032,
                48.755053170020105
            ],
            [
                -122.50796386827442,
                48.75508183999788
            ],
            [
                -122.50793020270721,
                48.755082044783414
            ],
            [
                -122.50794865205657,
                48.75510985698959
            ],
            [
                -122.50795925681655,
                48.75510885973272
            ],
            [
                -122.50794019129525,
                48.75511593063956
            ],
            [
                -122.50794997938932,
                48.75510000044869
            ],
            [
                -122.50793336651955,
                48.755108953126964
            ],
            [
                -122.5079204184832,
                48.755097270856425
            ],
            [
                -122.5079198939679,
                48.75511000390584
            ],
            [
                -122.5079391006153,
                48.755118617415135
            ],
            [
                -122.5079641574199,
                48.75512866296924
            ],
            [
                -122.50793178353227,
                48.75511274387349
            ],
            [
                -122.50796060812218,
                48.75510862438483
            ],
            [
                -122.50793174721593,
                48.75510023306192
            ],
            [
                -122.50792516245892,
                48.7550980798148
            ],
            [
                -122.50792384477518,
                48.75511607384534
            ],
            [
                -122.50792178811751,
                48.75509839568019
            ],
            [
                -122.50791234649475,
                48.755098779021026
            ],
            [
                -122.50790971653868,
                48.75510799874668
            ],
            [
                -122.50789686776491,
                48.755125761632215
            ],
            [
                -122.50788074137019,
                48.75514920431615
            ],
            [
                -122.5078795828352,
                48.75513621928014
            ],
            [
                -122.50789684111854,
                48.75514445515918
            ],
            [
                -122.50791864706673,
                48.75512131308891
            ],
            [
                -122.50791267930019,
                48.755120279953324
            ],
            [
                -122.50791003943034,
                48.75509997563096
            ],
            [
                -122.50791636408576,
                48.75511003975381
            ],
            [
                -122.50791995912343,
                48.75509774853539
            ],
            [
                -122.50792028340022,
                48.75509262770262
            ],
            [
                -122.50792120454109,
                48.75510401633589
            ],
            [
                -122.50790922405896,
                48.75509928288019
            ],
            [
                -122.5079323553461,
                48.75510169805642
            ],
            [
                -122.5079300699568,
                48.75511133797709
            ],
            [
                -122.50794932932094,
                48.75511911755785
            ],
            [
                -122.50794134547344,
                48.75512961419386
            ],
            [
                -122.5079434852405,
                48.755141071396324
            ],
            [
                -122.50793450964856,
                48.75512047139631
            ],
            [
                -122.50792083968666,
                48.755130142700615
            ],
            [
                -122.5079300163234,
                48.75514003202493
            ],
            [
                -122.50793164848297,
                48.75513862568453
            ],
            [
                -122.50792040786936,
                48.75514002811474
            ],
            [
                -122.50792729298053,
                48.75513630425639
            ],
            [
                -122.50791940250252,
                48.755136655555525
            ],
            [
                -122.50792000539431,
                48.75512971781507
            ],
            [
                -122.50792018827974,
                48.755119902520576
            ],
            [
                -122.50791778555426,
                48.755132684803066
            ],
            [
                -122.50792376025896,
                48.755114142022244
            ],
            [
                -122.50794222338908,
                48.755118946088416
            ],
            [
                -122.50794034475781,
                48.755120427301286
            ],
            [
                -122.50793990056108,
                48.755100192625186
            ],
            [
                -122.50793044283627,
                48.755119092002296
            ],
            [
                -122.5079492490572,
                48.755100225712035
            ],
            [
                -122.50794463117211,
                48.755110381054706
            ],
            [
                -122.50796006599383,
                48.75509073510954
            ],
            [
                -122.50793794430969,
                48.75509103938504
            ],
            [
                -122.50793935658838,
                48.75507781296159
            ],
            [
                -122.50794572948566,
                48.75507743976829
            ],
            [
                -122.50793078085242,
                48.75506956123205
            ],
            [
                -122.5079300001374,
                48.75509001632657
            ],
            [
                -122.5079220697049,
                48.75508836551657
            ],
            [
                -122.50794789537554,
                48.755081595746006
            ],
            [
                -122.5079519195733,
                48.755084444545105
            ],
            [
                -122.50794000276035,
                48.75508993925497
            ],
            [
                -122.5079361297309,
                48.75510005520606
            ],
            [
                -122.5079328706716,
                48.75511098402714
            ],
            [
                -122.50792628700557,
                48.7551189726668
            ],
            [
                -122.50792894448058,
                48.755097992938126
            ],
            [
                -122.50790912499023,
                48.75511121472179
            ],
            [
                -122.50791016751697,
                48.7551210436755
            ],
            [
                -122.5079313815453,
                48.75512372465032
            ],
            [
                -122.50791993149866,
                48.75512001405345
            ],
            [
                -122.50793127666742,
                48.75511987394795
            ],
            [
                -122.50791999074382,
                48.75512008082965
            ],
            [
                -122.50792137923627,
                48.7551199288219
            ],
            [
                -122.50791929571444,
                48.75512050159772
            ],
            [
                -122.50793,
                48.7551
            ]
        ]
    },
    "properties": {
        "trajectory_id": 3356,
        "object_id": 367439490,
        "label": "PLEASURE CRAFT"
    }
}