{
    "type": "Feature",
    "geometry": {
        "type": "LineString",
        "coordinates": [
            [
                -122.78229,
                48.10646
            ],
            [
                -122.78229956888228,
                48.10642356987894
            ],
            [
                -122.782309670599,
                48.106460151077485
            ],
            [
                -122.78228957277715,
                48.10647684098417
            ],
            [
                -122.78228210097132,
                48.10651769046124
            ],
            [
                -122.78228208437348,
                48.10644977539747
            ],
            [
                -122.7822733179515,
                48.1064469701514
            ],
            [
                -122.78226793700482,
                48.10647814162317
            ],
            [
                -122.78228879605159,
                48.1064404861667
            ],
            [
                -122.78225206560286,
                48.10649917419065
            ],
            [
                -122.78227255701175,
                48.106483660918244
            ],
            [
                -122.78227916671968,
                48.106499026521014
            ],
            [
                -122.78226985116791,
                48.10650301263611
            ],
            [
                -122.7822592682911,
                48.10649836595951
            ],
            [
                -122.78225406726409,
                48.106503974588776
            ],
            [
                -122.78228046809583,
                48.10651891279322
            ],
            [
                -122.78226105680586,
                48.106490746649435
            ],
            [
                -122.78225536040854,
                48.10647307390687
            ],
            [
                -122.78225554731983,
                48.10647948190066
            ],
            [
                -122.78224153726705,
                48.10647976720479
            ],
            [
                -122.78225356693156,
                48.10650018368093
            ],
            [
                -122.78228248180103,
                48.106481871753225
            ],
            [
                -122.78226039880643,
                48.10648079929138
            ],
            [
                -122.78224938535985,
                48.10648053085516
            ],
            [
                -122.78227067584639,
                48.10645941017087
            ],
            [
                -122.78227837544465,
                48.10650234075197
            ],
            [
                -122.78223880426175,
                48.106490929070134
            ],
            [
                -122.78223995612953,
                48.10651013373352
            ],
            [
                -122.78227103156806,
                48.10649849512554
            ],
            [
                -122.78227981731219,
                48.106489954964
            ],
            [
                -122.78225040038302,
                48.10649980700805
            ],
            [
                -122.78224073235658,
                48.10648117169518
            ],
            [
                -122.78228678590447,
                48.106489691866486
            ],
            [
                -122.78228615579997,
                48.106530458645835
            ],
            [
                -122.7822952338606,
                48.1064852680054
            ],
            [
                -122.78228115846446,
                48.10649060913919
            ],
            [
                -122.78225461112808,
                48.10650326617487
            ],
            [
                -122.78227383179137,
                48.106478755156154
            ],
            [
                -122.78226328690786,
                48.10651507074385
            ],
            [
                -122.78225916013476,
                48.106528535703546
            ],
            [
                -122.78225276242735,
                48.10652346177106
            ],
            [
                -122.78230911768084,
                48.10649109620469
            ],
            [
                -122.78228839171214,
                48.10648576543894
            ],
            [
                -122.78229111950792,
                48.10649831112274
            ],
            [
                -122.78226693809704,
                48.10651078290283
            ],
            [
                -122.78226582767479,
                48.10649683987101
            ],
            [
                -122.78226771566759,
                48.10649266273854
            ],
            [
                -122.78225024439793,
                48.10650003613594
            ],
            [
                -122.78222069786143,
                48.10651042317964
            ],
            [
                -122.7822247330317,
                48.10650572307356
            ],
            [
                -122.78225249104774,
                48.1065016751394
            ],
            [
                -122.78225331558016,
                48.106489356775455
            ],
            [
                -122.78225576885677,
                48.106500307119504
            ],
            [
                -122.78224833148657,
                48.10651201321085
            ],
            [
                -122.78227175455,
                48.106502577772794
            ],
            [
                -122.78226287463602,
                48.10649125501245
            ],
            [
                -122.78227090700429,
                48.10648229810766
            ],
            [
                -122.78226669178302,
                48.106505398042074
            ],
            [
                -122.78225416525454,
                48.10648076769914
            ],
            [
                -122.78226995214638,
                48.10650039169681
            ],
            [
                -122.78227930613141,
                48.10648648588539
            ],
            [
                -122.78226072155263,
                48.106481937277096
            ],
            [
                -122.78229058587095,
                48.1064795585581
            ],
            [
                -122.78227208883435,
                48.106479719307885
            ],
            [
                -122.78226983288748,
                48.10648823940518
            ],
            [
                -122.7822910587258,
                48.10648072353671
            ],
            [
                -122.78227935953421,
                48.10650092664589
            ],
            [
                -122.78228032944227,
                48.10650995796201
            ],
            [
                -122.78226456405888,
                48.106493003774105
            ],
            [
                -122.78230713946473,
                48.10647523159241
            ],
            [
                -122.7822866227296,
                48.10649326743681
            ],
            [
                -122.78229265839227,
                48.106499607209464
            ],
            [
                -122.78226144108072,
                48.106496343283766
            ],
            [
                -122.78226165510088,
                48.106502982204546
            ],
            [
                -122.78228505027961,
                48.10649832503968
            ],
            [
                -122.7822695646823,
                48.10648011902295
            ],
            [
                -122.78223347425619,
                48.10648062018806
            ],
            [
                -122.78227297377738,
                48.106484439728845
            ],
            [
                -122.78226788750354,
                48.106492046220275
            ],
            [
                -122.78227,
                48.1065
            ]
        ]
    },
    "properties": {
        "trajectory_id": 3368,
        "object_id": 367440310,
        "label": "FISHING"
    }
}