{
    "type": "Feature",
    "geometry": {
        "type": "LineString",
        "coordinates": [
            [
                -122.98195,
                48.72975
            ],
            [
                -122.9592080481472,
                48.73351297166543
            ],
            [
                -122.93706799284679,
                48.737278459461315
            ],
            [
                -122.91481836552943,
                48.740866461064016
            ],
            [
                -122.89349677313677,
                48.74631351907461
            ],
            [
                -122.90195524486819,
                48.75201661580046
            ],
            [
                -122.90194987886704,
                48.75202007815385
            ],
            [
                -122.90195000178598,
                48.75201999910707
            ],
            [
                -122.90194999864488,
                48.75201998946889
            ],
            [
                -122.9019500506215,
                48.75202040184883
            ],
            [
                -122.90193064765623,
                48.752000424662555
            ],
            [
                -122.9019499585063,
                48.75200006352664
            ],
            [
                -122.9019906813571,
                48.75200016392539
            ],
            [
                -122.9019701310843,
                48.751990072294404
            ],
            [
                -122.90196999172305,
                48.75199006935681
            ],
            [
                -122.90197045162091,
                48.75201118447194
            ],
            [
                -122.90195033160609,
                48.75201110908312
            ],
            [
                -122.90195275546344,
                48.75201873259022
            ],
            [
                -122.90196595036129,
                48.752008367402446
            ],
            [
                -122.90194749164637,
                48.75199993546703
            ],
            [
                -122.90195005124386,
                48.75200000130435
            ],
            [
                -122.90195000067548,
                48.75200000081911
            ],
            [
                -122.90194989928186,
                48.75199994964463
            ],
            [
                -122.90195645006908,
                48.75200322428662
            ],
            [
                -122.90197024122718,
                48.75201016319336
            ],
            [
                -122.90196389994084,
                48.75200390144762
            ],
            [
                -122.90193040698729,
                48.751970406960226
            ],
            [
                -122.90192999221,
                48.75196999215959
            ],
            [
                -122.9019300001449,
                48.75197000287127
            ],
            [
                -122.90192999999726,
                48.75196985136718
            ],
            [
                -122.90193000000002,
                48.75198137096071
            ],
            [
                -122.90193000000001,
                48.75199012713321
            ],
            [
                -122.90193,
                48.75198999770199
            ],
            [
                -122.90193,
                48.75199000004251
            ],
            [
                -122.90193,
                48.751989999999246
            ],
            [
                -122.90193000000004,
                48.75199000000001
            ],
            [
                -122.90193000000001,
                48.75199000000001
            ],
            [
                -122.90192999999996,
                48.75198999999999
            ],
            [
                -122.90192999999998,
                48.75198999999999
            ],
            [
                -122.90192999999998,
                48.75199
            ],
            [
                -122.90193000000005,
                48.751990000000035
            ],
            [
                -122.90192999999793,
                48.75198999999863
            ],
            [
                -122.90193000009332,
                48.7519900000626
            ],
            [
                -122.90193000137222,
                48.75199000092038
            ],
            [
                -122.90192997568718,
                48.75198998369287
            ],
            [
                -122.90194994624805,
                48.75200000698611
            ],
            [
                -122.901949995273,
                48.75199995673941
            ],
            [
                -122.90195001454742,
                48.75199999501876
            ],
            [
                -122.90194879663436,
                48.752000601618
            ],
            [
                -122.90192992033037,
                48.752010039836314
            ],
            [
                -122.90193000182792,
                48.752009999085985
            ],
            [
                -122.9019299999577,
                48.75201000002115
            ],
            [
                -122.90193000000083,
                48.75200999999955
            ],
            [
                -122.90192999999817,
                48.752010000000524
            ],
            [
                -122.9019300001096,
                48.75200999996829
            ],
            [
                -122.90192999389693,
                48.75201000176654
            ],
            [
                -122.90193033853124,
                48.75200990201086
            ],
            [
                -122.90195264248109,
                48.75201659308568
            ],
            [
                -122.9019633596246,
                48.75204122860766
            ],
            [
                -122.90196965286655,
                48.75203855531567
            ],
            [
                -122.90193761511642,
                48.75203251131736
            ],
            [
                -122.90194933150401,
                48.752005674579046
            ],
            [
                -122.90194996356631,
                48.75201006617982
            ],
            [
                -122.90195259721078,
                48.752010828335266
            ],
            [
                -122.90195450129666,
                48.75201180194733
            ],
            [
                -122.9019244755568,
                48.75201067561593
            ],
            [
                -122.90191552662135,
                48.75200827045579
            ],
            [
                -122.90190585491209,
                48.75200085327152
            ],
            [
                -122.90195203015732,
                48.75200314769134
            ],
            [
                -122.90197027762657,
                48.7520002234354
            ],
            [
                -122.90196999542475,
                48.752011063068366
            ],
            [
                -122.9019699998642,
                48.75203201873873
            ],
            [
                -122.90197001024329,
                48.752020107198646
            ],
            [
                -122.90196948450178,
                48.75201974935926
            ],
            [
                -122.90196433935155,
                48.75201058983537
            ],
            [
                -122.90191828954526,
                48.751957587295266
            ],
            [
                -122.90193018233627,
                48.752000038520706
            ],
            [
                -122.90192999905288,
                48.75200001697978
            ],
            [
                -122.90192995203466,
                48.751990441734065
            ],
            [
                -122.90192,
                48.75198
            ]
        ]
    },
    "properties": {
        "trajectory_id": 3391,
        "object_id": 367447060,
        "label": "PLEASURE CRAFT"
    }
}