{
    "type": "Feature",
    "geometry": {
        "type": "LineString",
        "coordinates": [
            [
                -122.51416,
                47.30645
            ],
            [
                -122.51418279362909,
                47.30647183691976
            ],
            [
                -122.51415813847409,
                47.3073179061078
            ],
            [
                -122.51389723930366,
                47.30878867823096
            ],
            [
                -122.51359656508203,
                47.310085223505936
            ],
            [
                -122.51345258477355,
                47.31040861214942
            ],
            [
                -122.51366176734243,
                47.308959914378086
            ],
            [
                -122.51411686982485,
                47.30644981896133
            ],
            [
                -122.51414939359935,
                47.30644882117023
            ],
            [
                -122.51412998742516,
                47.30646001497451
            ],
            [
                -122.51414005472424,
                47.30646992327482
            ],
            [
                -122.5141401580154,
                47.30645034078284
            ],
            [
                -122.51414127730071,
                47.30643293513629
            ],
            [
                -122.51417943688173,
                47.30644073276596
            ],
            [
                -122.51014766368904,
                47.320846904394905
            ],
            [
                -122.50783305472957,
                47.331865365683086
            ],
            [
                -122.50980607771898,
                47.32113637562884
            ],
            [
                -122.51417669938246,
                47.30643991968888
            ],
            [
                -122.5141675067027,
                47.306441895184996
            ],
            [
                -122.51018531113604,
                47.32223169155742
            ],
            [
                -122.50782201176105,
                47.33184746386594
            ],
            [
                -122.5077264801716,
                47.33238949656558
            ],
            [
                -122.51295085722491,
                47.31037684581927
            ],
            [
                -122.51416519013706,
                47.30644559794582
            ],
            [
                -122.5139887469038,
                47.309430224292676
            ],
            [
                -122.50795969331071,
                47.33156785410235
            ],
            [
                -122.50782973528726,
                47.33186547702365
            ],
            [
                -122.50980585396621,
                47.32311072894916
            ],
            [
                -122.51413973779731,
                47.30643800591335
            ],
            [
                -122.51417854966496,
                47.30642911790588
            ],
            [
                -122.50985846777644,
                47.32392862287642
            ],
            [
                -122.50783195301749,
                47.33183951320893
            ],
            [
                -122.50787605541869,
                47.33164757591353
            ],
            [
                -122.5137175948842,
                47.309393035773006
            ],
            [
                -122.51416009307296,
                47.306418153057685
            ],
            [
                -122.51332927724035,
                47.311418464949085
            ],
            [
                -122.50782859672569,
                47.331839654244725
            ],
            [
                -122.5078119031921,
                47.33184540201378
            ],
            [
                -122.51090036370567,
                47.321007048615485
            ],
            [
                -122.51416879529113,
                47.30643000844471
            ],
            [
                -122.51416946118127,
                47.30643148492799
            ],
            [
                -122.50994334801835,
                47.32251425306045
            ],
            [
                -122.50785714876797,
                47.331859383660394
            ],
            [
                -122.50788109955337,
                47.331766224884795
            ],
            [
                -122.51312195158593,
                47.31062169307548
            ],
            [
                -122.51416955605646,
                47.306440194787704
            ],
            [
                -122.51431159646255,
                47.30771436294171
            ],
            [
                -122.50809396655119,
                47.331362118422966
            ],
            [
                -122.50784740981804,
                47.33184788970734
            ],
            [
                -122.51240146507544,
                47.31959101336629
            ],
            [
                -122.51415505919101,
                47.306428787786125
            ],
            [
                -122.51416145014159,
                47.3064027325567
            ],
            [
                -122.50906335971833,
                47.32403937992091
            ],
            [
                -122.50778914828885,
                47.33210137560197
            ],
            [
                -122.50812329010125,
                47.33069523024782
            ],
            [
                -122.5117092829653,
                47.31612536286574
            ],
            [
                -122.51419430856689,
                47.306236642080066
            ],
            [
                -122.5140455412182,
                47.30843340915909
            ],
            [
                -122.5079359132028,
                47.33160997213587
            ],
            [
                -122.5078430140078,
                47.33184974961494
            ],
            [
                -122.51014586804204,
                47.32051558425769
            ],
            [
                -122.51416882109267,
                47.30641279534763
            ],
            [
                -122.51416754858592,
                47.306451078030044
            ],
            [
                -122.51416636376514,
                47.30645450674745
            ],
            [
                -122.51408792608963,
                47.30807455023626
            ],
            [
                -122.50802902287478,
                47.33145238899432
            ],
            [
                -122.50783508377853,
                47.331842539454655
            ],
            [
                -122.50783029327395,
                47.33186441368472
            ],
            [
                -122.5078450603521,
                47.331834143020245
            ],
            [
                -122.51312187856864,
                47.308889677379526
            ],
            [
                -122.51418307891545,
                47.306445947808115
            ],
            [
                -122.5142267672976,
                47.30669947468245
            ],
            [
                -122.50838900319657,
                47.32840647371344
            ],
            [
                -122.50782565404191,
                47.33184727581825
            ],
            [
                -122.50813509336373,
                47.331136823742355
            ],
            [
                -122.51338340002604,
                47.30845539079403
            ],
            [
                -122.514162968837,
                47.30644363406008
            ],
            [
                -122.51417503479286,
                47.30638618989307
            ],
            [
                -122.50886391617234,
                47.327767485399924
            ],
            [
                -122.50787,
                47.33188
            ]
        ]
    },
    "properties": {
        "trajectory_id": 3405,
        "object_id": 367463060,
        "label": "PASSENGER"
    }
}