{
    "type": "Feature",
    "geometry": {
        "type": "LineString",
        "coordinates": [
            [
                -122.6814,
                48.49317
            ],
            [
                -122.68150744861363,
                48.49318800150575
            ],
            [
                -122.68146146131873,
                48.493149994048345
            ],
            [
                -122.68142280968864,
                48.49312843730404
            ],
            [
                -122.6814893319665,
                48.49315048544911
            ],
            [
                -122.68142892334612,
                48.49314922897831
            ],
            [
                -122.68138102344126,
                48.493139656019146
            ],
            [
                -122.68149397066257,
                48.493142480799754
            ],
            [
                -122.68143832779627,
                48.49313742935683
            ],
            [
                -122.68145293362838,
                48.49314788971889
            ],
            [
                -122.68141296175132,
                48.49315194677057
            ],
            [
                -122.68148797630282,
                48.493155178073465
            ],
            [
                -122.68150604058768,
                48.493158690958076
            ],
            [
                -122.68144812868513,
                48.493168586152635
            ],
            [
                -122.681496039481,
                48.493147152955515
            ],
            [
                -122.68139761166019,
                48.49307961314352
            ],
            [
                -122.68141926033557,
                48.49315940182644
            ],
            [
                -122.68143991176497,
                48.493147886551114
            ],
            [
                -122.68141875912883,
                48.49315911900901
            ],
            [
                -122.68143970360954,
                48.49315024800516
            ],
            [
                -122.6814665647287,
                48.493153117656334
            ],
            [
                -122.6814303383601,
                48.49316155697879
            ],
            [
                -122.68146835945402,
                48.49316775620111
            ],
            [
                -122.68148194860471,
                48.493143278993365
            ],
            [
                -122.68143386806182,
                48.493126069785745
            ],
            [
                -122.68149886106823,
                48.49314396803467
            ],
            [
                -122.68141146001429,
                48.49321042178099
            ],
            [
                -122.68144806173126,
                48.49313216153126
            ],
            [
                -122.68149187234519,
                48.493108382802916
            ],
            [
                -122.68144341716075,
                48.49316900835861
            ],
            [
                -122.68145620402417,
                48.49313350780128
            ],
            [
                -122.68142296555905,
                48.493141104750585
            ],
            [
                -122.68146932733595,
                48.49311444112077
            ],
            [
                -122.68141315361478,
                48.493135760295836
            ],
            [
                -122.68142523636482,
                48.49317720450119
            ],
            [
                -122.68148181615341,
                48.493141644191724
            ],
            [
                -122.6814802264726,
                48.49312230988601
            ],
            [
                -122.68152685242482,
                48.4931146179841
            ],
            [
                -122.68150030879066,
                48.493101504539304
            ],
            [
                -122.68142761590126,
                48.493166140507505
            ],
            [
                -122.68146140541005,
                48.493191990592166
            ],
            [
                -122.68138274829462,
                48.49308769881855
            ],
            [
                -122.68147443785422,
                48.49314862254663
            ],
            [
                -122.68151353922241,
                48.49313923170107
            ],
            [
                -122.68144443161998,
                48.49316695144267
            ],
            [
                -122.6814485682403,
                48.49315756436358
            ],
            [
                -122.68135505558253,
                48.49308608019422
            ],
            [
                -122.68147293187093,
                48.49316747742355
            ],
            [
                -122.68146146890524,
                48.493113510492904
            ],
            [
                -122.6814285254543,
                48.493142486607944
            ],
            [
                -122.681413223176,
                48.4931502670169
            ],
            [
                -122.68136236863113,
                48.49315362402397
            ],
            [
                -122.68141183456764,
                48.49314214693716
            ],
            [
                -122.68143220524908,
                48.493116786330745
            ],
            [
                -122.68145205905931,
                48.4931410329735
            ],
            [
                -122.68149398151994,
                48.493157638748144
            ],
            [
                -122.6814691956679,
                48.49315999641124
            ],
            [
                -122.68143700714005,
                48.49315291410471
            ],
            [
                -122.68146406421509,
                48.49316263241817
            ],
            [
                -122.68141959919112,
                48.49319388667789
            ],
            [
                -122.68145959440679,
                48.49321645889888
            ],
            [
                -122.68144417434657,
                48.49315399185059
            ],
            [
                -122.68139313063786,
                48.493106978572236
            ],
            [
                -122.6814357217714,
                48.49313267022351
            ],
            [
                -122.68140419067686,
                48.493106130624675
            ],
            [
                -122.6814267478362,
                48.49311786139671
            ],
            [
                -122.68144726741593,
                48.49313368890295
            ],
            [
                -122.68143783166065,
                48.4931595584812
            ],
            [
                -122.68141045027103,
                48.49316503643354
            ],
            [
                -122.6813829038003,
                48.493149896898856
            ],
            [
                -122.68132216703547,
                48.49316050169934
            ],
            [
                -122.68144454790276,
                48.49315932239326
            ],
            [
                -122.68142753778358,
                48.49311818742545
            ],
            [
                -122.68147405295893,
                48.493111831469896
            ],
            [
                -122.68146084397834,
                48.49316825209862
            ],
            [
                -122.68145349883918,
                48.49312191893973
            ],
            [
                -122.6814351372591,
                48.49319919078446
            ],
            [
                -122.68143441647719,
                48.49316640197876
            ],
            [
                -122.68146883628214,
                48.493142334584014
            ],
            [
                -122.68147,
                48.49316
            ]
        ]
    },
    "properties": {
        "trajectory_id": 3409,
        "object_id": 367463310,
        "label": "PLEASURE CRAFT"
    }
}