{
    "type": "Feature",
    "geometry": {
        "type": "LineString",
        "coordinates": [
            [
                -122.68149,
                48.49315
            ],
            [
                -122.68147393275427,
                48.49316358410279
            ],
            [
                -122.68146347310993,
                48.493148741417144
            ],
            [
                -122.68142319671739,
                48.49317401502227
            ],
            [
                -122.68147749353236,
                48.49320084692814
            ],
            [
                -122.68141921576996,
                48.49319438237899
            ],
            [
                -122.68145165492288,
                48.49312225711838
            ],
            [
                -122.68145800227772,
                48.49312836434467
            ],
            [
                -122.68143208228747,
                48.49314277789447
            ],
            [
                -122.68144261477354,
                48.49316936671031
            ],
            [
                -122.68145416569956,
                48.493117732708676
            ],
            [
                -122.68144301638497,
                48.49315134799526
            ],
            [
                -122.68149866629629,
                48.49316372259416
            ],
            [
                -122.68145032546083,
                48.49317021213626
            ],
            [
                -122.68143960912164,
                48.49311371125098
            ],
            [
                -122.68144517852429,
                48.49314034902368
            ],
            [
                -122.68146373400266,
                48.49316202438813
            ],
            [
                -122.68144031025565,
                48.493155607664235
            ],
            [
                -122.68143445317573,
                48.493170068042275
            ],
            [
                -122.68144304376975,
                48.49312556804849
            ],
            [
                -122.68149114306544,
                48.493179688464394
            ],
            [
                -122.68147989092807,
                48.49313648735988
            ],
            [
                -122.68144591440391,
                48.49311685781536
            ],
            [
                -122.68146784739346,
                48.49313518055323
            ],
            [
                -122.68146022769777,
                48.493147319924375
            ],
            [
                -122.68141082113964,
                48.49313700292985
            ],
            [
                -122.68144589373838,
                48.493139785570904
            ],
            [
                -122.68151217215063,
                48.49313061437143
            ],
            [
                -122.68146479862308,
                48.49317079804653
            ],
            [
                -122.68148882858108,
                48.49316584934798
            ],
            [
                -122.68143001109833,
                48.493156642259386
            ],
            [
                -122.68148369634197,
                48.49310510439073
            ],
            [
                -122.68144832513099,
                48.49309274355422
            ],
            [
                -122.68139307764649,
                48.493120191011734
            ],
            [
                -122.6814346128917,
                48.493148578677996
            ],
            [
                -122.6814675155815,
                48.49314559933356
            ],
            [
                -122.68152311022571,
                48.49310112293713
            ],
            [
                -122.681454289724,
                48.49309157253138
            ],
            [
                -122.68146953833964,
                48.4930528386283
            ],
            [
                -122.681407918517,
                48.49316488113837
            ],
            [
                -122.68143456627092,
                48.49318924548351
            ],
            [
                -122.6814833636778,
                48.49315006088379
            ],
            [
                -122.68144338942243,
                48.49317072540519
            ],
            [
                -122.68147753099068,
                48.49315670225313
            ],
            [
                -122.6814698112951,
                48.49316178999724
            ],
            [
                -122.68142325418542,
                48.49313099271556
            ],
            [
                -122.681456190199,
                48.49314372260738
            ],
            [
                -122.68143007458957,
                48.4931374340957
            ],
            [
                -122.68146989638014,
                48.493109921509784
            ],
            [
                -122.6814642189813,
                48.49313077553045
            ],
            [
                -122.68142901723708,
                48.49312927473304
            ],
            [
                -122.68142350962644,
                48.49314929063456
            ],
            [
                -122.68149656642265,
                48.49313658369886
            ],
            [
                -122.6814418757283,
                48.49313102797282
            ],
            [
                -122.68146069937362,
                48.49313654514373
            ],
            [
                -122.6814833340318,
                48.49313941118764
            ],
            [
                -122.6814498652007,
                48.49315814486551
            ],
            [
                -122.68138975084143,
                48.493160460788076
            ],
            [
                -122.68152361414691,
                48.49319082113252
            ],
            [
                -122.68146102964424,
                48.49317238034263
            ],
            [
                -122.68145083215967,
                48.493171457273505
            ],
            [
                -122.68144515398482,
                48.49316064379665
            ],
            [
                -122.68142388611025,
                48.49315321702975
            ],
            [
                -122.68142862708378,
                48.49314148414419
            ],
            [
                -122.68140520508773,
                48.49305678129946
            ],
            [
                -122.68141917324954,
                48.49311195193818
            ],
            [
                -122.68143528026603,
                48.49316292214899
            ],
            [
                -122.68146022592909,
                48.493159979025684
            ],
            [
                -122.68141381007015,
                48.493165713969866
            ],
            [
                -122.68131334347562,
                48.493141238873534
            ],
            [
                -122.68145927848096,
                48.49315183490807
            ],
            [
                -122.68149560693007,
                48.49309482171592
            ],
            [
                -122.68147486142885,
                48.49310316544077
            ],
            [
                -122.68152678624287,
                48.49313231101068
            ],
            [
                -122.68145000036222,
                48.493140002252616
            ],
            [
                -122.68141593510032,
                48.49319520262009
            ],
            [
                -122.68145317379808,
                48.49317393958727
            ],
            [
                -122.68142587044866,
                48.49318325104505
            ],
            [
                -122.68147725434387,
                48.49319582905944
            ],
            [
                -122.68144,
                48.49312
            ]
        ]
    },
    "properties": {
        "trajectory_id": 3411,
        "object_id": 367463310,
        "label": "PLEASURE CRAFT"
    }
}