{
    "type": "Feature",
    "geometry": {
        "type": "LineString",
        "coordinates": [
            [
                -122.48576,
                48.75241
            ],
            [
                -122.48578457365976,
                48.7524153354096
            ],
            [
                -122.48575999564721,
                48.75241859362421
            ],
            [
                -122.48576569954815,
                48.752416012445096
            ],
            [
                -122.48576571208743,
                48.752400567894504
            ],
            [
                -122.48575187268061,
                48.75238097233877
            ],
            [
                -122.48577405326934,
                48.752414638067
            ],
            [
                -122.4857481066583,
                48.75239079633108
            ],
            [
                -122.48575923164985,
                48.75237944899679
            ],
            [
                -122.48576003009921,
                48.752399960719934
            ],
            [
                -122.4857412034384,
                48.75237528435687
            ],
            [
                -122.48574312405651,
                48.75235829009451
            ],
            [
                -122.48572286822359,
                48.752360495649455
            ],
            [
                -122.48575756235476,
                48.75240068518826
            ],
            [
                -122.4857514888146,
                48.752392601645035
            ],
            [
                -122.48575985667033,
                48.752389829174895
            ],
            [
                -122.4857704153173,
                48.75240791997371
            ],
            [
                -122.48573999955477,
                48.75240274814932
            ],
            [
                -122.48575690990978,
                48.75238997529361
            ],
            [
                -122.48575296590343,
                48.752377052233555
            ],
            [
                -122.48574233980119,
                48.752365755508904
            ],
            [
                -122.4857284826581,
                48.7524041297918
            ],
            [
                -122.48575984473278,
                48.752409912045316
            ],
            [
                -122.48574988236149,
                48.75239934732245
            ],
            [
                -122.48574333550798,
                48.75239017927956
            ],
            [
                -122.48574070970845,
                48.752399979844355
            ],
            [
                -122.48575829371381,
                48.75237985895127
            ],
            [
                -122.48574977834502,
                48.752370331579954
            ],
            [
                -122.48575839574688,
                48.752398923006496
            ],
            [
                -122.48576391366255,
                48.75238774201695
            ],
            [
                -122.48575035167943,
                48.7523901295967
            ],
            [
                -122.48577156576377,
                48.75238788072828
            ],
            [
                -122.48576058430427,
                48.75239008628344
            ],
            [
                -122.48575860275986,
                48.75240023467854
            ],
            [
                -122.48574988652487,
                48.75238998696645
            ],
            [
                -122.48574329999745,
                48.752367050893184
            ],
            [
                -122.48575577598062,
                48.75238927151581
            ],
            [
                -122.48575782000049,
                48.75239274248368
            ],
            [
                -122.48576251762796,
                48.752395867829804
            ],
            [
                -122.48573662064382,
                48.75240775813591
            ],
            [
                -122.48576510799815,
                48.752385125337796
            ],
            [
                -122.48574877386892,
                48.75239973279368
            ],
            [
                -122.48574992838857,
                48.75240030240122
            ],
            [
                -122.48575302005527,
                48.75239521856053
            ],
            [
                -122.48574999830603,
                48.752390419202264
            ],
            [
                -122.485760834352,
                48.75237577256562
            ],
            [
                -122.4857496964251,
                48.75238998743361
            ],
            [
                -122.485759274131,
                48.75239616669883
            ],
            [
                -122.48575832682592,
                48.75238969777937
            ],
            [
                -122.48576186627875,
                48.75238098555436
            ],
            [
                -122.48574986870395,
                48.75235934939741
            ],
            [
                -122.48574063640027,
                48.75237068964745
            ],
            [
                -122.4857436498658,
                48.75239724012308
            ],
            [
                -122.48576045407228,
                48.752400184010185
            ],
            [
                -122.48575272549564,
                48.75237573499995
            ],
            [
                -122.48574410888038,
                48.752331530313555
            ],
            [
                -122.48575175089144,
                48.752382120705896
            ],
            [
                -122.48574722150764,
                48.752390464396285
            ],
            [
                -122.48576384725833,
                48.75239713839757
            ],
            [
                -122.4857595693898,
                48.75239137431851
            ],
            [
                -122.48574985017652,
                48.75240604657039
            ],
            [
                -122.48575929361995,
                48.75239019965182
            ],
            [
                -122.4857389845908,
                48.75237939875681
            ],
            [
                -122.48573938090546,
                48.752389932017564
            ],
            [
                -122.48573920379272,
                48.75240075861543
            ],
            [
                -122.48575646360017,
                48.75236760532733
            ],
            [
                -122.48574370021454,
                48.752371255867395
            ],
            [
                -122.48575062892759,
                48.75236998623247
            ],
            [
                -122.48576143883176,
                48.75239877047495
            ],
            [
                -122.48574866700143,
                48.752389720959506
            ],
            [
                -122.48574654931485,
                48.75239321498066
            ],
            [
                -122.4857499700631,
                48.75239012743317
            ],
            [
                -122.48574869544134,
                48.75239877892452
            ],
            [
                -122.48575174487014,
                48.75240025209596
            ],
            [
                -122.48576671262944,
                48.75241816351083
            ],
            [
                -122.48575029452432,
                48.75240892097046
            ],
            [
                -122.48574925764912,
                48.75242122281701
            ],
            [
                -122.48574963654298,
                48.75239798079697
            ],
            [
                -122.48573885446393,
                48.75238087097123
            ],
            [
                -122.48576,
                48.7524
            ]
        ]
    },
    "properties": {
        "trajectory_id": 3461,
        "object_id": 367480370,
        "label": "FISHING"
    }
}