{
    "type": "Feature",
    "geometry": {
        "type": "LineString",
        "coordinates": [
            [
                -122.32989,
                47.39983
            ],
            [
                -122.32981596854759,
                47.39992473693626
            ],
            [
                -122.33006622701669,
                47.399920786464364
            ],
            [
                -122.32996506941527,
                47.39977100939528
            ],
            [
                -122.3300111995138,
                47.40027838783036
            ],
            [
                -122.3299828409121,
                47.39998215690669
            ],
            [
                -122.3296963099019,
                47.39995181644958
            ],
            [
                -122.32992767060905,
                47.39985187961492
            ],
            [
                -122.32991950689954,
                47.39994603005437
            ],
            [
                -122.32995499434104,
                47.39988286510844
            ],
            [
                -122.3300477022247,
                47.39974964275679
            ],
            [
                -122.33007014766719,
                47.3997776947614
            ],
            [
                -122.32989306371766,
                47.39977105447168
            ],
            [
                -122.32996059493047,
                47.39989919641478
            ],
            [
                -122.32997811353023,
                47.39994500881782
            ],
            [
                -122.32991389443458,
                47.399839153883704
            ],
            [
                -122.32998881623887,
                47.39990623755064
            ],
            [
                -122.32971749059419,
                47.39973246777524
            ],
            [
                -122.32995272914133,
                47.39992536947418
            ],
            [
                -122.33006486279818,
                47.39991316517425
            ],
            [
                -122.32988409813834,
                47.399872572566
            ],
            [
                -122.32986222298844,
                47.39980405407676
            ],
            [
                -122.33014379768026,
                47.399779106045585
            ],
            [
                -122.33017557382856,
                47.399778541378275
            ],
            [
                -122.33003920598343,
                47.39999304466895
            ],
            [
                -122.33029335409593,
                47.399643742203374
            ],
            [
                -122.33008009903254,
                47.39980376676059
            ],
            [
                -122.32995371412318,
                47.399993691849026
            ],
            [
                -122.3299993441246,
                47.3998940370193
            ],
            [
                -122.33000950072496,
                47.39982595523774
            ],
            [
                -122.33003865657797,
                47.399882769258696
            ],
            [
                -122.3300534158992,
                47.39976338787587
            ],
            [
                -122.33001256701507,
                47.39984711433775
            ],
            [
                -122.33001127335537,
                47.399819215795844
            ],
            [
                -122.33008660827743,
                47.39963191814877
            ],
            [
                -122.329982402258,
                47.39975932346807
            ],
            [
                -122.32998846057842,
                47.399804985887954
            ],
            [
                -122.33001362838968,
                47.39982811614719
            ],
            [
                -122.32993649716957,
                47.39990188016977
            ],
            [
                -122.32997315322658,
                47.39953158966685
            ],
            [
                -122.3301149171224,
                47.399810262762415
            ],
            [
                -122.3300130948169,
                47.399830305494746
            ],
            [
                -122.32999939620696,
                47.399911759123945
            ],
            [
                -122.32993323063783,
                47.4001387601552
            ],
            [
                -122.33011023842832,
                47.39989789562169
            ],
            [
                -122.32992813530953,
                47.399764225856856
            ],
            [
                -122.32995643474783,
                47.39988815785671
            ],
            [
                -122.32997725147355,
                47.39988819419791
            ],
            [
                -122.32998607363962,
                47.39987309996501
            ],
            [
                -122.33005338386283,
                47.399901839390566
            ],
            [
                -122.33000335896094,
                47.399905159956994
            ],
            [
                -122.329975512755,
                47.39989499188328
            ],
            [
                -122.32994883395511,
                47.39987389837026
            ],
            [
                -122.33004368491983,
                47.39997286864185
            ],
            [
                -122.32998642956348,
                47.39991462915616
            ],
            [
                -122.33002378853871,
                47.39989872096151
            ],
            [
                -122.33026059202257,
                47.399832747168965
            ],
            [
                -122.32989826123146,
                47.39977838077803
            ],
            [
                -122.32983441494741,
                47.39979666767899
            ],
            [
                -122.33043832961769,
                47.399991722733425
            ],
            [
                -122.33085232704528,
                47.40219056259527
            ],
            [
                -122.33016368344329,
                47.40190438346024
            ],
            [
                -122.33011040405505,
                47.40237658152489
            ],
            [
                -122.32995524251243,
                47.40759226778131
            ],
            [
                -122.32967415702268,
                47.40204817948202
            ],
            [
                -122.32993421984102,
                47.39985055079693
            ],
            [
                -122.32993084126576,
                47.39981543890387
            ],
            [
                -122.32994106445977,
                47.39935960329954
            ],
            [
                -122.33005919376022,
                47.399688697055694
            ],
            [
                -122.32997378316546,
                47.39980528881876
            ],
            [
                -122.33000422083504,
                47.39985512938789
            ],
            [
                -122.32994834251791,
                47.39981740253708
            ],
            [
                -122.3299975332301,
                47.39989065482675
            ],
            [
                -122.33001042879164,
                47.39990921285933
            ],
            [
                -122.32997930515168,
                47.399990013106716
            ],
            [
                -122.33002531822227,
                47.39997683994114
            ],
            [
                -122.32990409129332,
                47.399918711108825
            ],
            [
                -122.32996682979449,
                47.399976383527964
            ],
            [
                -122.329932681277,
                47.400254394405444
            ],
            [
                -122.32993,
                47.39988
            ]
        ]
    },
    "properties": {
        "trajectory_id": 3471,
        "object_id": 367489440,
        "label": "PLEASURE CRAFT"
    }
}