{
    "type": "Feature",
    "geometry": {
        "type": "LineString",
        "coordinates": [
            [
                -122.33002,
                47.39984
            ],
            [
                -122.32996375875572,
                47.399858733708406
            ],
            [
                -122.32988678092592,
                47.39974990902725
            ],
            [
                -122.330003470974,
                47.39984683527153
            ],
            [
                -122.32983438380599,
                47.39988208776372
            ],
            [
                -122.32977985927843,
                47.39981451330193
            ],
            [
                -122.33002683405714,
                47.39983018226002
            ],
            [
                -122.32996500040807,
                47.399770665788424
            ],
            [
                -122.33000485570766,
                47.3998609994345
            ],
            [
                -122.3300150708265,
                47.399975302580835
            ],
            [
                -122.33008479724263,
                47.3998315589901
            ],
            [
                -122.33009672630924,
                47.39980853015181
            ],
            [
                -122.33002316503806,
                47.3998512372055
            ],
            [
                -122.3299692128282,
                47.399890473180676
            ],
            [
                -122.33003102765306,
                47.399852958155826
            ],
            [
                -122.32995319578693,
                47.39994296519636
            ],
            [
                -122.33003759458144,
                47.39951242419363
            ],
            [
                -122.3299839944291,
                47.40000156191727
            ],
            [
                -122.3302024797424,
                47.40021009572202
            ],
            [
                -122.3300828562365,
                47.40002462494737
            ],
            [
                -122.3300918946275,
                47.39984615775284
            ],
            [
                -122.33000565854468,
                47.399905319532856
            ],
            [
                -122.33006957197023,
                47.39986457687852
            ],
            [
                -122.33008084221764,
                47.399858909632925
            ],
            [
                -122.33000056289855,
                47.39998069901792
            ],
            [
                -122.32992965217906,
                47.400030998724276
            ],
            [
                -122.32997043481394,
                47.400059437231036
            ],
            [
                -122.33002765582978,
                47.400036014628334
            ],
            [
                -122.32991795993019,
                47.399878536906215
            ],
            [
                -122.33004105519022,
                47.39981636187472
            ],
            [
                -122.3300069410388,
                47.39990468898444
            ],
            [
                -122.33000949439159,
                47.39988555556909
            ],
            [
                -122.33005516617105,
                47.39984707583852
            ],
            [
                -122.32994252799762,
                47.39986239944438
            ],
            [
                -122.33007323223899,
                47.399694450075884
            ],
            [
                -122.32999394044576,
                47.399807713918
            ],
            [
                -122.33001570575958,
                47.399884273013875
            ],
            [
                -122.33002680091069,
                47.39982780985126
            ],
            [
                -122.33011369109194,
                47.399801627431025
            ],
            [
                -122.32989390392652,
                47.399529107175994
            ],
            [
                -122.33011108612274,
                47.399755205373424
            ],
            [
                -122.33001998556955,
                47.39984793623187
            ],
            [
                -122.33002906776946,
                47.39984392497782
            ],
            [
                -122.32994509649518,
                47.399961754211084
            ],
            [
                -122.33001368121928,
                47.39994916482693
            ],
            [
                -122.33002628691456,
                47.3998866882733
            ],
            [
                -122.33006147253649,
                47.3999007413312
            ],
            [
                -122.330023899509,
                47.39989959670224
            ],
            [
                -122.33002718057986,
                47.399907520052025
            ],
            [
                -122.32986106212982,
                47.40002476984976
            ],
            [
                -122.3300821489916,
                47.399842014716135
            ],
            [
                -122.3299876467226,
                47.39985799070297
            ],
            [
                -122.32996625130302,
                47.399845781325766
            ],
            [
                -122.33000957172152,
                47.39992332415319
            ],
            [
                -122.32995428037212,
                47.39986327940643
            ],
            [
                -122.32987505723632,
                47.39987970794263
            ],
            [
                -122.32991949164564,
                47.39990737233962
            ],
            [
                -122.33001230230825,
                47.399907276822475
            ],
            [
                -122.32994164309437,
                47.40022356424363
            ],
            [
                -122.32970783229902,
                47.398891925124616
            ],
            [
                -122.32979119905637,
                47.3999808270297
            ],
            [
                -122.33002977543018,
                47.39991019806223
            ],
            [
                -122.32994958529008,
                47.39972918532252
            ],
            [
                -122.32993122368876,
                47.39988109679301
            ],
            [
                -122.33004151131402,
                47.39987964948116
            ],
            [
                -122.32992897141392,
                47.3998410783052
            ],
            [
                -122.33008457918308,
                47.39986065579072
            ],
            [
                -122.32999787367135,
                47.39993663790478
            ],
            [
                -122.33014448135057,
                47.39983090392739
            ],
            [
                -122.33010686932055,
                47.39983262860803
            ],
            [
                -122.32997767610759,
                47.399888986681404
            ],
            [
                -122.329930858055,
                47.399828415847736
            ],
            [
                -122.33003577654223,
                47.39993531218633
            ],
            [
                -122.33002897524763,
                47.400046211904154
            ],
            [
                -122.33004744873746,
                47.39997593968826
            ],
            [
                -122.33010506019984,
                47.400071671763484
            ],
            [
                -122.32994348264168,
                47.39984212864356
            ],
            [
                -122.33003290448998,
                47.40005314230492
            ],
            [
                -122.32994088565142,
                47.399951867899944
            ],
            [
                -122.32997,
                47.3999
            ]
        ]
    },
    "properties": {
        "trajectory_id": 3473,
        "object_id": 367489440,
        "label": "PLEASURE CRAFT"
    }
}