{
    "type": "Feature",
    "geometry": {
        "type": "LineString",
        "coordinates": [
            [
                -122.392,
                47.66663
            ],
            [
                -122.392,
                47.6666199978591
            ],
            [
                -122.39200000000001,
                47.66661999999829
            ],
            [
                -122.392,
                47.66661993702867
            ],
            [
                -122.39199999999997,
                47.666630002299804
            ],
            [
                -122.39199999999997,
                47.666629999999984
            ],
            [
                -122.392,
                47.666630000099495
            ],
            [
                -122.392,
                47.666620055007535
            ],
            [
                -122.392,
                47.66662001489179
            ],
            [
                -122.392,
                47.66662329739129
            ],
            [
                -122.392,
                47.66662000008347
            ],
            [
                -122.392,
                47.66662
            ],
            [
                -122.39199999999997,
                47.66661999999999
            ],
            [
                -122.392,
                47.66662000000013
            ],
            [
                -122.392,
                47.66662002379328
            ],
            [
                -122.39199999999998,
                47.66661991975512
            ],
            [
                -122.39200000000002,
                47.66661999999758
            ],
            [
                -122.39200000000002,
                47.666619999999995
            ],
            [
                -122.39199999999998,
                47.66661999968633
            ],
            [
                -122.39200000000002,
                47.66663103439976
            ],
            [
                -122.39200000000002,
                47.666623581069565
            ],
            [
                -122.39200000000002,
                47.666620000080876
            ],
            [
                -122.39199999999998,
                47.66662
            ],
            [
                -122.39200000000002,
                47.666619999999995
            ],
            [
                -122.39200000000001,
                47.66662000005264
            ],
            [
                -122.39200000000001,
                47.66662856060186
            ],
            [
                -122.392,
                47.66662996773722
            ],
            [
                -122.39200000000001,
                47.66662000412227
            ],
            [
                -122.39200000000001,
                47.666620000000194
            ],
            [
                -122.392,
                47.666619999999995
            ],
            [
                -122.39200000000001,
                47.66662000000001
            ],
            [
                -122.39199999999998,
                47.66662
            ],
            [
                -122.392,
                47.66662
            ],
            [
                -122.392,
                47.66662
            ],
            [
                -122.39199999999998,
                47.666619999999995
            ],
            [
                -122.39199999999998,
                47.666620000000115
            ],
            [
                -122.392,
                47.666620006949785
            ],
            [
                -122.39199999999995,
                47.666622700615974
            ],
            [
                -122.392,
                47.66662000010959
            ],
            [
                -122.39200000000001,
                47.666620000000016
            ],
            [
                -122.39199999999998,
                47.666619999999995
            ],
            [
                -122.39199999999998,
                47.666619999999995
            ],
            [
                -122.392,
                47.66661999996087
            ],
            [
                -122.392,
                47.66661885312556
            ],
            [
                -122.39199999999998,
                47.66661925549268
            ],
            [
                -122.39200000000001,
                47.666619999976504
            ],
            [
                -122.39199999999998,
                47.66662
            ],
            [
                -122.392,
                47.66662
            ],
            [
                -122.39200000000001,
                47.66662000000001
            ],
            [
                -122.392,
                47.66662
            ],
            [
                -122.39200000000001,
                47.66662000000001
            ],
            [
                -122.39199999999997,
                47.666619999999995
            ],
            [
                -122.392,
                47.66662
            ],
            [
                -122.392,
                47.666619999999995
            ],
            [
                -122.39199999999998,
                47.666619999999995
            ],
            [
                -122.392,
                47.666619999999995
            ],
            [
                -122.39200000000001,
                47.666620000000016
            ],
            [
                -122.392,
                47.66662
            ],
            [
                -122.39200000000001,
                47.66662000000001
            ],
            [
                -122.392,
                47.66662
            ],
            [
                -122.39200000000001,
                47.666620000000016
            ],
            [
                -122.39200000000001,
                47.66662000000001
            ],
            [
                -122.392,
                47.66662000000001
            ],
            [
                -122.39199999999997,
                47.66661999999999
            ],
            [
                -122.392,
                47.66662
            ],
            [
                -122.392,
                47.66662000000001
            ],
            [
                -122.39199999999998,
                47.666619999999995
            ],
            [
                -122.39199999999998,
                47.66661999999999
            ],
            [
                -122.392,
                47.666619999999995
            ],
            [
                -122.39199999999997,
                47.666619999999995
            ],
            [
                -122.39200000000001,
                47.666620000000016
            ],
            [
                -122.392,
                47.66662
            ],
            [
                -122.392,
                47.66662
            ],
            [
                -122.39200000000001,
                47.66662000000001
            ],
            [
                -122.39199999999994,
                47.66662
            ],
            [
                -122.39199999999998,
                47.66662
            ],
            [
                -122.392,
                47.666619999999995
            ],
            [
                -122.39199999999998,
                47.66662
            ],
            [
                -122.39199999999997,
                47.666619999999995
            ],
            [
                -122.392,
                47.66662
            ]
        ]
    },
    "properties": {
        "trajectory_id": 3608,
        "object_id": 367598820,
        "label": "TUG"
    }
}