{
    "type": "Feature",
    "geometry": {
        "type": "LineString",
        "coordinates": [
            [
                -122.34956,
                47.97635
            ],
            [
                -122.34958922623258,
                47.976399056328574
            ],
            [
                -122.34960098777857,
                47.97637473586809
            ],
            [
                -122.34956351643781,
                47.97636776841101
            ],
            [
                -122.34957998122398,
                47.976321667118334
            ],
            [
                -122.3495700209838,
                47.9763796507389
            ],
            [
                -122.34957999299779,
                47.9763401331058
            ],
            [
                -122.349525608284,
                47.97635343503826
            ],
            [
                -122.33300526793947,
                47.977037074430164
            ],
            [
                -122.29848469475822,
                47.9540158078686
            ],
            [
                -122.2971968524621,
                47.95086778222491
            ],
            [
                -122.3218236618228,
                47.95760875136607
            ],
            [
                -122.34915390262245,
                47.97459064796793
            ],
            [
                -122.34912771479372,
                47.97460729641499
            ],
            [
                -122.3251909006799,
                47.96665571616094
            ],
            [
                -122.29721147147244,
                47.95089604023737
            ],
            [
                -122.29719309944588,
                47.950870928635574
            ],
            [
                -122.31097847320129,
                47.956053173365675
            ],
            [
                -122.34513367533938,
                47.96995224208748
            ],
            [
                -122.34916883057355,
                47.97460911361364
            ],
            [
                -122.34880388846446,
                47.97411895675331
            ],
            [
                -122.30465385715746,
                47.96068789675354
            ],
            [
                -122.29723783471613,
                47.95088894695043
            ],
            [
                -122.29723996812088,
                47.950967275358394
            ],
            [
                -122.3367191357828,
                47.9616797564192
            ],
            [
                -122.34915038641537,
                47.97462898190231
            ],
            [
                -122.34915896382294,
                47.97464214848171
            ],
            [
                -122.33623473684727,
                47.968487079803694
            ],
            [
                -122.29733160777675,
                47.951356353607984
            ],
            [
                -122.2972099792097,
                47.950890303272786
            ],
            [
                -122.29953648923089,
                47.95355863168205
            ],
            [
                -122.34030740309376,
                47.9642868770701
            ],
            [
                -122.34914184216787,
                47.97463050221469
            ],
            [
                -122.34920848797658,
                47.97468183522999
            ],
            [
                -122.31802279188464,
                47.96410905117306
            ],
            [
                -122.29720872564954,
                47.9508800863869
            ],
            [
                -122.29720847383301,
                47.95089286457703
            ],
            [
                -122.32404975853404,
                47.958764552832776
            ],
            [
                -122.34919996522488,
                47.97462170304375
            ],
            [
                -122.34921010331618,
                47.97462958777085
            ],
            [
                -122.3426062729166,
                47.97095386528124
            ],
            [
                -122.29812128973224,
                47.95323864407714
            ],
            [
                -122.29720987742668,
                47.95088976484648
            ],
            [
                -122.29870313522446,
                47.952626482839925
            ],
            [
                -122.34511450959143,
                47.96941026960213
            ],
            [
                -122.34915560971542,
                47.974623066170174
            ],
            [
                -122.34912821514828,
                47.97462079452519
            ],
            [
                -122.31612849207478,
                47.963851366385654
            ],
            [
                -122.29718986259202,
                47.95090991511879
            ],
            [
                -122.29719980191575,
                47.95087990855203
            ],
            [
                -122.31230806672357,
                47.95227038488293
            ],
            [
                -122.34814553864479,
                47.973251677834966
            ],
            [
                -122.34916932745188,
                47.97462629193969
            ],
            [
                -122.34828897153746,
                47.97339356646686
            ],
            [
                -122.30180811033598,
                47.95657224985931
            ],
            [
                -122.29719969172656,
                47.95088006662683
            ],
            [
                -122.29721239447638,
                47.95089739365306
            ],
            [
                -122.33100465290414,
                47.95779777190594
            ],
            [
                -122.34911793830618,
                47.97452449706404
            ],
            [
                -122.34916241568754,
                47.9745552638942
            ],
            [
                -122.32549956183651,
                47.963859300902364
            ],
            [
                -122.29722100692148,
                47.95089108741247
            ],
            [
                -122.29721979968117,
                47.950878997255764
            ],
            [
                -122.3090173964501,
                47.95547481469075
            ],
            [
                -122.34823651256477,
                47.97346129211525
            ],
            [
                -122.34916523548425,
                47.97458886979875
            ],
            [
                -122.34919302381476,
                47.97437656721089
            ],
            [
                -122.30455449127422,
                47.95971503025701
            ],
            [
                -122.2972195652823,
                47.95085164231625
            ],
            [
                -122.29721027561811,
                47.95086362067051
            ],
            [
                -122.30366553598166,
                47.95385647004763
            ],
            [
                -122.34721934805266,
                47.972827524514884
            ],
            [
                -122.3491508936642,
                47.97461015300957
            ],
            [
                -122.3491844760798,
                47.974670680787845
            ],
            [
                -122.31415911608562,
                47.96296105671273
            ],
            [
                -122.29722186618982,
                47.950877550925895
            ],
            [
                -122.29721245722142,
                47.95087865687834
            ],
            [
                -122.31424193937353,
                47.955515938744995
            ],
            [
                -122.34911093378672,
                47.974520577245976
            ],
            [
                -122.34919,
                47.97462
            ]
        ]
    },
    "properties": {
        "trajectory_id": 3623,
        "object_id": 367608860,
        "label": "PASSENGER"
    }
}