{
    "type": "Feature",
    "geometry": {
        "type": "LineString",
        "coordinates": [
            [
                -122.38248,
                47.65763
            ],
            [
                -122.38238197025537,
                47.65765294254481
            ],
            [
                -122.38241772879675,
                47.65765091527197
            ],
            [
                -122.38238970112262,
                47.65764783760347
            ],
            [
                -122.38239160008324,
                47.657667668150495
            ],
            [
                -122.38234894385145,
                47.65762536204786
            ],
            [
                -122.38237835659858,
                47.657658299958996
            ],
            [
                -122.38239871331406,
                47.65772665928898
            ],
            [
                -122.38240658467006,
                47.65764351207798
            ],
            [
                -122.38239213824173,
                47.65771470057798
            ],
            [
                -122.38237781733883,
                47.65764275952982
            ],
            [
                -122.38243235518998,
                47.6576421461069
            ],
            [
                -122.3824334144324,
                47.65763242619614
            ],
            [
                -122.38242307013928,
                47.65765084867486
            ],
            [
                -122.3824156788499,
                47.65764408262005
            ],
            [
                -122.38239111739868,
                47.657676624232
            ],
            [
                -122.3823890765771,
                47.65765757135222
            ],
            [
                -122.38240121576062,
                47.657661850181036
            ],
            [
                -122.38237286049058,
                47.65767050729143
            ],
            [
                -122.38238180159345,
                47.65768243457904
            ],
            [
                -122.38241247150506,
                47.657659061308806
            ],
            [
                -122.38240619337863,
                47.65768672081156
            ],
            [
                -122.38240809444727,
                47.65764557892916
            ],
            [
                -122.38242720914948,
                47.657669451480295
            ],
            [
                -122.38237108296427,
                47.65766423280724
            ],
            [
                -122.38240866263892,
                47.65769417603101
            ],
            [
                -122.38238938655407,
                47.65763847078899
            ],
            [
                -122.38240570544689,
                47.65768530124435
            ],
            [
                -122.38244448026505,
                47.65752839975787
            ],
            [
                -122.38241779158878,
                47.657657389331035
            ],
            [
                -122.38243880924387,
                47.65768034938692
            ],
            [
                -122.38243289138921,
                47.65759309443196
            ],
            [
                -122.38241320129984,
                47.6576466926228
            ],
            [
                -122.38240651855139,
                47.65764259209341
            ],
            [
                -122.38241969002262,
                47.65761934300576
            ],
            [
                -122.382425307131,
                47.65762107055325
            ],
            [
                -122.38243222469708,
                47.65766746260934
            ],
            [
                -122.3824398441697,
                47.657660021524315
            ],
            [
                -122.38238353627403,
                47.65767298331977
            ],
            [
                -122.38241536496317,
                47.65767821848081
            ],
            [
                -122.38243044241133,
                47.65764550910763
            ],
            [
                -122.38241716545251,
                47.6577408947212
            ],
            [
                -122.38241608744711,
                47.65765938386494
            ],
            [
                -122.3823920252256,
                47.65770767320885
            ],
            [
                -122.38243364089645,
                47.65772967844349
            ],
            [
                -122.38236828470322,
                47.65765442636902
            ],
            [
                -122.3823514852353,
                47.65767796553677
            ],
            [
                -122.3823756564571,
                47.657704371106156
            ],
            [
                -122.38232742851451,
                47.65774593724608
            ],
            [
                -122.38236959334743,
                47.65765464496067
            ],
            [
                -122.38232152726573,
                47.65766641013215
            ],
            [
                -122.38231330186795,
                47.657679999982356
            ],
            [
                -122.38231170306756,
                47.657685083634284
            ],
            [
                -122.3823797693185,
                47.65765451466896
            ],
            [
                -122.38240746431978,
                47.657685026945735
            ],
            [
                -122.3823342957215,
                47.65762438892633
            ],
            [
                -122.38237067989176,
                47.6576586276712
            ],
            [
                -122.38241818597008,
                47.65768655930299
            ],
            [
                -122.38239512444338,
                47.657677534282946
            ],
            [
                -122.38236221743665,
                47.657606910016355
            ],
            [
                -122.38236882568108,
                47.65769873858043
            ],
            [
                -122.38242317985451,
                47.65764801818183
            ],
            [
                -122.3824383798171,
                47.65765092015465
            ],
            [
                -122.38243980996712,
                47.65763891773605
            ],
            [
                -122.38242155948208,
                47.65763541324886
            ],
            [
                -122.38241953595247,
                47.65765018556266
            ],
            [
                -122.38237493342767,
                47.657664578704306
            ],
            [
                -122.38239049982414,
                47.65763406777677
            ],
            [
                -122.38238883459431,
                47.657629411609136
            ],
            [
                -122.38241912092691,
                47.65768977018946
            ],
            [
                -122.38240929770707,
                47.657618957496254
            ],
            [
                -122.38240248886183,
                47.65766013031866
            ],
            [
                -122.38243002735807,
                47.657682572411254
            ],
            [
                -122.3824282117785,
                47.657665302932
            ],
            [
                -122.38247182677738,
                47.65763976417664
            ],
            [
                -122.38244748865645,
                47.657679916337194
            ],
            [
                -122.38239435428363,
                47.65766532147503
            ],
            [
                -122.38245096162461,
                47.657659887524474
            ],
            [
                -122.38239075496476,
                47.65766527233685
            ],
            [
                -122.38233,
                47.65774
            ]
        ]
    },
    "properties": {
        "trajectory_id": 3711,
        "object_id": 367666190,
        "label": "FISHING"
    }
}