{
    "type": "Feature",
    "geometry": {
        "type": "LineString",
        "coordinates": [
            [
                -122.37887,
                47.65592
            ],
            [
                -122.37882004561013,
                47.65595990443367
            ],
            [
                -122.37889640919734,
                47.65589833196622
            ],
            [
                -122.37886148351953,
                47.6559419229639
            ],
            [
                -122.37887976452807,
                47.655921482675154
            ],
            [
                -122.37883381682168,
                47.65595552350902
            ],
            [
                -122.37882778108985,
                47.65592131008618
            ],
            [
                -122.37885039520619,
                47.65597982557043
            ],
            [
                -122.37887996545558,
                47.65594089036075
            ],
            [
                -122.37887038255968,
                47.65592646351791
            ],
            [
                -122.37882964664104,
                47.65592465329184
            ],
            [
                -122.37886184538708,
                47.655921537621694
            ],
            [
                -122.37885087384791,
                47.655932122991004
            ],
            [
                -122.37884894631358,
                47.65593891467579
            ],
            [
                -122.37883725417292,
                47.65593112370093
            ],
            [
                -122.3788610166562,
                47.65593055715556
            ],
            [
                -122.37888096256135,
                47.655949256726004
            ],
            [
                -122.37884641093609,
                47.655932065416806
            ],
            [
                -122.37886352578253,
                47.6559284596544
            ],
            [
                -122.37888586520302,
                47.655910906382935
            ],
            [
                -122.3788713288161,
                47.65592594419021
            ],
            [
                -122.37891981449584,
                47.65593085097195
            ],
            [
                -122.37889870143285,
                47.65593658087244
            ],
            [
                -122.37890125403244,
                47.6559591186036
            ],
            [
                -122.37887060713697,
                47.655919906364964
            ],
            [
                -122.37888453602869,
                47.655906547109076
            ],
            [
                -122.37891914418053,
                47.65590849374033
            ],
            [
                -122.37887933500295,
                47.65590621382005
            ],
            [
                -122.37885811162108,
                47.65593234353837
            ],
            [
                -122.37886946701377,
                47.65589921508002
            ],
            [
                -122.37889663865154,
                47.65591023804229
            ],
            [
                -122.3788645317764,
                47.65593381587764
            ],
            [
                -122.37886023843353,
                47.65591969583955
            ],
            [
                -122.37889619707501,
                47.65594965315271
            ],
            [
                -122.37883793981831,
                47.65591428448259
            ],
            [
                -122.37887025176757,
                47.655939423414544
            ],
            [
                -122.37884945536406,
                47.65589908344863
            ],
            [
                -122.37892483284925,
                47.65591589308023
            ],
            [
                -122.37888973300771,
                47.65593141378631
            ],
            [
                -122.37884199801677,
                47.65590019352484
            ],
            [
                -122.37884780347102,
                47.655924032088876
            ],
            [
                -122.3788486984465,
                47.65598762458478
            ],
            [
                -122.37884010500613,
                47.655900046127975
            ],
            [
                -122.37888935315712,
                47.655933000183566
            ],
            [
                -122.37884614781572,
                47.65593575568008
            ],
            [
                -122.3788196508609,
                47.655912302033514
            ],
            [
                -122.3788458556271,
                47.65592559858226
            ],
            [
                -122.37886905135056,
                47.65590959585646
            ],
            [
                -122.37884809315075,
                47.65596489946785
            ],
            [
                -122.378881935843,
                47.655952123219635
            ],
            [
                -122.37887968159762,
                47.6559601864262
            ],
            [
                -122.3788298418866,
                47.65594687399459
            ],
            [
                -122.37890943630482,
                47.65591010836456
            ],
            [
                -122.37883906862211,
                47.65591158170796
            ],
            [
                -122.37888781453492,
                47.65591787973267
            ],
            [
                -122.37888889978157,
                47.65589095264537
            ],
            [
                -122.37880161857478,
                47.65587512039735
            ],
            [
                -122.37887302925232,
                47.65593156595349
            ],
            [
                -122.37880503533978,
                47.655878946090446
            ],
            [
                -122.37889236646423,
                47.65592163138305
            ],
            [
                -122.37887702898009,
                47.655916886666624
            ],
            [
                -122.37887191510706,
                47.65586127596328
            ],
            [
                -122.37890115672937,
                47.65590203697613
            ],
            [
                -122.37887408672924,
                47.65592477691266
            ],
            [
                -122.37886245246776,
                47.655912804501696
            ],
            [
                -122.3788895405537,
                47.655949877162314
            ],
            [
                -122.37889731444717,
                47.65589918587279
            ],
            [
                -122.37885453249257,
                47.65599872761103
            ],
            [
                -122.37888672981873,
                47.655898985767074
            ],
            [
                -122.37887195422529,
                47.65593600276335
            ],
            [
                -122.37887409509652,
                47.65589085565569
            ],
            [
                -122.37886676085719,
                47.65592371924586
            ],
            [
                -122.37886208865257,
                47.65594218352421
            ],
            [
                -122.37884039482896,
                47.655935529510415
            ],
            [
                -122.3788157885592,
                47.65591124128844
            ],
            [
                -122.37880245543329,
                47.65592565188619
            ],
            [
                -122.37890187843598,
                47.65591010416186
            ],
            [
                -122.3788787089677,
                47.65593027669074
            ],
            [
                -122.3788668221712,
                47.65594900982888
            ],
            [
                -122.37895,
                47.65594
            ]
        ]
    },
    "properties": {
        "trajectory_id": 3741,
        "object_id": 367676010,
        "label": "FISHING"
    }
}