{
    "type": "Feature",
    "geometry": {
        "type": "LineString",
        "coordinates": [
            [
                -122.3789,
                47.65594
            ],
            [
                -122.37885539838682,
                47.65592964189161
            ],
            [
                -122.37886849058238,
                47.65590854358854
            ],
            [
                -122.37887998325552,
                47.65590990133929
            ],
            [
                -122.3788735155515,
                47.655922966843164
            ],
            [
                -122.37886562828102,
                47.65591467037863
            ],
            [
                -122.37884110845314,
                47.65589145315826
            ],
            [
                -122.37885180820885,
                47.655960003105456
            ],
            [
                -122.37890077752448,
                47.6558974486949
            ],
            [
                -122.37884180489466,
                47.655889451332996
            ],
            [
                -122.37885878633627,
                47.655914793197134
            ],
            [
                -122.37889839239193,
                47.655953323926056
            ],
            [
                -122.37887034572437,
                47.65594345031733
            ],
            [
                -122.37886293633586,
                47.65593109258432
            ],
            [
                -122.37885543303742,
                47.655951776611914
            ],
            [
                -122.37887476490855,
                47.655921948395765
            ],
            [
                -122.37880443812128,
                47.65592749122906
            ],
            [
                -122.3788657256653,
                47.65593832741366
            ],
            [
                -122.37889894996158,
                47.655923441172035
            ],
            [
                -122.37890963142294,
                47.65590536052113
            ],
            [
                -122.37888429259459,
                47.65595244122268
            ],
            [
                -122.37889975788833,
                47.655935706694365
            ],
            [
                -122.37891122401788,
                47.655932671104985
            ],
            [
                -122.37885003252144,
                47.65594003793622
            ],
            [
                -122.37886900313097,
                47.65595076980966
            ],
            [
                -122.37885322798836,
                47.65593236069407
            ],
            [
                -122.37887235015121,
                47.655931662314536
            ],
            [
                -122.37890889615343,
                47.655910834907715
            ],
            [
                -122.3788871929775,
                47.65592846157252
            ],
            [
                -122.37888349540741,
                47.655921783105256
            ],
            [
                -122.37887059676264,
                47.65593177835085
            ],
            [
                -122.37885872158247,
                47.65595101939344
            ],
            [
                -122.37882795887687,
                47.65589999140013
            ],
            [
                -122.37889940143158,
                47.65591270897313
            ],
            [
                -122.37886707395661,
                47.65591693896078
            ],
            [
                -122.37887967633401,
                47.65592440282778
            ],
            [
                -122.37885117525343,
                47.655918994731934
            ],
            [
                -122.37886941946819,
                47.65588736692601
            ],
            [
                -122.3788614231121,
                47.65591455369651
            ],
            [
                -122.37884713645472,
                47.65591544557578
            ],
            [
                -122.3788791125658,
                47.65590007478647
            ],
            [
                -122.37884987361032,
                47.655950098467294
            ],
            [
                -122.3788537102711,
                47.655934341336184
            ],
            [
                -122.378893076505,
                47.65592234050687
            ],
            [
                -122.37888597028376,
                47.65594986870178
            ],
            [
                -122.37885174861476,
                47.65592462136708
            ],
            [
                -122.3788660512614,
                47.65594590615647
            ],
            [
                -122.37888954814333,
                47.65594033043496
            ],
            [
                -122.37885738760906,
                47.655957683206395
            ],
            [
                -122.37888561376282,
                47.655943186290465
            ],
            [
                -122.37884314764156,
                47.655926507033406
            ],
            [
                -122.3788979895765,
                47.655908225921166
            ],
            [
                -122.37887056278652,
                47.65591099974488
            ],
            [
                -122.37886856269229,
                47.65591889614079
            ],
            [
                -122.37886529896682,
                47.655929882594904
            ],
            [
                -122.37891984310528,
                47.65588604012667
            ],
            [
                -122.37884857779942,
                47.655909285214285
            ],
            [
                -122.37883097857737,
                47.655917661199936
            ],
            [
                -122.3788298853939,
                47.65592177196092
            ],
            [
                -122.37886321271253,
                47.65591876081047
            ],
            [
                -122.37885827327072,
                47.65589956452602
            ],
            [
                -122.37888622161381,
                47.655893524257614
            ],
            [
                -122.37885264518633,
                47.65592816490493
            ],
            [
                -122.37887161927453,
                47.65591014304068
            ],
            [
                -122.37886445265511,
                47.65592212883388
            ],
            [
                -122.37885979287798,
                47.655901838850625
            ],
            [
                -122.37889310253605,
                47.655904973464075
            ],
            [
                -122.37888846051975,
                47.655910133875416
            ],
            [
                -122.3788711106136,
                47.655950795674684
            ],
            [
                -122.37886775979088,
                47.655935204858
            ],
            [
                -122.37889280874806,
                47.65592541192409
            ],
            [
                -122.37888132662961,
                47.6559285913452
            ],
            [
                -122.37888166228177,
                47.655929935025185
            ],
            [
                -122.37887195108178,
                47.65591732251159
            ],
            [
                -122.37888104646584,
                47.65593442093067
            ],
            [
                -122.37884900843963,
                47.65592250861471
            ],
            [
                -122.3788696809064,
                47.65598004133926
            ],
            [
                -122.3788552872402,
                47.65594456454683
            ],
            [
                -122.3788838560675,
                47.65593188682724
            ],
            [
                -122.37883,
                47.65595
            ]
        ]
    },
    "properties": {
        "trajectory_id": 3743,
        "object_id": 367676010,
        "label": "FISHING"
    }
}