{
    "type": "Feature",
    "geometry": {
        "type": "LineString",
        "coordinates": [
            [
                -122.38139,
                47.65936
            ],
            [
                -122.38141269146996,
                47.659349946889634
            ],
            [
                -122.38148230825313,
                47.65933248528386
            ],
            [
                -122.38141797091222,
                47.659382799478365
            ],
            [
                -122.38133743038767,
                47.659426786654635
            ],
            [
                -122.38135843761975,
                47.65939034399409
            ],
            [
                -122.38138879588769,
                47.65937023153543
            ],
            [
                -122.38137914930657,
                47.659370930173374
            ],
            [
                -122.38138085777577,
                47.659379820685906
            ],
            [
                -122.38137984142696,
                47.6593696527877
            ],
            [
                -122.38138020485121,
                47.65937943150506
            ],
            [
                -122.3813815305693,
                47.659398355685326
            ],
            [
                -122.38139392645812,
                47.65938108553707
            ],
            [
                -122.38137968162455,
                47.659359334794594
            ],
            [
                -122.38138982586496,
                47.65936921909985
            ],
            [
                -122.38137160676126,
                47.65937880303962
            ],
            [
                -122.38137632569503,
                47.65935425907852
            ],
            [
                -122.38138168633996,
                47.659379053206074
            ],
            [
                -122.38137763771364,
                47.659377722058295
            ],
            [
                -122.38140007481887,
                47.659360277949666
            ],
            [
                -122.38138471005287,
                47.659393384917905
            ],
            [
                -122.38136926653353,
                47.65935698296138
            ],
            [
                -122.38138694771223,
                47.65938872136024
            ],
            [
                -122.38138676377638,
                47.659359644120165
            ],
            [
                -122.3813900239482,
                47.65936033100376
            ],
            [
                -122.38139864738363,
                47.659371142368386
            ],
            [
                -122.38139827420314,
                47.659353706551
            ],
            [
                -122.38138194634544,
                47.65935623252295
            ],
            [
                -122.38137155838498,
                47.65935686156227
            ],
            [
                -122.38139006891173,
                47.659359745916866
            ],
            [
                -122.38138834265534,
                47.659358345912466
            ],
            [
                -122.38138004083282,
                47.65938288077637
            ],
            [
                -122.38140146452916,
                47.65934877268976
            ],
            [
                -122.38137981804879,
                47.659358618855805
            ],
            [
                -122.38138713013002,
                47.659357526113375
            ],
            [
                -122.38134913680086,
                47.65932993982911
            ],
            [
                -122.38138003069824,
                47.6593606083559
            ],
            [
                -122.38138135774321,
                47.65936739504876
            ],
            [
                -122.38137005736436,
                47.65937239882456
            ],
            [
                -122.38139712825553,
                47.659398354031396
            ],
            [
                -122.38135396186564,
                47.6594013125837
            ],
            [
                -122.38138188261875,
                47.6593683744452
            ],
            [
                -122.38135880705497,
                47.65938012458296
            ],
            [
                -122.38136709581181,
                47.65937950463323
            ],
            [
                -122.38135119828503,
                47.65933725850375
            ],
            [
                -122.38137309781342,
                47.659379444126444
            ],
            [
                -122.3813714966081,
                47.659354294996376
            ],
            [
                -122.38137863162778,
                47.65936367887152
            ],
            [
                -122.38137198710602,
                47.659351658677835
            ],
            [
                -122.38135056560822,
                47.65935063306916
            ],
            [
                -122.38139915812356,
                47.65938202391119
            ],
            [
                -122.38142069441028,
                47.659370269911236
            ],
            [
                -122.38137853641238,
                47.659372047965135
            ],
            [
                -122.38140863605821,
                47.659351188428886
            ],
            [
                -122.38136038993684,
                47.65937879675557
            ],
            [
                -122.38136865776936,
                47.65932716959172
            ],
            [
                -122.38141924380552,
                47.65935861896944
            ],
            [
                -122.38140573214548,
                47.65933772789201
            ],
            [
                -122.38138686878045,
                47.6593575787402
            ],
            [
                -122.3814092536821,
                47.65934956423347
            ],
            [
                -122.3814041651752,
                47.65936223655279
            ],
            [
                -122.38141001882835,
                47.65937109025335
            ],
            [
                -122.3813934848609,
                47.65936067087287
            ],
            [
                -122.38138378452442,
                47.65935579920342
            ],
            [
                -122.38139958442063,
                47.659369857626274
            ],
            [
                -122.38139515825992,
                47.65936394273104
            ],
            [
                -122.38139826058206,
                47.659360381209574
            ],
            [
                -122.38141174243101,
                47.659362467105424
            ],
            [
                -122.38140086123266,
                47.659370768557025
            ],
            [
                -122.38137209686936,
                47.65935893697538
            ],
            [
                -122.38140508520189,
                47.65937109516829
            ],
            [
                -122.38140174740361,
                47.6593715049428
            ],
            [
                -122.3814144098807,
                47.659369326146845
            ],
            [
                -122.38138887807395,
                47.65935893034391
            ],
            [
                -122.38137667997205,
                47.65936890371968
            ],
            [
                -122.38141640963634,
                47.65935273799039
            ],
            [
                -122.38140040128496,
                47.659370135042785
            ],
            [
                -122.38137006621841,
                47.65935020206164
            ],
            [
                -122.38138531073568,
                47.659353875150515
            ],
            [
                -122.3814,
                47.65935
            ]
        ]
    },
    "properties": {
        "trajectory_id": 3769,
        "object_id": 367705000,
        "label": "FISHING"
    }
}