{
    "type": "Feature",
    "geometry": {
        "type": "LineString",
        "coordinates": [
            [
                -122.806,
                48.20196
            ],
            [
                -122.79923690856795,
                48.18894839186467
            ],
            [
                -122.78909441961055,
                48.17712187733293
            ],
            [
                -122.77269291244528,
                48.16779441794818
            ],
            [
                -122.75613962237597,
                48.1586579038288
            ],
            [
                -122.73916213248802,
                48.14794715267112
            ],
            [
                -122.72259322670018,
                48.13790746445787
            ],
            [
                -122.70522289481808,
                48.12811769672392
            ],
            [
                -122.68846011951563,
                48.11834201281044
            ],
            [
                -122.67275276114815,
                48.10746474717083
            ],
            [
                -122.66746225350275,
                48.093700965279034
            ],
            [
                -122.66413015803569,
                48.08165684495864
            ],
            [
                -122.65942126518307,
                48.06927214589468
            ],
            [
                -122.6545414552374,
                48.05666589174713
            ],
            [
                -122.64987005193385,
                48.043078753997776
            ],
            [
                -122.64513277885028,
                48.03031071819352
            ],
            [
                -122.63639805126407,
                48.01804408908227
            ],
            [
                -122.62726967390358,
                48.00595472203999
            ],
            [
                -122.617377067457,
                47.99301766863971
            ],
            [
                -122.60674792523481,
                47.979692639493045
            ],
            [
                -122.59390596359684,
                47.96768813923717
            ],
            [
                -122.57807329168537,
                47.956101675052544
            ],
            [
                -122.56074390630822,
                47.94634422966874
            ],
            [
                -122.5414222328039,
                47.93642809193441
            ],
            [
                -122.52263372549287,
                47.92736888275149
            ],
            [
                -122.50540023756272,
                47.91806010490814
            ],
            [
                -122.49762196226985,
                47.9041528080729
            ],
            [
                -122.49234561082388,
                47.8895306763861
            ],
            [
                -122.48650518915534,
                47.87474510795635
            ],
            [
                -122.48140758013272,
                47.85936664826485
            ],
            [
                -122.47638528108995,
                47.844534448558775
            ],
            [
                -122.47141875049374,
                47.83021353919419
            ],
            [
                -122.46641823756099,
                47.81543817662579
            ],
            [
                -122.46160628453961,
                47.800117783288854
            ],
            [
                -122.4565840920417,
                47.785066761631946
            ],
            [
                -122.4525767883808,
                47.771235950064124
            ],
            [
                -122.45341434176484,
                47.75776914053643
            ],
            [
                -122.45568646667066,
                47.74425106717503
            ],
            [
                -122.45893197162387,
                47.73054588992244
            ],
            [
                -122.46298455851425,
                47.71689230063263
            ],
            [
                -122.4666212586802,
                47.703153155258796
            ],
            [
                -122.46852952288646,
                47.68950271284086
            ],
            [
                -122.4719706027052,
                47.6765974470174
            ],
            [
                -122.47377212091516,
                47.66334278632397
            ],
            [
                -122.46477914980329,
                47.65126633620319
            ],
            [
                -122.45087808145621,
                47.64123988489254
            ],
            [
                -122.43615733464222,
                47.63158406412637
            ],
            [
                -122.41736918353641,
                47.624835582934246
            ],
            [
                -122.39943415696266,
                47.61724742329537
            ],
            [
                -122.38146711164646,
                47.60915349330413
            ],
            [
                -122.36631578662106,
                47.60093931457602
            ],
            [
                -122.3597807910018,
                47.59716173956193
            ],
            [
                -122.3573923015818,
                47.59642848462364
            ],
            [
                -122.34631026644357,
                47.592233216224216
            ],
            [
                -122.34370763376059,
                47.58704600696416
            ],
            [
                -122.34332822923706,
                47.58711348173301
            ],
            [
                -122.34354442340113,
                47.586793652536095
            ],
            [
                -122.34517049790242,
                47.573337813176046
            ],
            [
                -122.34519172101412,
                47.57328014905136
            ],
            [
                -122.34522482559724,
                47.57327460587473
            ],
            [
                -122.34525576551323,
                47.57326344445538
            ],
            [
                -122.34521556727118,
                47.57328086519673
            ],
            [
                -122.34523412432199,
                47.573271601189745
            ],
            [
                -122.34523090773757,
                47.57327476973881
            ],
            [
                -122.34522926404256,
                47.5732766392644
            ],
            [
                -122.3451994561564,
                47.57329321630284
            ],
            [
                -122.3451992042891,
                47.573277441025795
            ],
            [
                -122.34520485643675,
                47.57328407137378
            ],
            [
                -122.3451827844358,
                47.57329465109294
            ],
            [
                -122.34518592156589,
                47.57328802499871
            ],
            [
                -122.34519424643669,
                47.573309854921035
            ],
            [
                -122.34521277635503,
                47.5733245106863
            ],
            [
                -122.34528854463696,
                47.57345434614669
            ],
            [
                -122.34520937701367,
                47.573323025579015
            ],
            [
                -122.34518011557215,
                47.573300349616325
            ],
            [
                -122.34518874340951,
                47.5732998557814
            ],
            [
                -122.34520260760758,
                47.57329188050314
            ],
            [
                -122.34519958505744,
                47.573281375894624
            ],
            [
                -122.34518978713639,
                47.573290039283755
            ],
            [
                -122.34517,
                47.57328
            ]
        ]
    },
    "properties": {
        "trajectory_id": 3777,
        "object_id": 367705050,
        "label": "TOWING"
    }
}