{
    "type": "Feature",
    "geometry": {
        "type": "LineString",
        "coordinates": [
            [
                -122.39648,
                47.26824
            ],
            [
                -122.38490022417896,
                47.26130228326887
            ],
            [
                -122.37878347037174,
                47.25610265800587
            ],
            [
                -122.37729411330737,
                47.25484154742283
            ],
            [
                -122.37748750447251,
                47.25478568939597
            ],
            [
                -122.3774797017263,
                47.25476772667238
            ],
            [
                -122.37733813900533,
                47.2547865925951
            ],
            [
                -122.37731375436196,
                47.2547676751201
            ],
            [
                -122.37736097027077,
                47.254627432426346
            ],
            [
                -122.37734098249595,
                47.25443151081417
            ],
            [
                -122.37734140832967,
                47.25451095470051
            ],
            [
                -122.37735387317264,
                47.2546751587426
            ],
            [
                -122.37750046442109,
                47.25479509438122
            ],
            [
                -122.37737194873044,
                47.25474854068404
            ],
            [
                -122.37733920481135,
                47.25476747909021
            ],
            [
                -122.37736957772806,
                47.25470960735382
            ],
            [
                -122.37738374916792,
                47.25479879512723
            ],
            [
                -122.3774590006986,
                47.25480065787735
            ],
            [
                -122.37743466833038,
                47.25480132125483
            ],
            [
                -122.37740530612929,
                47.25484399322883
            ],
            [
                -122.3774304594392,
                47.25477622688093
            ],
            [
                -122.37737990391037,
                47.254756206030166
            ],
            [
                -122.37740804608698,
                47.25476597735555
            ],
            [
                -122.37737397448,
                47.25476287133901
            ],
            [
                -122.37742048987963,
                47.254816305004496
            ],
            [
                -122.37743467853689,
                47.25480213528762
            ],
            [
                -122.37734430898529,
                47.25472561153852
            ],
            [
                -122.37731917381505,
                47.254817819266954
            ],
            [
                -122.37735098448412,
                47.254777373779795
            ],
            [
                -122.37737889882452,
                47.25477871367361
            ],
            [
                -122.37739647934993,
                47.25484405973821
            ],
            [
                -122.3774620254291,
                47.25483645565135
            ],
            [
                -122.37738794404446,
                47.254773333001104
            ],
            [
                -122.37736383797916,
                47.25473345134809
            ],
            [
                -122.37743200466304,
                47.25475279853568
            ],
            [
                -122.37741633166281,
                47.254717712937705
            ],
            [
                -122.37742271381285,
                47.25473921336214
            ],
            [
                -122.37747896105986,
                47.254682916615316
            ],
            [
                -122.37733747015693,
                47.25471420902591
            ],
            [
                -122.37742918149603,
                47.254901290658296
            ],
            [
                -122.37736719864192,
                47.25474250648806
            ],
            [
                -122.37737588246554,
                47.254611893656275
            ],
            [
                -122.37739662975268,
                47.25491044786191
            ],
            [
                -122.37727285370555,
                47.25477380361526
            ],
            [
                -122.37745300237171,
                47.25480971423671
            ],
            [
                -122.37740455986312,
                47.25482215853794
            ],
            [
                -122.37746607114943,
                47.25471856822035
            ],
            [
                -122.37739651582378,
                47.25472117909942
            ],
            [
                -122.37738128221069,
                47.254788745767684
            ],
            [
                -122.37748483859747,
                47.254710799573274
            ],
            [
                -122.37744591529356,
                47.254768903166415
            ],
            [
                -122.37742092112389,
                47.254771869676475
            ],
            [
                -122.37745986901649,
                47.254813278930364
            ],
            [
                -122.3774711328175,
                47.25483473432325
            ],
            [
                -122.37742236781634,
                47.25474193531695
            ],
            [
                -122.37738764837856,
                47.25479391264422
            ],
            [
                -122.37741340185164,
                47.254800135001034
            ],
            [
                -122.37744318760687,
                47.25480675606489
            ],
            [
                -122.37740528389847,
                47.25477732724432
            ],
            [
                -122.37737395595362,
                47.25466108169125
            ],
            [
                -122.37722487233553,
                47.25471508483569
            ],
            [
                -122.37732146849174,
                47.254720527596554
            ],
            [
                -122.37714020098615,
                47.254784434897005
            ],
            [
                -122.37880202785894,
                47.25707534459281
            ],
            [
                -122.39045139402063,
                47.26406646692453
            ],
            [
                -122.40282675438728,
                47.271505821098465
            ],
            [
                -122.41844400251983,
                47.280660070750876
            ],
            [
                -122.43847923061782,
                47.29030534660177
            ],
            [
                -122.45939666593844,
                47.29975157307354
            ],
            [
                -122.47883839978167,
                47.30868695804853
            ],
            [
                -122.50124267562302,
                47.319311016148426
            ],
            [
                -122.52218478390984,
                47.32921697702618
            ],
            [
                -122.5355462551215,
                47.342897965920415
            ],
            [
                -122.53415569872489,
                47.35884773173307
            ],
            [
                -122.53286249183418,
                47.37441328829956
            ],
            [
                -122.53248258187907,
                47.39383189842579
            ],
            [
                -122.52910501802276,
                47.411294234290054
            ],
            [
                -122.52452242707442,
                47.43053123381198
            ],
            [
                -122.52061604829996,
                47.44878206664529
            ],
            [
                -122.5128,
                47.46671
            ]
        ]
    },
    "properties": {
        "trajectory_id": 3853,
        "object_id": 367741150,
        "label": "TOWING"
    }
}