{
    "type": "Feature",
    "geometry": {
        "type": "LineString",
        "coordinates": [
            [
                -122.52035,
                47.62128
            ],
            [
                -122.52034100840534,
                47.621270125918095
            ],
            [
                -122.52035247853836,
                47.621282018439885
            ],
            [
                -122.52035000903447,
                47.62126998834294
            ],
            [
                -122.52034485238337,
                47.62128347641407
            ],
            [
                -122.52035042842067,
                47.62126969543225
            ],
            [
                -122.52034081390258,
                47.62128985522622
            ],
            [
                -122.52034049458425,
                47.62129150799532
            ],
            [
                -122.5203305372233,
                47.62127878859374
            ],
            [
                -122.52034884965063,
                47.6212763582095
            ],
            [
                -122.52033842759614,
                47.62128889295124
            ],
            [
                -122.52034529219776,
                47.621296917121335
            ],
            [
                -122.52033933482282,
                47.621272418033634
            ],
            [
                -122.52035266699585,
                47.621281748813814
            ],
            [
                -122.52035694987062,
                47.62129054131048
            ],
            [
                -122.52035006027712,
                47.621289882848316
            ],
            [
                -122.52037631778367,
                47.6212761799546
            ],
            [
                -122.52034010163584,
                47.62129842984707
            ],
            [
                -122.52034317594452,
                47.621280625642555
            ],
            [
                -122.5203502181766,
                47.6212999381082
            ],
            [
                -122.52034013246575,
                47.62128003410579
            ],
            [
                -122.52034015789401,
                47.62127023143836
            ],
            [
                -122.52033047125178,
                47.62128946740937
            ],
            [
                -122.52035266933918,
                47.62129184617326
            ],
            [
                -122.52035030830956,
                47.62128105801113
            ],
            [
                -122.52034009223092,
                47.62128159869512
            ],
            [
                -122.52034046797894,
                47.6212893278941
            ],
            [
                -122.5203486407602,
                47.6212608977614
            ],
            [
                -122.52034997269133,
                47.621269150351814
            ],
            [
                -122.52034759971811,
                47.62127120219221
            ],
            [
                -122.52035075673713,
                47.6212724628534
            ],
            [
                -122.52034979690093,
                47.62126945072077
            ],
            [
                -122.52032772726513,
                47.62126926103459
            ],
            [
                -122.52033970301805,
                47.62126668756245
            ],
            [
                -122.52035653079916,
                47.62127591335285
            ],
            [
                -122.52033548408573,
                47.6212664159799
            ],
            [
                -122.52035281927562,
                47.62127584446559
            ],
            [
                -122.52036991287638,
                47.62128160969669
            ],
            [
                -122.52033595900188,
                47.62126605251312
            ],
            [
                -122.52035235266767,
                47.62127838425004
            ],
            [
                -122.52035646063442,
                47.62129946423526
            ],
            [
                -122.52036432241471,
                47.62130733282869
            ],
            [
                -122.52036548889896,
                47.62128311540024
            ],
            [
                -122.52036963601029,
                47.621294407690954
            ],
            [
                -122.52034584447557,
                47.62131045577634
            ],
            [
                -122.52035277254139,
                47.621276215374834
            ],
            [
                -122.52031572783783,
                47.62122990820219
            ],
            [
                -122.5129982268933,
                47.6189706844754
            ],
            [
                -122.49612347753165,
                47.6186899554139
            ],
            [
                -122.48788230135416,
                47.60438120106602
            ],
            [
                -122.47575232025122,
                47.58500980019032
            ],
            [
                -122.47300644560033,
                47.5638640926097
            ],
            [
                -122.47641285863612,
                47.5427321848981
            ],
            [
                -122.48330866907703,
                47.52278959395147
            ],
            [
                -122.4919031377,
                47.503994341910925
            ],
            [
                -122.50264326502622,
                47.48520485539382
            ],
            [
                -122.51303985680322,
                47.466562128757964
            ],
            [
                -122.51887794104327,
                47.44746394284788
            ],
            [
                -122.52364793313536,
                47.42863176154857
            ],
            [
                -122.52727923168739,
                47.409719253055506
            ],
            [
                -122.53225264282771,
                47.39002113181795
            ],
            [
                -122.53789243999755,
                47.37088506357979
            ],
            [
                -122.54598746783033,
                47.35198263423759
            ],
            [
                -122.55859132764881,
                47.33677088425443
            ],
            [
                -122.57571499029487,
                47.32668410256598
            ],
            [
                -122.58146767225762,
                47.33297146654847
            ],
            [
                -122.58136689539212,
                47.33262264474368
            ],
            [
                -122.58135995934036,
                47.33261492083428
            ],
            [
                -122.58134332825966,
                47.33261504467298
            ],
            [
                -122.5813904352233,
                47.33264961642734
            ],
            [
                -122.58135975359724,
                47.33263911214518
            ],
            [
                -122.58134352987457,
                47.33262457091489
            ],
            [
                -122.58135885135955,
                47.33262056889104
            ],
            [
                -122.58140902055071,
                47.33263243091562
            ],
            [
                -122.58137776003014,
                47.33258827449815
            ],
            [
                -122.58138173091834,
                47.33262854310932
            ],
            [
                -122.58139520036464,
                47.332617906408586
            ],
            [
                -122.58133538006521,
                47.332600376158496
            ],
            [
                -122.58132509181978,
                47.33260823348126
            ],
            [
                -122.58137,
                47.33259
            ]
        ]
    },
    "properties": {
        "trajectory_id": 3875,
        "object_id": 367769330,
        "label": "PLEASURE CRAFT"
    }
}