{
    "type": "Feature",
    "geometry": {
        "type": "LineString",
        "coordinates": [
            [
                -122.58111,
                48.50944
            ],
            [
                -122.5811288368445,
                48.50943711816209
            ],
            [
                -122.58111585219308,
                48.50939613231865
            ],
            [
                -122.58107531755759,
                48.50943198580545
            ],
            [
                -122.5810992384866,
                48.509420610558415
            ],
            [
                -122.58113120353828,
                48.50942943965659
            ],
            [
                -122.58110987110237,
                48.50943267158282
            ],
            [
                -122.58110147859308,
                48.50946037548515
            ],
            [
                -122.58112713989968,
                48.509400060184525
            ],
            [
                -122.58112817719704,
                48.50944930968203
            ],
            [
                -122.58109827573554,
                48.50943250768048
            ],
            [
                -122.58113629905803,
                48.509393224484384
            ],
            [
                -122.58106635060759,
                48.509422529447505
            ],
            [
                -122.58106002982902,
                48.50946978955042
            ],
            [
                -122.58113794750803,
                48.50944676310518
            ],
            [
                -122.58110466332938,
                48.509453748574856
            ],
            [
                -122.58111298845586,
                48.50944256458742
            ],
            [
                -122.58110409602044,
                48.509430696167094
            ],
            [
                -122.58110764800652,
                48.5094263267023
            ],
            [
                -122.5811496228225,
                48.50942875616958
            ],
            [
                -122.58109844852703,
                48.50943444517348
            ],
            [
                -122.58113931412991,
                48.50942927157999
            ],
            [
                -122.58110332263344,
                48.50943038685173
            ],
            [
                -122.5811268205567,
                48.50941634820033
            ],
            [
                -122.58110360825677,
                48.50937705480745
            ],
            [
                -122.58111691754237,
                48.50940034212042
            ],
            [
                -122.58109522502967,
                48.50939043636176
            ],
            [
                -122.58115051331089,
                48.509397645321044
            ],
            [
                -122.58115371956562,
                48.509427562349096
            ],
            [
                -122.58434490648962,
                48.510239404877524
            ],
            [
                -122.57859875081843,
                48.51832144782028
            ],
            [
                -122.56688414794854,
                48.522063099894446
            ],
            [
                -122.56085673791941,
                48.52431594184477
            ],
            [
                -122.55872871275007,
                48.52287554950602
            ],
            [
                -122.55770809142474,
                48.52342651341786
            ],
            [
                -122.55766825436521,
                48.52502886099955
            ],
            [
                -122.55854678052762,
                48.52688470390357
            ],
            [
                -122.56024357962676,
                48.52713843303872
            ],
            [
                -122.56102110248948,
                48.52715167132119
            ],
            [
                -122.56157857797253,
                48.52713944413682
            ],
            [
                -122.56206122283768,
                48.5269351468715
            ],
            [
                -122.56168163439892,
                48.52665655957622
            ],
            [
                -122.56230623432074,
                48.52614541256374
            ],
            [
                -122.56567339676329,
                48.54028448957627
            ],
            [
                -122.57820800170758,
                48.56241798780781
            ],
            [
                -122.58320197885857,
                48.58624295795115
            ],
            [
                -122.58885894342157,
                48.610051728698316
            ],
            [
                -122.6063446675668,
                48.63104804375438
            ],
            [
                -122.63694314700999,
                48.645134447970435
            ],
            [
                -122.66787740271108,
                48.6592343359263
            ],
            [
                -122.69672622058116,
                48.67417300549907
            ],
            [
                -122.71655774499798,
                48.695850143441675
            ],
            [
                -122.7352935882537,
                48.7183559558518
            ],
            [
                -122.75152172697483,
                48.740313457667625
            ],
            [
                -122.77195940268467,
                48.76136938913811
            ],
            [
                -122.80590732398132,
                48.77409980890104
            ],
            [
                -122.83898406322656,
                48.78575896849726
            ],
            [
                -122.86829993959574,
                48.79943168529679
            ],
            [
                -122.89738028890979,
                48.81500951297638
            ],
            [
                -122.92455628277031,
                48.83032055151524
            ],
            [
                -122.95300687272254,
                48.84648789189944
            ],
            [
                -122.98235091577413,
                48.862410195750215
            ],
            [
                -123.01080227299448,
                48.87993546473582
            ],
            [
                -123.03918433480803,
                48.89472044422988
            ],
            [
                -123.0672231366265,
                48.909162287191606
            ],
            [
                -123.09461010489527,
                48.92368241159832
            ],
            [
                -123.1212966097491,
                48.93833045979144
            ],
            [
                -123.14776849192256,
                48.9528243962397
            ],
            [
                -123.17341432685313,
                48.967069555874225
            ],
            [
                -123.19996206349498,
                48.981060090676024
            ],
            [
                -123.22787311848565,
                48.99542641126341
            ],
            [
                -123.25487828973945,
                49.01033042754822
            ],
            [
                -123.28155855249894,
                49.02575699406126
            ],
            [
                -123.30860045187902,
                49.04180427189148
            ],
            [
                -123.33541473488576,
                49.058539890507845
            ],
            [
                -123.36152149942265,
                49.07523972142504
            ],
            [
                -123.38586127531553,
                49.09206526854147
            ],
            [
                -123.40940795552238,
                49.109444457912716
            ],
            [
                -123.43503943198041,
                49.12598692872534
            ],
            [
                -123.4634,
                49.14073
            ]
        ]
    },
    "properties": {
        "trajectory_id": 3879,
        "object_id": 367770980,
        "label": "TUG"
    }
}