{
    "type": "Feature",
    "geometry": {
        "type": "LineString",
        "coordinates": [
            [
                -122.58114,
                48.5094
            ],
            [
                -122.58110104590713,
                48.50940989193677
            ],
            [
                -122.58115184602232,
                48.50941946905323
            ],
            [
                -122.5811716203634,
                48.50939179185551
            ],
            [
                -122.58113284931773,
                48.50938252245231
            ],
            [
                -122.58112669044489,
                48.5094394271016
            ],
            [
                -122.58113009530302,
                48.5093989267746
            ],
            [
                -122.58116169933596,
                48.50942316800751
            ],
            [
                -122.58118032939879,
                48.509410472928074
            ],
            [
                -122.58114663180811,
                48.509350943962474
            ],
            [
                -122.58117352132344,
                48.509406396254505
            ],
            [
                -122.58115040444804,
                48.509388401672744
            ],
            [
                -122.58113711713608,
                48.50942353118813
            ],
            [
                -122.5811385972404,
                48.50940996103783
            ],
            [
                -122.58115019869297,
                48.50940106599784
            ],
            [
                -122.58113610354005,
                48.50941038773064
            ],
            [
                -122.5811702831753,
                48.50941743577802
            ],
            [
                -122.58115901593172,
                48.50941065179794
            ],
            [
                -122.58116757443916,
                48.50939813852723
            ],
            [
                -122.58117843700502,
                48.509409317444096
            ],
            [
                -122.58115801303903,
                48.509399933610254
            ],
            [
                -122.5811381026963,
                48.50941694882887
            ],
            [
                -122.58114751110548,
                48.5093981075886
            ],
            [
                -122.5811314956497,
                48.50942439293219
            ],
            [
                -122.58112874620143,
                48.50941681114317
            ],
            [
                -122.5811499328827,
                48.509469976143244
            ],
            [
                -122.58115703196991,
                48.50941725934785
            ],
            [
                -122.58113358845453,
                48.509438631167015
            ],
            [
                -122.58114773927623,
                48.509435715633224
            ],
            [
                -122.5811612029271,
                48.509442540146026
            ],
            [
                -122.58116088485087,
                48.50945687784775
            ],
            [
                -122.58114028685165,
                48.50940974828943
            ],
            [
                -122.58117004263876,
                48.50941211487033
            ],
            [
                -122.58115000626994,
                48.50941997005588
            ],
            [
                -122.58115397409613,
                48.50940695221776
            ],
            [
                -122.58116753817562,
                48.509422282931176
            ],
            [
                -122.58114099146931,
                48.50942021798198
            ],
            [
                -122.58112993220605,
                48.50945067670597
            ],
            [
                -122.5811606686991,
                48.509446010770034
            ],
            [
                -122.58109650546133,
                48.50945989066349
            ],
            [
                -122.58115020358193,
                48.50941106397852
            ],
            [
                -122.58115078051615,
                48.50939996450421
            ],
            [
                -122.58112773789165,
                48.50939455668017
            ],
            [
                -122.58112869146885,
                48.50939315698719
            ],
            [
                -122.58110857232298,
                48.50940897696725
            ],
            [
                -122.58113290729288,
                48.50942110904753
            ],
            [
                -122.58110714826378,
                48.509406616311715
            ],
            [
                -122.58109617824529,
                48.50938604726087
            ],
            [
                -122.58110493518423,
                48.50940729864652
            ],
            [
                -122.58113093899033,
                48.5094498182639
            ],
            [
                -122.5811138898436,
                48.509391285736
            ],
            [
                -122.58115017924985,
                48.509450096537066
            ],
            [
                -122.58115229459133,
                48.50940894023587
            ],
            [
                -122.58113957487558,
                48.509405523103474
            ],
            [
                -122.58116999691993,
                48.50941343159891
            ],
            [
                -122.58116513200517,
                48.509404875360914
            ],
            [
                -122.58114409798429,
                48.509416597592704
            ],
            [
                -122.58114858855582,
                48.5094205630547
            ],
            [
                -122.5811871205433,
                48.50936055602552
            ],
            [
                -122.58113028791962,
                48.50936896000555
            ],
            [
                -122.5811776788473,
                48.50943985296073
            ],
            [
                -122.58113041741049,
                48.509430869911846
            ],
            [
                -122.58116520064956,
                48.50945573637348
            ],
            [
                -122.58114410390422,
                48.50947575669173
            ],
            [
                -122.58113303777425,
                48.5094528593079
            ],
            [
                -122.58112530302095,
                48.50946522741386
            ],
            [
                -122.58113048905027,
                48.50944803081189
            ],
            [
                -122.58111580506976,
                48.50944059595251
            ],
            [
                -122.58114513154635,
                48.50947218900527
            ],
            [
                -122.58116045256948,
                48.50941127601437
            ],
            [
                -122.58115235054638,
                48.50942686766949
            ],
            [
                -122.58117345932556,
                48.50941140721361
            ],
            [
                -122.58112821922514,
                48.509411237926166
            ],
            [
                -122.58112068128862,
                48.509424924914285
            ],
            [
                -122.58115081482646,
                48.5094225513892
            ],
            [
                -122.58114723468707,
                48.509410709194384
            ],
            [
                -122.58117922235971,
                48.50938930792203
            ],
            [
                -122.58112478480594,
                48.50939539601013
            ],
            [
                -122.58118095203125,
                48.509410791622585
            ],
            [
                -122.58108,
                48.5094
            ]
        ]
    },
    "properties": {
        "trajectory_id": 3882,
        "object_id": 367770990,
        "label": "TOWING"
    }
}