{
    "type": "Feature",
    "geometry": {
        "type": "LineString",
        "coordinates": [
            [
                -122.77915,
                48.10711
            ],
            [
                -122.77919331987209,
                48.10710305782281
            ],
            [
                -122.7791448206019,
                48.1070532194858
            ],
            [
                -122.77915999479335,
                48.10705998555047
            ],
            [
                -122.77914721187182,
                48.10704781764405
            ],
            [
                -122.7791638527349,
                48.10703276242902
            ],
            [
                -122.77916723858712,
                48.10704542965116
            ],
            [
                -122.77918781734209,
                48.107080635132526
            ],
            [
                -122.77915993414706,
                48.10706994407279
            ],
            [
                -122.77915944856957,
                48.107078034819104
            ],
            [
                -122.77916583243942,
                48.10708216358242
            ],
            [
                -122.77918377744957,
                48.107089486851905
            ],
            [
                -122.77916871857337,
                48.10705948416872
            ],
            [
                -122.77915258253837,
                48.107074373362835
            ],
            [
                -122.77914150250635,
                48.10708048577346
            ],
            [
                -122.77913139129855,
                48.10707091967548
            ],
            [
                -122.77915825995555,
                48.10708059456772
            ],
            [
                -122.77916520255287,
                48.10710842514771
            ],
            [
                -122.7791484944677,
                48.10707910509895
            ],
            [
                -122.7790992699647,
                48.107052551286095
            ],
            [
                -122.77917953522422,
                48.10708594230301
            ],
            [
                -122.77916898637048,
                48.10710701188836
            ],
            [
                -122.77917728172216,
                48.10707316318053
            ],
            [
                -122.77911877934957,
                48.10705886780694
            ],
            [
                -122.77914691074082,
                48.107104263922764
            ],
            [
                -122.7791137414158,
                48.10714223522981
            ],
            [
                -122.77911856498909,
                48.10710965319719
            ],
            [
                -122.77912345503012,
                48.10710307021548
            ],
            [
                -122.77916709154425,
                48.10709759548589
            ],
            [
                -122.77916456395609,
                48.10707902959108
            ],
            [
                -122.7791404151188,
                48.107072290906494
            ],
            [
                -122.77915222478437,
                48.10708319378444
            ],
            [
                -122.77915423736438,
                48.1070759761131
            ],
            [
                -122.77915349997687,
                48.107062412263815
            ],
            [
                -122.77912916444217,
                48.10705000565654
            ],
            [
                -122.77916050271064,
                48.107073066691676
            ],
            [
                -122.77918315978448,
                48.1070796044325
            ],
            [
                -122.77919164498381,
                48.10706756104528
            ],
            [
                -122.77914360697669,
                48.10708031205134
            ],
            [
                -122.77918037393657,
                48.10707562919147
            ],
            [
                -122.77915488625128,
                48.10709080606454
            ],
            [
                -122.77913055150468,
                48.1071106058329
            ],
            [
                -122.77912312827719,
                48.10706945974603
            ],
            [
                -122.77916352678352,
                48.107058984231195
            ],
            [
                -122.77913475114674,
                48.107086027379545
            ],
            [
                -122.7791597080726,
                48.107114955398096
            ],
            [
                -122.77918075496027,
                48.10709994326392
            ],
            [
                -122.77916012190434,
                48.107106490078124
            ],
            [
                -122.77919808052965,
                48.107121046431736
            ],
            [
                -122.77914153057945,
                48.107107578479514
            ],
            [
                -122.77917472519334,
                48.107083809281846
            ],
            [
                -122.77914897198407,
                48.107090004978865
            ],
            [
                -122.77917077976349,
                48.107071872083885
            ],
            [
                -122.77916985519384,
                48.10708994793254
            ],
            [
                -122.7791702416541,
                48.10706884177726
            ],
            [
                -122.77918226134493,
                48.107089094736175
            ],
            [
                -122.7791903248983,
                48.107080947456495
            ],
            [
                -122.77918674606111,
                48.10709875875512
            ],
            [
                -122.77914949985659,
                48.10707535904294
            ],
            [
                -122.77918031897754,
                48.107058473635064
            ],
            [
                -122.77918292388959,
                48.10709110028375
            ],
            [
                -122.7791829903943,
                48.10707414508248
            ],
            [
                -122.77911249605854,
                48.107082350534824
            ],
            [
                -122.77915999016017,
                48.10706999686239
            ],
            [
                -122.77916603107845,
                48.10706261695406
            ],
            [
                -122.77916790457384,
                48.1070624533184
            ],
            [
                -122.7791575641853,
                48.10707728544783
            ],
            [
                -122.77916160246727,
                48.107061670542954
            ],
            [
                -122.7791497027568,
                48.10708809255895
            ],
            [
                -122.77916219765419,
                48.10708744747005
            ],
            [
                -122.7791399769043,
                48.107070841591806
            ],
            [
                -122.77912288893936,
                48.10710710060296
            ],
            [
                -122.77913991381081,
                48.10710153503567
            ],
            [
                -122.77916941263781,
                48.10711693933339
            ],
            [
                -122.77913583813881,
                48.10712955382537
            ],
            [
                -122.77917807119893,
                48.10712369422627
            ],
            [
                -122.77916304769465,
                48.10710765521392
            ],
            [
                -122.77918460214372,
                48.10707268921805
            ],
            [
                -122.77914941009243,
                48.10709965007624
            ],
            [
                -122.77916,
                48.10712
            ]
        ]
    },
    "properties": {
        "trajectory_id": 3890,
        "object_id": 367778530,
        "label": "FISHING"
    }
}