{
    "type": "Feature",
    "geometry": {
        "type": "LineString",
        "coordinates": [
            [
                -123.18298,
                49.18042
            ],
            [
                -123.1829877542804,
                49.18041995064851
            ],
            [
                -123.1829799316167,
                49.180420039319955
            ],
            [
                -123.18298318417155,
                49.18042508456869
            ],
            [
                -123.18299027627013,
                49.1804299579154
            ],
            [
                -123.18299002604451,
                49.18043027161798
            ],
            [
                -123.18299000554059,
                49.18041990220311
            ],
            [
                -123.18299000095784,
                49.18041998309254
            ],
            [
                -123.18298999999497,
                49.180420000100106
            ],
            [
                -123.18298999888493,
                49.180419999999756
            ],
            [
                -123.18299005307992,
                49.18041999999999
            ],
            [
                -123.18297717900059,
                49.18042
            ],
            [
                -123.18298052460403,
                49.18041999999999
            ],
            [
                -123.1829800004725,
                49.18041999999999
            ],
            [
                -123.18297999999999,
                49.18042
            ],
            [
                -123.18297999999996,
                49.1804200000195
            ],
            [
                -123.18298000000003,
                49.18042001689298
            ],
            [
                -123.18298000000001,
                49.18041922159809
            ],
            [
                -123.18298000000337,
                49.18042010254786
            ],
            [
                -123.18297999874149,
                49.18041999746058
            ],
            [
                -123.18297968179048,
                49.180419999989574
            ],
            [
                -123.18297911005287,
                49.18041999999677
            ],
            [
                -123.18299010224504,
                49.18041999969438
            ],
            [
                -123.18298999931058,
                49.180420187780925
            ],
            [
                -123.18299001880722,
                49.18041938161728
            ],
            [
                -123.18297733762697,
                49.180427264683274
            ],
            [
                -123.18297999697087,
                49.1804202707826
            ],
            [
                -123.18297999997712,
                49.18042498189601
            ],
            [
                -123.18298000000017,
                49.18043074480294
            ],
            [
                -123.18297999999997,
                49.18042533981556
            ],
            [
                -123.18298000000001,
                49.18042000174154
            ],
            [
                -123.18298000000003,
                49.18042000000489
            ],
            [
                -123.18298000000001,
                49.18041999999999
            ],
            [
                -123.1829799999951,
                49.18042
            ],
            [
                -123.18298000341426,
                49.18041999999996
            ],
            [
                -123.18298009437723,
                49.18041999999912
            ],
            [
                -123.18298999677688,
                49.180419999387
            ],
            [
                -123.18298999996217,
                49.18041946231446
            ],
            [
                -123.18298999999986,
                49.18042021392047
            ],
            [
                -123.18299000000003,
                49.180420000067926
            ],
            [
                -123.18299000000005,
                49.18041999999998
            ],
            [
                -123.18298999999996,
                49.180420000000005
            ],
            [
                -123.18298999996232,
                49.18042000000001
            ],
            [
                -123.18299195215118,
                49.18041999989685
            ],
            [
                -123.18300003469251,
                49.18042000001684
            ],
            [
                -123.1829903856698,
                49.180419902910565
            ],
            [
                -123.18298999843975,
                49.180432006726505
            ],
            [
                -123.1829900000028,
                49.18042020350076
            ],
            [
                -123.18298999999996,
                49.18041999977647
            ],
            [
                -123.18298999999364,
                49.180419999999884
            ],
            [
                -123.18298996645706,
                49.18041999999998
            ],
            [
                -123.18297881336731,
                49.180420000000005
            ],
            [
                -123.18297999882243,
                49.18042
            ],
            [
                -123.18299188628083,
                49.18041999999999
            ],
            [
                -123.18297995231023,
                49.18042
            ],
            [
                -123.18298000004481,
                49.18042
            ],
            [
                -123.1829799999115,
                49.18042
            ],
            [
                -123.18298003004391,
                49.18042000000012
            ],
            [
                -123.1829874722867,
                49.18041999992433
            ],
            [
                -123.18298000127913,
                49.1804208959412
            ],
            [
                -123.18298002205917,
                49.180420095494824
            ],
            [
                -123.18297003580815,
                49.18042002388855
            ],
            [
                -123.18297410309489,
                49.18042385833377
            ],
            [
                -123.18297999792725,
                49.180420342101016
            ],
            [
                -123.18298000000684,
                49.180420551476296
            ],
            [
                -123.18298,
                49.18043034323864
            ],
            [
                -123.18298,
                49.18041930554467
            ],
            [
                -123.18298000000001,
                49.18042045460692
            ],
            [
                -123.18297999999999,
                49.18043960393041
            ],
            [
                -123.18298,
                49.180429987116085
            ],
            [
                -123.18298,
                49.180429999791
            ],
            [
                -123.18297999999997,
                49.180429999991475
            ],
            [
                -123.18297999999999,
                49.18043
            ],
            [
                -123.18297999999999,
                49.180429999999994
            ],
            [
                -123.18298000000003,
                49.18043000000001
            ],
            [
                -123.18298000000001,
                49.18043000000003
            ],
            [
                -123.18297999999999,
                49.18042999993502
            ],
            [
                -123.18298,
                49.18042988150933
            ],
            [
                -123.18298000000001,
                49.18041997461896
            ],
            [
                -123.18298,
                49.18042
            ]
        ]
    },
    "properties": {
        "trajectory_id": 391,
        "object_id": 316001749,
        "label": "SEARCH AND RESCUE"
    }
}