{
    "type": "Feature",
    "geometry": {
        "type": "LineString",
        "coordinates": [
            [
                -123.18299,
                49.18042
            ],
            [
                -123.18299000105435,
                49.180428550507834
            ],
            [
                -123.18298999313056,
                49.18041045928608
            ],
            [
                -123.18298814948976,
                49.180419367903276
            ],
            [
                -123.18299103545638,
                49.18042695922776
            ],
            [
                -123.18299725397296,
                49.18040654189195
            ],
            [
                -123.18300002089715,
                49.180419796000194
            ],
            [
                -123.18300145084226,
                49.18042000966121
            ],
            [
                -123.18299194943752,
                49.18041959656133
            ],
            [
                -123.18299996132386,
                49.18040887932189
            ],
            [
                -123.18301189684414,
                49.18041036707152
            ],
            [
                -123.18320753907871,
                49.18072815966168
            ],
            [
                -123.18289002662728,
                49.18078124727273
            ],
            [
                -123.18288905673538,
                49.18077856560569
            ],
            [
                -123.18289802269372,
                49.180789971100666
            ],
            [
                -123.18289938960136,
                49.18078878859901
            ],
            [
                -123.18292174556396,
                49.180788120196375
            ],
            [
                -123.18293082805629,
                49.18079011454234
            ],
            [
                -123.18292087375794,
                49.18077237609105
            ],
            [
                -123.18293965993942,
                49.18078395763812
            ],
            [
                -123.1828790485286,
                49.18074009208549
            ],
            [
                -123.18290005480299,
                49.18076051522194
            ],
            [
                -123.1828912762017,
                49.180754822815146
            ],
            [
                -123.18294330030496,
                49.18077147348765
            ],
            [
                -123.1828108537729,
                49.18074043289022
            ],
            [
                -123.2195507063812,
                49.18708329677845
            ],
            [
                -123.28179292861384,
                49.233525998081234
            ],
            [
                -123.23851025001039,
                49.28415690056384
            ],
            [
                -123.15039797925331,
                49.3157251046798
            ],
            [
                -123.09321929236673,
                49.29968707251942
            ],
            [
                -122.99723669025903,
                49.29660585944223
            ],
            [
                -122.98639354233904,
                49.296709054714775
            ],
            [
                -122.98700092595999,
                49.295269483356755
            ],
            [
                -122.98518957697823,
                49.299394773941785
            ],
            [
                -122.99452372795133,
                49.29588243425328
            ],
            [
                -123.06178117385743,
                49.29716973626053
            ],
            [
                -123.12359246520981,
                49.30809652172656
            ],
            [
                -123.19971074340243,
                49.30617843382444
            ],
            [
                -123.27343187646093,
                49.26900663780578
            ],
            [
                -123.27320108912906,
                49.22051779089786
            ],
            [
                -123.22715778355332,
                49.18814525536957
            ],
            [
                -123.18309767542003,
                49.18103355812883
            ],
            [
                -123.18294011385152,
                49.1811100346532
            ],
            [
                -123.18295143188712,
                49.180857767601864
            ],
            [
                -123.18277667455243,
                49.18073993714963
            ],
            [
                -123.18277998612982,
                49.18073999999591
            ],
            [
                -123.18277513792896,
                49.18074000000005
            ],
            [
                -123.18276983114448,
                49.18074000000001
            ],
            [
                -123.18276999971204,
                49.18073999999999
            ],
            [
                -123.1827700000004,
                49.18074
            ],
            [
                -123.18277,
                49.18074000000001
            ],
            [
                -123.18277000000128,
                49.180739999999986
            ],
            [
                -123.1827699944243,
                49.18074
            ],
            [
                -123.18278008823468,
                49.18074
            ],
            [
                -123.18276931786367,
                49.1807399999999
            ],
            [
                -123.1827799849088,
                49.18073999991247
            ],
            [
                -123.18278085929148,
                49.18074024309483
            ],
            [
                -123.1828043095264,
                49.180739719164656
            ],
            [
                -123.18297364216646,
                49.180420731641405
            ],
            [
                -123.1833803238286,
                49.18027708363346
            ],
            [
                -123.18337333831259,
                49.18064456117568
            ],
            [
                -123.18335394644701,
                49.180875627487644
            ],
            [
                -123.1832337385248,
                49.180722007707956
            ],
            [
                -123.1831234378357,
                49.180679981442864
            ],
            [
                -123.18310722058962,
                49.1806783528957
            ],
            [
                -123.18351712268425,
                49.1808199851343
            ],
            [
                -123.18358529488351,
                49.18083829924908
            ],
            [
                -123.18382722897861,
                49.180976098655655
            ],
            [
                -123.18367503946027,
                49.1808045333877
            ],
            [
                -123.18377019992938,
                49.18113808848185
            ],
            [
                -123.18273557131947,
                49.181356353459016
            ],
            [
                -123.1827854726352,
                49.181406593142306
            ],
            [
                -123.18276275735035,
                49.18154332435416
            ],
            [
                -123.18292064379297,
                49.181962401599094
            ],
            [
                -123.18300568692247,
                49.18228556290925
            ],
            [
                -123.18306810016773,
                49.18270045576777
            ],
            [
                -123.18322656597604,
                49.18339703319138
            ],
            [
                -123.18308069315849,
                49.18020040487185
            ],
            [
                -123.18333392963332,
                49.18029948487348
            ],
            [
                -123.18312,
                49.18032
            ]
        ]
    },
    "properties": {
        "trajectory_id": 394,
        "object_id": 316001749,
        "label": "SEARCH AND RESCUE"
    }
}