{
    "type": "Feature",
    "geometry": {
        "type": "LineString",
        "coordinates": [
            [
                -122.681,
                48.72056
            ],
            [
                -122.68099871010675,
                48.72055336997236
            ],
            [
                -122.6810003977763,
                48.72054449973775
            ],
            [
                -122.68099089622412,
                48.72055264438149
            ],
            [
                -122.68099685636878,
                48.720551755947305
            ],
            [
                -122.67932987550994,
                48.72154051874102
            ],
            [
                -122.67010552793849,
                48.731077878770485
            ],
            [
                -122.68056513759052,
                48.72087217406092
            ],
            [
                -122.68100510260271,
                48.72052807498714
            ],
            [
                -122.68100065108567,
                48.72052967250693
            ],
            [
                -122.6809799752142,
                48.72054921186659
            ],
            [
                -122.68098715661075,
                48.72054254260581
            ],
            [
                -122.68099512357048,
                48.72053665058944
            ],
            [
                -122.68054864558944,
                48.72067417861316
            ],
            [
                -122.6701674240837,
                48.73105167591727
            ],
            [
                -122.67830467316463,
                48.7226711499331
            ],
            [
                -122.6810151567209,
                48.72052611821714
            ],
            [
                -122.68097243505089,
                48.720540654666834
            ],
            [
                -122.68100256110289,
                48.72055887985874
            ],
            [
                -122.68101592332732,
                48.72055174354063
            ],
            [
                -122.68097891485374,
                48.72056043276686
            ],
            [
                -122.68095398150174,
                48.72057573425322
            ],
            [
                -122.6700042302088,
                48.73101372403239
            ],
            [
                -122.67672155494682,
                48.72468406491912
            ],
            [
                -122.67821591405396,
                48.72255582107011
            ],
            [
                -122.67071351571867,
                48.730056465783754
            ],
            [
                -122.68098922221785,
                48.72054312387314
            ],
            [
                -122.68098787111589,
                48.720518374799965
            ],
            [
                -122.68099691924232,
                48.72053808806521
            ],
            [
                -122.68103021905962,
                48.72053882219348
            ],
            [
                -122.67409923963129,
                48.726116835673515
            ],
            [
                -122.6696808230573,
                48.73134777372647
            ],
            [
                -122.68098161004617,
                48.72052911680598
            ],
            [
                -122.68100064048576,
                48.7205420111921
            ],
            [
                -122.68099212154584,
                48.72056932331829
            ],
            [
                -122.68097656803594,
                48.720542903523395
            ],
            [
                -122.6810174237585,
                48.72053511639663
            ],
            [
                -122.6804030491104,
                48.72089173538409
            ],
            [
                -122.6756917803844,
                48.72431932481489
            ],
            [
                -122.66955939618866,
                48.73162450759833
            ],
            [
                -122.67972207974965,
                48.72163797886396
            ],
            [
                -122.6809908203768,
                48.72053337995918
            ],
            [
                -122.66982124548638,
                48.731610991327074
            ],
            [
                -122.67583086928337,
                48.72498179768582
            ],
            [
                -122.67839737277399,
                48.72221119920414
            ],
            [
                -122.67008212652456,
                48.731138739730156
            ],
            [
                -122.68146535372995,
                48.71963998587332
            ],
            [
                -122.68975397842156,
                48.71149654264857
            ],
            [
                -122.69008321429766,
                48.71130529832804
            ],
            [
                -122.68625197234176,
                48.71523992555557
            ],
            [
                -122.6820591635374,
                48.71947409697503
            ],
            [
                -122.68097598273282,
                48.720523257450125
            ],
            [
                -122.68099922091618,
                48.7205588338804
            ],
            [
                -122.6809953234831,
                48.72054249018488
            ],
            [
                -122.68154926402185,
                48.72020232810731
            ],
            [
                -122.66975205063278,
                48.73090787437974
            ],
            [
                -122.67036938495188,
                48.730430041212095
            ],
            [
                -122.68089163094427,
                48.720606426220854
            ],
            [
                -122.67184702303281,
                48.72717503574496
            ],
            [
                -122.66923525930744,
                48.73133314466585
            ],
            [
                -122.6809450127168,
                48.720582945291575
            ],
            [
                -122.67000221072705,
                48.7300064721645
            ],
            [
                -122.67626636739753,
                48.72412720648092
            ],
            [
                -122.67677100522396,
                48.723400101070524
            ],
            [
                -122.67041889052646,
                48.72982375097153
            ],
            [
                -122.68100367409346,
                48.72054134306531
            ],
            [
                -122.6809874081125,
                48.72055637607178
            ],
            [
                -122.68097275488304,
                48.72054030634115
            ],
            [
                -122.68098863683348,
                48.72055106067257
            ],
            [
                -122.68100223908365,
                48.720560826100474
            ],
            [
                -122.68101517984203,
                48.7205294130785
            ],
            [
                -122.67980787643152,
                48.72109028461885
            ],
            [
                -122.67008536667191,
                48.731089803053294
            ],
            [
                -122.6762026473045,
                48.72431962394614
            ],
            [
                -122.68099415317066,
                48.720545400506765
            ],
            [
                -122.68102092468462,
                48.72054669918452
            ],
            [
                -122.68179233289857,
                48.720288228464504
            ],
            [
                -122.66996260061973,
                48.730809495926756
            ],
            [
                -122.67116802993188,
                48.72937396380372
            ],
            [
                -122.681,
                48.72054
            ]
        ]
    },
    "properties": {
        "trajectory_id": 3954,
        "object_id": 368011730,
        "label": "PASSENGER"
    }
}