{
    "type": "Feature",
    "geometry": {
        "type": "LineString",
        "coordinates": [
            [
                -122.91626,
                48.51317
            ],
            [
                -122.91626042700142,
                48.513189960630896
            ],
            [
                -122.91624839365056,
                48.51315605645355
            ],
            [
                -122.9162500460206,
                48.51315778031805
            ],
            [
                -122.91624914764203,
                48.51316761075307
            ],
            [
                -122.9162600388224,
                48.51314980884387
            ],
            [
                -122.9162499704321,
                48.513169935771096
            ],
            [
                -122.91626811395065,
                48.51316049412928
            ],
            [
                -122.91626796152825,
                48.51313418739468
            ],
            [
                -122.91625000107742,
                48.51314996090083
            ],
            [
                -122.91625964793761,
                48.51315005550905
            ],
            [
                -122.91627006580264,
                48.513151156513736
            ],
            [
                -122.91625036237922,
                48.513150005305775
            ],
            [
                -122.91626010456451,
                48.51316005097955
            ],
            [
                -122.91626020160707,
                48.51315974378002
            ],
            [
                -122.91628052557077,
                48.513158413819326
            ],
            [
                -122.91626005258347,
                48.513133211293265
            ],
            [
                -122.91625055818857,
                48.513152145275406
            ],
            [
                -122.91628776663882,
                48.51314678699279
            ],
            [
                -122.91628048911579,
                48.513171175863896
            ],
            [
                -122.91626926400939,
                48.513150354697444
            ],
            [
                -122.91627825063453,
                48.513150199518606
            ],
            [
                -122.91628269079351,
                48.51316792977246
            ],
            [
                -122.91627002814832,
                48.51316340034501
            ],
            [
                -122.91628005190634,
                48.51315103271043
            ],
            [
                -122.91626750127139,
                48.513156622487095
            ],
            [
                -122.91625932858372,
                48.51316836920696
            ],
            [
                -122.9162712675597,
                48.513128906528095
            ],
            [
                -122.91627016391689,
                48.513156029949045
            ],
            [
                -122.91626606257846,
                48.513159223481885
            ],
            [
                -122.91626032622071,
                48.51315888963523
            ],
            [
                -122.91626976682156,
                48.51316176410008
            ],
            [
                -122.91626996353641,
                48.513159898208656
            ],
            [
                -122.91626384388206,
                48.513172101505894
            ],
            [
                -122.91626259507817,
                48.51316131870046
            ],
            [
                -122.9162616624786,
                48.51315972005311
            ],
            [
                -122.91624999420088,
                48.513150042477285
            ],
            [
                -122.91626512009698,
                48.513157857063575
            ],
            [
                -122.9162507836208,
                48.51316131625447
            ],
            [
                -122.91623998312642,
                48.51314885917806
            ],
            [
                -122.91628294229803,
                48.51317109760333
            ],
            [
                -122.91625871874227,
                48.51315482446343
            ],
            [
                -122.91625950012666,
                48.513159609801455
            ],
            [
                -122.91625550769419,
                48.51315434657226
            ],
            [
                -122.91625582911115,
                48.51314957995556
            ],
            [
                -122.91625013972153,
                48.513161279043025
            ],
            [
                -122.91624993496602,
                48.513159984548196
            ],
            [
                -122.91625972843036,
                48.51316016703068
            ],
            [
                -122.91625487914668,
                48.513159703224304
            ],
            [
                -122.91625991998379,
                48.51315448819548
            ],
            [
                -122.91624933560233,
                48.51315951566096
            ],
            [
                -122.91625211037592,
                48.513159288928826
            ],
            [
                -122.91626051541787,
                48.51315899500998
            ],
            [
                -122.91624924412947,
                48.51315682402926
            ],
            [
                -122.91623127949654,
                48.513133738671286
            ],
            [
                -122.91626019806043,
                48.51317024520083
            ],
            [
                -122.91627091355666,
                48.51318619864018
            ],
            [
                -122.91626063234781,
                48.51316991573698
            ],
            [
                -122.91625108623683,
                48.51316388590375
            ],
            [
                -122.91624054966441,
                48.51316000343283
            ],
            [
                -122.91623462673208,
                48.51315103800889
            ],
            [
                -122.91623999662087,
                48.513159973150515
            ],
            [
                -122.9162451535617,
                48.51314995800176
            ],
            [
                -122.91625218146301,
                48.51315026056389
            ],
            [
                -122.91623962558833,
                48.5131303236777
            ],
            [
                -122.91623679531887,
                48.5131504088409
            ],
            [
                -122.91622986270957,
                48.513150156430385
            ],
            [
                -122.91622907652037,
                48.51316097485889
            ],
            [
                -122.91622999891814,
                48.51315091864163
            ],
            [
                -122.91622041749342,
                48.51317801544637
            ],
            [
                -122.91622978750546,
                48.513168999596935
            ],
            [
                -122.91624091825051,
                48.5131539991647
            ],
            [
                -122.91622228495932,
                48.51316844533749
            ],
            [
                -122.91623152233373,
                48.51318071988014
            ],
            [
                -122.91624000602918,
                48.513190060095035
            ],
            [
                -122.91624174133416,
                48.51315733992612
            ],
            [
                -122.91622943364864,
                48.51318182647341
            ],
            [
                -122.91622920303841,
                48.51318914684919
            ],
            [
                -122.91624721554516,
                48.51317303268007
            ],
            [
                -122.91622,
                48.51317
            ]
        ]
    },
    "properties": {
        "trajectory_id": 3994,
        "object_id": 368040990,
        "label": "FISHING"
    }
}