{
    "type": "Feature",
    "geometry": {
        "type": "LineString",
        "coordinates": [
            [
                -122.43237,
                47.24482
            ],
            [
                -122.4323727139332,
                47.2448068193262
            ],
            [
                -122.43237135604994,
                47.24481805784836
            ],
            [
                -122.43231559664282,
                47.244600909347376
            ],
            [
                -122.43223392407822,
                47.24465308779946
            ],
            [
                -122.43218889679106,
                47.24480219000147
            ],
            [
                -122.4322420002924,
                47.24486844979852
            ],
            [
                -122.43236266488111,
                47.24479561360219
            ],
            [
                -122.4323793530964,
                47.24479951076775
            ],
            [
                -122.43233726650436,
                47.244797695823756
            ],
            [
                -122.43239899712843,
                47.244799336004284
            ],
            [
                -122.43235737401665,
                47.244805123115334
            ],
            [
                -122.43237487158646,
                47.24481587915726
            ],
            [
                -122.43238401859489,
                47.244788855416125
            ],
            [
                -122.43234964129825,
                47.24483063171092
            ],
            [
                -122.43236682300171,
                47.2447901020172
            ],
            [
                -122.43238384427127,
                47.24478035433138
            ],
            [
                -122.4323503501342,
                47.244799284689
            ],
            [
                -122.43235099386469,
                47.24479941516739
            ],
            [
                -122.43236454621945,
                47.244805237567384
            ],
            [
                -122.43238924242723,
                47.24480004766591
            ],
            [
                -122.43235805679838,
                47.24481596750103
            ],
            [
                -122.43235532315246,
                47.24480846963318
            ],
            [
                -122.4323792248892,
                47.244790586924175
            ],
            [
                -122.43238187372475,
                47.24477920306494
            ],
            [
                -122.43253972594718,
                47.244695463733635
            ],
            [
                -122.43247206706911,
                47.24481387717238
            ],
            [
                -122.43235971677909,
                47.24481035293553
            ],
            [
                -122.43238704678942,
                47.24478362626535
            ],
            [
                -122.43239259344595,
                47.24478831135097
            ],
            [
                -122.43239054205041,
                47.2448102299444
            ],
            [
                -122.43238041099006,
                47.24479013875726
            ],
            [
                -122.43237683927583,
                47.2447909873353
            ],
            [
                -122.43235385963082,
                47.24479279890604
            ],
            [
                -122.4323613365261,
                47.24478588550803
            ],
            [
                -122.432378171426,
                47.24474728746669
            ],
            [
                -122.43238144336819,
                47.244796058803004
            ],
            [
                -122.43236883364526,
                47.244779827088166
            ],
            [
                -122.43233756509727,
                47.24479897050784
            ],
            [
                -122.43237910461046,
                47.24479153876074
            ],
            [
                -122.43235350223556,
                47.24477809867333
            ],
            [
                -122.43237001019497,
                47.24479924923141
            ],
            [
                -122.4323486496505,
                47.244801549122094
            ],
            [
                -122.43233449979931,
                47.24483640726964
            ],
            [
                -122.43236050386811,
                47.24479899688741
            ],
            [
                -122.43239198682073,
                47.24478076344975
            ],
            [
                -122.43235888215698,
                47.24482051404824
            ],
            [
                -122.43236735158732,
                47.244806016559444
            ],
            [
                -122.43237210225611,
                47.24480154106008
            ],
            [
                -122.4323591385863,
                47.24478162613615
            ],
            [
                -122.43236232822004,
                47.24478629040877
            ],
            [
                -122.43236537459683,
                47.2448012053084
            ],
            [
                -122.43237909645134,
                47.24480047787489
            ],
            [
                -122.43226553237818,
                47.244763550288006
            ],
            [
                -122.43241544414833,
                47.244817526658004
            ],
            [
                -122.43248817717524,
                47.24485541632463
            ],
            [
                -122.43236758649572,
                47.24478934148897
            ],
            [
                -122.43239237216244,
                47.24480601628302
            ],
            [
                -122.4323764974356,
                47.24479099670104
            ],
            [
                -122.43238223977113,
                47.244797146466546
            ],
            [
                -122.43237149020912,
                47.24479821718968
            ],
            [
                -122.43235977585793,
                47.244777411691985
            ],
            [
                -122.4323898229003,
                47.24478550869967
            ],
            [
                -122.43236995162457,
                47.24477981894488
            ],
            [
                -122.4323865798668,
                47.24480901637089
            ],
            [
                -122.43239051029698,
                47.244786567706605
            ],
            [
                -122.43236989953814,
                47.24479008011537
            ],
            [
                -122.43238129575289,
                47.24479140847815
            ],
            [
                -122.43239117897161,
                47.24478719056906
            ],
            [
                -122.43235012070075,
                47.24479971260577
            ],
            [
                -122.43239324192473,
                47.244772782991255
            ],
            [
                -122.43237292474785,
                47.2447818224665
            ],
            [
                -122.43236437980934,
                47.244793109998824
            ],
            [
                -122.43238454129204,
                47.24479058468766
            ],
            [
                -122.43237995283931,
                47.2447900033405
            ],
            [
                -122.43236745981275,
                47.244788215752884
            ],
            [
                -122.43238089199856,
                47.24479241317935
            ],
            [
                -122.43236582148454,
                47.24481199077887
            ],
            [
                -122.43237312046432,
                47.24482595898685
            ],
            [
                -122.43235,
                47.2448
            ]
        ]
    },
    "properties": {
        "trajectory_id": 4027,
        "object_id": 368059860,
        "label": "PLEASURE CRAFT"
    }
}