{
    "type": "Feature",
    "geometry": {
        "type": "LineString",
        "coordinates": [
            [
                -122.43235,
                47.2448
            ],
            [
                -122.4323937936934,
                47.24477862034042
            ],
            [
                -122.4323815089954,
                47.244773413203006
            ],
            [
                -122.43236969686464,
                47.244812025508466
            ],
            [
                -122.43234737381448,
                47.24481362369341
            ],
            [
                -122.43235019079545,
                47.24480119182879
            ],
            [
                -122.43234161647514,
                47.24479379430514
            ],
            [
                -122.43236939437628,
                47.24480796713377
            ],
            [
                -122.4323705085391,
                47.24480908567611
            ],
            [
                -122.43244428463697,
                47.24482760953358
            ],
            [
                -122.4324642115703,
                47.24473395646923
            ],
            [
                -122.43237421120466,
                47.24475899518537
            ],
            [
                -122.43236977999575,
                47.24480838064678
            ],
            [
                -122.43238832153837,
                47.24480806473817
            ],
            [
                -122.43235361289452,
                47.24481050369436
            ],
            [
                -122.43235090505081,
                47.24480124479971
            ],
            [
                -122.432348276392,
                47.24479989650759
            ],
            [
                -122.43237546689845,
                47.24480005957004
            ],
            [
                -122.43235273985803,
                47.24481016118123
            ],
            [
                -122.43239907803193,
                47.244811303466975
            ],
            [
                -122.43237515480581,
                47.244807934031
            ],
            [
                -122.4323834575032,
                47.244817128564996
            ],
            [
                -122.43236242812722,
                47.244803081761525
            ],
            [
                -122.43236996514096,
                47.244795884852635
            ],
            [
                -122.43237031646362,
                47.24480639644849
            ],
            [
                -122.43236057043757,
                47.244790124585656
            ],
            [
                -122.43238538217207,
                47.244786446665515
            ],
            [
                -122.4323749108619,
                47.24480527354739
            ],
            [
                -122.4323581870429,
                47.244803731985634
            ],
            [
                -122.43234977402221,
                47.244799442254084
            ],
            [
                -122.43235325139851,
                47.244803113402305
            ],
            [
                -122.43236249394067,
                47.24479160946012
            ],
            [
                -122.4323575514299,
                47.2448064911749
            ],
            [
                -122.43234582660895,
                47.24479004890882
            ],
            [
                -122.43236854576834,
                47.24479061756636
            ],
            [
                -122.43238874569742,
                47.24480919154998
            ],
            [
                -122.43235974449667,
                47.24480657218684
            ],
            [
                -122.43236144542173,
                47.24479519633879
            ],
            [
                -122.43237452598214,
                47.24477972882293
            ],
            [
                -122.43234889546586,
                47.2447940806519
            ],
            [
                -122.43236384668367,
                47.24479473298019
            ],
            [
                -122.43236226951491,
                47.2448196000719
            ],
            [
                -122.4323704829391,
                47.24479919105336
            ],
            [
                -122.43238134650449,
                47.244798114035284
            ],
            [
                -122.43238197984495,
                47.2447798404979
            ],
            [
                -122.43237201947473,
                47.244799263123916
            ],
            [
                -122.43235054729081,
                47.244788507323186
            ],
            [
                -122.43234953417706,
                47.24480022734439
            ],
            [
                -122.43251508423519,
                47.24470873192992
            ],
            [
                -122.43256373716275,
                47.24466189287798
            ],
            [
                -122.43252780007899,
                47.24465721149982
            ],
            [
                -122.43245224603194,
                47.244686009888234
            ],
            [
                -122.43238204806957,
                47.24473961013597
            ],
            [
                -122.43236000126063,
                47.24480960267158
            ],
            [
                -122.43237461973648,
                47.24478113560893
            ],
            [
                -122.43236387192385,
                47.2448116745898
            ],
            [
                -122.43237534146988,
                47.24480370607766
            ],
            [
                -122.43238356178517,
                47.24481897352542
            ],
            [
                -122.43240061277778,
                47.24480034634395
            ],
            [
                -122.4323801230458,
                47.24479005685399
            ],
            [
                -122.43238928100301,
                47.24480180691184
            ],
            [
                -122.43234794126742,
                47.24480757114858
            ],
            [
                -122.43233604682514,
                47.244789493050526
            ],
            [
                -122.43238008982802,
                47.244790018490626
            ],
            [
                -122.43237167096379,
                47.244784624812354
            ],
            [
                -122.43234420127098,
                47.24481566070755
            ],
            [
                -122.43235357834696,
                47.24480998115789
            ],
            [
                -122.43235667832631,
                47.24479969513628
            ],
            [
                -122.4323686039396,
                47.244769471895765
            ],
            [
                -122.43237928162429,
                47.24481074394043
            ],
            [
                -122.43238065950105,
                47.24479425863775
            ],
            [
                -122.4323582151514,
                47.24479395871726
            ],
            [
                -122.43235954529915,
                47.24478690826408
            ],
            [
                -122.43239573812062,
                47.24480925070172
            ],
            [
                -122.43236070088953,
                47.244798017860454
            ],
            [
                -122.43236814501452,
                47.24481699246138
            ],
            [
                -122.43234972266384,
                47.24480572124185
            ],
            [
                -122.43238511237317,
                47.244790915540825
            ],
            [
                -122.43234086411512,
                47.24480034203131
            ],
            [
                -122.43235,
                47.24481
            ]
        ]
    },
    "properties": {
        "trajectory_id": 4028,
        "object_id": 368059860,
        "label": "PLEASURE CRAFT"
    }
}