{
    "type": "Feature",
    "geometry": {
        "type": "LineString",
        "coordinates": [
            [
                -122.63901,
                48.52444
            ],
            [
                -122.60884070916498,
                48.52289647948281
            ],
            [
                -122.60544235614464,
                48.521173898696595
            ],
            [
                -122.62527923444334,
                48.52815114713961
            ],
            [
                -122.62526373029993,
                48.528131141041726
            ],
            [
                -122.60557749056476,
                48.52134608682165
            ],
            [
                -122.62150651637921,
                48.525825937273495
            ],
            [
                -122.625257306998,
                48.528119442269244
            ],
            [
                -122.61805346850693,
                48.525533901688604
            ],
            [
                -122.60731350382727,
                48.522657113684616
            ],
            [
                -122.62521560095841,
                48.5282148716491
            ],
            [
                -122.60544206052758,
                48.52117568759924
            ],
            [
                -122.60582355045702,
                48.52160337004343
            ],
            [
                -122.5977369610319,
                48.50609001763553
            ],
            [
                -122.6035715894102,
                48.501218210884716
            ],
            [
                -122.60356165787366,
                48.50122132964087
            ],
            [
                -122.60357451947488,
                48.501239551909805
            ],
            [
                -122.60357733983821,
                48.5012268708266
            ],
            [
                -122.6035616835907,
                48.501207665207616
            ],
            [
                -122.60357072595639,
                48.50121940541197
            ],
            [
                -122.60359566393424,
                48.501224693810954
            ],
            [
                -122.60358035217119,
                48.50121840595293
            ],
            [
                -122.60354996736106,
                48.501239929301825
            ],
            [
                -122.6035714843697,
                48.50123270888404
            ],
            [
                -122.60357000410743,
                48.501239010348634
            ],
            [
                -122.60356657107408,
                48.50122289126868
            ],
            [
                -122.6035710439486,
                48.501229433324255
            ],
            [
                -122.60354160286344,
                48.501220020346835
            ],
            [
                -122.60356481417013,
                48.501227406072495
            ],
            [
                -122.60354561493635,
                48.501229251423254
            ],
            [
                -122.60355011507258,
                48.50122202022074
            ],
            [
                -122.60354901560756,
                48.50123113948569
            ],
            [
                -122.60357003630838,
                48.50120990947687
            ],
            [
                -122.60359417983653,
                48.501223911945075
            ],
            [
                -122.60357043994604,
                48.50121741374124
            ],
            [
                -122.60356079386149,
                48.501230243755586
            ],
            [
                -122.6035470275089,
                48.50120002583421
            ],
            [
                -122.60356515772177,
                48.501246946035984
            ],
            [
                -122.60355377358192,
                48.50122618619106
            ],
            [
                -122.6035486340428,
                48.501237834382955
            ],
            [
                -122.60354666514475,
                48.50123610639569
            ],
            [
                -122.60356929568432,
                48.50122090919368
            ],
            [
                -122.60356544423412,
                48.50123279476892
            ],
            [
                -122.60352476985668,
                48.50122772362542
            ],
            [
                -122.6035504526584,
                48.50121228797404
            ],
            [
                -122.60353418622825,
                48.50124104055955
            ],
            [
                -122.60354909038783,
                48.50121214003607
            ],
            [
                -122.60355255738044,
                48.501214971723336
            ],
            [
                -122.60357997211186,
                48.50121253429113
            ],
            [
                -122.60355132303134,
                48.50122098847382
            ],
            [
                -122.60356293681703,
                48.50121192127513
            ],
            [
                -122.60356101467404,
                48.50120892506618
            ],
            [
                -122.60355004987346,
                48.501220274786476
            ],
            [
                -122.60357025533902,
                48.501209883841774
            ],
            [
                -122.60354840359861,
                48.501217380144126
            ],
            [
                -122.60354796293737,
                48.501229098115196
            ],
            [
                -122.60357267080234,
                48.501219565893926
            ],
            [
                -122.60355975059852,
                48.50121975614403
            ],
            [
                -122.60356991550533,
                48.50123023970986
            ],
            [
                -122.60355941372934,
                48.50124007518873
            ],
            [
                -122.60358541008705,
                48.501247937454146
            ],
            [
                -122.6035781657756,
                48.501255356132695
            ],
            [
                -122.6035576289309,
                48.501253232391896
            ],
            [
                -122.6035653207743,
                48.501241824232594
            ],
            [
                -122.60356001422919,
                48.50125996487307
            ],
            [
                -122.60355978186492,
                48.501249466491664
            ],
            [
                -122.60353177524684,
                48.50122799224818
            ],
            [
                -122.60356265342882,
                48.501259051721746
            ],
            [
                -122.60356088692436,
                48.501250524167084
            ],
            [
                -122.60355998464385,
                48.50122261364175
            ],
            [
                -122.60355977165037,
                48.50122001027041
            ],
            [
                -122.60353106407693,
                48.50126278441433
            ],
            [
                -122.60355197909018,
                48.50123988481929
            ],
            [
                -122.60357302644503,
                48.50125531344087
            ],
            [
                -122.60357682457544,
                48.50127855293927
            ],
            [
                -122.60356740252774,
                48.50117162050472
            ],
            [
                -122.60355784986577,
                48.50121494016554
            ],
            [
                -122.6035784309913,
                48.50121140825584
            ],
            [
                -122.60356237548382,
                48.50120969308383
            ],
            [
                -122.60355,
                48.50122
            ]
        ]
    },
    "properties": {
        "trajectory_id": 4084,
        "object_id": 368113590,
        "label": "CARGO"
    }
}