{
    "type": "Feature",
    "geometry": {
        "type": "LineString",
        "coordinates": [
            [
                -122.34159,
                47.60581
            ],
            [
                -122.34158136281249,
                47.605802458098985
            ],
            [
                -122.34158886761081,
                47.60580921510667
            ],
            [
                -122.34157972338247,
                47.605810042642574
            ],
            [
                -122.34157925078159,
                47.60580225466738
            ],
            [
                -122.3415823145521,
                47.60580605424118
            ],
            [
                -122.3415803227701,
                47.605809233500054
            ],
            [
                -122.34158309888595,
                47.60582695439311
            ],
            [
                -122.34157666396791,
                47.60583581177128
            ],
            [
                -122.34157092627619,
                47.6058287036385
            ],
            [
                -122.34156769467698,
                47.605830294020244
            ],
            [
                -122.34155888965552,
                47.605829952747705
            ],
            [
                -122.34156002648886,
                47.60583997912498
            ],
            [
                -122.34157633727652,
                47.60582077497247
            ],
            [
                -122.34155973254948,
                47.60581959012653
            ],
            [
                -122.3415700583596,
                47.60581925203104
            ],
            [
                -122.34157832740812,
                47.60581934042529
            ],
            [
                -122.34157789887055,
                47.60581966819172
            ],
            [
                -122.34157970274356,
                47.60582062359005
            ],
            [
                -122.34157990947905,
                47.60581873010098
            ],
            [
                -122.34156851977912,
                47.605824638851075
            ],
            [
                -122.34157004518947,
                47.605820047521874
            ],
            [
                -122.34158448708648,
                47.605829809198646
            ],
            [
                -122.34158327354608,
                47.605825868750095
            ],
            [
                -122.34157968025433,
                47.60581969115074
            ],
            [
                -122.34157913975034,
                47.60580812411022
            ],
            [
                -122.3415799932392,
                47.60580841007939
            ],
            [
                -122.34158000053294,
                47.60581008706452
            ],
            [
                -122.3415802295008,
                47.60580943385324
            ],
            [
                -122.34158883039355,
                47.605809327484074
            ],
            [
                -122.34158894474298,
                47.60580929377624
            ],
            [
                -122.34158591129062,
                47.605805748392605
            ],
            [
                -122.34159111095447,
                47.60580961633571
            ],
            [
                -122.34159959723291,
                47.60579995942238
            ],
            [
                -122.34159640442655,
                47.605806010495215
            ],
            [
                -122.34158965690582,
                47.60580611405053
            ],
            [
                -122.34159954187918,
                47.60580898324638
            ],
            [
                -122.34158980758855,
                47.60580922322701
            ],
            [
                -122.34159219778309,
                47.60580504400313
            ],
            [
                -122.34159017843544,
                47.60581070930049
            ],
            [
                -122.34158164309318,
                47.60580787704655
            ],
            [
                -122.3415966983705,
                47.605797934751934
            ],
            [
                -122.34158585321414,
                47.60580140063215
            ],
            [
                -122.34160950332395,
                47.605799522949134
            ],
            [
                -122.34162080299907,
                47.605809537657315
            ],
            [
                -122.34289100423307,
                47.603948461989376
            ],
            [
                -122.34427944129285,
                47.595573894811174
            ],
            [
                -122.34523616750566,
                47.58607902124484
            ],
            [
                -122.34780391749923,
                47.59240329632913
            ],
            [
                -122.35817379115116,
                47.59677591889306
            ],
            [
                -122.36828639334044,
                47.60141745041475
            ],
            [
                -122.37631538733459,
                47.60745932435818
            ],
            [
                -122.38189628754915,
                47.614913719971
            ],
            [
                -122.38491975459928,
                47.62201584622521
            ],
            [
                -122.37452057919539,
                47.62231389633022
            ],
            [
                -122.36450430629922,
                47.61754251685878
            ],
            [
                -122.35366954246048,
                47.61195580904958
            ],
            [
                -122.3449321269648,
                47.606960180876875
            ],
            [
                -122.34161142428246,
                47.60578779238686
            ],
            [
                -122.34160054950074,
                47.60578855726592
            ],
            [
                -122.34160000347927,
                47.605803151592816
            ],
            [
                -122.34159994616897,
                47.60579856722587
            ],
            [
                -122.34160668227638,
                47.60580638188088
            ],
            [
                -122.34161027261783,
                47.60579000364661
            ],
            [
                -122.34160983319907,
                47.605791964881476
            ],
            [
                -122.34159799173064,
                47.6058001959189
            ],
            [
                -122.34322689691012,
                47.60574446453037
            ],
            [
                -122.3439301414832,
                47.59816263926018
            ],
            [
                -122.34480725155842,
                47.58845529145752
            ],
            [
                -122.34492068044653,
                47.59076464640568
            ],
            [
                -122.3555396293872,
                47.59524507045184
            ],
            [
                -122.36623190979724,
                47.60003868371322
            ],
            [
                -122.37563443695616,
                47.60742392168405
            ],
            [
                -122.38172696077291,
                47.614857562939896
            ],
            [
                -122.3865265878914,
                47.621523616838026
            ],
            [
                -122.37604741864428,
                47.622518437117215
            ],
            [
                -122.36570539691684,
                47.61765439197053
            ],
            [
                -122.35772252736525,
                47.61347974364708
            ],
            [
                -122.34738923730448,
                47.608272285109834
            ],
            [
                -122.34159,
                47.60579
            ]
        ]
    },
    "properties": {
        "trajectory_id": 4102,
        "object_id": 368135730,
        "label": "PASSENGER"
    }
}