{
    "type": "Feature",
    "geometry": {
        "type": "LineString",
        "coordinates": [
            [
                -122.33952,
                47.64581
            ],
            [
                -122.33936777785966,
                47.645839216967374
            ],
            [
                -122.33934250632808,
                47.645824015211865
            ],
            [
                -122.33937252961414,
                47.64582942841037
            ],
            [
                -122.33935030688755,
                47.645912259846114
            ],
            [
                -122.33946014305958,
                47.64588824783188
            ],
            [
                -122.33938795306878,
                47.64589736310043
            ],
            [
                -122.33938230942549,
                47.645896232435355
            ],
            [
                -122.33943372755216,
                47.64581107314161
            ],
            [
                -122.33940694041311,
                47.645834885139664
            ],
            [
                -122.33938193953962,
                47.64585001424226
            ],
            [
                -122.3393721335802,
                47.64586394717359
            ],
            [
                -122.33940017323553,
                47.645872456613596
            ],
            [
                -122.33946350170129,
                47.64587891991612
            ],
            [
                -122.3394080059639,
                47.645909600526394
            ],
            [
                -122.33933534224138,
                47.64586625821927
            ],
            [
                -122.33945361008867,
                47.64593247104804
            ],
            [
                -122.33934404377636,
                47.64584473857926
            ],
            [
                -122.33939610560745,
                47.645912296816626
            ],
            [
                -122.33938534283595,
                47.645841343569934
            ],
            [
                -122.33943364773107,
                47.64584995915155
            ],
            [
                -122.33947001907555,
                47.64585002995251
            ],
            [
                -122.33940894470328,
                47.64585860163141
            ],
            [
                -122.33946174245774,
                47.64585853886621
            ],
            [
                -122.33942700316327,
                47.64583997785937
            ],
            [
                -122.33939123996383,
                47.64582253028361
            ],
            [
                -122.3394733520502,
                47.64591137894017
            ],
            [
                -122.33946624855898,
                47.64575049841067
            ],
            [
                -122.33943887866599,
                47.64588787549086
            ],
            [
                -122.33926348034242,
                47.64586789406973
            ],
            [
                -122.33943709491105,
                47.64587399530271
            ],
            [
                -122.339363695191,
                47.64586597313719
            ],
            [
                -122.33937324021663,
                47.645839900269614
            ],
            [
                -122.33941330006618,
                47.64588295830931
            ],
            [
                -122.33933716805426,
                47.6457905088325
            ],
            [
                -122.33942802454554,
                47.64586560833665
            ],
            [
                -122.33940669172493,
                47.64581334588476
            ],
            [
                -122.3393890588711,
                47.64589180066483
            ],
            [
                -122.33932926910231,
                47.64591684307924
            ],
            [
                -122.33943689667414,
                47.645859333540336
            ],
            [
                -122.33941789430222,
                47.64586660011159
            ],
            [
                -122.33942255386783,
                47.64590730447372
            ],
            [
                -122.33943889560469,
                47.6458082305622
            ],
            [
                -122.3394155457544,
                47.645819697273296
            ],
            [
                -122.33937179871008,
                47.645884397058126
            ],
            [
                -122.33935481910592,
                47.64588232936509
            ],
            [
                -122.33936032414091,
                47.64585999769655
            ],
            [
                -122.3394750591991,
                47.645819231015594
            ],
            [
                -122.33941945670146,
                47.645850570897416
            ],
            [
                -122.33947907308377,
                47.64585657296063
            ],
            [
                -122.33936137255324,
                47.645845094161096
            ],
            [
                -122.339478582807,
                47.645813559944685
            ],
            [
                -122.33943502209387,
                47.64586253589287
            ],
            [
                -122.33942000375175,
                47.64579634713419
            ],
            [
                -122.33944693010287,
                47.64577602373255
            ],
            [
                -122.3393679780335,
                47.64582607706646
            ],
            [
                -122.33941031377437,
                47.64578574314108
            ],
            [
                -122.33937755998309,
                47.64573835082046
            ],
            [
                -122.33936099011044,
                47.645822937049736
            ],
            [
                -122.33934074497697,
                47.64589119771973
            ],
            [
                -122.33938339336319,
                47.64579218179596
            ],
            [
                -122.33939966153316,
                47.645810744186335
            ],
            [
                -122.33949097646168,
                47.64584753330928
            ],
            [
                -122.33941394906299,
                47.64588369392497
            ],
            [
                -122.33943804202102,
                47.64584298478378
            ],
            [
                -122.33940816932409,
                47.64583605502604
            ],
            [
                -122.33942076135675,
                47.645841093740835
            ],
            [
                -122.3393704585278,
                47.64581940639874
            ],
            [
                -122.33935869180817,
                47.64578654587151
            ],
            [
                -122.33936301952816,
                47.64577629878056
            ],
            [
                -122.33937852123472,
                47.645815905283705
            ],
            [
                -122.33937666161756,
                47.64579734446388
            ],
            [
                -122.33938452297326,
                47.64587268062657
            ],
            [
                -122.33942639806232,
                47.645916009436405
            ],
            [
                -122.33931124734568,
                47.64581527632623
            ],
            [
                -122.33940967121124,
                47.64586049201358
            ],
            [
                -122.33939998588694,
                47.64585111773109
            ],
            [
                -122.33940512692816,
                47.64582363447013
            ],
            [
                -122.33938002326956,
                47.645830946426166
            ],
            [
                -122.33954,
                47.64583
            ]
        ]
    },
    "properties": {
        "trajectory_id": 4146,
        "object_id": 368158000,
        "label": "FISHING"
    }
}