{
    "type": "Feature",
    "geometry": {
        "type": "LineString",
        "coordinates": [
            [
                -122.33943,
                47.64593
            ],
            [
                -122.33946153652126,
                47.645858641967195
            ],
            [
                -122.33947284561955,
                47.645836096142204
            ],
            [
                -122.33937238916592,
                47.645832762808986
            ],
            [
                -122.33941798923112,
                47.64581472193029
            ],
            [
                -122.3394174090566,
                47.64583118673177
            ],
            [
                -122.33933250948621,
                47.645914708180456
            ],
            [
                -122.33946129721255,
                47.645864261202334
            ],
            [
                -122.3394438752572,
                47.645847348693145
            ],
            [
                -122.33940942768481,
                47.64585543129338
            ],
            [
                -122.33939911501939,
                47.645870734663845
            ],
            [
                -122.3393626084276,
                47.645797060364835
            ],
            [
                -122.33936162906305,
                47.64587791566741
            ],
            [
                -122.33938969711254,
                47.64586001019071
            ],
            [
                -122.33942019631264,
                47.64587183581636
            ],
            [
                -122.33939728814872,
                47.6458519186645
            ],
            [
                -122.33951280214092,
                47.64586037292724
            ],
            [
                -122.33941306472556,
                47.64588011296866
            ],
            [
                -122.33941000210513,
                47.645818859960954
            ],
            [
                -122.33940246706278,
                47.645869054350186
            ],
            [
                -122.33945154913735,
                47.64586164761377
            ],
            [
                -122.33945522442504,
                47.645827698857
            ],
            [
                -122.33942292402492,
                47.645880965672326
            ],
            [
                -122.33936244337274,
                47.64583030802447
            ],
            [
                -122.3394411363012,
                47.64583999108189
            ],
            [
                -122.33941055929886,
                47.64583642215368
            ],
            [
                -122.33936437261362,
                47.64585328164798
            ],
            [
                -122.33937017538312,
                47.645859730339744
            ],
            [
                -122.33937076163869,
                47.64585573950429
            ],
            [
                -122.33940349816196,
                47.64587697791061
            ],
            [
                -122.33934625028536,
                47.64584085177567
            ],
            [
                -122.33942388352799,
                47.6458501994857
            ],
            [
                -122.33944304759183,
                47.64583952167506
            ],
            [
                -122.33938187420144,
                47.64584305733594
            ],
            [
                -122.33940223983747,
                47.64585087623326
            ],
            [
                -122.3393995637215,
                47.64586788206693
            ],
            [
                -122.33939594801586,
                47.64583460472134
            ],
            [
                -122.33940300659692,
                47.64584562405741
            ],
            [
                -122.33939937944001,
                47.64587258351619
            ],
            [
                -122.3393833835489,
                47.64582763125197
            ],
            [
                -122.33940404875933,
                47.645839745029306
            ],
            [
                -122.33944492544822,
                47.645845440118364
            ],
            [
                -122.33939112758364,
                47.6458287201889
            ],
            [
                -122.33942994129741,
                47.646020792436715
            ],
            [
                -122.33939703797348,
                47.64586802703383
            ],
            [
                -122.33940333168597,
                47.64582121674047
            ],
            [
                -122.33943085059089,
                47.64584984697568
            ],
            [
                -122.33933116526738,
                47.64580949075972
            ],
            [
                -122.33940528322728,
                47.64585382965859
            ],
            [
                -122.33941730498714,
                47.645885753151255
            ],
            [
                -122.33938057162823,
                47.645861953505765
            ],
            [
                -122.33943125341045,
                47.64586641084992
            ],
            [
                -122.33944823780907,
                47.64585116105076
            ],
            [
                -122.33948954055896,
                47.64584400259429
            ],
            [
                -122.33934769852448,
                47.64587581678414
            ],
            [
                -122.33940424094902,
                47.645909967318836
            ],
            [
                -122.33933607410668,
                47.64583761935943
            ],
            [
                -122.33938436407968,
                47.64585128502245
            ],
            [
                -122.33942493090109,
                47.64589629059234
            ],
            [
                -122.33937709408607,
                47.645827314391575
            ],
            [
                -122.33938855420577,
                47.64586733428204
            ],
            [
                -122.33935044540495,
                47.645802772453344
            ],
            [
                -122.33936554788818,
                47.64582501917097
            ],
            [
                -122.33940535743488,
                47.64585314132911
            ],
            [
                -122.33940882925951,
                47.6458508481808
            ],
            [
                -122.33936867683354,
                47.64582871815879
            ],
            [
                -122.33947523033301,
                47.645880445536754
            ],
            [
                -122.33942295571275,
                47.645887869288636
            ],
            [
                -122.33932200270357,
                47.64585790133381
            ],
            [
                -122.33936203645084,
                47.64582341171987
            ],
            [
                -122.33941121600039,
                47.645799379288334
            ],
            [
                -122.33943591556572,
                47.64576655536214
            ],
            [
                -122.33937818354813,
                47.645901879534485
            ],
            [
                -122.33933068764198,
                47.64581513323829
            ],
            [
                -122.339313151411,
                47.645832651763115
            ],
            [
                -122.33930205740451,
                47.64579164342724
            ],
            [
                -122.3393002539097,
                47.64585720514668
            ],
            [
                -122.33938990448996,
                47.64586604755548
            ],
            [
                -122.33938368746723,
                47.645829515326206
            ],
            [
                -122.33942,
                47.64589
            ]
        ]
    },
    "properties": {
        "trajectory_id": 4149,
        "object_id": 368158000,
        "label": "FISHING"
    }
}