{
    "type": "Feature",
    "geometry": {
        "type": "LineString",
        "coordinates": [
            [
                -122.50813,
                47.30307
            ],
            [
                -122.50817358164525,
                47.30301825917111
            ],
            [
                -122.50818141807525,
                47.3027476807606
            ],
            [
                -122.50823515377674,
                47.303181356781195
            ],
            [
                -122.50815015810373,
                47.30287140576373
            ],
            [
                -122.50817241626945,
                47.30314176382086
            ],
            [
                -122.50817543883132,
                47.30299356784063
            ],
            [
                -122.5080153376982,
                47.3030060886735
            ],
            [
                -122.50805910557224,
                47.30314380415065
            ],
            [
                -122.50816008892083,
                47.30302019359002
            ],
            [
                -122.50815537636505,
                47.303103261319826
            ],
            [
                -122.50824252810465,
                47.303138971820644
            ],
            [
                -122.50804440058035,
                47.30311861378861
            ],
            [
                -122.5080133251942,
                47.302951411421354
            ],
            [
                -122.50822357988346,
                47.30315257344179
            ],
            [
                -122.50795080245135,
                47.30293127345331
            ],
            [
                -122.5079806594939,
                47.30286027352136
            ],
            [
                -122.50796878303262,
                47.30289282830598
            ],
            [
                -122.50831483139412,
                47.303147353565194
            ],
            [
                -122.5085060370227,
                47.30321659310066
            ],
            [
                -122.5080600655569,
                47.303049185948645
            ],
            [
                -122.50818700897189,
                47.30306718270865
            ],
            [
                -122.50814108872305,
                47.302972280727104
            ],
            [
                -122.5079892119828,
                47.302969396461755
            ],
            [
                -122.50810658592724,
                47.30300061815475
            ],
            [
                -122.50805401019397,
                47.30304209115471
            ],
            [
                -122.50795569362178,
                47.302908032155756
            ],
            [
                -122.50811324214338,
                47.30299590314613
            ],
            [
                -122.50814875431621,
                47.30301073728682
            ],
            [
                -122.50810655181441,
                47.303091817159476
            ],
            [
                -122.50805799572896,
                47.30301878931169
            ],
            [
                -122.50819031257014,
                47.30308386804202
            ],
            [
                -122.5080721992508,
                47.30299630229892
            ],
            [
                -122.50834567634028,
                47.30305482748887
            ],
            [
                -122.50828661156292,
                47.30319676568981
            ],
            [
                -122.50810841553974,
                47.30311402271031
            ],
            [
                -122.50824199974768,
                47.303206525410324
            ],
            [
                -122.50809832483894,
                47.303093000056506
            ],
            [
                -122.50808628890591,
                47.303000297117904
            ],
            [
                -122.50812851303276,
                47.302992959366584
            ],
            [
                -122.50828861041869,
                47.30310994534868
            ],
            [
                -122.50800684156194,
                47.302937961774916
            ],
            [
                -122.50817153755102,
                47.302980001695055
            ],
            [
                -122.50824291183274,
                47.30306755746774
            ],
            [
                -122.50809599405011,
                47.302954117267554
            ],
            [
                -122.5081667644189,
                47.30300342719832
            ],
            [
                -122.50805498664776,
                47.30291063392772
            ],
            [
                -122.50813471574962,
                47.30307229201095
            ],
            [
                -122.50804751524176,
                47.3030690337182
            ],
            [
                -122.50795389214844,
                47.30290390356696
            ],
            [
                -122.50822317035339,
                47.3030161651951
            ],
            [
                -122.50820444799193,
                47.30309512808221
            ],
            [
                -122.5081951817714,
                47.30297454229421
            ],
            [
                -122.50818896161661,
                47.30305721809952
            ],
            [
                -122.50804022566686,
                47.3029789270365
            ],
            [
                -122.50800916169881,
                47.30294144407674
            ],
            [
                -122.50803545690523,
                47.302856358641314
            ],
            [
                -122.50812020733453,
                47.30299708387071
            ],
            [
                -122.50801740231891,
                47.302942052354226
            ],
            [
                -122.50812372811357,
                47.30305570863423
            ],
            [
                -122.50801245922105,
                47.30300902887968
            ],
            [
                -122.50817852809124,
                47.30293763684911
            ],
            [
                -122.50811215158295,
                47.30313293887914
            ],
            [
                -122.50809164513853,
                47.30302541357447
            ],
            [
                -122.507869606374,
                47.30299221970752
            ],
            [
                -122.50802980786753,
                47.30305087352546
            ],
            [
                -122.50802527109117,
                47.30312541009696
            ],
            [
                -122.50780033438926,
                47.3030527828434
            ],
            [
                -122.50785454850906,
                47.303033233818745
            ],
            [
                -122.50809220607566,
                47.303037325953916
            ],
            [
                -122.50818207639675,
                47.302889156839385
            ],
            [
                -122.50812530817848,
                47.30299101917294
            ],
            [
                -122.50803014735666,
                47.30295866376173
            ],
            [
                -122.50803101341596,
                47.30348621370915
            ],
            [
                -122.50811103706816,
                47.303064221159076
            ],
            [
                -122.50830394056418,
                47.302923252674425
            ],
            [
                -122.50811658520166,
                47.30299706644867
            ],
            [
                -122.50808301694236,
                47.30321099834061
            ],
            [
                -122.50814021177939,
                47.303064816929464
            ],
            [
                -122.50806,
                47.3031
            ]
        ]
    },
    "properties": {
        "trajectory_id": 4166,
        "object_id": 368180630,
        "label": "PLEASURE CRAFT"
    }
}