{
    "type": "Feature",
    "geometry": {
        "type": "LineString",
        "coordinates": [
            [
                -123.38242,
                48.42681
            ],
            [
                -123.38241179970923,
                48.42680461441245
            ],
            [
                -123.38243238089828,
                48.42685437956132
            ],
            [
                -123.38239965243756,
                48.42681900267383
            ],
            [
                -123.38241090796366,
                48.42680679369907
            ],
            [
                -123.3824401116679,
                48.426780062975475
            ],
            [
                -123.38242142075781,
                48.42684814122293
            ],
            [
                -123.3823667257167,
                48.42684023375593
            ],
            [
                -123.38243836642488,
                48.42683090270842
            ],
            [
                -123.38240829637223,
                48.42677938314918
            ],
            [
                -123.38238820014638,
                48.42685418617315
            ],
            [
                -123.38242427908915,
                48.42680559933135
            ],
            [
                -123.38239685009415,
                48.42678122096001
            ],
            [
                -123.38241632916257,
                48.426784148434514
            ],
            [
                -123.38242005045308,
                48.42681219420106
            ],
            [
                -123.38238800471463,
                48.426775668960865
            ],
            [
                -123.38239149492277,
                48.42680106245716
            ],
            [
                -123.38239302693914,
                48.42680310318212
            ],
            [
                -123.38235155949289,
                48.42681017094926
            ],
            [
                -123.38243220519739,
                48.42680746990905
            ],
            [
                -123.38239607937169,
                48.42677127593437
            ],
            [
                -123.38241735576058,
                48.42679992133449
            ],
            [
                -123.38240495384123,
                48.426808911816856
            ],
            [
                -123.3823791180374,
                48.42681005697108
            ],
            [
                -123.38238453165107,
                48.426830498744465
            ],
            [
                -123.38242370040146,
                48.42683136324531
            ],
            [
                -123.38238228493462,
                48.42680264076196
            ],
            [
                -123.38238828314456,
                48.426818865534955
            ],
            [
                -123.38240101513868,
                48.42679112225785
            ],
            [
                -123.38240227282564,
                48.426792739103654
            ],
            [
                -123.38239186384078,
                48.42680143896007
            ],
            [
                -123.38237926393897,
                48.42680258984418
            ],
            [
                -123.38237513934837,
                48.42681867438727
            ],
            [
                -123.38238959676973,
                48.42680138389115
            ],
            [
                -123.38238096380617,
                48.42680056353243
            ],
            [
                -123.38241477182942,
                48.426780464030145
            ],
            [
                -123.38238574698725,
                48.42678736273789
            ],
            [
                -123.38241112406587,
                48.42679874562448
            ],
            [
                -123.3823802625992,
                48.426810445736635
            ],
            [
                -123.38239320459655,
                48.426799157130056
            ],
            [
                -123.38238259736468,
                48.42678275030036
            ],
            [
                -123.38238832252678,
                48.4267921617855
            ],
            [
                -123.38235856196155,
                48.426810720129254
            ],
            [
                -123.38240949883243,
                48.42681772468372
            ],
            [
                -123.3823993185059,
                48.42677158216234
            ],
            [
                -123.38243901323555,
                48.42681815955859
            ],
            [
                -123.38239884321722,
                48.426823563689354
            ],
            [
                -123.38241021120487,
                48.426818786029365
            ],
            [
                -123.38238398755782,
                48.42679732734546
            ],
            [
                -123.38239739118933,
                48.42680186218403
            ],
            [
                -123.38240503294467,
                48.42679693374008
            ],
            [
                -123.38241207030626,
                48.42679167698256
            ],
            [
                -123.38244835470064,
                48.42680907079107
            ],
            [
                -123.38240035010637,
                48.42685012022115
            ],
            [
                -123.3824404205013,
                48.42684183617349
            ],
            [
                -123.38238371479338,
                48.426820216789224
            ],
            [
                -123.38233259739239,
                48.42678056104605
            ],
            [
                -123.38235239634567,
                48.426746146239516
            ],
            [
                -123.38238544979991,
                48.426805590688446
            ],
            [
                -123.38238001791615,
                48.426799992306314
            ],
            [
                -123.38239025091941,
                48.426850553501026
            ],
            [
                -123.38236550668037,
                48.426840451137
            ],
            [
                -123.3823697974091,
                48.42679799068336
            ],
            [
                -123.38239778603862,
                48.42680436263393
            ],
            [
                -123.38238660591772,
                48.426794278660246
            ],
            [
                -123.38235199857372,
                48.42684683166691
            ],
            [
                -123.38236932019936,
                48.42683285642039
            ],
            [
                -123.38235053576963,
                48.42682551934801
            ],
            [
                -123.38243708763873,
                48.426821240416174
            ],
            [
                -123.38239815703183,
                48.42680195402039
            ],
            [
                -123.38244176522058,
                48.4268013146819
            ],
            [
                -123.38237593178846,
                48.426813841880275
            ],
            [
                -123.38240098848759,
                48.42682515293506
            ],
            [
                -123.38240730846748,
                48.426805600891406
            ],
            [
                -123.38239752291985,
                48.42681191832247
            ],
            [
                -123.38236802454368,
                48.42681082884121
            ],
            [
                -123.38237292754454,
                48.42683428343057
            ],
            [
                -123.38241276071969,
                48.42679880636503
            ],
            [
                -123.38237321855296,
                48.42679497003417
            ],
            [
                -123.38237,
                48.4268
            ]
        ]
    },
    "properties": {
        "trajectory_id": 4188,
        "object_id": 368199130,
        "label": "PLEASURE CRAFT"
    }
}