{
    "type": "Feature",
    "geometry": {
        "type": "LineString",
        "coordinates": [
            [
                -122.34408,
                47.58594
            ],
            [
                -122.34965788854699,
                47.589469252494574
            ],
            [
                -122.3496878393945,
                47.58944952117688
            ],
            [
                -122.34967575225346,
                47.58941809330791
            ],
            [
                -122.34970467159536,
                47.58942860288936
            ],
            [
                -122.34969240884882,
                47.589452843174485
            ],
            [
                -122.3496951038359,
                47.5894543271221
            ],
            [
                -122.34970536373179,
                47.58941393983399
            ],
            [
                -122.34969265884622,
                47.58945129081618
            ],
            [
                -122.34968503563071,
                47.5894392623927
            ],
            [
                -122.34969553662567,
                47.58942955362747
            ],
            [
                -122.34971999554453,
                47.589441558216976
            ],
            [
                -122.3496933254903,
                47.589447509407954
            ],
            [
                -122.34967788338355,
                47.58944160693628
            ],
            [
                -122.34971087026297,
                47.5894377938262
            ],
            [
                -122.34970011206973,
                47.589429487843326
            ],
            [
                -122.3496998027891,
                47.589429901874894
            ],
            [
                -122.34969138147008,
                47.589421064868276
            ],
            [
                -122.34967840779376,
                47.58945026821478
            ],
            [
                -122.34969919946258,
                47.589448185824544
            ],
            [
                -122.34969975112251,
                47.58943973187042
            ],
            [
                -122.34968167984906,
                47.589421046212045
            ],
            [
                -122.34967821535194,
                47.589410975844956
            ],
            [
                -122.34971028214841,
                47.58945136340225
            ],
            [
                -122.34969531345044,
                47.58943020854451
            ],
            [
                -122.34969261203808,
                47.58942593787813
            ],
            [
                -122.34968870670913,
                47.5894456959561
            ],
            [
                -122.34969249824965,
                47.589432524859944
            ],
            [
                -122.34967738603365,
                47.589417442039895
            ],
            [
                -122.34971056902967,
                47.58944567843932
            ],
            [
                -122.34967928534304,
                47.589424498873555
            ],
            [
                -122.34967551908996,
                47.5894009708661
            ],
            [
                -122.34969887804574,
                47.58942323093905
            ],
            [
                -122.34969753205985,
                47.58943548236291
            ],
            [
                -122.34969408054882,
                47.58942817078837
            ],
            [
                -122.34972314578454,
                47.58943669683533
            ],
            [
                -122.3496873081722,
                47.58943659102502
            ],
            [
                -122.34968821606202,
                47.589444395180394
            ],
            [
                -122.34970263053832,
                47.589452329998366
            ],
            [
                -122.34970121161959,
                47.589442144643535
            ],
            [
                -122.34971076638739,
                47.58943716047761
            ],
            [
                -122.349691068676,
                47.58943171866682
            ],
            [
                -122.34964997042852,
                47.58944073820967
            ],
            [
                -122.34967139451815,
                47.58944249558716
            ],
            [
                -122.34967994720513,
                47.58944996223776
            ],
            [
                -122.34967974959373,
                47.58942988551595
            ],
            [
                -122.34969940755052,
                47.589450930867514
            ],
            [
                -122.34969155756728,
                47.5894490082591
            ],
            [
                -122.34970978642761,
                47.58944726228725
            ],
            [
                -122.3496992061912,
                47.58944625767955
            ],
            [
                -122.34968045810547,
                47.589424408347654
            ],
            [
                -122.3496888922626,
                47.58945186603384
            ],
            [
                -122.34969192170139,
                47.5894515038314
            ],
            [
                -122.34971526169815,
                47.58943752487243
            ],
            [
                -122.34969212096107,
                47.589432697673416
            ],
            [
                -122.34969205347612,
                47.589456451957496
            ],
            [
                -122.34969255423,
                47.589445286220126
            ],
            [
                -122.34969024293524,
                47.589445643679326
            ],
            [
                -122.34967407616251,
                47.58945040259633
            ],
            [
                -122.3497056057275,
                47.589461314644666
            ],
            [
                -122.34965553550857,
                47.58943349675796
            ],
            [
                -122.34968055604521,
                47.58941096930657
            ],
            [
                -122.34969859394748,
                47.58942613240028
            ],
            [
                -122.34967441639782,
                47.58947719419224
            ],
            [
                -122.34969035581184,
                47.589437234885295
            ],
            [
                -122.34967974628034,
                47.58942064006679
            ],
            [
                -122.34966449671526,
                47.58942779294892
            ],
            [
                -122.34971455582135,
                47.58942778204296
            ],
            [
                -122.34968483033273,
                47.58944529276175
            ],
            [
                -122.34970205262567,
                47.58942775150291
            ],
            [
                -122.34967282292475,
                47.589426910233975
            ],
            [
                -122.34972122974527,
                47.58945986145871
            ],
            [
                -122.34968039040061,
                47.58943987855494
            ],
            [
                -122.34967031920077,
                47.58943996560463
            ],
            [
                -122.34969337850485,
                47.589448039375334
            ],
            [
                -122.35643028058952,
                47.591080413205404
            ],
            [
                -122.36018515853111,
                47.579816135355735
            ],
            [
                -122.36031113634593,
                47.57960736872628
            ],
            [
                -122.36057747582065,
                47.57962375386764
            ],
            [
                -122.36058,
                47.5796
            ]
        ]
    },
    "properties": {
        "trajectory_id": 4209,
        "object_id": 368236750,
        "label": "TUG"
    }
}