{
    "type": "Feature",
    "geometry": {
        "type": "LineString",
        "coordinates": [
            [
                -123.09237,
                49.309
            ],
            [
                -123.09234123738935,
                49.30901568317135
            ],
            [
                -123.09219922193404,
                49.30891924188693
            ],
            [
                -123.0921100179963,
                49.30875017161427
            ],
            [
                -123.09250548119857,
                49.30873345294076
            ],
            [
                -123.09240496699138,
                49.3086748036869
            ],
            [
                -123.09256380329923,
                49.30876251376567
            ],
            [
                -123.09282695705033,
                49.30866776224767
            ],
            [
                -123.09166301178378,
                49.308796089685536
            ],
            [
                -123.0915213948443,
                49.30847783687376
            ],
            [
                -123.09166457743088,
                49.30866092030986
            ],
            [
                -123.09184033649437,
                49.308721265208185
            ],
            [
                -123.09183994871809,
                49.308730061054604
            ],
            [
                -123.09196090196725,
                49.308561136072115
            ],
            [
                -123.09157479054387,
                49.308335642096985
            ],
            [
                -123.09183966087923,
                49.30837987485886
            ],
            [
                -123.09233312426326,
                49.308396255193486
            ],
            [
                -123.0927430181967,
                49.307849538056054
            ],
            [
                -123.09251067147677,
                49.30799004513835
            ],
            [
                -123.0918998307148,
                49.30809849171258
            ],
            [
                -123.09166218847982,
                49.3077378932175
            ],
            [
                -123.09152012830741,
                49.30795925846414
            ],
            [
                -123.09167901019082,
                49.30834074964151
            ],
            [
                -123.09171817880737,
                49.30829429844843
            ],
            [
                -123.0919303916844,
                49.30838378062223
            ],
            [
                -123.09227862985765,
                49.308064088338305
            ],
            [
                -123.09283184022853,
                49.307703974500505
            ],
            [
                -123.0932482395946,
                49.30756092740744
            ],
            [
                -123.09359092904376,
                49.30759017003814
            ],
            [
                -123.0936043067908,
                49.307619480916465
            ],
            [
                -123.09371578131683,
                49.307660643909315
            ],
            [
                -123.09378937645678,
                49.30778069312923
            ],
            [
                -123.0938407591253,
                49.30780676972737
            ],
            [
                -123.09387840475662,
                49.307866446531385
            ],
            [
                -123.09390018154696,
                49.307949362434336
            ],
            [
                -123.09392209616661,
                49.30812667709
            ],
            [
                -123.09362564121675,
                49.30855051245697
            ],
            [
                -123.0931035230405,
                49.30883035334384
            ],
            [
                -123.09308990941022,
                49.308680038145056
            ],
            [
                -123.09327592748153,
                49.30866607405521
            ],
            [
                -123.09360131089907,
                49.308551622236195
            ],
            [
                -123.0937760944666,
                49.308537373130356
            ],
            [
                -123.09390303837539,
                49.30840500397713
            ],
            [
                -123.09394772846832,
                49.30830915208652
            ],
            [
                -123.09386769023622,
                49.3082651450822
            ],
            [
                -123.09402234069567,
                49.308082064018784
            ],
            [
                -123.09396547417424,
                49.30798653625005
            ],
            [
                -123.09379870496498,
                49.307937715858806
            ],
            [
                -123.09379880781897,
                49.3078660316217
            ],
            [
                -123.09380077197456,
                49.30798818370777
            ],
            [
                -123.09395963212553,
                49.308126657346584
            ],
            [
                -123.0939511761641,
                49.30822305693691
            ],
            [
                -123.09402014630992,
                49.30829787800764
            ],
            [
                -123.09409763366453,
                49.308137903933584
            ],
            [
                -123.09390758021313,
                49.30801001577602
            ],
            [
                -123.0939767631624,
                49.308067911669575
            ],
            [
                -123.09391555330633,
                49.308109348536675
            ],
            [
                -123.09370573405111,
                49.30810536420501
            ],
            [
                -123.09356186954948,
                49.30806754290975
            ],
            [
                -123.09335053278463,
                49.307946556476445
            ],
            [
                -123.0931774008689,
                49.30784193472564
            ],
            [
                -123.09292446089152,
                49.30780833399803
            ],
            [
                -123.09276727483027,
                49.30776837171567
            ],
            [
                -123.09269196261715,
                49.307648194300704
            ],
            [
                -123.09299387780804,
                49.307794894922075
            ],
            [
                -123.10248553861167,
                49.30417616051167
            ],
            [
                -123.12432323693577,
                49.30800156686902
            ],
            [
                -123.14145102866948,
                49.31560748956622
            ],
            [
                -123.15726949766598,
                49.317964251119164
            ],
            [
                -123.18251945920342,
                49.321663249503665
            ],
            [
                -123.20853555569934,
                49.323573192400005
            ],
            [
                -123.23493122479852,
                49.32225499033738
            ],
            [
                -123.26149981074023,
                49.31979197952329
            ],
            [
                -123.28751696998958,
                49.31692264922912
            ],
            [
                -123.31449353910224,
                49.31393090810618
            ],
            [
                -123.34295936900864,
                49.311621728529545
            ],
            [
                -123.37131534278613,
                49.3095489681084
            ],
            [
                -123.39779921987125,
                49.30655733868425
            ],
            [
                -123.4220365757406,
                49.302226023058246
            ],
            [
                -123.44313,
                49.2979
            ]
        ]
    },
    "properties": {
        "trajectory_id": 422,
        "object_id": 316003008,
        "label": "TUG"
    }
}