{
    "type": "Feature",
    "geometry": {
        "type": "LineString",
        "coordinates": [
            [
                -122.51864,
                47.62093
            ],
            [
                -122.51864442636312,
                47.62092937600399
            ],
            [
                -122.51865579054557,
                47.62092726189474
            ],
            [
                -122.51866223959142,
                47.620924401278394
            ],
            [
                -122.51865192054478,
                47.620921537761134
            ],
            [
                -122.51862000101163,
                47.62092000069531
            ],
            [
                -122.51862174391088,
                47.62089765139329
            ],
            [
                -122.51862986123865,
                47.62091993169398
            ],
            [
                -122.5186204534277,
                47.62092964891271
            ],
            [
                -122.5186286915907,
                47.620920782185244
            ],
            [
                -122.5186400670843,
                47.62092220112819
            ],
            [
                -122.51863034889574,
                47.62090903483871
            ],
            [
                -122.51862029054256,
                47.62092057701691
            ],
            [
                -122.51863984168801,
                47.62092082266271
            ],
            [
                -122.5186192672487,
                47.620921027685135
            ],
            [
                -122.51862198205589,
                47.62091102806004
            ],
            [
                -122.51861977961889,
                47.620921188238476
            ],
            [
                -122.51864023313522,
                47.62092049331078
            ],
            [
                -122.51861822610219,
                47.62092155246345
            ],
            [
                -122.51862110338764,
                47.62090927535027
            ],
            [
                -122.51861923422548,
                47.620920345164954
            ],
            [
                -122.5186195038088,
                47.620917974179726
            ],
            [
                -122.51863191337215,
                47.62091029511551
            ],
            [
                -122.51861916348534,
                47.62090904562571
            ],
            [
                -122.51862011506613,
                47.62092849766659
            ],
            [
                -122.51863179226724,
                47.62091840646742
            ],
            [
                -122.51862314979816,
                47.62092974821399
            ],
            [
                -122.51863059336387,
                47.62092902955874
            ],
            [
                -122.51863121057073,
                47.62093913966714
            ],
            [
                -122.5186273473584,
                47.620910786141884
            ],
            [
                -122.51862009349858,
                47.62091127124733
            ],
            [
                -122.51863153082697,
                47.62092214879903
            ],
            [
                -122.51863050792052,
                47.620930159944834
            ],
            [
                -122.51863148008559,
                47.62092990059489
            ],
            [
                -122.51861936422004,
                47.62092248971183
            ],
            [
                -122.51861868978985,
                47.62093046061451
            ],
            [
                -122.51864306903818,
                47.620929828489324
            ],
            [
                -122.51863514567239,
                47.62092624274264
            ],
            [
                -122.51862692550183,
                47.620937799142105
            ],
            [
                -122.51859752460261,
                47.62093245493432
            ],
            [
                -122.51861405898698,
                47.62090926696298
            ],
            [
                -122.51863377443715,
                47.62090992731739
            ],
            [
                -122.51863363723754,
                47.62090980020124
            ],
            [
                -122.51862000801314,
                47.62089892988024
            ],
            [
                -122.51863190092014,
                47.620917127791486
            ],
            [
                -122.51862339945443,
                47.62091768611566
            ],
            [
                -122.51857617754992,
                47.62089175340265
            ],
            [
                -122.51329946325069,
                47.619166780553186
            ],
            [
                -122.49666344913574,
                47.61890311939232
            ],
            [
                -122.48236846929733,
                47.622309584869804
            ],
            [
                -122.47591501163848,
                47.64457877088141
            ],
            [
                -122.47006511477177,
                47.66689232574444
            ],
            [
                -122.46380379762012,
                47.689252075192776
            ],
            [
                -122.45671580285115,
                47.71175803560243
            ],
            [
                -122.45012391694817,
                47.73438635595955
            ],
            [
                -122.45330785488967,
                47.75738804682704
            ],
            [
                -122.46048408952831,
                47.77946855110096
            ],
            [
                -122.46914855320259,
                47.80054203151418
            ],
            [
                -122.47692834732021,
                47.820756584770926
            ],
            [
                -122.4865915460731,
                47.84199582166159
            ],
            [
                -122.49617985550432,
                47.86523412825338
            ],
            [
                -122.50753431795663,
                47.88933120537881
            ],
            [
                -122.52288918775724,
                47.91299963897995
            ],
            [
                -122.55200909337007,
                47.926582947010054
            ],
            [
                -122.5808535381411,
                47.93893885299669
            ],
            [
                -122.61005238900934,
                47.953181843702396
            ],
            [
                -122.63770218956275,
                47.96829243328205
            ],
            [
                -122.66375550789805,
                47.98509845632942
            ],
            [
                -122.68922515662575,
                48.000790073071585
            ],
            [
                -122.71427792034422,
                48.015741899562975
            ],
            [
                -122.73633388457809,
                48.035507081903916
            ],
            [
                -122.74641951189075,
                48.030858994141866
            ],
            [
                -122.746388917231,
                48.0308997540922
            ],
            [
                -122.74638950679102,
                48.0309193980282
            ],
            [
                -122.74638000627782,
                48.03091998901952
            ],
            [
                -122.74639968971526,
                48.03089976829244
            ],
            [
                -122.74638073502585,
                48.0309103223019
            ],
            [
                -122.7463900517171,
                48.030909917789174
            ],
            [
                -122.74639979198683,
                48.03091945132318
            ],
            [
                -122.74641,
                48.03091
            ]
        ]
    },
    "properties": {
        "trajectory_id": 4229,
        "object_id": 368247130,
        "label": "PLEASURE CRAFT"
    }
}