{
    "type": "Feature",
    "geometry": {
        "type": "LineString",
        "coordinates": [
            [
                -122.51223,
                48.72262
            ],
            [
                -122.51222999795039,
                48.72260901174411
            ],
            [
                -122.51223005569126,
                48.722619524679985
            ],
            [
                -122.51223073281444,
                48.7226100665671
            ],
            [
                -122.51222486762224,
                48.722609064505015
            ],
            [
                -122.51222972221039,
                48.722619163292734
            ],
            [
                -122.51222998990164,
                48.72262063888693
            ],
            [
                -122.51222993521996,
                48.72261588734926
            ],
            [
                -122.51223042648752,
                48.72260996818365
            ],
            [
                -122.512240883482,
                48.722609007333915
            ],
            [
                -122.51223029032039,
                48.72261680676782
            ],
            [
                -122.51223000174058,
                48.72261002189416
            ],
            [
                -122.5122299995359,
                48.72260999594894
            ],
            [
                -122.51223000308897,
                48.72260999766525
            ],
            [
                -122.51223006573733,
                48.722609948407296
            ],
            [
                -122.5122241605419,
                48.72261483218642
            ],
            [
                -122.51222979202105,
                48.722620267400146
            ],
            [
                -122.51222998673742,
                48.722608530399874
            ],
            [
                -122.51223000092844,
                48.72261628832062
            ],
            [
                -122.51222999947474,
                48.72262006744769
            ],
            [
                -122.51222961222307,
                48.72262005115929
            ],
            [
                -122.51222206667238,
                48.722619998687165
            ],
            [
                -122.51221977931921,
                48.722619999981944
            ],
            [
                -122.51222030723987,
                48.722620000363236
            ],
            [
                -122.51223081522588,
                48.72261999334974
            ],
            [
                -122.5122300281486,
                48.72261979330374
            ],
            [
                -122.51222999853734,
                48.72260808636075
            ],
            [
                -122.51223000001131,
                48.72261934780812
            ],
            [
                -122.51222999999811,
                48.72261043333602
            ],
            [
                -122.512230000116,
                48.7226210721944
            ],
            [
                -122.51223000033485,
                48.722620002699294
            ],
            [
                -122.51222987761355,
                48.72262019339296
            ],
            [
                -122.51223074520193,
                48.72262189285132
            ],
            [
                -122.52940569160032,
                48.72274473195159
            ],
            [
                -122.54809084415858,
                48.694490810734095
            ],
            [
                -122.55999634703826,
                48.66139237269756
            ],
            [
                -122.58262655534269,
                48.634015171449875
            ],
            [
                -122.63259741762599,
                48.64535544408593
            ],
            [
                -122.67910700374854,
                48.66372794210909
            ],
            [
                -122.7146275578089,
                48.68837823816093
            ],
            [
                -122.73995448021059,
                48.72104963265406
            ],
            [
                -122.76433062439399,
                48.75468493149904
            ],
            [
                -122.81015371847673,
                48.77399469745778
            ],
            [
                -122.85531640422018,
                48.795210824267755
            ],
            [
                -122.89699123883985,
                48.81878559560996
            ],
            [
                -122.93999809753501,
                48.84155469601876
            ],
            [
                -122.98348829871851,
                48.86396092280206
            ],
            [
                -123.0270348168183,
                48.88628119652203
            ],
            [
                -123.07118278691408,
                48.908700681183745
            ],
            [
                -123.11609419745346,
                48.93097689972359
            ],
            [
                -123.15739742872003,
                48.955507872564596
            ],
            [
                -123.19682258586901,
                48.9804147536098
            ],
            [
                -123.23641551263962,
                49.00438979248259
            ],
            [
                -123.2764225653535,
                49.028206057184484
            ],
            [
                -123.31659795936135,
                49.05235101340528
            ],
            [
                -123.35743386610532,
                49.07668579880143
            ],
            [
                -123.39954876215889,
                49.10158685650142
            ],
            [
                -123.4420550127905,
                49.1266603769856
            ],
            [
                -123.48341624026972,
                49.15133226201556
            ],
            [
                -123.52498702443387,
                49.17576972062942
            ],
            [
                -123.56615185210163,
                49.20064387108597
            ],
            [
                -123.60720722171713,
                49.22629994571831
            ],
            [
                -123.6476701427309,
                49.25239990423238
            ],
            [
                -123.68889033104354,
                49.27891957728039
            ],
            [
                -123.7300282466157,
                49.30570284939362
            ],
            [
                -123.77124618066895,
                49.33319771627292
            ],
            [
                -123.81937069176625,
                49.35203541494722
            ],
            [
                -123.87626419156955,
                49.35938686489267
            ],
            [
                -123.93353057046758,
                49.36584138396428
            ],
            [
                -123.98988588375346,
                49.373127783778855
            ],
            [
                -124.04577941856695,
                49.38001946655083
            ],
            [
                -124.10181418206736,
                49.38683034466498
            ],
            [
                -124.15716468171206,
                49.39453772636289
            ],
            [
                -124.21051934529297,
                49.406914009247
            ],
            [
                -124.26320807032187,
                49.42195292700095
            ],
            [
                -124.31705831809845,
                49.436676245366655
            ],
            [
                -124.36407330132216,
                49.45879893338409
            ],
            [
                -124.40940642137222,
                49.483914672208705
            ],
            [
                -124.45194766778008,
                49.509431308855476
            ],
            [
                -124.49269,
                49.53645
            ]
        ]
    },
    "properties": {
        "trajectory_id": 4230,
        "object_id": 368250000,
        "label": "PASSENGER"
    }
}