{
    "type": "Feature",
    "geometry": {
        "type": "LineString",
        "coordinates": [
            [
                -122.29049,
                47.64715
            ],
            [
                -122.27442513650746,
                47.640236903471
            ],
            [
                -122.26746973134011,
                47.62248152483992
            ],
            [
                -122.26080832674573,
                47.60457583859679
            ],
            [
                -122.25603408125416,
                47.586396119496754
            ],
            [
                -122.24725949650562,
                47.57609101970904
            ],
            [
                -122.24544667157821,
                47.57586015398323
            ],
            [
                -122.24545033208523,
                47.57595998110097
            ],
            [
                -122.24544327018904,
                47.57596041341268
            ],
            [
                -122.24544597911508,
                47.57595419693926
            ],
            [
                -122.25167105991974,
                47.577227450855275
            ],
            [
                -122.25592279501659,
                47.592971548214166
            ],
            [
                -122.23562229144699,
                47.60341980149415
            ],
            [
                -122.21666377722224,
                47.61089604408644
            ],
            [
                -122.22529516377799,
                47.605765269968366
            ],
            [
                -122.24342347080729,
                47.615906789523024
            ],
            [
                -122.24397709548006,
                47.63353580304926
            ],
            [
                -122.25761749564218,
                47.645324819657745
            ],
            [
                -122.27291405093507,
                47.63704179565407
            ],
            [
                -122.26531595902762,
                47.617958637906334
            ],
            [
                -122.25781269374143,
                47.59927271492605
            ],
            [
                -122.25844776999554,
                47.58534596455959
            ],
            [
                -122.26637570735204,
                47.581728986965665
            ],
            [
                -122.24559370547438,
                47.575776555018926
            ],
            [
                -122.2454400895217,
                47.57594916724812
            ],
            [
                -122.2454503010524,
                47.575947018064134
            ],
            [
                -122.24897295538912,
                47.57498911884696
            ],
            [
                -122.25553906666413,
                47.592564047494406
            ],
            [
                -122.26183500684799,
                47.612511440456586
            ],
            [
                -122.26959126334782,
                47.63370805823956
            ],
            [
                -122.28516349053533,
                47.64740696340664
            ],
            [
                -122.31339954057758,
                47.64915690583343
            ],
            [
                -122.33016261691833,
                47.64755394975387
            ],
            [
                -122.33136005993198,
                47.64751822348902
            ],
            [
                -122.3313603599097,
                47.64751062172511
            ],
            [
                -122.33134950619113,
                47.6475197362478
            ],
            [
                -122.33137014226986,
                47.64751051243627
            ],
            [
                -122.33136976195178,
                47.64751036076013
            ],
            [
                -122.33136985139633,
                47.64750988618664
            ],
            [
                -122.33136999790979,
                47.64750999741634
            ],
            [
                -122.33138248043726,
                47.64750029997078
            ],
            [
                -122.33137972715805,
                47.64751988403747
            ],
            [
                -122.3313806523527,
                47.647528709498594
            ],
            [
                -122.33138097210862,
                47.647518652546076
            ],
            [
                -122.33137208075095,
                47.647501798117005
            ],
            [
                -122.33137058530203,
                47.64752094641596
            ],
            [
                -122.33135730966039,
                47.64752163956364
            ],
            [
                -122.33135968280475,
                47.647502247188676
            ],
            [
                -122.33136214122872,
                47.64750749083005
            ],
            [
                -122.33136633910382,
                47.64750993803636
            ],
            [
                -122.33136792077576,
                47.64751400597725
            ],
            [
                -122.33137273517887,
                47.64750694954891
            ],
            [
                -122.33136239157297,
                47.647513008996505
            ],
            [
                -122.33135697679755,
                47.64752750084407
            ],
            [
                -122.33136618894285,
                47.64749456966942
            ],
            [
                -122.33136766669928,
                47.64749013194517
            ],
            [
                -122.33135980501605,
                47.64752686986621
            ],
            [
                -122.33135047569873,
                47.64749830048697
            ],
            [
                -122.33135825285608,
                47.647511154361545
            ],
            [
                -122.33135972097689,
                47.64752823480337
            ],
            [
                -122.33137476202042,
                47.64753304851756
            ],
            [
                -122.33137166161538,
                47.647527242146445
            ],
            [
                -122.33135849925023,
                47.64751678389966
            ],
            [
                -122.3313505522334,
                47.64751522538664
            ],
            [
                -122.33134551510517,
                47.64751757547142
            ],
            [
                -122.33137773050882,
                47.64751231691522
            ],
            [
                -122.33136290094818,
                47.64752580316868
            ],
            [
                -122.33138634913227,
                47.64750281050859
            ],
            [
                -122.33138849798817,
                47.647500416455784
            ],
            [
                -122.33137499239419,
                47.647518814392264
            ],
            [
                -122.33136045006617,
                47.64752948498835
            ],
            [
                -122.33137259110597,
                47.64750952059799
            ],
            [
                -122.33137248936858,
                47.64751201948693
            ],
            [
                -122.33136516391377,
                47.647515431627504
            ],
            [
                -122.33133999855266,
                47.647502656979775
            ],
            [
                -122.33137037705038,
                47.64749033078195
            ],
            [
                -122.3313592486014,
                47.64749940719164
            ],
            [
                -122.3313597656794,
                47.647519656647404
            ],
            [
                -122.33135994327039,
                47.647529990659564
            ],
            [
                -122.33136,
                47.64752
            ]
        ]
    },
    "properties": {
        "trajectory_id": 4231,
        "object_id": 368250230,
        "label": "PLEASURE CRAFT"
    }
}