{
    "type": "Feature",
    "geometry": {
        "type": "LineString",
        "coordinates": [
            [
                -123.1558,
                48.60925
            ],
            [
                -123.15579123634643,
                48.609259717585
            ],
            [
                -123.15578425560216,
                48.60924114355227
            ],
            [
                -123.15579162480661,
                48.60923993317774
            ],
            [
                -123.1557861891245,
                48.60924610339064
            ],
            [
                -123.15578864385384,
                48.609248109552375
            ],
            [
                -123.15577777564297,
                48.60923528850888
            ],
            [
                -123.15578220356637,
                48.60925306549884
            ],
            [
                -123.15578773411889,
                48.609229002708325
            ],
            [
                -123.15578852151071,
                48.60923058910581
            ],
            [
                -123.15577869179606,
                48.609210620196805
            ],
            [
                -123.15579190546686,
                48.60921877516184
            ],
            [
                -123.1557887097399,
                48.60922032891814
            ],
            [
                -123.15578953926415,
                48.609209767046714
            ],
            [
                -123.1557967517455,
                48.60920878603705
            ],
            [
                -123.15579047725464,
                48.609218818056156
            ],
            [
                -123.15579063628564,
                48.60921789042871
            ],
            [
                -123.15579336474315,
                48.609211139657525
            ],
            [
                -123.15579918698717,
                48.609219427936175
            ],
            [
                -123.1558003057074,
                48.60921115622043
            ],
            [
                -123.15580148483922,
                48.60922134451003
            ],
            [
                -123.15581112295239,
                48.60922252435959
            ],
            [
                -123.15579989257657,
                48.609229739104585
            ],
            [
                -123.15579272306121,
                48.609226117924194
            ],
            [
                -123.15579428945455,
                48.60921429005622
            ],
            [
                -123.15579719519735,
                48.60922430964652
            ],
            [
                -123.15582940868026,
                48.60920110797605
            ],
            [
                -123.15581005039914,
                48.609198944511306
            ],
            [
                -123.15581204980765,
                48.60920118270126
            ],
            [
                -123.15578299370041,
                48.60921341966394
            ],
            [
                -123.15580995717343,
                48.60919982835725
            ],
            [
                -123.15581258207887,
                48.609207172937545
            ],
            [
                -123.15581046806594,
                48.609213959882055
            ],
            [
                -123.15581019543974,
                48.609220593832
            ],
            [
                -123.15580595638636,
                48.609216046882985
            ],
            [
                -123.15581942082869,
                48.60922070785685
            ],
            [
                -123.15579998726798,
                48.60922952176809
            ],
            [
                -123.15581106187618,
                48.60923022933478
            ],
            [
                -123.15580011885099,
                48.60923045487602
            ],
            [
                -123.15581009859255,
                48.60925362956289
            ],
            [
                -123.1558179318149,
                48.60926058722179
            ],
            [
                -123.15578976700338,
                48.60925703466346
            ],
            [
                -123.15578768302207,
                48.60925851561112
            ],
            [
                -123.15576550456719,
                48.60924293629803
            ],
            [
                -123.15575972051982,
                48.60925890419283
            ],
            [
                -123.15575040825567,
                48.60927013116386
            ],
            [
                -123.15574510394363,
                48.609246759783545
            ],
            [
                -123.1557306347348,
                48.60922369204287
            ],
            [
                -123.15577129275538,
                48.60923713732384
            ],
            [
                -123.15573977340327,
                48.60921955490775
            ],
            [
                -123.15576010515362,
                48.60922002090482
            ],
            [
                -123.15575439071506,
                48.6092193319215
            ],
            [
                -123.15577913350319,
                48.609220980003506
            ],
            [
                -123.15577944722871,
                48.60919747347198
            ],
            [
                -123.15577938720928,
                48.609201276895156
            ],
            [
                -123.15578017575788,
                48.60919991920943
            ],
            [
                -123.15576034067692,
                48.60920977784138
            ],
            [
                -123.15577305564607,
                48.60920707053542
            ],
            [
                -123.155757369734,
                48.609192740862895
            ],
            [
                -123.15576116812464,
                48.60922427163162
            ],
            [
                -123.15577721027172,
                48.60922441428031
            ],
            [
                -123.15577744858327,
                48.60923157571429
            ],
            [
                -123.15576773705467,
                48.609229843223524
            ],
            [
                -123.15578015692019,
                48.60923104831129
            ],
            [
                -123.15577104683399,
                48.60922044889317
            ],
            [
                -123.15577362943868,
                48.609236337289865
            ],
            [
                -123.15576316469239,
                48.60923354282401
            ],
            [
                -123.15577865746661,
                48.60921842846914
            ],
            [
                -123.15576004525708,
                48.60921990175127
            ],
            [
                -123.15577975078168,
                48.60923954203295
            ],
            [
                -123.15577086176043,
                48.6092242806747
            ],
            [
                -123.15577301210902,
                48.609223842206816
            ],
            [
                -123.15578643017338,
                48.60922533935406
            ],
            [
                -123.15578205137582,
                48.60923054528506
            ],
            [
                -123.15578272453757,
                48.609220632691965
            ],
            [
                -123.1557899418535,
                48.60923122381828
            ],
            [
                -123.15580942609819,
                48.609240702557045
            ],
            [
                -123.15578916808687,
                48.60924030724445
            ],
            [
                -123.1557944118872,
                48.60924110059213
            ],
            [
                -123.15581,
                48.60925
            ]
        ]
    },
    "properties": {
        "trajectory_id": 4279,
        "object_id": 368312000,
        "label": "PLEASURE CRAFT"
    }
}