{
    "type": "Feature",
    "geometry": {
        "type": "LineString",
        "coordinates": [
            [
                -122.4191,
                47.28194
            ],
            [
                -122.40978749180704,
                47.27605457226874
            ],
            [
                -122.39975224250908,
                47.269930409071854
            ],
            [
                -122.38987342740502,
                47.26394413093938
            ],
            [
                -122.3818068936921,
                47.259124833779744
            ],
            [
                -122.37914645179666,
                47.25658395426074
            ],
            [
                -122.38098660683731,
                47.259275739591644
            ],
            [
                -122.38119847643256,
                47.25970743658792
            ],
            [
                -122.38166224512327,
                47.25981693712052
            ],
            [
                -122.4010303042721,
                47.270872561267964
            ],
            [
                -122.4179722327048,
                47.286107056373254
            ],
            [
                -122.41050633779832,
                47.28498237733288
            ],
            [
                -122.39969446043932,
                47.27882427711198
            ],
            [
                -122.39050435771924,
                47.27658437213426
            ],
            [
                -122.38846077683702,
                47.276361428279706
            ],
            [
                -122.39687321104336,
                47.27827895235895
            ],
            [
                -122.41022329568331,
                47.28498883455042
            ],
            [
                -122.42854622443171,
                47.29067498471713
            ],
            [
                -122.4499983463252,
                47.30404131528102
            ],
            [
                -122.43981678395183,
                47.32086879942866
            ],
            [
                -122.41965267226203,
                47.33370773030592
            ],
            [
                -122.39430882527272,
                47.34904969713309
            ],
            [
                -122.3727278950897,
                47.36314454820932
            ],
            [
                -122.35551476715139,
                47.37900161267642
            ],
            [
                -122.35804249152706,
                47.39841466678487
            ],
            [
                -122.37081822915529,
                47.417480494673164
            ],
            [
                -122.38061104123294,
                47.43718015034414
            ],
            [
                -122.39202851980144,
                47.456521337029876
            ],
            [
                -122.40014572014626,
                47.476360170713434
            ],
            [
                -122.4064750467086,
                47.49592831941098
            ],
            [
                -122.41185494939165,
                47.51581397053762
            ],
            [
                -122.4160304539163,
                47.535202923350056
            ],
            [
                -122.4211891480611,
                47.55571562560631
            ],
            [
                -122.4268484319484,
                47.575966895992615
            ],
            [
                -122.40855793722827,
                47.59010679998998
            ],
            [
                -122.3850370610688,
                47.601717730745776
            ],
            [
                -122.35822895806965,
                47.594601104240716
            ],
            [
                -122.34940001270951,
                47.58982998970512
            ],
            [
                -122.34940225181826,
                47.58981001976806
            ],
            [
                -122.34941714266182,
                47.58980898390451
            ],
            [
                -122.34938252058308,
                47.589818675130395
            ],
            [
                -122.34940223218837,
                47.589821851946496
            ],
            [
                -122.34941198883149,
                47.58982155735066
            ],
            [
                -122.34941497490317,
                47.58983030042305
            ],
            [
                -122.34942833359882,
                47.589830576433116
            ],
            [
                -122.3493902158945,
                47.58982915703803
            ],
            [
                -122.34941016931077,
                47.58983944987865
            ],
            [
                -122.34943996704575,
                47.589809770566426
            ],
            [
                -122.3494103258085,
                47.58982018638514
            ],
            [
                -122.34943923678233,
                47.58980964182386
            ],
            [
                -122.3493992921198,
                47.58983099103753
            ],
            [
                -122.34939819233452,
                47.58983037682741
            ],
            [
                -122.34942017795275,
                47.589818832678844
            ],
            [
                -122.3493972378501,
                47.58982243944646
            ],
            [
                -122.34939544786802,
                47.58981977029784
            ],
            [
                -122.34941907939648,
                47.58983805490184
            ],
            [
                -122.34941079179731,
                47.58982701591203
            ],
            [
                -122.34939096399533,
                47.589824069423436
            ],
            [
                -122.34942207633266,
                47.589828751031455
            ],
            [
                -122.34940194231902,
                47.58981097619446
            ],
            [
                -122.34938781619792,
                47.58981859934157
            ],
            [
                -122.34941423745752,
                47.58982519251313
            ],
            [
                -122.34942116278013,
                47.589828475627186
            ],
            [
                -122.34942994799647,
                47.589812881939196
            ],
            [
                -122.34943356507843,
                47.5898332887722
            ],
            [
                -122.34943356228223,
                47.58981065550167
            ],
            [
                -122.34942895108136,
                47.589821979224546
            ],
            [
                -122.34943700776839,
                47.58983903858374
            ],
            [
                -122.3494199985705,
                47.589808570813524
            ],
            [
                -122.34943341655386,
                47.58982749588678
            ],
            [
                -122.3493910112718,
                47.589830766467365
            ],
            [
                -122.3494092011865,
                47.58984918525577
            ],
            [
                -122.34939130207067,
                47.589833810053285
            ],
            [
                -122.34942017322275,
                47.58982057943532
            ],
            [
                -122.34944152624048,
                47.589838431378254
            ],
            [
                -122.34941993919323,
                47.58983862471228
            ],
            [
                -122.34940835637136,
                47.58983803024514
            ],
            [
                -122.3494200435025,
                47.58984055682951
            ],
            [
                -122.34938934351474,
                47.58985013778618
            ],
            [
                -122.34941,
                47.58983
            ]
        ]
    },
    "properties": {
        "trajectory_id": 4314,
        "object_id": 368333870,
        "label": "TUG"
    }
}