{
    "type": "Feature",
    "geometry": {
        "type": "LineString",
        "coordinates": [
            [
                -122.38882,
                47.66688
            ],
            [
                -122.38894361768398,
                47.66701099023858
            ],
            [
                -122.38894420736675,
                47.666968974577664
            ],
            [
                -122.38887271502487,
                47.667022188936556
            ],
            [
                -122.38896615290552,
                47.666990567560795
            ],
            [
                -122.38895576389665,
                47.66701904465323
            ],
            [
                -122.38891491026833,
                47.66701229564509
            ],
            [
                -122.38901702477258,
                47.66695804162894
            ],
            [
                -122.388918370693,
                47.666962224594464
            ],
            [
                -122.38896851452078,
                47.66698898508937
            ],
            [
                -122.38898516062304,
                47.66700643467658
            ],
            [
                -122.38894308607667,
                47.6670014382302
            ],
            [
                -122.38897839784967,
                47.66701903928239
            ],
            [
                -122.38896008557263,
                47.6670202903848
            ],
            [
                -122.3889373729434,
                47.66700844695163
            ],
            [
                -122.38895891417405,
                47.66703676131603
            ],
            [
                -122.38894071217474,
                47.667087492309065
            ],
            [
                -122.38891244521432,
                47.667061211459725
            ],
            [
                -122.38893989224852,
                47.66702934744068
            ],
            [
                -122.38894785178447,
                47.66703804669913
            ],
            [
                -122.38895966201345,
                47.667000160600494
            ],
            [
                -122.38899447346428,
                47.667025856425326
            ],
            [
                -122.38895546525946,
                47.66699978202598
            ],
            [
                -122.38905351966406,
                47.66694189114089
            ],
            [
                -122.3890242441808,
                47.66697195469303
            ],
            [
                -122.38907731825664,
                47.666965865325786
            ],
            [
                -122.38895455404311,
                47.66701300453531
            ],
            [
                -122.38900599306226,
                47.666973822697265
            ],
            [
                -122.38891943040703,
                47.66702003747542
            ],
            [
                -122.3889539050183,
                47.66696651047647
            ],
            [
                -122.38893921515194,
                47.66702616551104
            ],
            [
                -122.38897287280685,
                47.667024012636006
            ],
            [
                -122.38893622507115,
                47.66702077298025
            ],
            [
                -122.38893669695132,
                47.66704079765803
            ],
            [
                -122.38892933023082,
                47.66701207181877
            ],
            [
                -122.38894570115696,
                47.6670254239365
            ],
            [
                -122.38894764318104,
                47.66700838922104
            ],
            [
                -122.38891001213881,
                47.66700999721171
            ],
            [
                -122.38894862862772,
                47.66701623532427
            ],
            [
                -122.38896918033011,
                47.66702051744946
            ],
            [
                -122.3889195603426,
                47.667047347168484
            ],
            [
                -122.38893910787363,
                47.66704315112832
            ],
            [
                -122.3889385996548,
                47.66695096279912
            ],
            [
                -122.38893933819611,
                47.66701846127296
            ],
            [
                -122.38896989927436,
                47.66697013486634
            ],
            [
                -122.38896888011244,
                47.666970238782426
            ],
            [
                -122.38895068668901,
                47.6670000410472
            ],
            [
                -122.38897517829666,
                47.667028621118284
            ],
            [
                -122.38894872143283,
                47.66706047784763
            ],
            [
                -122.38894980624016,
                47.66701054382297
            ],
            [
                -122.38888721639354,
                47.66705298696613
            ],
            [
                -122.38892730099626,
                47.66699424661409
            ],
            [
                -122.38892346541031,
                47.66705228006574
            ],
            [
                -122.38892923534853,
                47.666961995613164
            ],
            [
                -122.3889788263272,
                47.667074064218
            ],
            [
                -122.38898969151205,
                47.66702857456078
            ],
            [
                -122.38898166216339,
                47.667035190834525
            ],
            [
                -122.38904003490362,
                47.666969993485466
            ],
            [
                -122.38891396648933,
                47.66700537259026
            ],
            [
                -122.38901607801802,
                47.66708238915154
            ],
            [
                -122.38891028133708,
                47.66700994438428
            ],
            [
                -122.38894767507063,
                47.66701966777156
            ],
            [
                -122.38898784556379,
                47.666998761945095
            ],
            [
                -122.38894342592869,
                47.66700197661263
            ],
            [
                -122.38893725965951,
                47.6669980997552
            ],
            [
                -122.38900803454405,
                47.667033441942834
            ],
            [
                -122.3889808909032,
                47.66698223750411
            ],
            [
                -122.38902175481742,
                47.66703505793107
            ],
            [
                -122.38894518840205,
                47.666999568196026
            ],
            [
                -122.38901982682792,
                47.667009922848194
            ],
            [
                -122.38894962555295,
                47.66701186912088
            ],
            [
                -122.3889706730813,
                47.66702860796148
            ],
            [
                -122.38897257246151,
                47.666985469896716
            ],
            [
                -122.38895635300203,
                47.66702927096198
            ],
            [
                -122.38891914539737,
                47.66703536644032
            ],
            [
                -122.38895989056104,
                47.66703014356917
            ],
            [
                -122.38896712936436,
                47.66702110209609
            ],
            [
                -122.38894968268637,
                47.667030070607474
            ],
            [
                -122.38897521602733,
                47.666989645731945
            ],
            [
                -122.38894,
                47.66701
            ]
        ]
    },
    "properties": {
        "trajectory_id": 4325,
        "object_id": 368345560,
        "label": "FISHING"
    }
}