{
    "type": "Feature",
    "geometry": {
        "type": "LineString",
        "coordinates": [
            [
                -122.43265,
                47.26291
            ],
            [
                -122.43266090700706,
                47.26286201842893
            ],
            [
                -122.43267099125899,
                47.26290399195237
            ],
            [
                -122.43264422745935,
                47.26288524781018
            ],
            [
                -122.43262484801068,
                47.26288700686555
            ],
            [
                -122.43266134832228,
                47.26288635196671
            ],
            [
                -122.4326359478176,
                47.262903279901536
            ],
            [
                -122.43263402614181,
                47.262886743997356
            ],
            [
                -122.43263871780741,
                47.26289858875819
            ],
            [
                -122.43263160390569,
                47.26290022038464
            ],
            [
                -122.43263112759497,
                47.26291003723148
            ],
            [
                -122.43263920179473,
                47.26290513272873
            ],
            [
                -122.43264060137501,
                47.26291112768129
            ],
            [
                -122.43265258941435,
                47.262908482889756
            ],
            [
                -122.43265862947094,
                47.26289594702646
            ],
            [
                -122.4326429127076,
                47.26290477794511
            ],
            [
                -122.43265001628633,
                47.262920051934586
            ],
            [
                -122.43263682691543,
                47.262901264917645
            ],
            [
                -122.43263401212334,
                47.26290270898631
            ],
            [
                -122.43267067683462,
                47.26288843888463
            ],
            [
                -122.43267180895857,
                47.26290157813476
            ],
            [
                -122.43266327611644,
                47.26289919978427
            ],
            [
                -122.43264287277714,
                47.26291029205564
            ],
            [
                -122.43266109637487,
                47.262871361839146
            ],
            [
                -122.43266971652862,
                47.262900304113764
            ],
            [
                -122.43264882160688,
                47.26288798890409
            ],
            [
                -122.43262973705001,
                47.26288030501596
            ],
            [
                -122.43266343168864,
                47.26289510294844
            ],
            [
                -122.43264085830899,
                47.26289762400683
            ],
            [
                -122.43266242300831,
                47.26289698235572
            ],
            [
                -122.43265587085327,
                47.262890935220916
            ],
            [
                -122.4326542762313,
                47.26290908842457
            ],
            [
                -122.43266204222361,
                47.262879992944775
            ],
            [
                -122.43262595846276,
                47.26289343078778
            ],
            [
                -122.43262859236567,
                47.262860034537006
            ],
            [
                -122.43265439585882,
                47.26288506054713
            ],
            [
                -122.43262768645374,
                47.26287429053845
            ],
            [
                -122.43265940246826,
                47.26288945269292
            ],
            [
                -122.43263997053921,
                47.26288002082274
            ],
            [
                -122.43263602206831,
                47.26288249775773
            ],
            [
                -122.4325951479729,
                47.26287586259393
            ],
            [
                -122.4326158053216,
                47.26289012868436
            ],
            [
                -122.43262942369991,
                47.26288183721249
            ],
            [
                -122.4326309315428,
                47.2628900556573
            ],
            [
                -122.43265511674802,
                47.26288673044311
            ],
            [
                -122.43263496719494,
                47.26288815213546
            ],
            [
                -122.43263774308693,
                47.262909262950025
            ],
            [
                -122.43264638055967,
                47.262900719656635
            ],
            [
                -122.43264409964894,
                47.262918802304426
            ],
            [
                -122.43264978331564,
                47.2629050172031
            ],
            [
                -122.43261050736197,
                47.262899089675635
            ],
            [
                -122.43263972815325,
                47.26287046288792
            ],
            [
                -122.4326399988043,
                47.262878204496275
            ],
            [
                -122.43261870992895,
                47.26289078883037
            ],
            [
                -122.43266280077,
                47.26287823802888
            ],
            [
                -122.43262465820165,
                47.26289213169141
            ],
            [
                -122.43262963517066,
                47.26289174405172
            ],
            [
                -122.43261474147094,
                47.262873009725666
            ],
            [
                -122.432638918582,
                47.26289510653646
            ],
            [
                -122.43262946968945,
                47.262890606956404
            ],
            [
                -122.43266004220833,
                47.26287061693553
            ],
            [
                -122.43262717338594,
                47.26291399310768
            ],
            [
                -122.43263536855804,
                47.26288463265807
            ],
            [
                -122.43264147632019,
                47.262892011778845
            ],
            [
                -122.43265708224705,
                47.262870698301356
            ],
            [
                -122.43264849530652,
                47.262886411758764
            ],
            [
                -122.43262991379915,
                47.26288401186353
            ],
            [
                -122.43264188448266,
                47.26287910384118
            ],
            [
                -122.43264623182083,
                47.262871868165774
            ],
            [
                -122.43264803241081,
                47.262888177132375
            ],
            [
                -122.43266031448056,
                47.262880286904064
            ],
            [
                -122.4326508359035,
                47.262887624811086
            ],
            [
                -122.43265093661691,
                47.262873195649135
            ],
            [
                -122.43264730338473,
                47.26288219769252
            ],
            [
                -122.43263962121074,
                47.2628857026006
            ],
            [
                -122.4326341451027,
                47.26288298227154
            ],
            [
                -122.4326456432759,
                47.262890286240264
            ],
            [
                -122.4326702671377,
                47.26288904994618
            ],
            [
                -122.4326320581464,
                47.26289146080837
            ],
            [
                -122.43264,
                47.26289
            ]
        ]
    },
    "properties": {
        "trajectory_id": 4345,
        "object_id": 368351000,
        "label": "TOWING"
    }
}