{
    "type": "Feature",
    "geometry": {
        "type": "LineString",
        "coordinates": [
            [
                -122.43266,
                47.26288
            ],
            [
                -122.43263998752492,
                47.26286959589511
            ],
            [
                -122.43264248446961,
                47.26287999170691
            ],
            [
                -122.4326489995749,
                47.26287082291388
            ],
            [
                -122.43264073042388,
                47.26289606443375
            ],
            [
                -122.43264621398211,
                47.26286679003854
            ],
            [
                -122.43265821821359,
                47.26287675090874
            ],
            [
                -122.43261344672513,
                47.26287212038352
            ],
            [
                -122.43264937072222,
                47.26287398048256
            ],
            [
                -122.43274621186985,
                47.26281454357276
            ],
            [
                -122.43264514537134,
                47.26277595205546
            ],
            [
                -122.43259896448095,
                47.26283812514406
            ],
            [
                -122.4326363795816,
                47.262871518965085
            ],
            [
                -122.43263942993195,
                47.26284878625131
            ],
            [
                -122.43263143234329,
                47.26284225838836
            ],
            [
                -122.43263361445696,
                47.26284291581325
            ],
            [
                -122.43262836580594,
                47.26287898825982
            ],
            [
                -122.43262275696317,
                47.26287657925875
            ],
            [
                -122.43267683988333,
                47.26288989336951
            ],
            [
                -122.43263372591187,
                47.26287281616149
            ],
            [
                -122.43265276235216,
                47.26286627902046
            ],
            [
                -122.43267099269914,
                47.26288273608638
            ],
            [
                -122.43264030311246,
                47.262887765814575
            ],
            [
                -122.43263244030989,
                47.26288081752293
            ],
            [
                -122.43261394586185,
                47.26288263118918
            ],
            [
                -122.43261723532456,
                47.26289148838022
            ],
            [
                -122.43266617185697,
                47.26286619762618
            ],
            [
                -122.43268304894012,
                47.262897419031255
            ],
            [
                -122.43268682215422,
                47.26287973806642
            ],
            [
                -122.43264834195885,
                47.262877981584005
            ],
            [
                -122.43265732696472,
                47.262903531149234
            ],
            [
                -122.43263118846603,
                47.26285941175995
            ],
            [
                -122.43262945164709,
                47.2628702914961
            ],
            [
                -122.43262314685649,
                47.26289843074014
            ],
            [
                -122.43264907916367,
                47.26285888814012
            ],
            [
                -122.43263493506215,
                47.26288400338851
            ],
            [
                -122.43262266422683,
                47.262861094828104
            ],
            [
                -122.43262328139413,
                47.26286163845787
            ],
            [
                -122.43264541119265,
                47.262879609141635
            ],
            [
                -122.43266001907894,
                47.26287977217783
            ],
            [
                -122.43264147242019,
                47.26287021295998
            ],
            [
                -122.43265449209565,
                47.262882841951544
            ],
            [
                -122.43265847026785,
                47.262865645517486
            ],
            [
                -122.43260946392951,
                47.26289881578635
            ],
            [
                -122.43263011172967,
                47.26286017830968
            ],
            [
                -122.43261686020244,
                47.26287987874059
            ],
            [
                -122.43263905929102,
                47.262880806667404
            ],
            [
                -122.43260562928677,
                47.26287426299279
            ],
            [
                -122.43261959638372,
                47.2628800786295
            ],
            [
                -122.43263982474409,
                47.26289041408262
            ],
            [
                -122.43261592766778,
                47.26285877190777
            ],
            [
                -122.43262975424041,
                47.262888115947774
            ],
            [
                -122.4326486503376,
                47.2628680955886
            ],
            [
                -122.4326534865782,
                47.26289625349476
            ],
            [
                -122.43265267922061,
                47.26290350924903
            ],
            [
                -122.43264032226885,
                47.262856969212166
            ],
            [
                -122.43264049948864,
                47.26289432964565
            ],
            [
                -122.43263116840488,
                47.26288012676745
            ],
            [
                -122.43259962585645,
                47.26287897282884
            ],
            [
                -122.4326083024022,
                47.2628839086409
            ],
            [
                -122.43265636511116,
                47.262883660571376
            ],
            [
                -122.43262104792886,
                47.26289319589325
            ],
            [
                -122.43263214018276,
                47.2629010766662
            ],
            [
                -122.43262338053833,
                47.26287660147075
            ],
            [
                -122.43266113746716,
                47.26286261499393
            ],
            [
                -122.43266375496577,
                47.26288536214438
            ],
            [
                -122.432629549872,
                47.26290263453987
            ],
            [
                -122.43263697741347,
                47.26288165796659
            ],
            [
                -122.43263786504734,
                47.26287890380864
            ],
            [
                -122.43265200707604,
                47.262866845896546
            ],
            [
                -122.43265008349798,
                47.262889881581614
            ],
            [
                -122.43269834975737,
                47.26301232320869
            ],
            [
                -122.43272054146858,
                47.26293266617873
            ],
            [
                -122.43265419341992,
                47.26286035632166
            ],
            [
                -122.4326324326961,
                47.26288865230142
            ],
            [
                -122.43265654816713,
                47.262889172826966
            ],
            [
                -122.43261909049899,
                47.2629046007738
            ],
            [
                -122.43265708178018,
                47.26289817821719
            ],
            [
                -122.43262888793728,
                47.262871234933115
            ],
            [
                -122.43263,
                47.26286
            ]
        ]
    },
    "properties": {
        "trajectory_id": 4348,
        "object_id": 368351000,
        "label": "TOWING"
    }
}