{
    "type": "Feature",
    "geometry": {
        "type": "LineString",
        "coordinates": [
            [
                -123.44285,
                48.13387
            ],
            [
                -123.44287979241676,
                48.133777875891994
            ],
            [
                -123.44288016917683,
                48.133702012602434
            ],
            [
                -123.44283379219932,
                48.13375278086653
            ],
            [
                -123.44292290098116,
                48.13377129721884
            ],
            [
                -123.44284857764407,
                48.133651783562094
            ],
            [
                -123.44293943807494,
                48.13376381485365
            ],
            [
                -123.44300308827297,
                48.134090332067075
            ],
            [
                -123.44295475849732,
                48.13424263158087
            ],
            [
                -123.44299049610817,
                48.134231207535954
            ],
            [
                -123.4429666502832,
                48.134189092990596
            ],
            [
                -123.44304833211291,
                48.13436912901116
            ],
            [
                -123.44326790973808,
                48.13480246951027
            ],
            [
                -123.44361137115206,
                48.13507302391406
            ],
            [
                -123.44405461432052,
                48.1353043169553
            ],
            [
                -123.44414877351184,
                48.13545005614782
            ],
            [
                -123.44429241991902,
                48.13543663639216
            ],
            [
                -123.44421318916325,
                48.13535864611199
            ],
            [
                -123.4441384221055,
                48.135373812651
            ],
            [
                -123.44413015222977,
                48.13533856470623
            ],
            [
                -123.44401464406434,
                48.13534726044323
            ],
            [
                -123.44376731702582,
                48.13509950725197
            ],
            [
                -123.4433942922741,
                48.13474824273301
            ],
            [
                -123.43510917605519,
                48.13477598091211
            ],
            [
                -123.41857668304806,
                48.13262219047522
            ],
            [
                -123.41430625295565,
                48.13216920761655
            ],
            [
                -123.40881302690836,
                48.13323403220582
            ],
            [
                -123.39176532847323,
                48.13546188715605
            ],
            [
                -123.37055351594454,
                48.14542229722609
            ],
            [
                -123.34865668974689,
                48.1566942518572
            ],
            [
                -123.32706437461893,
                48.168506775522594
            ],
            [
                -123.3055811380347,
                48.178913476990836
            ],
            [
                -123.2829165568155,
                48.18858459064316
            ],
            [
                -123.26031900519067,
                48.19823331747216
            ],
            [
                -123.23813535011702,
                48.207677000014975
            ],
            [
                -123.21455882006494,
                48.217280561929236
            ],
            [
                -123.19134262253355,
                48.227441185453024
            ],
            [
                -123.16791379216207,
                48.238210510834676
            ],
            [
                -123.14426350941233,
                48.24848184635623
            ],
            [
                -123.1211598234837,
                48.25834721308271
            ],
            [
                -123.09835494372834,
                48.26860883603329
            ],
            [
                -123.07738455145586,
                48.27745562506636
            ],
            [
                -123.05743477654919,
                48.28616181127274
            ],
            [
                -123.03806374903726,
                48.29517182356411
            ],
            [
                -123.01791705806427,
                48.30459887687425
            ],
            [
                -122.99644265438582,
                48.314120100117904
            ],
            [
                -122.97489879583635,
                48.323102837400725
            ],
            [
                -122.95396077992892,
                48.3322902347845
            ],
            [
                -122.93239670149448,
                48.34237288785046
            ],
            [
                -122.90872823354594,
                48.3529564167337
            ],
            [
                -122.88431399480561,
                48.363613717802295
            ],
            [
                -122.86172331363737,
                48.373702702885566
            ],
            [
                -122.83947631180166,
                48.38373916753139
            ],
            [
                -122.81704455007736,
                48.39371441022185
            ],
            [
                -122.795190174782,
                48.405025939685956
            ],
            [
                -122.77788117812915,
                48.42135070722634
            ],
            [
                -122.7647242787272,
                48.43969456853997
            ],
            [
                -122.75085221169722,
                48.45748646404241
            ],
            [
                -122.7386373292914,
                48.47479997094708
            ],
            [
                -122.72998317670941,
                48.48966460232887
            ],
            [
                -122.72380122162127,
                48.50059673154231
            ],
            [
                -122.7070956888919,
                48.51217247171187
            ],
            [
                -122.68436181945,
                48.51681976200081
            ],
            [
                -122.66058740858912,
                48.51991794428687
            ],
            [
                -122.63692185800286,
                48.52225963803519
            ],
            [
                -122.61303257907241,
                48.525284985803026
            ],
            [
                -122.59402176959287,
                48.52464036637185
            ],
            [
                -122.58761878370862,
                48.52224253254344
            ],
            [
                -122.58608906727984,
                48.52443677486229
            ],
            [
                -122.56778840002997,
                48.52171918214049
            ],
            [
                -122.5673553044421,
                48.515682117691064
            ],
            [
                -122.569112104016,
                48.51425794372437
            ],
            [
                -122.56955412040153,
                48.51558691485911
            ],
            [
                -122.56845934564905,
                48.516562798268524
            ],
            [
                -122.56875447755162,
                48.516533000145564
            ],
            [
                -122.56938669727086,
                48.516229455709336
            ],
            [
                -122.56952456306074,
                48.51609765985927
            ],
            [
                -122.56943729203174,
                48.51624235799504
            ],
            [
                -122.56937225146403,
                48.51621869181644
            ],
            [
                -122.56929,
                48.51632
            ]
        ]
    },
    "properties": {
        "trajectory_id": 4385,
        "object_id": 369008000,
        "label": "TUG"
    }
}