{
    "type": "Feature",
    "geometry": {
        "type": "LineString",
        "coordinates": [
            [
                -122.47531,
                47.33956
            ],
            [
                -122.4758046780767,
                47.33959111127581
            ],
            [
                -122.47570361914948,
                47.339580052264324
            ],
            [
                -122.47573002666336,
                47.339598133815464
            ],
            [
                -122.47585023185451,
                47.339592662768084
            ],
            [
                -122.4758136985936,
                47.33955713308545
            ],
            [
                -122.47570933418027,
                47.33958575141409
            ],
            [
                -122.47556609634422,
                47.33954742390243
            ],
            [
                -122.4793372705025,
                47.335766608340165
            ],
            [
                -122.49351491955416,
                47.324077890688045
            ],
            [
                -122.51455798316647,
                47.328005699439565
            ],
            [
                -122.5318108936821,
                47.3382064725516
            ],
            [
                -122.53411159908977,
                47.35664236542444
            ],
            [
                -122.52993759819263,
                47.3786149339172
            ],
            [
                -122.53502146708325,
                47.399240062317645
            ],
            [
                -122.5276582749958,
                47.421881838203916
            ],
            [
                -122.52229720353927,
                47.44350015321021
            ],
            [
                -122.51553637344902,
                47.4648354836556
            ],
            [
                -122.50356130363855,
                47.48480582580649
            ],
            [
                -122.49059360720224,
                47.50433592689296
            ],
            [
                -122.49189293921008,
                47.52392937093795
            ],
            [
                -122.51650197747901,
                47.532687495995226
            ],
            [
                -122.53246720275718,
                47.53607342212435
            ],
            [
                -122.5337255608102,
                47.53592804560513
            ],
            [
                -122.53317843100469,
                47.53595856257284
            ],
            [
                -122.53399330806268,
                47.53594008403123
            ],
            [
                -122.53388139230195,
                47.535932282302376
            ],
            [
                -122.53378523209545,
                47.53591463397233
            ],
            [
                -122.53414730486531,
                47.535881630203356
            ],
            [
                -122.53331396660795,
                47.53594152796072
            ],
            [
                -122.53410052067633,
                47.535919872988366
            ],
            [
                -122.53383944551909,
                47.53593721616678
            ],
            [
                -122.53380389495868,
                47.53596583073673
            ],
            [
                -122.5337810011671,
                47.53595972826406
            ],
            [
                -122.53407600388604,
                47.53589561906526
            ],
            [
                -122.53324271020655,
                47.53595861706461
            ],
            [
                -122.53350116085755,
                47.535959640745915
            ],
            [
                -122.5335972642514,
                47.53596092836652
            ],
            [
                -122.53359060320574,
                47.53592776890137
            ],
            [
                -122.53384094629044,
                47.53594739600558
            ],
            [
                -122.53351838452981,
                47.53595865186107
            ],
            [
                -122.53366006219406,
                47.53595845016178
            ],
            [
                -122.5334773532339,
                47.535959631949815
            ],
            [
                -122.53298464369708,
                47.53592174551158
            ],
            [
                -122.53264786464226,
                47.53585984889433
            ],
            [
                -122.53355860168361,
                47.53594989474233
            ],
            [
                -122.53312510475088,
                47.535930354568926
            ],
            [
                -122.53306650143409,
                47.53592103714276
            ],
            [
                -122.53303494640377,
                47.535918239730194
            ],
            [
                -122.53311001124466,
                47.53592158366063
            ],
            [
                -122.53297615625034,
                47.53592913314754
            ],
            [
                -122.5328901605238,
                47.5359196689461
            ],
            [
                -122.53308570458469,
                47.535939794370044
            ],
            [
                -122.53283382413541,
                47.53591199047978
            ],
            [
                -122.53288563538965,
                47.53592574817593
            ],
            [
                -122.53276288836479,
                47.535890684206656
            ],
            [
                -122.5328961045763,
                47.535928704767
            ],
            [
                -122.53289122289802,
                47.53591150786921
            ],
            [
                -122.53281022760864,
                47.53589317974167
            ],
            [
                -122.53277313053684,
                47.53588699758051
            ],
            [
                -122.5325971241846,
                47.53584928159965
            ],
            [
                -122.5330813621003,
                47.535938305857236
            ],
            [
                -122.53294345130615,
                47.535906782273386
            ],
            [
                -122.53279616769397,
                47.53587227260397
            ],
            [
                -122.53307949731122,
                47.53592146169906
            ],
            [
                -122.53303140078094,
                47.53592166819197
            ],
            [
                -122.53340885022541,
                47.535952604688
            ],
            [
                -122.53322245082725,
                47.535934598554036
            ],
            [
                -122.53259677496452,
                47.535855812776894
            ],
            [
                -122.53272855901957,
                47.53590373484365
            ],
            [
                -122.53260169183613,
                47.535851788526834
            ],
            [
                -122.53251067514708,
                47.53579866471052
            ],
            [
                -122.53250014029896,
                47.535813435923
            ],
            [
                -122.532300945869,
                47.53575016782201
            ],
            [
                -122.5322683004273,
                47.53573975386633
            ],
            [
                -122.53231235134206,
                47.535783950872954
            ],
            [
                -122.53214528901412,
                47.53570070469825
            ],
            [
                -122.5322993046791,
                47.535749786537615
            ],
            [
                -122.53202191221024,
                47.53552158588655
            ],
            [
                -122.53162,
                47.53533
            ]
        ]
    },
    "properties": {
        "trajectory_id": 4407,
        "object_id": 369080000,
        "label": "TOWING"
    }
}