{
    "type": "Feature",
    "geometry": {
        "type": "LineString",
        "coordinates": [
            [
                -125.32651,
                47.9454
            ],
            [
                -125.31637649276377,
                47.95132801891987
            ],
            [
                -125.30622501302523,
                47.95736349821163
            ],
            [
                -125.29613491998576,
                47.96337018967676
            ],
            [
                -125.28604595014224,
                47.969387130147915
            ],
            [
                -125.2762254336623,
                47.975717397395584
            ],
            [
                -125.26958540463792,
                47.98341618170562
            ],
            [
                -125.26329377456686,
                47.99156011096589
            ],
            [
                -125.25692899916784,
                47.99975963774116
            ],
            [
                -125.25043539207233,
                48.00803937881847
            ],
            [
                -125.24474541809154,
                48.01674958106759
            ],
            [
                -125.23960033991179,
                48.02584078884146
            ],
            [
                -125.23521005439217,
                48.0352057323445
            ],
            [
                -125.23096079244651,
                48.04465067712773
            ],
            [
                -125.22655774655593,
                48.0540124426884
            ],
            [
                -125.22243238034608,
                48.06347102608329
            ],
            [
                -125.21830243972553,
                48.07293157062999
            ],
            [
                -125.21393301920055,
                48.08223809527119
            ],
            [
                -125.20922647644835,
                48.09139763316534
            ],
            [
                -125.20454126693255,
                48.1005640785982
            ],
            [
                -125.20007876701719,
                48.109779548463536
            ],
            [
                -125.19588538323993,
                48.118968199089664
            ],
            [
                -125.19121903887074,
                48.12839341183966
            ],
            [
                -125.18668355402117,
                48.13780623549328
            ],
            [
                -125.18219875446955,
                48.14725879913906
            ],
            [
                -125.17744321891891,
                48.15669467819164
            ],
            [
                -125.17267810100957,
                48.166140611913875
            ],
            [
                -125.16904058128206,
                48.17543679016191
            ],
            [
                -125.1661512960469,
                48.1843577728296
            ],
            [
                -125.16323208691878,
                48.19290524614217
            ],
            [
                -125.1603019277224,
                48.20133334788846
            ],
            [
                -125.15731646356957,
                48.209545695282166
            ],
            [
                -125.15379861880189,
                48.21790598501521
            ],
            [
                -125.15028162494242,
                48.22644054589856
            ],
            [
                -125.14622905438966,
                48.234903896499816
            ],
            [
                -125.14173604851445,
                48.24359677576603
            ],
            [
                -125.13737779360166,
                48.25235120067317
            ],
            [
                -125.13276331638063,
                48.2610586559752
            ],
            [
                -125.12782430378793,
                48.26976128287876
            ],
            [
                -125.12337802836105,
                48.278027709346986
            ],
            [
                -125.1184470783695,
                48.28647641493905
            ],
            [
                -125.11259740848331,
                48.296961504387085
            ],
            [
                -125.10637484906367,
                48.30855495107055
            ],
            [
                -125.10049643528046,
                48.32040604697699
            ],
            [
                -125.09413428339222,
                48.332419939292656
            ],
            [
                -125.08792702232368,
                48.344077329206286
            ],
            [
                -125.08178018289468,
                48.355335335516344
            ],
            [
                -125.07574453459144,
                48.366670918619484
            ],
            [
                -125.07023733552072,
                48.377888587779815
            ],
            [
                -125.06503715121283,
                48.38972122982005
            ],
            [
                -125.05890551408945,
                48.4017802695541
            ],
            [
                -125.05094230645699,
                48.41335087798927
            ],
            [
                -125.0433726034896,
                48.424375692286
            ],
            [
                -125.03570393341366,
                48.43536554810567
            ],
            [
                -125.02833555958202,
                48.44638748405028
            ],
            [
                -125.01792757625937,
                48.45616921870769
            ],
            [
                -125.00405163282761,
                48.46474750252564
            ],
            [
                -124.99012647574104,
                48.473388248061944
            ],
            [
                -124.97452446057702,
                48.47840282618573
            ],
            [
                -124.9581383700889,
                48.479872332010636
            ],
            [
                -124.9426554670928,
                48.48159066260676
            ],
            [
                -124.92824261221305,
                48.48121724843428
            ],
            [
                -124.91431953096894,
                48.480032371804676
            ],
            [
                -124.8997433801251,
                48.47924580153533
            ],
            [
                -124.88489197909452,
                48.478383631929134
            ],
            [
                -124.86977497235046,
                48.477845930787524
            ],
            [
                -124.85441729741335,
                48.477429906110345
            ],
            [
                -124.83890958274715,
                48.47701953732902
            ],
            [
                -124.82335850974773,
                48.476958420810085
            ],
            [
                -124.80764788375171,
                48.47696922902888
            ],
            [
                -124.7918541801852,
                48.477031375088856
            ],
            [
                -124.77618563681835,
                48.477139731440346
            ],
            [
                -124.7605177703591,
                48.47712491584896
            ],
            [
                -124.74487138347487,
                48.47718921674125
            ],
            [
                -124.72903142769525,
                48.47696912918378
            ],
            [
                -124.71505363921813,
                48.47421916109673
            ],
            [
                -124.70105282130775,
                48.47067374142997
            ],
            [
                -124.68799146444435,
                48.4658425606849
            ],
            [
                -124.675993694001,
                48.46031531855389
            ],
            [
                -124.66538,
                48.4529
            ]
        ]
    },
    "properties": {
        "trajectory_id": 4441,
        "object_id": 369527000,
        "label": "CARGO"
    }
}