{
    "type": "Feature",
    "geometry": {
        "type": "LineString",
        "coordinates": [
            [
                -124.03834,
                48.26138
            ],
            [
                -123.99858801995327,
                48.24843170897333
            ],
            [
                -123.96007656689112,
                48.23561363671204
            ],
            [
                -123.9217653684385,
                48.22539079505449
            ],
            [
                -123.87950124503779,
                48.225577886159314
            ],
            [
                -123.83538806680326,
                48.22538679540249
            ],
            [
                -123.79109345664214,
                48.22522578964405
            ],
            [
                -123.74713982776017,
                48.22496620211659
            ],
            [
                -123.70514592946411,
                48.224446247740744
            ],
            [
                -123.66553629630637,
                48.22421930667757
            ],
            [
                -123.62628387735904,
                48.22336897755848
            ],
            [
                -123.58839949705462,
                48.22311176985861
            ],
            [
                -123.55083142001061,
                48.223968427302054
            ],
            [
                -123.51496284925238,
                48.232252198992526
            ],
            [
                -123.48014418111497,
                48.24282371617983
            ],
            [
                -123.45109738007436,
                48.260254769792034
            ],
            [
                -123.43674124437996,
                48.28100727036018
            ],
            [
                -123.43001381025769,
                48.29280617587194
            ],
            [
                -123.41858212147199,
                48.31092934441588
            ],
            [
                -123.41078086940003,
                48.32539682698151
            ],
            [
                -123.4032627011745,
                48.33785265380519
            ],
            [
                -123.38378882892924,
                48.355839301961836
            ],
            [
                -123.3475133036653,
                48.36389376342828
            ],
            [
                -123.30614239222982,
                48.36855090366182
            ],
            [
                -123.25900178701367,
                48.38075869092225
            ],
            [
                -123.20805974898636,
                48.39780211440867
            ],
            [
                -123.17190258341768,
                48.427475135312164
            ],
            [
                -123.16754058737111,
                48.466401097492486
            ],
            [
                -123.18383243352511,
                48.505607176539876
            ],
            [
                -123.20007952750403,
                48.54470321503337
            ],
            [
                -123.21654063016358,
                48.584496113982254
            ],
            [
                -123.23115868637727,
                48.62512656984723
            ],
            [
                -123.24514875957887,
                48.66655670390263
            ],
            [
                -123.22625364459797,
                48.70085571753253
            ],
            [
                -123.16751160373924,
                48.71745783960689
            ],
            [
                -123.11139179061689,
                48.736652025397376
            ],
            [
                -123.05773966745036,
                48.76002650772281
            ],
            [
                -123.01221437848349,
                48.792692209315085
            ],
            [
                -123.02437256051118,
                48.83378927275579
            ],
            [
                -123.05702737972439,
                48.87151073857193
            ],
            [
                -123.09551485803827,
                48.90658289794015
            ],
            [
                -123.14170800490396,
                48.93786855958535
            ],
            [
                -123.18941124044542,
                48.96819496275768
            ],
            [
                -123.23747982314158,
                48.99849806415193
            ],
            [
                -123.28617722710867,
                49.029167810153034
            ],
            [
                -123.33326569369144,
                49.061278254772375
            ],
            [
                -123.36121003975606,
                49.10202771316851
            ],
            [
                -123.34888870888533,
                49.14555847170855
            ],
            [
                -123.33073661806473,
                49.18942188761466
            ],
            [
                -123.31664555562274,
                49.23495494052626
            ],
            [
                -123.30254342218387,
                49.279973509310224
            ],
            [
                -123.26426423243105,
                49.3063805075318
            ],
            [
                -123.22143191246099,
                49.31440094273526
            ],
            [
                -123.17923358161522,
                49.31774992615557
            ],
            [
                -123.14275704398206,
                49.31627500042928
            ],
            [
                -123.11405819178907,
                49.30486598117166
            ],
            [
                -123.08794010016416,
                49.29955918758021
            ],
            [
                -123.07257544294731,
                49.29634336413669
            ],
            [
                -123.06531762942335,
                49.294990740936726
            ],
            [
                -123.06356865248982,
                49.294889206344024
            ],
            [
                -123.06376754327582,
                49.29562092644303
            ],
            [
                -123.06334992187192,
                49.29482499076663
            ],
            [
                -123.06338387552516,
                49.29469644055165
            ],
            [
                -123.06348185499607,
                49.29463926488274
            ],
            [
                -123.0633402922764,
                49.29470974322291
            ],
            [
                -123.0633387060492,
                49.2947576813467
            ],
            [
                -123.06338666248081,
                49.29520367162284
            ],
            [
                -123.06325747268514,
                49.29455257592451
            ],
            [
                -123.0635440110199,
                49.294454549909204
            ],
            [
                -123.06334856009613,
                49.29485633512175
            ],
            [
                -123.06330084544925,
                49.29461635987894
            ],
            [
                -123.0632845181128,
                49.29469765021265
            ],
            [
                -123.06328601415176,
                49.294665231396834
            ],
            [
                -123.06327635967673,
                49.29463533862119
            ],
            [
                -123.06328937035572,
                49.29467499073747
            ],
            [
                -123.06328306857904,
                49.2946849823663
            ],
            [
                -123.06324946985724,
                49.29472495945967
            ],
            [
                -123.06339981101627,
                49.29454856229106
            ],
            [
                -123.063285892812,
                49.294553300714654
            ],
            [
                -123.06337,
                49.29446
            ]
        ]
    },
    "properties": {
        "trajectory_id": 4490,
        "object_id": 431009000,
        "label": "CARGO"
    }
}