{
    "type": "Feature",
    "geometry": {
        "type": "LineString",
        "coordinates": [
            [
                -123.49743,
                48.26907
            ],
            [
                -123.5199995084862,
                48.26212896840311
            ],
            [
                -123.5445696090766,
                48.2590692262147
            ],
            [
                -123.56962037811562,
                48.25925534283104
            ],
            [
                -123.59433183113937,
                48.26017942814262
            ],
            [
                -123.61915015002172,
                48.26221847293632
            ],
            [
                -123.64387876479378,
                48.26400595651975
            ],
            [
                -123.6691853371834,
                48.26512446038614
            ],
            [
                -123.69387834781757,
                48.26733973947478
            ],
            [
                -123.71707166164134,
                48.271309321556764
            ],
            [
                -123.7405024679006,
                48.27411358129391
            ],
            [
                -123.76391474927661,
                48.276255219465114
            ],
            [
                -123.7877372391851,
                48.277805052017634
            ],
            [
                -123.81201259942273,
                48.27927574773271
            ],
            [
                -123.83631588481495,
                48.28111460854287
            ],
            [
                -123.86102391399776,
                48.28325844467131
            ],
            [
                -123.88601116058177,
                48.28588622423834
            ],
            [
                -123.91084310076039,
                48.28882123577652
            ],
            [
                -123.93452894764033,
                48.295288946400134
            ],
            [
                -123.95842302809342,
                48.30202624516857
            ],
            [
                -123.98272029383926,
                48.308093176554316
            ],
            [
                -124.00683218063737,
                48.31436813188937
            ],
            [
                -124.03097652620343,
                48.32072429304299
            ],
            [
                -124.05520720245347,
                48.326459276342085
            ],
            [
                -124.07981567889725,
                48.33230180932061
            ],
            [
                -124.10463520147788,
                48.338341144649135
            ],
            [
                -124.12962912289126,
                48.34457541244353
            ],
            [
                -124.15422424380208,
                48.35206505921022
            ],
            [
                -124.17847418769082,
                48.359933047244425
            ],
            [
                -124.20253404552678,
                48.36721827115075
            ],
            [
                -124.22669557203466,
                48.373671362790034
            ],
            [
                -124.25056116784484,
                48.38005168502831
            ],
            [
                -124.27443197366978,
                48.38641866671308
            ],
            [
                -124.29792982919574,
                48.39275493384169
            ],
            [
                -124.32126928605737,
                48.39933714523081
            ],
            [
                -124.34412948246923,
                48.40575418511184
            ],
            [
                -124.36704181214019,
                48.411903037438364
            ],
            [
                -124.3900293287187,
                48.41776868401968
            ],
            [
                -124.41317250018868,
                48.423776541981255
            ],
            [
                -124.43616180082705,
                48.43074246116438
            ],
            [
                -124.45954625196755,
                48.43807648959312
            ],
            [
                -124.48365575223112,
                48.44539564148064
            ],
            [
                -124.50815760128036,
                48.452667142376065
            ],
            [
                -124.53276777568085,
                48.46005316714132
            ],
            [
                -124.55756452600407,
                48.46728083290559
            ],
            [
                -124.58254538633994,
                48.47444451600425
            ],
            [
                -124.6074985832262,
                48.48170523021219
            ],
            [
                -124.63225723465982,
                48.48851605341103
            ],
            [
                -124.65635028299542,
                48.495280847870184
            ],
            [
                -124.68048638524549,
                48.5016846375368
            ],
            [
                -124.70516802792216,
                48.50750915784836
            ],
            [
                -124.73027079410215,
                48.50997426562272
            ],
            [
                -124.75603175572346,
                48.510526186481414
            ],
            [
                -124.78234631381416,
                48.510626925176474
            ],
            [
                -124.80931619476864,
                48.51077586179317
            ],
            [
                -124.83717874561499,
                48.511383915151406
            ],
            [
                -124.86531315865946,
                48.5116616428723
            ],
            [
                -124.89368703412025,
                48.51163647512367
            ],
            [
                -124.92214278600764,
                48.51143881013404
            ],
            [
                -124.95061626606834,
                48.51157514517476
            ],
            [
                -124.97954574590798,
                48.511670036266295
            ],
            [
                -125.00954077639315,
                48.51150430760275
            ],
            [
                -125.03922988907071,
                48.5109902022126
            ],
            [
                -125.06765456839003,
                48.511930945827395
            ],
            [
                -125.09569810197615,
                48.51226254642607
            ],
            [
                -125.12372790903207,
                48.5122796806468
            ],
            [
                -125.15184965884713,
                48.5122854089204
            ],
            [
                -125.180266703639,
                48.51217511851614
            ],
            [
                -125.20881812422482,
                48.51198073992537
            ],
            [
                -125.23748125511248,
                48.511833636924095
            ],
            [
                -125.26576133662242,
                48.51107096583178
            ],
            [
                -125.27411509850985,
                48.497612327276535
            ],
            [
                -125.27891831055209,
                48.48178327937599
            ],
            [
                -125.28387966125852,
                48.46517214195638
            ],
            [
                -125.2883831315029,
                48.44840618022696
            ],
            [
                -125.29316322088675,
                48.43186270425114
            ],
            [
                -125.2980015886012,
                48.41534427617643
            ],
            [
                -125.30327550436682,
                48.39896348718576
            ],
            [
                -125.3088295505843,
                48.38276100349943
            ],
            [
                -125.32613,
                48.37208
            ]
        ]
    },
    "properties": {
        "trajectory_id": 4494,
        "object_id": 431400000,
        "label": "CARGO"
    }
}