{
    "type": "Feature",
    "geometry": {
        "type": "LineString",
        "coordinates": [
            [
                -122.96765,
                49.29513
            ],
            [
                -122.9680000958877,
                49.29513000967266
            ],
            [
                -122.96844865203107,
                49.295230515484505
            ],
            [
                -122.96939586566347,
                49.295196190846866
            ],
            [
                -122.97059920219219,
                49.29494457280067
            ],
            [
                -122.97109333917015,
                49.294840768399794
            ],
            [
                -122.97095986746577,
                49.29486059091395
            ],
            [
                -122.97079556187887,
                49.29498784941997
            ],
            [
                -122.97067011121092,
                49.29507004282271
            ],
            [
                -122.97085332196397,
                49.294968307569306
            ],
            [
                -122.97105020730639,
                49.29480880537244
            ],
            [
                -122.97125738443144,
                49.29454648905299
            ],
            [
                -122.97126802792258,
                49.29445283378563
            ],
            [
                -122.97135046240079,
                49.294437877091724
            ],
            [
                -122.97136724143958,
                49.29438320413232
            ],
            [
                -122.9714369761294,
                49.29408720728498
            ],
            [
                -122.9714010651065,
                49.29372812781275
            ],
            [
                -122.97131642922577,
                49.29386981494622
            ],
            [
                -122.97122810069025,
                49.29408079078747
            ],
            [
                -122.97135302878524,
                49.294172350440284
            ],
            [
                -122.97142079051959,
                49.29424415024064
            ],
            [
                -122.97132110546316,
                49.294192100245134
            ],
            [
                -122.97124901552898,
                49.29407116478517
            ],
            [
                -122.97140173111075,
                49.29391890890809
            ],
            [
                -122.97142262041942,
                49.29369477372273
            ],
            [
                -122.97129107333878,
                49.293607298644204
            ],
            [
                -122.97131724586828,
                49.29356095556707
            ],
            [
                -122.97139051894258,
                49.29352538516906
            ],
            [
                -122.97136558178578,
                49.29366518752709
            ],
            [
                -122.97119563321954,
                49.29383475858178
            ],
            [
                -122.97122836781887,
                49.294041276642155
            ],
            [
                -122.97135087297296,
                49.294204688928936
            ],
            [
                -122.9715030535284,
                49.294182726591906
            ],
            [
                -122.9712606257718,
                49.29406778701827
            ],
            [
                -122.97128840160609,
                49.29387216740727
            ],
            [
                -122.97141008298779,
                49.293681618526
            ],
            [
                -122.97135029417998,
                49.29348021493273
            ],
            [
                -122.97123972428278,
                49.293319393597635
            ],
            [
                -122.97115295456175,
                49.29315519037586
            ],
            [
                -122.97095137019596,
                49.292992126394495
            ],
            [
                -122.9706853671391,
                49.29284407334398
            ],
            [
                -122.97054414373089,
                49.29274966995727
            ],
            [
                -122.97031386366521,
                49.292780834055996
            ],
            [
                -122.96984918564848,
                49.29304652261076
            ],
            [
                -122.96941873560718,
                49.29326982571741
            ],
            [
                -122.96955992100199,
                49.29335139131479
            ],
            [
                -122.96972728036042,
                49.2934327470937
            ],
            [
                -122.97004658390364,
                49.29333245716439
            ],
            [
                -122.97065099881883,
                49.29337847606025
            ],
            [
                -122.97062004392859,
                49.29349370787087
            ],
            [
                -122.97384544134592,
                49.296118164576335
            ],
            [
                -122.98276000924557,
                49.29786487023821
            ],
            [
                -123.00299107024674,
                49.29544836047609
            ],
            [
                -123.02538178032607,
                49.29517708434563
            ],
            [
                -123.05050348907535,
                49.29578415321589
            ],
            [
                -123.06852200570044,
                49.29549592790136
            ],
            [
                -123.09119170091896,
                49.297823995425325
            ],
            [
                -123.11758372476658,
                49.306316532298844
            ],
            [
                -123.14275181780478,
                49.3162377770583
            ],
            [
                -123.16449858239699,
                49.31977326796736
            ],
            [
                -123.17834670136429,
                49.321411577985074
            ],
            [
                -123.19269280274857,
                49.32443916093679
            ],
            [
                -123.2259591292948,
                49.32290950196612
            ],
            [
                -123.2677557213597,
                49.31651419271279
            ],
            [
                -123.30358887905936,
                49.297266912014756
            ],
            [
                -123.33056372530633,
                49.271238396422284
            ],
            [
                -123.34541907156614,
                49.240531150331655
            ],
            [
                -123.35729933275785,
                49.20844138511845
            ],
            [
                -123.36803346205728,
                49.1758805525375
            ],
            [
                -123.37885685209315,
                49.14320859060754
            ],
            [
                -123.38747153993411,
                49.110111747008744
            ],
            [
                -123.38834436247937,
                49.07667746251735
            ],
            [
                -123.36712067143995,
                49.046530621732835
            ],
            [
                -123.33055476455694,
                49.02167429674985
            ],
            [
                -123.29300598293884,
                48.99622041506143
            ],
            [
                -123.25457882586011,
                48.97141914217431
            ],
            [
                -123.21614530089502,
                48.94700440584968
            ],
            [
                -123.17770234144277,
                48.922386853168454
            ],
            [
                -123.13867116587292,
                48.89827357157068
            ],
            [
                -123.10113,
                48.87458
            ]
        ]
    },
    "properties": {
        "trajectory_id": 4554,
        "object_id": 538005269,
        "label": "TANKER"
    }
}