{
    "type": "Feature",
    "geometry": {
        "type": "LineString",
        "coordinates": [
            [
                -123.39075,
                49.11552
            ],
            [
                -123.39696501993208,
                49.10810900580346
            ],
            [
                -123.4040224999611,
                49.101318600293375
            ],
            [
                -123.40525161924504,
                49.09653047119937
            ],
            [
                -123.39045774508965,
                49.08551747632689
            ],
            [
                -123.36640326489058,
                49.08629062670272
            ],
            [
                -123.34956323868126,
                49.08875668376483
            ],
            [
                -123.31902260809196,
                49.09867096367339
            ],
            [
                -123.28344940576248,
                49.1119351795837
            ],
            [
                -123.24699660754074,
                49.1272186133716
            ],
            [
                -123.20938081774325,
                49.12612138855821
            ],
            [
                -123.17450533140651,
                49.113410830831405
            ],
            [
                -123.13775758995169,
                49.10778746665422
            ],
            [
                -123.10286495006638,
                49.11305536298041
            ],
            [
                -123.07075484481015,
                49.12465578847981
            ],
            [
                -123.04651446062438,
                49.14331065069281
            ],
            [
                -123.01215936890534,
                49.15228084881817
            ],
            [
                -122.9784941597311,
                49.15700325312494
            ],
            [
                -122.94377862800289,
                49.1586829928435
            ],
            [
                -122.92509908446607,
                49.17220766034184
            ],
            [
                -122.92041054757036,
                49.178109117718186
            ],
            [
                -122.91831916236752,
                49.18066831802992
            ],
            [
                -122.91839408113255,
                49.180553085362206
            ],
            [
                -122.91844525745086,
                49.18052807640473
            ],
            [
                -122.91842772996338,
                49.18057777047476
            ],
            [
                -122.91837815481028,
                49.180510403771315
            ],
            [
                -122.91846344388345,
                49.18056613654615
            ],
            [
                -122.91844160327851,
                49.18050242397461
            ],
            [
                -122.9184438452395,
                49.1805531327082
            ],
            [
                -122.91847930063184,
                49.18055918809078
            ],
            [
                -122.91843385440072,
                49.18058712631412
            ],
            [
                -122.91832993070163,
                49.180537652097954
            ],
            [
                -122.91838887041936,
                49.18064172945232
            ],
            [
                -122.91832954434574,
                49.18054108962655
            ],
            [
                -122.91834858604548,
                49.180489904749926
            ],
            [
                -122.91838995714888,
                49.180530066603225
            ],
            [
                -122.91836073922488,
                49.18057999441552
            ],
            [
                -122.91845896891897,
                49.18051819939929
            ],
            [
                -122.91845494504481,
                49.18050843313176
            ],
            [
                -122.91847740763197,
                49.18055064446517
            ],
            [
                -122.9184940390342,
                49.18053472686141
            ],
            [
                -122.91850303948078,
                49.180492159899856
            ],
            [
                -122.91845087997795,
                49.18057062701237
            ],
            [
                -122.91851370197664,
                49.18057957009819
            ],
            [
                -122.91849363176779,
                49.18060469314885
            ],
            [
                -122.91851796264905,
                49.18060940702197
            ],
            [
                -122.91853538791494,
                49.18056998876514
            ],
            [
                -122.91849449697035,
                49.18052366452322
            ],
            [
                -122.91850747174195,
                49.180548494545555
            ],
            [
                -122.91845873725131,
                49.18051827599528
            ],
            [
                -122.91838965921731,
                49.18053629424858
            ],
            [
                -122.91843726182584,
                49.180494530789986
            ],
            [
                -122.91843512757904,
                49.18063143036458
            ],
            [
                -122.91839296420284,
                49.18048424581392
            ],
            [
                -122.91841533602053,
                49.180539541578746
            ],
            [
                -122.91848566591237,
                49.180596565801125
            ],
            [
                -122.91844273816292,
                49.18048482908182
            ],
            [
                -122.91838397814291,
                49.18050098838846
            ],
            [
                -122.91844009023265,
                49.18052927576103
            ],
            [
                -122.91844481013256,
                49.18051199433182
            ],
            [
                -122.91845202418601,
                49.180544319306534
            ],
            [
                -122.91842628509949,
                49.180515064673074
            ],
            [
                -122.9184103650033,
                49.1805321691478
            ],
            [
                -122.91843957203388,
                49.180523953647835
            ],
            [
                -122.91839527063952,
                49.18052620799824
            ],
            [
                -122.91846054872816,
                49.180575448249954
            ],
            [
                -122.91847843189427,
                49.18057561736438
            ],
            [
                -122.91844671740358,
                49.18054919352565
            ],
            [
                -122.91844580407087,
                49.180530546284174
            ],
            [
                -122.91854493592777,
                49.180510909664335
            ],
            [
                -122.91840092561512,
                49.180503471333424
            ],
            [
                -122.91844789029409,
                49.180528625142856
            ],
            [
                -122.91846462906642,
                49.18052877549544
            ],
            [
                -122.91844469501123,
                49.18052563811102
            ],
            [
                -122.91847593440416,
                49.18052875139146
            ],
            [
                -122.91845146670809,
                49.18059114709839
            ],
            [
                -122.91846926269093,
                49.180569890112665
            ],
            [
                -122.91840355362294,
                49.18049435651676
            ],
            [
                -122.91827802195806,
                49.18034942367154
            ],
            [
                -122.91846,
                49.18057
            ]
        ]
    },
    "properties": {
        "trajectory_id": 4559,
        "object_id": 538005454,
        "label": "CARGO"
    }
}