{
    "type": "Feature",
    "geometry": {
        "type": "LineString",
        "coordinates": [
            [
                -125.32792,
                48.42838
            ],
            [
                -125.29747816130981,
                48.43359532827872
            ],
            [
                -125.26765289807086,
                48.43861983309672
            ],
            [
                -125.2381015061517,
                48.44394117928419
            ],
            [
                -125.20861903864414,
                48.449620863078394
            ],
            [
                -125.1791744516887,
                48.454555305222286
            ],
            [
                -125.15130821519887,
                48.46171038810151
            ],
            [
                -125.12187047096289,
                48.46824491654496
            ],
            [
                -125.09099113848548,
                48.472294997309646
            ],
            [
                -125.0587555795925,
                48.47342808516297
            ],
            [
                -125.02747322959473,
                48.474183864609344
            ],
            [
                -124.99715440232735,
                48.475255826527444
            ],
            [
                -124.96690234762679,
                48.47634873256036
            ],
            [
                -124.93601590284455,
                48.47638310159961
            ],
            [
                -124.90616175696648,
                48.47643446810729
            ],
            [
                -124.87793918249272,
                48.476440923185706
            ],
            [
                -124.84963089313781,
                48.4764993346559
            ],
            [
                -124.82129362750464,
                48.47655252689832
            ],
            [
                -124.79326944341265,
                48.47660634266112
            ],
            [
                -124.76609765813625,
                48.47637721610785
            ],
            [
                -124.73915473519162,
                48.47564437188694
            ],
            [
                -124.71335571219483,
                48.471526515957585
            ],
            [
                -124.68880685443703,
                48.463335977227246
            ],
            [
                -124.66376002292091,
                48.45584421400547
            ],
            [
                -124.63912083853238,
                48.44856531986788
            ],
            [
                -124.61447083537018,
                48.44097051108035
            ],
            [
                -124.59032117346541,
                48.43215443794983
            ],
            [
                -124.56543103092477,
                48.423702627087465
            ],
            [
                -124.5407036826542,
                48.41599023710408
            ],
            [
                -124.51544427362202,
                48.40824953607966
            ],
            [
                -124.48937242215739,
                48.40149254378725
            ],
            [
                -124.4629528193525,
                48.39376495484368
            ],
            [
                -124.4379380794225,
                48.38585327546207
            ],
            [
                -124.41302919176437,
                48.37824021540514
            ],
            [
                -124.38869641804582,
                48.37015838170374
            ],
            [
                -124.36487414746928,
                48.36242318895457
            ],
            [
                -124.34078837890088,
                48.354270704590675
            ],
            [
                -124.31620957084341,
                48.345796671529484
            ],
            [
                -124.29077361160765,
                48.33881520510951
            ],
            [
                -124.26494751625016,
                48.33149293881487
            ],
            [
                -124.23833832418751,
                48.32414784340132
            ],
            [
                -124.2121396999319,
                48.31576930208324
            ],
            [
                -124.18641272180909,
                48.30726117154769
            ],
            [
                -124.16082655547669,
                48.29913724305551
            ],
            [
                -124.13460514852612,
                48.2909692881213
            ],
            [
                -124.10747625065675,
                48.282938420355684
            ],
            [
                -124.0801208229647,
                48.27499336778775
            ],
            [
                -124.05360403655249,
                48.26732513543324
            ],
            [
                -124.02773805975883,
                48.25885146512297
            ],
            [
                -124.00176776729629,
                48.25070161634338
            ],
            [
                -123.97656167154129,
                48.24257673143125
            ],
            [
                -123.95088744954079,
                48.23422717289377
            ],
            [
                -123.9242912918673,
                48.225773512537515
            ],
            [
                -123.89745628598055,
                48.22003323089585
            ],
            [
                -123.87003226949575,
                48.22138564674214
            ],
            [
                -123.84101263855695,
                48.22176379898527
            ],
            [
                -123.81110572268464,
                48.22152187648498
            ],
            [
                -123.78074123470475,
                48.22176466908501
            ],
            [
                -123.75138748167436,
                48.221937468460524
            ],
            [
                -123.72236545836635,
                48.221845494014325
            ],
            [
                -123.692795710385,
                48.22110833016382
            ],
            [
                -123.66271575889864,
                48.221759630456276
            ],
            [
                -123.63265486769956,
                48.22233972675043
            ],
            [
                -123.60922992094822,
                48.222326810007864
            ],
            [
                -123.58892033038472,
                48.22273950403752
            ],
            [
                -123.56374003321092,
                48.22283590772243
            ],
            [
                -123.53281861062527,
                48.21973712943109
            ],
            [
                -123.50069555192994,
                48.20760252499517
            ],
            [
                -123.47129982446982,
                48.19478199277202
            ],
            [
                -123.44311545223262,
                48.1820174704104
            ],
            [
                -123.4144924759213,
                48.169038503147235
            ],
            [
                -123.38658788562611,
                48.16367091830706
            ],
            [
                -123.35270063063278,
                48.168151252798786
            ],
            [
                -123.30317891020472,
                48.17274913345575
            ],
            [
                -123.24702654862176,
                48.179585958918736
            ],
            [
                -123.18909151893337,
                48.188304591517586
            ],
            [
                -123.13199799966692,
                48.19747347592155
            ],
            [
                -123.07167820862693,
                48.198336575842156
            ],
            [
                -123.01119832443158,
                48.1940351813493
            ],
            [
                -122.95413,
                48.19081
            ]
        ]
    },
    "properties": {
        "trajectory_id": 4611,
        "object_id": 636016306,
        "label": "CARGO"
    }
}