{
    "type": "Feature",
    "geometry": {
        "type": "LineString",
        "coordinates": [
            [
                -123.20388,
                48.70891
            ],
            [
                -123.15364874479911,
                48.72270363088378
            ],
            [
                -123.10507216854198,
                48.7395366209289
            ],
            [
                -123.0577382281663,
                48.759153891878796
            ],
            [
                -123.01735774020145,
                48.78320675839285
            ],
            [
                -123.006963506862,
                48.81622282597683
            ],
            [
                -123.02922690806204,
                48.845711331882
            ],
            [
                -123.05933636091397,
                48.873421737622586
            ],
            [
                -123.08905978881266,
                48.90171828362655
            ],
            [
                -123.12786219160829,
                48.92565266051408
            ],
            [
                -123.1667036932304,
                48.94906056189069
            ],
            [
                -123.20425572414655,
                48.973613252856865
            ],
            [
                -123.24183608396152,
                48.99888660486275
            ],
            [
                -123.27692396464192,
                49.023170042890875
            ],
            [
                -123.31011300173854,
                49.04695338487767
            ],
            [
                -123.33337612814591,
                49.07398276837285
            ],
            [
                -123.33355163876702,
                49.10606372513405
            ],
            [
                -123.33139527333071,
                49.137718570360065
            ],
            [
                -123.32358791247984,
                49.16915200862658
            ],
            [
                -123.31668518830982,
                49.200665034328026
            ],
            [
                -123.30996496642483,
                49.23240284794135
            ],
            [
                -123.30438226577957,
                49.26420942139691
            ],
            [
                -123.28376693823161,
                49.292204900760964
            ],
            [
                -123.24545261351369,
                49.31083622024803
            ],
            [
                -123.20161517116009,
                49.31818466112223
            ],
            [
                -123.16100172583917,
                49.319279583133266
            ],
            [
                -123.13323863170339,
                49.312937503454904
            ],
            [
                -123.11068019354218,
                49.30355212336565
            ],
            [
                -123.08634440112382,
                49.30138309824301
            ],
            [
                -123.07296637192805,
                49.30046412340158
            ],
            [
                -123.07107431921104,
                49.3000314490625
            ],
            [
                -123.07122440160295,
                49.299626793038364
            ],
            [
                -123.07111990182482,
                49.29945751611461
            ],
            [
                -123.0715403758894,
                49.29958066309105
            ],
            [
                -123.07165903322479,
                49.300107270602794
            ],
            [
                -123.07171149633845,
                49.30112022612356
            ],
            [
                -123.07194127848861,
                49.30079415393419
            ],
            [
                -123.07213943784987,
                49.30054336330431
            ],
            [
                -123.07214736590664,
                49.30022443551532
            ],
            [
                -123.07267418716391,
                49.30031938189055
            ],
            [
                -123.07283068267118,
                49.30068868071633
            ],
            [
                -123.07283155573094,
                49.300960196505045
            ],
            [
                -123.07279332069587,
                49.301078798491595
            ],
            [
                -123.07281062639564,
                49.300979639987
            ],
            [
                -123.07282501814149,
                49.300958355237974
            ],
            [
                -123.07278993767906,
                49.30097962771119
            ],
            [
                -123.07287046072385,
                49.30077499976628
            ],
            [
                -123.07283986617095,
                49.30086999958212
            ],
            [
                -123.07287953903852,
                49.3008206183064
            ],
            [
                -123.07289916888845,
                49.300832847272964
            ],
            [
                -123.07289455148032,
                49.30076912740562
            ],
            [
                -123.07287999079304,
                49.300778907036786
            ],
            [
                -123.07290413913721,
                49.30074293833887
            ],
            [
                -123.0729019327098,
                49.30073544491537
            ],
            [
                -123.07289143794644,
                49.30062775606761
            ],
            [
                -123.07288986850683,
                49.30067009250902
            ],
            [
                -123.07288106068543,
                49.30063929885635
            ],
            [
                -123.07292245237285,
                49.30066020404599
            ],
            [
                -123.07291996426338,
                49.30056002528789
            ],
            [
                -123.07288909388738,
                49.30054313975586
            ],
            [
                -123.07290001410088,
                49.30050974593703
            ],
            [
                -123.0728782235862,
                49.30053044251734
            ],
            [
                -123.07288811768599,
                49.30049165465511
            ],
            [
                -123.07288220144801,
                49.30049528579336
            ],
            [
                -123.07282933865964,
                49.30061594097974
            ],
            [
                -123.07284889917041,
                49.300720539225544
            ],
            [
                -123.07283946858931,
                49.300628170514784
            ],
            [
                -123.07281786966372,
                49.30052033574089
            ],
            [
                -123.07285063038286,
                49.30071149830141
            ],
            [
                -123.07288114399263,
                49.30053301014417
            ],
            [
                -123.07287229276648,
                49.30043572063889
            ],
            [
                -123.0727691511683,
                49.30038361023699
            ],
            [
                -123.07276946686764,
                49.300469824197855
            ],
            [
                -123.07279110332142,
                49.30028634702163
            ],
            [
                -123.07261931008327,
                49.300286768502154
            ],
            [
                -123.07263453738311,
                49.30037965022542
            ],
            [
                -123.07281849593913,
                49.30036864668516
            ],
            [
                -123.0727929471596,
                49.30031951055461
            ],
            [
                -123.07273037977977,
                49.30020832426734
            ],
            [
                -123.07245,
                49.29986
            ]
        ]
    },
    "properties": {
        "trajectory_id": 4620,
        "object_id": 636017560,
        "label": "CARGO"
    }
}