{
    "type": "Feature",
    "geometry": {
        "type": "LineString",
        "coordinates": [
            [
                -123.21388,
                48.53286
            ],
            [
                -123.20968907623677,
                48.51047590388955
            ],
            [
                -123.20527818060977,
                48.487900092522345
            ],
            [
                -123.20159166243407,
                48.46496871848633
            ],
            [
                -123.20034306492353,
                48.441723545228044
            ],
            [
                -123.20765207120917,
                48.41955262075623
            ],
            [
                -123.23137075952593,
                48.40533532489962
            ],
            [
                -123.2594188334175,
                48.39474420552606
            ],
            [
                -123.28735872825442,
                48.386971439383615
            ],
            [
                -123.31453952713044,
                48.383877121689025
            ],
            [
                -123.34261086003515,
                48.38461204253166
            ],
            [
                -123.37116908612296,
                48.38546843782844
            ],
            [
                -123.39656063052743,
                48.3800244149582
            ],
            [
                -123.41192063326464,
                48.365004503546956
            ],
            [
                -123.42590831361656,
                48.34798718467521
            ],
            [
                -123.43988263218962,
                48.33041070643202
            ],
            [
                -123.4543110984567,
                48.312826498240575
            ],
            [
                -123.46839167683974,
                48.29527201296004
            ],
            [
                -123.48472547852917,
                48.278916240483
            ],
            [
                -123.50833594984887,
                48.26742158935402
            ],
            [
                -123.53606556368126,
                48.262482477390016
            ],
            [
                -123.56487637842379,
                48.261785025795774
            ],
            [
                -123.59352440100731,
                48.26199269154738
            ],
            [
                -123.62239230047463,
                48.26308088576267
            ],
            [
                -123.65128969578855,
                48.265533184662786
            ],
            [
                -123.68047271593814,
                48.26817203752293
            ],
            [
                -123.70993369723652,
                48.27069376530508
            ],
            [
                -123.73943260302323,
                48.27361038087814
            ],
            [
                -123.769251272162,
                48.276575005363945
            ],
            [
                -123.79910194752966,
                48.27982693475456
            ],
            [
                -123.8293154033689,
                48.28280698896563
            ],
            [
                -123.86002932597867,
                48.28613632925423
            ],
            [
                -123.8908378257097,
                48.28982760741451
            ],
            [
                -123.92213673083079,
                48.293904008243146
            ],
            [
                -123.95282004858458,
                48.300142648579
            ],
            [
                -123.9840487964978,
                48.30718170817911
            ],
            [
                -124.01688177886024,
                48.31326564073345
            ],
            [
                -124.05020719562549,
                48.31942458027396
            ],
            [
                -124.0828575052202,
                48.32724785401056
            ],
            [
                -124.11467231667669,
                48.33578707358227
            ],
            [
                -124.14683280859977,
                48.34419408877034
            ],
            [
                -124.17854105570207,
                48.35342289786461
            ],
            [
                -124.20960622308596,
                48.36314238310588
            ],
            [
                -124.24071742687376,
                48.37197129697452
            ],
            [
                -124.2711550804653,
                48.38055416359816
            ],
            [
                -124.30069831170673,
                48.38873967953177
            ],
            [
                -124.32990065473031,
                48.396953355800605
            ],
            [
                -124.35906701708575,
                48.40525796537815
            ],
            [
                -124.38825726466709,
                48.41352482424723
            ],
            [
                -124.41760667203559,
                48.421786145721256
            ],
            [
                -124.44704619158456,
                48.43009580345232
            ],
            [
                -124.47618610880599,
                48.43818427682151
            ],
            [
                -124.50548592384543,
                48.44631750836206
            ],
            [
                -124.53504791244127,
                48.4546480982355
            ],
            [
                -124.56460180137415,
                48.46294270680017
            ],
            [
                -124.59406214827844,
                48.47123502272196
            ],
            [
                -124.62371812210802,
                48.47932332298318
            ],
            [
                -124.65357385407508,
                48.48711662249565
            ],
            [
                -124.68360340229911,
                48.49422736540953
            ],
            [
                -124.71288688837714,
                48.50094186266553
            ],
            [
                -124.74145906809672,
                48.50842043253371
            ],
            [
                -124.77066320973785,
                48.51515034215633
            ],
            [
                -124.80103579601462,
                48.519494180991444
            ],
            [
                -124.83249691626897,
                48.52073978799601
            ],
            [
                -124.86481248836004,
                48.52173296433249
            ],
            [
                -124.89740876715595,
                48.52233797773427
            ],
            [
                -124.93019755091422,
                48.523196147818574
            ],
            [
                -124.96278619981955,
                48.523255261887314
            ],
            [
                -124.99547349595994,
                48.523806389178354
            ],
            [
                -125.02801780653579,
                48.52433202568235
            ],
            [
                -125.0603701713889,
                48.5239639035326
            ],
            [
                -125.091542128999,
                48.52223676995085
            ],
            [
                -125.12205082262261,
                48.52028612565286
            ],
            [
                -125.15243936522592,
                48.51874066450042
            ],
            [
                -125.18283804834522,
                48.51602895771594
            ],
            [
                -125.2127773907392,
                48.51209640368922
            ],
            [
                -125.24203478114515,
                48.507047583388086
            ],
            [
                -125.2701740122754,
                48.50022246457672
            ],
            [
                -125.29852639450885,
                48.49341475793879
            ],
            [
                -125.32698,
                48.48672
            ]
        ]
    },
    "properties": {
        "trajectory_id": 4668,
        "object_id": 636023537,
        "label": "CARGO"
    }
}