{
    "type": "Feature",
    "geometry": {
        "type": "LineString",
        "coordinates": [
            [
                -124.61273,
                48.36804
            ],
            [
                -124.61269456597353,
                48.36803259686398
            ],
            [
                -124.61272969053454,
                48.36802000438259
            ],
            [
                -124.61271016050422,
                48.36801042823805
            ],
            [
                -124.61270044491954,
                48.36803060735168
            ],
            [
                -124.61271128410976,
                48.36802981444386
            ],
            [
                -124.61271075732328,
                48.36804084708592
            ],
            [
                -124.61269996746545,
                48.3680288785957
            ],
            [
                -124.6126990149366,
                48.36804175738915
            ],
            [
                -124.61271227356526,
                48.36803088130061
            ],
            [
                -124.61269033257804,
                48.3680395426039
            ],
            [
                -124.61268838189599,
                48.36804193544814
            ],
            [
                -124.61271220002115,
                48.36801062246217
            ],
            [
                -124.61270492547904,
                48.36802369527122
            ],
            [
                -124.61270370396497,
                48.36802768276383
            ],
            [
                -124.61271701246147,
                48.368038249003554
            ],
            [
                -124.6127129855742,
                48.36802455218849
            ],
            [
                -124.61272344106119,
                48.36801567358745
            ],
            [
                -124.61271901016481,
                48.368021365004076
            ],
            [
                -124.61272314554488,
                48.36801303154157
            ],
            [
                -124.61272019441448,
                48.36801122280598
            ],
            [
                -124.61272693117385,
                48.368013214463645
            ],
            [
                -124.61272452356113,
                48.368013152299284
            ],
            [
                -124.6127233236682,
                48.368011893976856
            ],
            [
                -124.61272816644163,
                48.368024379964304
            ],
            [
                -124.61273351349612,
                48.36801625744847
            ],
            [
                -124.61272363965851,
                48.36801846506322
            ],
            [
                -124.61272839979826,
                48.36803229176393
            ],
            [
                -124.61272002261647,
                48.36802443293977
            ],
            [
                -124.61271829754824,
                48.368057072844955
            ],
            [
                -124.61273635813959,
                48.3680375479344
            ],
            [
                -124.61274000856824,
                48.36804445509319
            ],
            [
                -124.61272703965673,
                48.36803289540502
            ],
            [
                -124.61272982678251,
                48.36804512616869
            ],
            [
                -124.61271607172758,
                48.3680499044838
            ],
            [
                -124.61271799607317,
                48.36803941402986
            ],
            [
                -124.61272096783733,
                48.36801177874335
            ],
            [
                -124.61272626090906,
                48.36800933996978
            ],
            [
                -124.61273000896736,
                48.36801771841971
            ],
            [
                -124.61271772207779,
                48.36802580003858
            ],
            [
                -124.61270549568505,
                48.368013604059875
            ],
            [
                -124.61269994645971,
                48.368011632664704
            ],
            [
                -124.61271861346275,
                48.368009848601616
            ],
            [
                -124.61268332782957,
                48.368007174343965
            ],
            [
                -124.61266092569763,
                48.36798236515841
            ],
            [
                -124.61268027689582,
                48.36799194671491
            ],
            [
                -124.61270153362213,
                48.36802077803562
            ],
            [
                -124.6127007206376,
                48.36799955004027
            ],
            [
                -124.61268722802839,
                48.36800850947783
            ],
            [
                -124.61269832652711,
                48.368009399324244
            ],
            [
                -124.61268838010882,
                48.3680307405908
            ],
            [
                -124.61267109120243,
                48.3680302046745
            ],
            [
                -124.61267863775156,
                48.3680292878101
            ],
            [
                -124.61267070690073,
                48.368041133784025
            ],
            [
                -124.61268124793983,
                48.36804920933568
            ],
            [
                -124.61266504660205,
                48.36804087698159
            ],
            [
                -124.61266577089712,
                48.36804677797517
            ],
            [
                -124.61267022705509,
                48.36802996137611
            ],
            [
                -124.61268998098903,
                48.368040152969535
            ],
            [
                -124.61267030704019,
                48.36802991190019
            ],
            [
                -124.61268004206916,
                48.36803004710378
            ],
            [
                -124.6126703717445,
                48.368044539996774
            ],
            [
                -124.6126653141282,
                48.36801589853289
            ],
            [
                -124.6126800353644,
                48.36802998017566
            ],
            [
                -124.6126793575007,
                48.36803797523521
            ],
            [
                -124.61268971848484,
                48.36802931342732
            ],
            [
                -124.61270134096142,
                48.36801007677148
            ],
            [
                -124.61268960112716,
                48.36802285010973
            ],
            [
                -124.61269112776314,
                48.368019794819595
            ],
            [
                -124.61270030396102,
                48.3680289500861
            ],
            [
                -124.61266274424055,
                48.36800783907076
            ],
            [
                -124.61269115650215,
                48.368020136531044
            ],
            [
                -124.61269281508898,
                48.368027349863624
            ],
            [
                -124.61271326807962,
                48.3680221412967
            ],
            [
                -124.61270042396268,
                48.368030086612926
            ],
            [
                -124.61269687430845,
                48.36801168004332
            ],
            [
                -124.61270288505641,
                48.368021890664224
            ],
            [
                -124.61272008398265,
                48.36802035583155
            ],
            [
                -124.61270837519102,
                48.368030346669265
            ],
            [
                -124.61269832368214,
                48.368026543819845
            ],
            [
                -124.61270629589596,
                48.36803009463693
            ],
            [
                -124.61269440945792,
                48.368026289800554
            ],
            [
                -124.61271815154856,
                48.36802279623488
            ],
            [
                -124.61270821911309,
                48.368023850882004
            ],
            [
                -124.61270344912012,
                48.36803110204579
            ],
            [
                -124.61269630369183,
                48.36802670118383
            ],
            [
                -124.61269458659164,
                48.368040952547105
            ],
            [
                -124.61270106452173,
                48.36804121154792
            ],
            [
                -124.61270787356848,
                48.36804438925983
            ],
            [
                -124.61268563715676,
                48.368046563701235
            ],
            [
                -124.61269288761402,
                48.368040978022115
            ],
            [
                -124.61270967459174,
                48.368033614819836
            ],
            [
                -124.61268750908462,
                48.36804714035297
            ],
            [
                -124.6126791517863,
                48.36803942795057
            ],
            [
                -124.61266101707173,
                48.36803775408851
            ],
            [
                -124.61269956985552,
                48.3680363678905
            ],
            [
                -124.61267689322939,
                48.36802901616906
            ],
            [
                -124.61268168836757,
                48.36802107960402
            ],
            [
                -124.61266009499366,
                48.368031073067016
            ],
            [
                -124.61267284451381,
                48.36800107352108
            ],
            [
                -124.61266145693347,
                48.36798632992578
            ],
            [
                -124.6126680811891,
                48.367980746842655
            ],
            [
                -124.61264955172743,
                48.36799996072678
            ],
            [
                -124.61266653149966,
                48.36799956927416
            ],
            [
                -124.61267745361933,
                48.367998317849775
            ],
            [
                -124.61268233472903,
                48.368010348650316
            ],
            [
                -124.61269108173772,
                48.36800762056239
            ],
            [
                -124.61267837165727,
                48.368029834120584
            ],
            [
                -124.61269051611538,
                48.36802011817658
            ],
            [
                -124.6126899128171,
                48.36802863534365
            ],
            [
                -124.61272140485192,
                48.36803783193482
            ],
            [
                -124.61271073730475,
                48.3680288620958
            ],
            [
                -124.61268855192402,
                48.368051485658924
            ],
            [
                -124.61269646893896,
                48.36803116149914
            ],
            [
                -124.61271991410683,
                48.36803982024358
            ],
            [
                -124.61272983256465,
                48.36804001368601
            ],
            [
                -124.61272013484532,
                48.36804990555506
            ],
            [
                -124.61272022684933,
                48.36802983844324
            ],
            [
                -124.61270993805144,
                48.3680298993597
            ],
            [
                -124.61273,
                48.36802
            ]
        ]
    },
    "properties": {
        "trajectory_id": 4706,
        "object_id": 367460470,
        "label": "FISHING"
    }
}