{
    "type": "Feature",
    "geometry": {
        "type": "LineString",
        "coordinates": [
            [
                -123.01436,
                48.53757
            ],
            [
                -123.01439026515816,
                48.53755095286022
            ],
            [
                -123.01439961506367,
                48.5375305949905
            ],
            [
                -123.01438397411971,
                48.53748269277257
            ],
            [
                -123.0143900989785,
                48.537595928772724
            ],
            [
                -123.01443058559491,
                48.537529726509476
            ],
            [
                -123.0143764963324,
                48.5375776316503
            ],
            [
                -123.0143742464642,
                48.53756593101378
            ],
            [
                -123.014358312852,
                48.53752562692222
            ],
            [
                -123.01437611906803,
                48.5375019113023
            ],
            [
                -123.01439021300662,
                48.5375463985038
            ],
            [
                -123.01436371961006,
                48.53750873385824
            ],
            [
                -123.01440257784061,
                48.53751728011465
            ],
            [
                -123.01439267030871,
                48.53751023146534
            ],
            [
                -123.01434105565816,
                48.537543020473976
            ],
            [
                -123.01438251858175,
                48.53749665877414
            ],
            [
                -123.0144106571239,
                48.53751075397389
            ],
            [
                -123.01435766570928,
                48.53759293660166
            ],
            [
                -123.01438913163051,
                48.53754378409596
            ],
            [
                -123.01436536123386,
                48.53757160944086
            ],
            [
                -123.0143577082563,
                48.53757512095518
            ],
            [
                -123.01439163776769,
                48.53751168392904
            ],
            [
                -123.01438831088687,
                48.537520224293466
            ],
            [
                -123.01443721794331,
                48.53752012529807
            ],
            [
                -123.01438763225407,
                48.53757770354394
            ],
            [
                -123.01436417793597,
                48.537577602661436
            ],
            [
                -123.01442431484399,
                48.53756161256482
            ],
            [
                -123.01439709426245,
                48.537557380269575
            ],
            [
                -123.01434330315445,
                48.53758325447947
            ],
            [
                -123.01434956659203,
                48.53754607680791
            ],
            [
                -123.01439577488716,
                48.53758791608189
            ],
            [
                -123.01436982099244,
                48.537576954043345
            ],
            [
                -123.01437490730255,
                48.53756713331575
            ],
            [
                -123.01437094867524,
                48.537550252719306
            ],
            [
                -123.01441264273448,
                48.53754390511279
            ],
            [
                -123.01440727375719,
                48.53751212213442
            ],
            [
                -123.01439921712466,
                48.53759907523583
            ],
            [
                -123.01436592709177,
                48.53758060118811
            ],
            [
                -123.01436927979529,
                48.537579815856276
            ],
            [
                -123.01440490481693,
                48.53758794230068
            ],
            [
                -123.01438968114368,
                48.53757945118768
            ],
            [
                -123.01439022593995,
                48.537607469846925
            ],
            [
                -123.0144295639705,
                48.53757912623675
            ],
            [
                -123.01436986978733,
                48.53753702319827
            ],
            [
                -123.01437227906658,
                48.53757088662746
            ],
            [
                -123.01436184323228,
                48.537570878089184
            ],
            [
                -123.01438307684168,
                48.537508808269166
            ],
            [
                -123.01439699715358,
                48.53756937542778
            ],
            [
                -123.01437382596578,
                48.53756507984864
            ],
            [
                -123.01438876805372,
                48.53752648538781
            ],
            [
                -123.01437024264048,
                48.53750423374538
            ],
            [
                -123.01439338204517,
                48.537531401905056
            ],
            [
                -123.01438738311415,
                48.53756624312319
            ],
            [
                -123.01439831186491,
                48.53753884293465
            ],
            [
                -123.01438173638596,
                48.537562987261055
            ],
            [
                -123.01437926645113,
                48.53749033299695
            ],
            [
                -123.01439564475345,
                48.53748654864897
            ],
            [
                -123.0143822259828,
                48.53754417983917
            ],
            [
                -123.01435172731422,
                48.53759099945476
            ],
            [
                -123.01438711221662,
                48.53754787840187
            ],
            [
                -123.01440096342569,
                48.537528320757
            ],
            [
                -123.0143853544615,
                48.53753080899964
            ],
            [
                -123.0143652171474,
                48.5375480647566
            ],
            [
                -123.01440715614,
                48.53752729460272
            ],
            [
                -123.01436481683182,
                48.537545781464615
            ],
            [
                -123.01438185745744,
                48.537570337995525
            ],
            [
                -123.01437894553575,
                48.53757940720469
            ],
            [
                -123.01437983129148,
                48.53757375379518
            ],
            [
                -123.01439141811231,
                48.53758975319503
            ],
            [
                -123.01438325063667,
                48.537588541772585
            ],
            [
                -123.01437869929701,
                48.53751248060324
            ],
            [
                -123.01434750986407,
                48.537612351418915
            ],
            [
                -123.01435357180418,
                48.53758769757187
            ],
            [
                -123.01438053506376,
                48.537534277307394
            ],
            [
                -123.01438927773656,
                48.53757057432577
            ],
            [
                -123.01440907126245,
                48.537546277784415
            ],
            [
                -123.01439606503452,
                48.53756611055831
            ],
            [
                -123.01440080086721,
                48.53757022515581
            ],
            [
                -123.01436592493403,
                48.537535384626366
            ],
            [
                -123.01436997723697,
                48.53754004421592
            ],
            [
                -123.01439017102345,
                48.53751980498079
            ],
            [
                -123.01438858489591,
                48.537529351738925
            ],
            [
                -123.01442878892477,
                48.5375605983214
            ],
            [
                -123.01439207347204,
                48.53754065763647
            ],
            [
                -123.01438947433833,
                48.53753264701966
            ],
            [
                -123.01438934830459,
                48.537588700605205
            ],
            [
                -123.01436503889187,
                48.537565602662156
            ],
            [
                -123.01437066697802,
                48.53754145210407
            ],
            [
                -123.01436758143014,
                48.537504986050195
            ],
            [
                -123.01442183090624,
                48.537563388077984
            ],
            [
                -123.01437393666448,
                48.53757280837069
            ],
            [
                -123.01436938082111,
                48.53761115418803
            ],
            [
                -123.01430359620359,
                48.53765578951875
            ],
            [
                -123.0143767146047,
                48.53759544985922
            ],
            [
                -123.0144119089045,
                48.53756449804792
            ],
            [
                -123.01441443008721,
                48.537543260718635
            ],
            [
                -123.01433588335445,
                48.53757186229446
            ],
            [
                -123.01432725870528,
                48.53756962255424
            ],
            [
                -123.01432811354083,
                48.53759721959223
            ],
            [
                -123.01434728529651,
                48.53758529529673
            ],
            [
                -123.0143937383356,
                48.53757593838333
            ],
            [
                -123.01436056785639,
                48.53757607751438
            ],
            [
                -123.01441727133657,
                48.53757877286592
            ],
            [
                -123.01436754068318,
                48.53756614449839
            ],
            [
                -123.0143815118438,
                48.537520693674324
            ],
            [
                -123.014358133064,
                48.53757174097071
            ],
            [
                -123.01437207244959,
                48.53755826325983
            ],
            [
                -123.0143926770048,
                48.53752301892008
            ],
            [
                -123.014323481134,
                48.53754726729743
            ],
            [
                -123.01433243972855,
                48.53757444248372
            ],
            [
                -123.01436899022465,
                48.53756764074239
            ],
            [
                -123.01437983191754,
                48.53758676282483
            ],
            [
                -123.01437921619448,
                48.53755432627369
            ],
            [
                -123.01435991849662,
                48.53754548338441
            ],
            [
                -123.01436773096421,
                48.53756923193948
            ],
            [
                -123.0143674068187,
                48.53754997101603
            ],
            [
                -123.01438946179243,
                48.53755220585175
            ],
            [
                -123.01436206504388,
                48.53755102598057
            ],
            [
                -123.01437323103237,
                48.53757404784588
            ],
            [
                -123.01436,
                48.53758
            ]
        ]
    },
    "properties": {
        "trajectory_id": 4731,
        "object_id": 367465730,
        "label": "PLEASURE CRAFT"
    }
}