{
    "type": "Feature",
    "geometry": {
        "type": "LineString",
        "coordinates": [
            [
                -123.71968,
                48.27399
            ],
            [
                -123.7605578204608,
                48.2778536288273
            ],
            [
                -123.80004428886014,
                48.28079544907212
            ],
            [
                -123.83928655318964,
                48.28388885756437
            ],
            [
                -123.87858931481657,
                48.28752229007365
            ],
            [
                -123.91825747107788,
                48.29208411256651
            ],
            [
                -123.95806733694435,
                48.29950753336295
            ],
            [
                -123.99724491216627,
                48.308646109085835
            ],
            [
                -124.03640191018948,
                48.31800300725685
            ],
            [
                -124.07520332652001,
                48.32752161165943
            ],
            [
                -124.11331276776131,
                48.33638669790107
            ],
            [
                -124.14961345754855,
                48.34435982991948
            ],
            [
                -124.18375370361196,
                48.34908775735945
            ],
            [
                -124.2102948809072,
                48.33357144569934
            ],
            [
                -124.21808982053301,
                48.316379488665014
            ],
            [
                -124.18334030774581,
                48.306628454535634
            ],
            [
                -124.1443689749307,
                48.29534206218106
            ],
            [
                -124.10544607967306,
                48.28344005982529
            ],
            [
                -124.06693833273783,
                48.27208693097736
            ],
            [
                -124.02839396524425,
                48.26045804405928
            ],
            [
                -123.98936760853888,
                48.248922640417184
            ],
            [
                -123.94974709702629,
                48.23830694853217
            ],
            [
                -123.91010843428549,
                48.22870370120117
            ],
            [
                -123.86918177602762,
                48.22919297884974
            ],
            [
                -123.82717485896447,
                48.22914654335531
            ],
            [
                -123.78519666150655,
                48.22919143877789
            ],
            [
                -123.74262001586315,
                48.22941986042863
            ],
            [
                -123.69989239500914,
                48.229254849114525
            ],
            [
                -123.66212033272981,
                48.2280244353035
            ],
            [
                -123.62901972340293,
                48.226363828832966
            ],
            [
                -123.59682993106566,
                48.22430256290273
            ],
            [
                -123.5651249442522,
                48.22336332987904
            ],
            [
                -123.53510438632678,
                48.225798386922804
            ],
            [
                -123.51598499630657,
                48.23465613247512
            ],
            [
                -123.53398839610819,
                48.24189716434731
            ],
            [
                -123.56176775596587,
                48.247764811127325
            ],
            [
                -123.58986344891382,
                48.25370302339599
            ],
            [
                -123.61758790541245,
                48.2565369637619
            ],
            [
                -123.64554952879531,
                48.25904344699308
            ],
            [
                -123.67392280477439,
                48.261523205992205
            ],
            [
                -123.70084595502084,
                48.263613402072615
            ],
            [
                -123.72529828579866,
                48.266934990172054
            ],
            [
                -123.74914106666029,
                48.271048278577354
            ],
            [
                -123.77425787339519,
                48.2733317263621
            ],
            [
                -123.80027984938324,
                48.276108870755436
            ],
            [
                -123.8272100764967,
                48.27935352760913
            ],
            [
                -123.85438550711268,
                48.2830232660702
            ],
            [
                -123.88184643654681,
                48.28691387043697
            ],
            [
                -123.90960523370919,
                48.2908957088452
            ],
            [
                -123.93846837533198,
                48.29421866361517
            ],
            [
                -123.96762302774114,
                48.3001399215661
            ],
            [
                -123.99713736828637,
                48.306867478377306
            ],
            [
                -124.02623253271871,
                48.31436202342673
            ],
            [
                -124.05483856070816,
                48.322931908187016
            ],
            [
                -124.0834552895906,
                48.33183388033143
            ],
            [
                -124.11206805728277,
                48.340361950745546
            ],
            [
                -124.14054327819291,
                48.34888295080031
            ],
            [
                -124.16800430426808,
                48.347549143090575
            ],
            [
                -124.19344113651627,
                48.338992385056024
            ],
            [
                -124.21985222832453,
                48.32999045603749
            ],
            [
                -124.2307766638361,
                48.32039087843299
            ],
            [
                -124.21343021469647,
                48.318686527401354
            ],
            [
                -124.19103259490232,
                48.313645560307755
            ],
            [
                -124.16912842103264,
                48.30750179103502
            ],
            [
                -124.14730171638104,
                48.30143912064004
            ],
            [
                -124.12558943049305,
                48.29500180728848
            ],
            [
                -124.10408017736286,
                48.288966028414215
            ],
            [
                -124.0835683857483,
                48.28287578732239
            ],
            [
                -124.06361243937764,
                48.27651965864745
            ],
            [
                -124.04372754597361,
                48.26983935604469
            ],
            [
                -124.02363586065253,
                48.263052890512064
            ],
            [
                -124.00333769771125,
                48.256580701927106
            ],
            [
                -123.98318978407202,
                48.250331901401914
            ],
            [
                -123.96300378771255,
                48.244268418080964
            ],
            [
                -123.94336077208064,
                48.238295611195966
            ],
            [
                -123.92365956037594,
                48.23237151091885
            ],
            [
                -123.90393567074064,
                48.22757910412866
            ],
            [
                -123.88296832797535,
                48.22858201025458
            ],
            [
                -123.86107080226313,
                48.22931422981148
            ],
            [
                -123.83903,
                48.23
            ]
        ]
    },
    "properties": {
        "trajectory_id": 48,
        "object_id": 255806497,
        "label": "CARGO"
    }
}