{
    "type": "Feature",
    "geometry": {
        "type": "LineString",
        "coordinates": [
            [
                -122.50357,
                48.75598
            ],
            [
                -122.50354132882546,
                48.75592279946675
            ],
            [
                -122.5035484755227,
                48.75596236975423
            ],
            [
                -122.50359786472335,
                48.75598561331492
            ],
            [
                -122.50354956077418,
                48.755999709680964
            ],
            [
                -122.50355950963922,
                48.75598002014013
            ],
            [
                -122.50353790164023,
                48.75597594251952
            ],
            [
                -122.5035422740801,
                48.7559595454001
            ],
            [
                -122.503564141044,
                48.756004865723824
            ],
            [
                -122.50353211887351,
                48.756003215003446
            ],
            [
                -122.50352395015696,
                48.7560024190917
            ],
            [
                -122.50356390666012,
                48.75598620178309
            ],
            [
                -122.50360323123408,
                48.755975726527204
            ],
            [
                -122.50356896442122,
                48.75597030171418
            ],
            [
                -122.50353311305048,
                48.755967809860195
            ],
            [
                -122.50359455556192,
                48.75594581005257
            ],
            [
                -122.50358694283318,
                48.75597574101943
            ],
            [
                -122.5035980902063,
                48.7559625469391
            ],
            [
                -122.50361593516426,
                48.755981050103024
            ],
            [
                -122.50356873951662,
                48.75596234194771
            ],
            [
                -122.50355724222743,
                48.75600646663596
            ],
            [
                -122.50360927016233,
                48.755960928176144
            ],
            [
                -122.50360404365034,
                48.75597295547969
            ],
            [
                -122.5035733195489,
                48.755978038343386
            ],
            [
                -122.50355868141685,
                48.7559774065741
            ],
            [
                -122.5035342398902,
                48.75598655179709
            ],
            [
                -122.50355528038803,
                48.75597888924456
            ],
            [
                -122.50354918455974,
                48.75599719371428
            ],
            [
                -122.50358011544846,
                48.755983687465196
            ],
            [
                -122.50356356153937,
                48.755986282354186
            ],
            [
                -122.50349987569119,
                48.7559782581783
            ],
            [
                -122.5035670204145,
                48.755988256485544
            ],
            [
                -122.50356624819963,
                48.75599566194492
            ],
            [
                -122.50356844762341,
                48.756000774101494
            ],
            [
                -122.50356939637543,
                48.75598949153263
            ],
            [
                -122.50353293279647,
                48.755991440234446
            ],
            [
                -122.50357895871616,
                48.75600983786008
            ],
            [
                -122.50360139959463,
                48.75598060025209
            ],
            [
                -122.50356845539481,
                48.75597959090278
            ],
            [
                -122.5036099819547,
                48.75599998744881
            ],
            [
                -122.50353043321775,
                48.75596945268991
            ],
            [
                -122.5035486811667,
                48.755990405985884
            ],
            [
                -122.50355822126356,
                48.755980325547426
            ],
            [
                -122.5035914607291,
                48.75596934978694
            ],
            [
                -122.50355141348678,
                48.75597924665585
            ],
            [
                -122.50358725078644,
                48.75596984049543
            ],
            [
                -122.50358292761517,
                48.75600856080204
            ],
            [
                -122.5035556998748,
                48.75596862906036
            ],
            [
                -122.50354574481274,
                48.75599661633207
            ],
            [
                -122.50357401774608,
                48.75599223703832
            ],
            [
                -122.50358294176152,
                48.7559927659285
            ],
            [
                -122.50359518190963,
                48.75595861778679
            ],
            [
                -122.50360456422297,
                48.755982043719435
            ],
            [
                -122.503606027345,
                48.75600241359328
            ],
            [
                -122.50358066327813,
                48.755978500413256
            ],
            [
                -122.50357882169295,
                48.75600692794188
            ],
            [
                -122.50360439042804,
                48.756040487863515
            ],
            [
                -122.50356476176007,
                48.755978138247556
            ],
            [
                -122.50359061647657,
                48.75599659745336
            ],
            [
                -122.50358920982175,
                48.75597818066424
            ],
            [
                -122.5036391338183,
                48.75594747248618
            ],
            [
                -122.50348745062485,
                48.755975153944206
            ],
            [
                -122.50341610198834,
                48.75599546478433
            ],
            [
                -122.50348927180352,
                48.755990660158616
            ],
            [
                -122.50358415074552,
                48.7559515476685
            ],
            [
                -122.50360836515063,
                48.75596276055374
            ],
            [
                -122.50359558096477,
                48.755965386541114
            ],
            [
                -122.50361179782998,
                48.75596392352288
            ],
            [
                -122.50360578001566,
                48.75596168046255
            ],
            [
                -122.50364880782212,
                48.755960377945776
            ],
            [
                -122.50361344723245,
                48.75595673341192
            ],
            [
                -122.50358021158014,
                48.75596932021349
            ],
            [
                -122.50357255759971,
                48.755951302367706
            ],
            [
                -122.50359332718281,
                48.755963633737956
            ],
            [
                -122.50356378591378,
                48.755964690884234
            ],
            [
                -122.50356798042729,
                48.755937255510545
            ],
            [
                -122.50353861841732,
                48.75596152122197
            ],
            [
                -122.50354944877431,
                48.75598996471329
            ],
            [
                -122.50356056794276,
                48.75601015279131
            ],
            [
                -122.50357000493126,
                48.75597000114472
            ],
            [
                -122.50353015370752,
                48.75596022594301
            ],
            [
                -122.50359782981586,
                48.755969592941284
            ],
            [
                -122.5035681042469,
                48.75596994836888
            ],
            [
                -122.5035520004587,
                48.75596083135132
            ],
            [
                -122.5035517249701,
                48.75597920220297
            ],
            [
                -122.50356812258191,
                48.75598823277317
            ],
            [
                -122.5035624350249,
                48.75596570848232
            ],
            [
                -122.50359659797635,
                48.75599274037686
            ],
            [
                -122.50359935814747,
                48.755973754442614
            ],
            [
                -122.50358602729287,
                48.75598641198101
            ],
            [
                -122.50358129550352,
                48.75599553876529
            ],
            [
                -122.50355221859802,
                48.75598629010254
            ],
            [
                -122.50354450511034,
                48.75604119248157
            ],
            [
                -122.50356737180262,
                48.75601326381785
            ],
            [
                -122.50359254814832,
                48.755990374571994
            ],
            [
                -122.50357663502561,
                48.7559962920432
            ],
            [
                -122.50359038979283,
                48.75600856572618
            ],
            [
                -122.50357848080077,
                48.75597624359279
            ],
            [
                -122.50360989960961,
                48.75598578109908
            ],
            [
                -122.50359354170872,
                48.75597800612247
            ],
            [
                -122.50359738970157,
                48.75598502022025
            ],
            [
                -122.50358104207562,
                48.755967020755115
            ],
            [
                -122.50359796348579,
                48.75594636629195
            ],
            [
                -122.50361653083615,
                48.75596832591081
            ],
            [
                -122.50358869062755,
                48.75597263692956
            ],
            [
                -122.50361458633601,
                48.75595404267358
            ],
            [
                -122.5035780328319,
                48.75595854157436
            ],
            [
                -122.5035755363876,
                48.75596656143643
            ],
            [
                -122.50355308688162,
                48.75595784749726
            ],
            [
                -122.50357546724192,
                48.75599159264454
            ],
            [
                -122.5036098183212,
                48.75597538212149
            ],
            [
                -122.50353645822432,
                48.75598012119808
            ],
            [
                -122.50353613948468,
                48.75599918096622
            ],
            [
                -122.50353657229803,
                48.755998720066295
            ],
            [
                -122.50354929003042,
                48.75600974168342
            ],
            [
                -122.50357038137898,
                48.75600842768555
            ],
            [
                -122.50359021563624,
                48.75596192514338
            ],
            [
                -122.5036002491961,
                48.75597955949015
            ],
            [
                -122.50358056361412,
                48.75602066462155
            ],
            [
                -122.50355,
                48.75601
            ]
        ]
    },
    "properties": {
        "trajectory_id": 4819,
        "object_id": 367489280,
        "label": "FISHING"
    }
}