{
    "type": "Feature",
    "geometry": {
        "type": "LineString",
        "coordinates": [
            [
                -122.38106,
                47.65594
            ],
            [
                -122.38105025974447,
                47.655950530944736
            ],
            [
                -122.38107034461657,
                47.65593975885558
            ],
            [
                -122.38106986865466,
                47.655950083348046
            ],
            [
                -122.38106886028176,
                47.65596043506054
            ],
            [
                -122.38104801351005,
                47.65594898377756
            ],
            [
                -122.38106768083203,
                47.65593997933677
            ],
            [
                -122.38105125187597,
                47.65592895797592
            ],
            [
                -122.38106108244307,
                47.6559502173115
            ],
            [
                -122.38105731248902,
                47.655937393995536
            ],
            [
                -122.3810710848304,
                47.65593891048274
            ],
            [
                -122.38107018571178,
                47.65595062456492
            ],
            [
                -122.38106236668173,
                47.65594103303411
            ],
            [
                -122.38105195810995,
                47.6559487463117
            ],
            [
                -122.38105049796386,
                47.65595487777717
            ],
            [
                -122.38105429166227,
                47.65593787795532
            ],
            [
                -122.38105818800429,
                47.65593207121229
            ],
            [
                -122.38105782049354,
                47.65594061346
            ],
            [
                -122.38105537990586,
                47.65596046534089
            ],
            [
                -122.3810581611712,
                47.655939093245436
            ],
            [
                -122.38106859421745,
                47.655922683701405
            ],
            [
                -122.38104453118102,
                47.655951552226895
            ],
            [
                -122.38105297673805,
                47.65595877875153
            ],
            [
                -122.38106309477111,
                47.655946979287606
            ],
            [
                -122.38106043215605,
                47.655946241067895
            ],
            [
                -122.38105789556074,
                47.655951275218825
            ],
            [
                -122.3810717255993,
                47.65595315434077
            ],
            [
                -122.38106335374962,
                47.6559535986335
            ],
            [
                -122.38106932154032,
                47.6559398850833
            ],
            [
                -122.38107613735289,
                47.65595127606078
            ],
            [
                -122.38106288472157,
                47.655951891549954
            ],
            [
                -122.38108098806671,
                47.655949993528004
            ],
            [
                -122.38107091936752,
                47.65594020152246
            ],
            [
                -122.38105354806275,
                47.65595334301814
            ],
            [
                -122.38107146759803,
                47.655939874743765
            ],
            [
                -122.3810611042051,
                47.655940020622246
            ],
            [
                -122.38106944792739,
                47.65595018366674
            ],
            [
                -122.3810504307754,
                47.65594029482838
            ],
            [
                -122.38106989038525,
                47.655939979708556
            ],
            [
                -122.38105003783372,
                47.65593999033749
            ],
            [
                -122.38106744141928,
                47.65595123098267
            ],
            [
                -122.38106997608347,
                47.65594015637394
            ],
            [
                -122.38107096261491,
                47.65594113913585
            ],
            [
                -122.3810476533826,
                47.65593693855037
            ],
            [
                -122.38105267619216,
                47.655942285164876
            ],
            [
                -122.38105707652213,
                47.65594568799309
            ],
            [
                -122.38105196443213,
                47.65594016515347
            ],
            [
                -122.38107691946442,
                47.65594732190965
            ],
            [
                -122.38106823790626,
                47.65595784790375
            ],
            [
                -122.38108082449082,
                47.655932101264185
            ],
            [
                -122.38105063228794,
                47.6559401660709
            ],
            [
                -122.38107171002011,
                47.655942055674444
            ],
            [
                -122.38107825447814,
                47.655946856399225
            ],
            [
                -122.38105482246347,
                47.65595206024379
            ],
            [
                -122.38105933215918,
                47.65596105131677
            ],
            [
                -122.38105578659612,
                47.65593642054824
            ],
            [
                -122.38108100506841,
                47.65595994910384
            ],
            [
                -122.38105860900885,
                47.655925897174
            ],
            [
                -122.38105253706766,
                47.655937211762875
            ],
            [
                -122.38105875742994,
                47.65593325675595
            ],
            [
                -122.38107085256728,
                47.65595007715937
            ],
            [
                -122.38105868024421,
                47.655947881616534
            ],
            [
                -122.3810651297677,
                47.65595497541552
            ],
            [
                -122.38105564792292,
                47.65593465807825
            ],
            [
                -122.38105335045971,
                47.655948913037804
            ],
            [
                -122.38105354740455,
                47.655971965408064
            ],
            [
                -122.38105279662612,
                47.655964743468424
            ],
            [
                -122.381050951532,
                47.65594331344593
            ],
            [
                -122.38104500961342,
                47.655930590740596
            ],
            [
                -122.38104659751693,
                47.65594955073558
            ],
            [
                -122.381056446619,
                47.65593967516258
            ],
            [
                -122.38105940850632,
                47.655929331366785
            ],
            [
                -122.38106431192803,
                47.655950458801776
            ],
            [
                -122.38105116044093,
                47.65593148980973
            ],
            [
                -122.3810613723908,
                47.655921621519205
            ],
            [
                -122.3810598714141,
                47.65594915468617
            ],
            [
                -122.38107018942154,
                47.65594959976481
            ],
            [
                -122.38106008661124,
                47.655939861094936
            ],
            [
                -122.38107986412687,
                47.65593998192768
            ],
            [
                -122.38103996359554,
                47.6559609053942
            ],
            [
                -122.38107095433188,
                47.65593954132181
            ],
            [
                -122.38106961987269,
                47.65594047162141
            ],
            [
                -122.38106868260499,
                47.655947019905945
            ],
            [
                -122.3810635413642,
                47.655951917930174
            ],
            [
                -122.38106210880134,
                47.6559399598739
            ],
            [
                -122.38106797293186,
                47.65594163336385
            ],
            [
                -122.38106450599426,
                47.655930044974305
            ],
            [
                -122.38107368084563,
                47.65593214237754
            ],
            [
                -122.38107964688375,
                47.655958117169845
            ],
            [
                -122.38109115397607,
                47.655966285159266
            ],
            [
                -122.38106911837413,
                47.65594015745147
            ],
            [
                -122.38108849444298,
                47.655960538120695
            ],
            [
                -122.38106590973202,
                47.65593686204734
            ],
            [
                -122.38107584717062,
                47.65594048739069
            ],
            [
                -122.38107679174581,
                47.655942580992786
            ],
            [
                -122.3810538309833,
                47.65594975628196
            ],
            [
                -122.38107506108997,
                47.655931293508296
            ],
            [
                -122.38107823841204,
                47.65593359645442
            ],
            [
                -122.3810544129727,
                47.65594456777674
            ],
            [
                -122.3810712730631,
                47.655937197490466
            ],
            [
                -122.38113255264624,
                47.655964652745595
            ],
            [
                -122.3811352663079,
                47.655972933454166
            ],
            [
                -122.38105332274182,
                47.65594279748534
            ],
            [
                -122.38107781138996,
                47.655945153293665
            ],
            [
                -122.38107790147822,
                47.65593181364344
            ],
            [
                -122.38106689548691,
                47.655939102712594
            ],
            [
                -122.38108832901125,
                47.65592987636429
            ],
            [
                -122.38107024114979,
                47.65594999840238
            ],
            [
                -122.38108322551243,
                47.65593820574715
            ],
            [
                -122.38107128911207,
                47.65594085751136
            ],
            [
                -122.38106920671731,
                47.65595012562474
            ],
            [
                -122.38107837065823,
                47.6559434877443
            ],
            [
                -122.38107931290126,
                47.65594085643033
            ],
            [
                -122.38104866041697,
                47.65593967978517
            ],
            [
                -122.38107199030316,
                47.655949844647424
            ],
            [
                -122.3810283588755,
                47.6559551652912
            ],
            [
                -122.38108119492992,
                47.655940018239285
            ],
            [
                -122.38107044093091,
                47.65592758852879
            ],
            [
                -122.38106534750844,
                47.65593178315283
            ],
            [
                -122.38108,
                47.65594
            ]
        ]
    },
    "properties": {
        "trajectory_id": 4830,
        "object_id": 367491410,
        "label": "FISHING"
    }
}