{
    "type": "Feature",
    "geometry": {
        "type": "LineString",
        "coordinates": [
            [
                -122.37786,
                47.65691
            ],
            [
                -122.37785000340145,
                47.65690988426378
            ],
            [
                -122.37784000001736,
                47.65691999977924
            ],
            [
                -122.37786000952177,
                47.65692006836892
            ],
            [
                -122.37784999025807,
                47.65691001352673
            ],
            [
                -122.37786000182938,
                47.65691000325227
            ],
            [
                -122.37786002940797,
                47.656909999618804
            ],
            [
                -122.37782995431832,
                47.6569100000254
            ],
            [
                -122.37785000318488,
                47.65690999993819
            ],
            [
                -122.37784999641812,
                47.656899999024965
            ],
            [
                -122.37784001584755,
                47.65690002198913
            ],
            [
                -122.37785000304416,
                47.65690000439735
            ],
            [
                -122.37784000507236,
                47.656910001138115
            ],
            [
                -122.37785005782702,
                47.656909951110805
            ],
            [
                -122.37785003399603,
                47.656900006008364
            ],
            [
                -122.3778499989138,
                47.656930000885716
            ],
            [
                -122.37784999711339,
                47.65690998286073
            ],
            [
                -122.37784045668349,
                47.656910712256064
            ],
            [
                -122.37784521968871,
                47.65691410505186
            ],
            [
                -122.37784657245909,
                47.656929499526434
            ],
            [
                -122.37784815110817,
                47.65691664404067
            ],
            [
                -122.3778493338389,
                47.65690872782004
            ],
            [
                -122.3778651509526,
                47.656910057671354
            ],
            [
                -122.37786201808994,
                47.65689809035247
            ],
            [
                -122.37786090842431,
                47.656910149279085
            ],
            [
                -122.37786484778862,
                47.656903806824566
            ],
            [
                -122.37784755013507,
                47.65691294061702
            ],
            [
                -122.37786153229005,
                47.65689856787981
            ],
            [
                -122.37784327825372,
                47.65691231689484
            ],
            [
                -122.37786297271617,
                47.65689773654146
            ],
            [
                -122.37786243058777,
                47.65690384568648
            ],
            [
                -122.37786906956073,
                47.65691685546403
            ],
            [
                -122.37784856257765,
                47.656920780266205
            ],
            [
                -122.37785686862449,
                47.65689927290923
            ],
            [
                -122.37785215094765,
                47.656901537499955
            ],
            [
                -122.37785838214474,
                47.65690209144366
            ],
            [
                -122.37786764310265,
                47.65689475170065
            ],
            [
                -122.37787024301056,
                47.65691621912489
            ],
            [
                -122.37786470199156,
                47.656919478732966
            ],
            [
                -122.37787783253866,
                47.656916983427
            ],
            [
                -122.37785482795955,
                47.65689876787032
            ],
            [
                -122.37786651783509,
                47.656905511431134
            ],
            [
                -122.37785659516463,
                47.656917794020956
            ],
            [
                -122.37786407361408,
                47.656909054829335
            ],
            [
                -122.37784826689443,
                47.65690125096594
            ],
            [
                -122.37785393778474,
                47.656894686864135
            ],
            [
                -122.377858115472,
                47.656911427571835
            ],
            [
                -122.37785931233027,
                47.656899933502224
            ],
            [
                -122.37785250514968,
                47.65689794785233
            ],
            [
                -122.37786577398222,
                47.656905788336246
            ],
            [
                -122.37785279784339,
                47.65691084390668
            ],
            [
                -122.37785998141786,
                47.65690453655833
            ],
            [
                -122.37786220099785,
                47.65690615435105
            ],
            [
                -122.37784321570699,
                47.65690538387941
            ],
            [
                -122.3778529139057,
                47.656904689317926
            ],
            [
                -122.377863238339,
                47.656905356656786
            ],
            [
                -122.37786228468796,
                47.656910190286055
            ],
            [
                -122.3778436449239,
                47.656910297732104
            ],
            [
                -122.37784761941144,
                47.65689882409294
            ],
            [
                -122.37785180404178,
                47.656903885034616
            ],
            [
                -122.37785587618498,
                47.65691646320013
            ],
            [
                -122.37785863189708,
                47.656908887428116
            ],
            [
                -122.37785565438418,
                47.6569168472603
            ],
            [
                -122.37787784178408,
                47.656899728213446
            ],
            [
                -122.37783606743542,
                47.65691011383611
            ],
            [
                -122.37785847294151,
                47.6569061615664
            ],
            [
                -122.37784799798717,
                47.656896388158344
            ],
            [
                -122.37784170243549,
                47.65690828899152
            ],
            [
                -122.37785216397539,
                47.65689580061571
            ],
            [
                -122.37784021877212,
                47.656904247077435
            ],
            [
                -122.37784080037463,
                47.65690162003811
            ],
            [
                -122.37784788413178,
                47.65691425663732
            ],
            [
                -122.37786685819486,
                47.656899099354526
            ],
            [
                -122.37784404904164,
                47.65690238980664
            ],
            [
                -122.37785338969616,
                47.65689941199864
            ],
            [
                -122.3778605771373,
                47.656892090701405
            ],
            [
                -122.3778536939996,
                47.6569106604047
            ],
            [
                -122.37784344786616,
                47.656909614987754
            ],
            [
                -122.3778402099598,
                47.656909829259135
            ],
            [
                -122.37784973676307,
                47.65689987111584
            ],
            [
                -122.37784983071299,
                47.65690023149132
            ],
            [
                -122.37785996075688,
                47.656900038512276
            ],
            [
                -122.3778804429566,
                47.65689039344531
            ],
            [
                -122.3778600391856,
                47.656889969940224
            ],
            [
                -122.37785015805437,
                47.65689994560967
            ],
            [
                -122.37786002160794,
                47.65689997496692
            ],
            [
                -122.37786011835564,
                47.65690017920218
            ],
            [
                -122.37787008882756,
                47.65688997968784
            ],
            [
                -122.37785989394033,
                47.656899886438396
            ],
            [
                -122.37786018560838,
                47.65690946997475
            ],
            [
                -122.37785001990484,
                47.65688980129192
            ],
            [
                -122.37786005776594,
                47.65689997677741
            ],
            [
                -122.37785987168266,
                47.656909854695655
            ],
            [
                -122.377850116837,
                47.65690984874103
            ],
            [
                -122.37784999859397,
                47.65693000395443
            ],
            [
                -122.3778501721783,
                47.65689977097787
            ],
            [
                -122.37785003867228,
                47.65691002498577
            ],
            [
                -122.37787982554148,
                47.656900237136526
            ],
            [
                -122.37786103434296,
                47.65691178961245
            ],
            [
                -122.37786592221784,
                47.65691297190723
            ],
            [
                -122.37787658812844,
                47.65688808805193
            ],
            [
                -122.37784138697921,
                47.65691981969667
            ],
            [
                -122.37786563914231,
                47.656895951902996
            ],
            [
                -122.37786427669897,
                47.656920290777556
            ],
            [
                -122.37784011159137,
                47.65690465020001
            ],
            [
                -122.37787112511467,
                47.65690663441922
            ],
            [
                -122.37785855933137,
                47.656906424810245
            ],
            [
                -122.3778609871473,
                47.65689991026921
            ],
            [
                -122.37786153114259,
                47.65690021480676
            ],
            [
                -122.37784474440745,
                47.65690557108245
            ],
            [
                -122.377856683915,
                47.65691018477833
            ],
            [
                -122.37786547439194,
                47.65690482171558
            ],
            [
                -122.37787035711067,
                47.65691121632092
            ],
            [
                -122.3778641112133,
                47.65689885853792
            ],
            [
                -122.37785996532742,
                47.656909986617855
            ],
            [
                -122.37785000023851,
                47.65691999972253
            ],
            [
                -122.37786000177007,
                47.65690000020999
            ],
            [
                -122.37785999958346,
                47.656900000739334
            ],
            [
                -122.37785998822663,
                47.65690996862148
            ],
            [
                -122.37784,
                47.65692
            ]
        ]
    },
    "properties": {
        "trajectory_id": 4834,
        "object_id": 367492150,
        "label": "FISHING"
    }
}