{
    "type": "Feature",
    "geometry": {
        "type": "LineString",
        "coordinates": [
            [
                -122.35917,
                47.2627
            ],
            [
                -122.35913707139721,
                47.26264166650328
            ],
            [
                -122.35917155738154,
                47.26258754192293
            ],
            [
                -122.35938230206824,
                47.262760491222735
            ],
            [
                -122.35924051684947,
                47.26272062868807
            ],
            [
                -122.35947819453432,
                47.26272692565557
            ],
            [
                -122.35931840498422,
                47.26274952810825
            ],
            [
                -122.35929541414785,
                47.262728173811226
            ],
            [
                -122.35928011497526,
                47.2627399686981
            ],
            [
                -122.35930985436275,
                47.26270987632146
            ],
            [
                -122.3594202029413,
                47.26275060860216
            ],
            [
                -122.35925508712097,
                47.26269846852403
            ],
            [
                -122.35911373387671,
                47.26268996776603
            ],
            [
                -122.35910621881344,
                47.26265457236706
            ],
            [
                -122.35892907072842,
                47.262580622901794
            ],
            [
                -122.3587901869707,
                47.262489229889326
            ],
            [
                -122.35931004238783,
                47.26278295631779
            ],
            [
                -122.35932585286092,
                47.26265169694
            ],
            [
                -122.35908608523049,
                47.26270664162042
            ],
            [
                -122.35920196171864,
                47.2627234601689
            ],
            [
                -122.35917176665,
                47.26262257800862
            ],
            [
                -122.35898879875984,
                47.2626692892228
            ],
            [
                -122.3593155496219,
                47.26273810008564
            ],
            [
                -122.35905612964771,
                47.26268201709646
            ],
            [
                -122.35905254652465,
                47.26268786359332
            ],
            [
                -122.3591726500585,
                47.26269677766219
            ],
            [
                -122.35914209150324,
                47.26270670788961
            ],
            [
                -122.35918795368259,
                47.262517099019476
            ],
            [
                -122.35928477253309,
                47.26273439087989
            ],
            [
                -122.35896903993144,
                47.26266321024384
            ],
            [
                -122.35937362485568,
                47.26276007248684
            ],
            [
                -122.35943343111414,
                47.262780061551005
            ],
            [
                -122.35928488231485,
                47.26270400231737
            ],
            [
                -122.35933922671711,
                47.26270803932375
            ],
            [
                -122.35921014228798,
                47.26274803924567
            ],
            [
                -122.35917861199206,
                47.26271107221414
            ],
            [
                -122.3591178495156,
                47.26270570930691
            ],
            [
                -122.35914436978477,
                47.26272235643631
            ],
            [
                -122.35920569193694,
                47.26274841380012
            ],
            [
                -122.3591997467799,
                47.262696093215
            ],
            [
                -122.35930530626521,
                47.26274572367178
            ],
            [
                -122.3590949434662,
                47.26273222487721
            ],
            [
                -122.35930584460262,
                47.26275466091493
            ],
            [
                -122.35916505838739,
                47.262718582874996
            ],
            [
                -122.35937582949057,
                47.26276544417172
            ],
            [
                -122.35933775086104,
                47.26274926104863
            ],
            [
                -122.35928823439704,
                47.262714312647375
            ],
            [
                -122.359158700731,
                47.2626878265184
            ],
            [
                -122.35931270337696,
                47.262723607680805
            ],
            [
                -122.3593082107271,
                47.26271718977291
            ],
            [
                -122.3592450283221,
                47.26270861739731
            ],
            [
                -122.35937290186126,
                47.262751184647364
            ],
            [
                -122.3591928597775,
                47.262762325650186
            ],
            [
                -122.3593935664111,
                47.262698146893456
            ],
            [
                -122.35921267813667,
                47.26271192258768
            ],
            [
                -122.35930124479063,
                47.26274250817754
            ],
            [
                -122.35931764026711,
                47.26279049798288
            ],
            [
                -122.35942290670265,
                47.26274110685714
            ],
            [
                -122.35931672243592,
                47.26268609171128
            ],
            [
                -122.35948508760735,
                47.26298904486715
            ],
            [
                -122.35936998063379,
                47.26276760532652
            ],
            [
                -122.35917325086629,
                47.262659495243845
            ],
            [
                -122.35934893295929,
                47.26275206367508
            ],
            [
                -122.3592825701056,
                47.26275200437227
            ],
            [
                -122.3592537431974,
                47.262716116133
            ],
            [
                -122.35915995918809,
                47.262707930280826
            ],
            [
                -122.35935263129348,
                47.2627533368609
            ],
            [
                -122.35942808143973,
                47.262773274274124
            ],
            [
                -122.3593164469189,
                47.26254119748855
            ],
            [
                -122.35918745130733,
                47.26272144454555
            ],
            [
                -122.3592881778909,
                47.26274096850203
            ],
            [
                -122.35845778399539,
                47.262629764394966
            ],
            [
                -122.35932735487256,
                47.26275274324811
            ],
            [
                -122.3591840512413,
                47.26273144388757
            ],
            [
                -122.35930846325668,
                47.26276087758379
            ],
            [
                -122.35930933749637,
                47.262814321659995
            ],
            [
                -122.35914725824719,
                47.262749576492865
            ],
            [
                -122.35935935231282,
                47.26272985130937
            ],
            [
                -122.35917031387261,
                47.26271972884721
            ],
            [
                -122.35972838529041,
                47.26269317839788
            ],
            [
                -122.35927346060768,
                47.26272595179839
            ],
            [
                -122.3592273197053,
                47.26276358214416
            ],
            [
                -122.35952440692347,
                47.26276098058828
            ],
            [
                -122.35920608057407,
                47.262652647355424
            ],
            [
                -122.35939670762194,
                47.26276780673689
            ],
            [
                -122.35941132051846,
                47.26280050549714
            ],
            [
                -122.35913059327193,
                47.26268020515461
            ],
            [
                -122.35924085971193,
                47.262740235610515
            ],
            [
                -122.35924229603086,
                47.262741645622356
            ],
            [
                -122.3592651019657,
                47.26274463669346
            ],
            [
                -122.35928311335293,
                47.26273145290079
            ],
            [
                -122.36001412144691,
                47.26278691860877
            ],
            [
                -122.35952844299494,
                47.262763620376866
            ],
            [
                -122.35938476496432,
                47.26271553310541
            ],
            [
                -122.35921835250062,
                47.2627513985623
            ],
            [
                -122.35920987546763,
                47.26273887536497
            ],
            [
                -122.35923650109886,
                47.26272940946215
            ],
            [
                -122.35920008913698,
                47.26270577245994
            ],
            [
                -122.35906157804853,
                47.26266820684353
            ],
            [
                -122.35923094316313,
                47.262665887308835
            ],
            [
                -122.35924274114694,
                47.26267883046315
            ],
            [
                -122.35942193089474,
                47.262839878392924
            ],
            [
                -122.35918963231751,
                47.26269116704509
            ],
            [
                -122.35914113116273,
                47.26263476678575
            ],
            [
                -122.35928738170996,
                47.262791484657704
            ],
            [
                -122.35909173500794,
                47.26269281571911
            ],
            [
                -122.35932660985421,
                47.26275739455
            ],
            [
                -122.35925716945334,
                47.26270021333187
            ],
            [
                -122.35920410782107,
                47.26272405266552
            ],
            [
                -122.35934432675711,
                47.26273689826495
            ],
            [
                -122.35935114860546,
                47.26278910520617
            ],
            [
                -122.35939035258664,
                47.262774881213645
            ],
            [
                -122.35928700080177,
                47.262733357385706
            ],
            [
                -122.35923906705835,
                47.26276403217699
            ],
            [
                -122.35936628273271,
                47.262751193838014
            ],
            [
                -122.35833974367468,
                47.26283877883071
            ],
            [
                -122.35942930334772,
                47.26271114499945
            ],
            [
                -122.35923244171603,
                47.26272969166887
            ],
            [
                -122.35930244167298,
                47.26273258560266
            ],
            [
                -122.35932,
                47.26273
            ]
        ]
    },
    "properties": {
        "trajectory_id": 4839,
        "object_id": 367492940,
        "label": "PLEASURE CRAFT"
    }
}