{
    "type": "Feature",
    "geometry": {
        "type": "LineString",
        "coordinates": [
            [
                -122.61629,
                47.54941
            ],
            [
                -122.61830377519549,
                47.5545975529261
            ],
            [
                -122.62358863977009,
                47.561981364944664
            ],
            [
                -122.62298631236715,
                47.561182877629136
            ],
            [
                -122.61628837966877,
                47.54938583542432
            ],
            [
                -122.6163800510984,
                47.55022952222558
            ],
            [
                -122.61638403565749,
                47.549524290044666
            ],
            [
                -122.61619196224346,
                47.54997261277578
            ],
            [
                -122.62320359475993,
                47.56119464676091
            ],
            [
                -122.63556019406468,
                47.543213701636084
            ],
            [
                -122.63562903395285,
                47.54289447542737
            ],
            [
                -122.63563123710192,
                47.54291651042702
            ],
            [
                -122.63562091884967,
                47.54292428927267
            ],
            [
                -122.63562764410766,
                47.542910397208395
            ],
            [
                -122.63563711182742,
                47.542920801880534
            ],
            [
                -122.63564206635824,
                47.54290843541622
            ],
            [
                -122.63562520355201,
                47.5429154465107
            ],
            [
                -122.63563403175108,
                47.54292190948726
            ],
            [
                -122.6356196927328,
                47.542919893452265
            ],
            [
                -122.635631828547,
                47.542919899164744
            ],
            [
                -122.635606988963,
                47.542924704109595
            ],
            [
                -122.6356074927861,
                47.54292674279006
            ],
            [
                -122.63561404422892,
                47.542925173963745
            ],
            [
                -122.63561108149698,
                47.5429211528963
            ],
            [
                -122.63560998206476,
                47.54291957510712
            ],
            [
                -122.63561191218032,
                47.54291061790104
            ],
            [
                -122.63559774708682,
                47.54291057566659
            ],
            [
                -122.63561474401011,
                47.54291567826228
            ],
            [
                -122.63560256502942,
                47.54289994508508
            ],
            [
                -122.63561783625373,
                47.54292838614182
            ],
            [
                -122.63561814788156,
                47.54291866033734
            ],
            [
                -122.63562137908188,
                47.54292359981587
            ],
            [
                -122.63560964513468,
                47.54291804231302
            ],
            [
                -122.63560155847266,
                47.542927310599325
            ],
            [
                -122.63561960493475,
                47.54293004140302
            ],
            [
                -122.63560900168956,
                47.54293428679092
            ],
            [
                -122.63561992942661,
                47.542940005279576
            ],
            [
                -122.63561766801323,
                47.54292891968276
            ],
            [
                -122.63562988668313,
                47.54294033711366
            ],
            [
                -122.63564095712252,
                47.54294055262265
            ],
            [
                -122.63563870813105,
                47.54293039594274
            ],
            [
                -122.6356298319023,
                47.54293216253428
            ],
            [
                -122.63563868804476,
                47.54295935072668
            ],
            [
                -122.63562638345012,
                47.542928115976636
            ],
            [
                -122.63563634262563,
                47.54294271695773
            ],
            [
                -122.63563006421398,
                47.54293901509223
            ],
            [
                -122.63563146665993,
                47.54293161701588
            ],
            [
                -122.63561262728159,
                47.54294366418102
            ],
            [
                -122.63562690055417,
                47.54293479778077
            ],
            [
                -122.63563251832596,
                47.542926075392884
            ],
            [
                -122.63563865138258,
                47.542944036236875
            ],
            [
                -122.63563524761818,
                47.542924640300434
            ],
            [
                -122.6356372082006,
                47.542933229721626
            ],
            [
                -122.6356225130067,
                47.542909273276926
            ],
            [
                -122.63562481860595,
                47.54292709428146
            ],
            [
                -122.63562822324937,
                47.54291966455222
            ],
            [
                -122.6356328501503,
                47.542919718608914
            ],
            [
                -122.6356324504397,
                47.542910616179775
            ],
            [
                -122.635624516238,
                47.542909750085215
            ],
            [
                -122.63561897552523,
                47.54291106280723
            ],
            [
                -122.63561455539256,
                47.5429001722104
            ],
            [
                -122.6356222906963,
                47.54290111526304
            ],
            [
                -122.63563218778884,
                47.54290039097349
            ],
            [
                -122.63562052022196,
                47.54291989468505
            ],
            [
                -122.6356974435073,
                47.542913294454024
            ],
            [
                -122.61622013107637,
                47.54936458161997
            ],
            [
                -122.62315419206537,
                47.5612370484404
            ],
            [
                -122.6161278557555,
                47.54955192519153
            ],
            [
                -122.61627998393772,
                47.549410670042164
            ],
            [
                -122.61677606737622,
                47.55114323119573
            ],
            [
                -122.62259273204222,
                47.56074808228846
            ],
            [
                -122.6234766847755,
                47.56166378263239
            ],
            [
                -122.61964091778414,
                47.55382535283311
            ],
            [
                -122.61642030608344,
                47.549562754827704
            ],
            [
                -122.61614892997851,
                47.54931154041328
            ],
            [
                -122.61957098146955,
                47.55685841015291
            ],
            [
                -122.62355545057049,
                47.561962532172096
            ],
            [
                -122.62420908048894,
                47.55395823041752
            ],
            [
                -122.6356205792437,
                47.54292437647591
            ],
            [
                -122.63563452360354,
                47.542919070260886
            ],
            [
                -122.63562001571324,
                47.54293066737354
            ],
            [
                -122.63562131233839,
                47.54291993275972
            ],
            [
                -122.63564499935941,
                47.542930707102386
            ],
            [
                -122.63563715152584,
                47.542913574852136
            ],
            [
                -122.63561770452831,
                47.542914810272464
            ],
            [
                -122.63561776579267,
                47.54291041240489
            ],
            [
                -122.63562379140859,
                47.54290947457767
            ],
            [
                -122.63560743193906,
                47.542910454160356
            ],
            [
                -122.63561173182804,
                47.542920851594744
            ],
            [
                -122.63560607391352,
                47.54292732451141
            ],
            [
                -122.63559485619837,
                47.54292392252807
            ],
            [
                -122.63560895505154,
                47.542938969696515
            ],
            [
                -122.63561341462045,
                47.54293002471748
            ],
            [
                -122.63560108373423,
                47.54292105868255
            ],
            [
                -122.63560066935811,
                47.54293118925662
            ],
            [
                -122.63561156799467,
                47.54293037325034
            ],
            [
                -122.63560256614856,
                47.54293038018086
            ],
            [
                -122.63560930683676,
                47.542939976209425
            ],
            [
                -122.63558885009232,
                47.5429309255574
            ],
            [
                -122.63560131547021,
                47.542929934801435
            ],
            [
                -122.63561008094746,
                47.54292990069506
            ],
            [
                -122.63561001250591,
                47.5429299457897
            ],
            [
                -122.6356202981462,
                47.542919969523226
            ],
            [
                -122.63563011799823,
                47.54292982254144
            ],
            [
                -122.63563004769054,
                47.542930170700544
            ],
            [
                -122.63563028737639,
                47.54292029432919
            ],
            [
                -122.63562864329693,
                47.54291923374875
            ],
            [
                -122.63564287366924,
                47.542921915796846
            ],
            [
                -122.63561630294005,
                47.542921605787896
            ],
            [
                -122.6356391561667,
                47.542918803212935
            ],
            [
                -122.63562953030517,
                47.54291983370061
            ],
            [
                -122.63564266281864,
                47.542928384447514
            ],
            [
                -122.6166080535831,
                47.55001916719523
            ],
            [
                -122.62295042247034,
                47.56124464677273
            ],
            [
                -122.61664397758229,
                47.550471163675105
            ],
            [
                -122.6218585900155,
                47.55951080724678
            ],
            [
                -122.62357510867474,
                47.56198606502442
            ],
            [
                -122.62239793446761,
                47.55955315899196
            ],
            [
                -122.61607322311792,
                47.549320473422796
            ],
            [
                -122.61853,
                47.55515
            ]
        ]
    },
    "properties": {
        "trajectory_id": 4888,
        "object_id": 367518780,
        "label": "PASSENGER"
    }
}