{
    "type": "Feature",
    "geometry": {
        "type": "LineString",
        "coordinates": [
            [
                -122.33212,
                47.63023
            ],
            [
                -122.33211095129751,
                47.63024114599055
            ],
            [
                -122.33211933869183,
                47.63028977811264
            ],
            [
                -122.33214079220613,
                47.63025100400148
            ],
            [
                -122.33211792351764,
                47.63024670065283
            ],
            [
                -122.33212406276093,
                47.63024731800959
            ],
            [
                -122.33213992125079,
                47.63021908033644
            ],
            [
                -122.33214028475363,
                47.630220151883385
            ],
            [
                -122.33214112033734,
                47.63020720378043
            ],
            [
                -122.33212955845968,
                47.63021293320345
            ],
            [
                -122.3321373953882,
                47.630211494969636
            ],
            [
                -122.33214683871095,
                47.63022031962708
            ],
            [
                -122.33213604465969,
                47.630217216424015
            ],
            [
                -122.3321686733072,
                47.630231138760294
            ],
            [
                -122.33213010844963,
                47.63021848390068
            ],
            [
                -122.33213912600036,
                47.63021895883571
            ],
            [
                -122.33213888404718,
                47.63023892805802
            ],
            [
                -122.33213506939101,
                47.630245407528506
            ],
            [
                -122.33213509242351,
                47.630253231659566
            ],
            [
                -122.33214640374148,
                47.63024505960542
            ],
            [
                -122.3321604467531,
                47.63024748508818
            ],
            [
                -122.33214114230823,
                47.630238370810375
            ],
            [
                -122.33214732091052,
                47.630244461468834
            ],
            [
                -122.33216348832293,
                47.63023290935594
            ],
            [
                -122.3321697665916,
                47.63024004325529
            ],
            [
                -122.33215774473513,
                47.63023386603602
            ],
            [
                -122.33216458007114,
                47.63021570727428
            ],
            [
                -122.33216059475957,
                47.63021831660814
            ],
            [
                -122.33214744257474,
                47.630220198152216
            ],
            [
                -122.33216074329263,
                47.630221545865446
            ],
            [
                -122.3321503718765,
                47.63020946141883
            ],
            [
                -122.33216233483279,
                47.6302124031156
            ],
            [
                -122.33214906668181,
                47.63022848179724
            ],
            [
                -122.332129780787,
                47.63021980440426
            ],
            [
                -122.33213969924492,
                47.63023029802874
            ],
            [
                -122.33213107742804,
                47.63023136823064
            ],
            [
                -122.33216039613754,
                47.63024008946821
            ],
            [
                -122.33215978906532,
                47.630240220381715
            ],
            [
                -122.3321501476286,
                47.630240093038445
            ],
            [
                -122.33214984140841,
                47.630249941341546
            ],
            [
                -122.33214992737513,
                47.63024000599472
            ],
            [
                -122.33215000651721,
                47.630249973716055
            ],
            [
                -122.33213956793394,
                47.63023997826179
            ],
            [
                -122.33213095811143,
                47.63025035430818
            ],
            [
                -122.33215164533877,
                47.6302612245956
            ],
            [
                -122.33214409403803,
                47.63025999602631
            ],
            [
                -122.33213890011577,
                47.63021994900495
            ],
            [
                -122.33212981609593,
                47.63023187764519
            ],
            [
                -122.33215700851603,
                47.63019189138079
            ],
            [
                -122.33213816039418,
                47.63020771142727
            ],
            [
                -122.33215899733248,
                47.63022249143812
            ],
            [
                -122.33214558726229,
                47.63021992999184
            ],
            [
                -122.33214392307853,
                47.630218500208144
            ],
            [
                -122.33214734608315,
                47.63020814977315
            ],
            [
                -122.3321357037126,
                47.63021752286355
            ],
            [
                -122.33213685474021,
                47.63018821404669
            ],
            [
                -122.33214826436783,
                47.630219210282725
            ],
            [
                -122.33213840733725,
                47.63022045543357
            ],
            [
                -122.33214647183844,
                47.6302274019986
            ],
            [
                -122.33214505376462,
                47.63019217377532
            ],
            [
                -122.3321271325878,
                47.63023077674123
            ],
            [
                -122.33212704573462,
                47.63023627711189
            ],
            [
                -122.33214114070292,
                47.6301994056001
            ],
            [
                -122.33213639122381,
                47.630216950136614
            ],
            [
                -122.33213945930463,
                47.63022636501463
            ],
            [
                -122.33213148877677,
                47.630229878430264
            ],
            [
                -122.33213321268924,
                47.63022893795238
            ],
            [
                -122.33212060548134,
                47.630226488547756
            ],
            [
                -122.332125366549,
                47.63022301867465
            ],
            [
                -122.33212839003185,
                47.630220088016046
            ],
            [
                -122.33211520290705,
                47.6302464875519
            ],
            [
                -122.3321115556192,
                47.63023164825627
            ],
            [
                -122.33212743503867,
                47.63021649729298
            ],
            [
                -122.33213925485532,
                47.63021901277746
            ],
            [
                -122.3321274050898,
                47.6302146240015
            ],
            [
                -122.33216145160122,
                47.63023961645357
            ],
            [
                -122.33213723985756,
                47.63022950586658
            ],
            [
                -122.33215859441036,
                47.63024035774144
            ],
            [
                -122.33215023394646,
                47.63024955026297
            ],
            [
                -122.332159665292,
                47.63023009408427
            ],
            [
                -122.33215002097421,
                47.63025000679905
            ],
            [
                -122.33214990608266,
                47.63024980471812
            ],
            [
                -122.33216021550643,
                47.630239443791886
            ],
            [
                -122.33213983938771,
                47.630229807924316
            ],
            [
                -122.33214979442141,
                47.630229111840904
            ],
            [
                -122.3321509915825,
                47.63021030284044
            ],
            [
                -122.33214140204527,
                47.63019146843016
            ],
            [
                -122.33216003501198,
                47.63018975576591
            ],
            [
                -122.3321388178976,
                47.630170906000075
            ],
            [
                -122.3321389254179,
                47.63018549445465
            ],
            [
                -122.33212315173981,
                47.63019151003964
            ],
            [
                -122.33212201696534,
                47.63021606620503
            ],
            [
                -122.33212170990153,
                47.63020146692873
            ],
            [
                -122.33214716566623,
                47.6302097504835
            ],
            [
                -122.33213314551168,
                47.63023023061221
            ],
            [
                -122.33212923166151,
                47.63022283855273
            ],
            [
                -122.3321335308662,
                47.63023910420626
            ],
            [
                -122.33211795414756,
                47.63024448906817
            ],
            [
                -122.33212313107761,
                47.630240978901185
            ],
            [
                -122.33213509708433,
                47.63023111326199
            ],
            [
                -122.33212811018606,
                47.63023828696481
            ],
            [
                -122.3321287998629,
                47.63021499238372
            ],
            [
                -122.33213162335142,
                47.63021251276812
            ],
            [
                -122.33212083083674,
                47.630224021763084
            ],
            [
                -122.33212231963282,
                47.63021462239176
            ],
            [
                -122.33210154150022,
                47.63020973395413
            ],
            [
                -122.33212431503648,
                47.630203365660435
            ],
            [
                -122.33212333586071,
                47.63021101699618
            ],
            [
                -122.33212204448377,
                47.630219832761426
            ],
            [
                -122.33213503486996,
                47.63021852088072
            ],
            [
                -122.33212817973953,
                47.630227373296954
            ],
            [
                -122.33213327837328,
                47.63020488647711
            ],
            [
                -122.3321290012931,
                47.63020994516528
            ],
            [
                -122.33211796182049,
                47.630217052338544
            ],
            [
                -122.33214163245667,
                47.63022922030111
            ],
            [
                -122.3321306087684,
                47.630230234912375
            ],
            [
                -122.33214075382317,
                47.63024082045695
            ],
            [
                -122.33213987840625,
                47.63023994899935
            ],
            [
                -122.332150424862,
                47.63023031182851
            ],
            [
                -122.33214,
                47.63024
            ]
        ]
    },
    "properties": {
        "trajectory_id": 4952,
        "object_id": 367540040,
        "label": "PLEASURE CRAFT"
    }
}