{
    "type": "Feature",
    "geometry": {
        "type": "LineString",
        "coordinates": [
            [
                -122.33213,
                47.63024
            ],
            [
                -122.3321096798633,
                47.6302201265664
            ],
            [
                -122.33212996650019,
                47.630249091434486
            ],
            [
                -122.33212895331759,
                47.63023879755588
            ],
            [
                -122.33212390657036,
                47.63021938754308
            ],
            [
                -122.33215686205952,
                47.63020811526219
            ],
            [
                -122.3321413778454,
                47.63021047692045
            ],
            [
                -122.33214129568277,
                47.63019837532023
            ],
            [
                -122.33214084257222,
                47.63021150939301
            ],
            [
                -122.33213024493027,
                47.630218168111455
            ],
            [
                -122.33214585573077,
                47.63020886600441
            ],
            [
                -122.3321417992998,
                47.630220216874115
            ],
            [
                -122.33213874850075,
                47.6302134470263
            ],
            [
                -122.33213798977728,
                47.630241379896354
            ],
            [
                -122.33214139123814,
                47.63022980976041
            ],
            [
                -122.33214246454756,
                47.63025193129332
            ],
            [
                -122.3321332825605,
                47.63024236379027
            ],
            [
                -122.33215593931462,
                47.630234232376516
            ],
            [
                -122.33213713723158,
                47.63025112966273
            ],
            [
                -122.33212313592891,
                47.6302592802544
            ],
            [
                -122.332136452865,
                47.630258143189614
            ],
            [
                -122.33212322353461,
                47.6302451900239
            ],
            [
                -122.33213839035623,
                47.630251614895705
            ],
            [
                -122.33217203926411,
                47.63024246855082
            ],
            [
                -122.33215324736179,
                47.630233682321254
            ],
            [
                -122.33214891350535,
                47.63021827547873
            ],
            [
                -122.3321522985064,
                47.63022600441936
            ],
            [
                -122.33214606368013,
                47.630232011916846
            ],
            [
                -122.33216062611854,
                47.63022453547034
            ],
            [
                -122.33215301829901,
                47.63021991440385
            ],
            [
                -122.33214511954945,
                47.63021130345616
            ],
            [
                -122.3321614906484,
                47.63021777493167
            ],
            [
                -122.3321514757231,
                47.63021971021142
            ],
            [
                -122.33213723863213,
                47.63022061035321
            ],
            [
                -122.33216031462402,
                47.63023078960319
            ],
            [
                -122.33210918377716,
                47.63021981512379
            ],
            [
                -122.33214903371432,
                47.63023011902116
            ],
            [
                -122.33214952077142,
                47.63023920229073
            ],
            [
                -122.33215051089302,
                47.63024009992401
            ],
            [
                -122.33215644694988,
                47.63024627919204
            ],
            [
                -122.33216002155014,
                47.6302398312572
            ],
            [
                -122.33217003006443,
                47.63025005935381
            ],
            [
                -122.33214062398946,
                47.630240380140435
            ],
            [
                -122.33216059298871,
                47.63025082049024
            ],
            [
                -122.33217880737935,
                47.63024081120593
            ],
            [
                -122.33212801529841,
                47.630240097050624
            ],
            [
                -122.33212792823323,
                47.63022042074583
            ],
            [
                -122.33212947524642,
                47.63021971900114
            ],
            [
                -122.33214863942331,
                47.630218872936766
            ],
            [
                -122.33213872561299,
                47.63021537475316
            ],
            [
                -122.3321392046256,
                47.63022997088954
            ],
            [
                -122.33215578009413,
                47.63022989975492
            ],
            [
                -122.3321647234429,
                47.63021214316359
            ],
            [
                -122.33214962625452,
                47.63021180407958
            ],
            [
                -122.33213374834668,
                47.63020999861089
            ],
            [
                -122.33215332358462,
                47.63021056621019
            ],
            [
                -122.3321577594273,
                47.63022085944499
            ],
            [
                -122.33214009126117,
                47.63021619926341
            ],
            [
                -122.332145544284,
                47.63021352729135
            ],
            [
                -122.33213771036361,
                47.63021412722435
            ],
            [
                -122.33214005504287,
                47.6302337405899
            ],
            [
                -122.33212949667063,
                47.63019895390032
            ],
            [
                -122.33213069173163,
                47.63019555960829
            ],
            [
                -122.3321401844514,
                47.63020441951501
            ],
            [
                -122.33212672184575,
                47.630233244973454
            ],
            [
                -122.33213039558571,
                47.63023099879681
            ],
            [
                -122.33211794857051,
                47.63023163953292
            ],
            [
                -122.33212846692709,
                47.63023064111927
            ],
            [
                -122.33211909454816,
                47.630228633465656
            ],
            [
                -122.3321223394882,
                47.630219806863614
            ],
            [
                -122.33211163032378,
                47.630234379316114
            ],
            [
                -122.3321293090073,
                47.630234404606014
            ],
            [
                -122.33212984918777,
                47.630247137344476
            ],
            [
                -122.33214938269751,
                47.630230114965826
            ],
            [
                -122.33214046908259,
                47.630227681613114
            ],
            [
                -122.33211068117308,
                47.6302496448609
            ],
            [
                -122.33211000329776,
                47.63026250045641
            ],
            [
                -122.3321477679601,
                47.63025036155936
            ],
            [
                -122.33213011630232,
                47.630249676244865
            ],
            [
                -122.33212982751499,
                47.63024987695003
            ],
            [
                -122.33213000192472,
                47.63025000065397
            ],
            [
                -122.33215932679877,
                47.63024995899536
            ],
            [
                -122.33214011854702,
                47.6302293586096
            ],
            [
                -122.33213131084337,
                47.630239273823214
            ],
            [
                -122.33213031740164,
                47.63023048813257
            ],
            [
                -122.33215110664631,
                47.630227416255295
            ],
            [
                -122.33214291697858,
                47.63024067562767
            ],
            [
                -122.33213400096622,
                47.63019830146878
            ],
            [
                -122.33213430027423,
                47.63023843794005
            ],
            [
                -122.33212857129762,
                47.63021999047175
            ],
            [
                -122.33213361957463,
                47.630228083384594
            ],
            [
                -122.3321124478375,
                47.630230097612454
            ],
            [
                -122.33212705351632,
                47.63023148588585
            ],
            [
                -122.33213003270535,
                47.63021943447317
            ],
            [
                -122.33211461573183,
                47.63023992153373
            ],
            [
                -122.33211964769292,
                47.63024577123291
            ],
            [
                -122.33210023374465,
                47.63024859054316
            ],
            [
                -122.33210359083562,
                47.630242521524266
            ],
            [
                -122.33210731409922,
                47.630237595048825
            ],
            [
                -122.33210435506778,
                47.63023417072598
            ],
            [
                -122.33210623972968,
                47.63023334517442
            ],
            [
                -122.33210365674066,
                47.63023657800763
            ],
            [
                -122.33210183473949,
                47.630225688607055
            ],
            [
                -122.3321214199425,
                47.63021592587619
            ],
            [
                -122.33211033376013,
                47.630234405996376
            ],
            [
                -122.33213352515276,
                47.63024812514882
            ],
            [
                -122.33212512332928,
                47.63021110350212
            ],
            [
                -122.33212538334033,
                47.63022567134719
            ],
            [
                -122.33212911351818,
                47.6301948179122
            ],
            [
                -122.33214879427403,
                47.63022651102061
            ],
            [
                -122.33214565799912,
                47.630230102714535
            ],
            [
                -122.33211944047824,
                47.630218632676936
            ],
            [
                -122.33212020743382,
                47.630240125084995
            ],
            [
                -122.3321384691654,
                47.630240221971
            ],
            [
                -122.33212988993135,
                47.63022976821456
            ],
            [
                -122.33214258021265,
                47.63023974922162
            ],
            [
                -122.33213927393115,
                47.63024961920364
            ],
            [
                -122.33212809848906,
                47.63024165383782
            ],
            [
                -122.33212034098483,
                47.63023026050365
            ],
            [
                -122.33216,
                47.63024
            ]
        ]
    },
    "properties": {
        "trajectory_id": 4953,
        "object_id": 367540040,
        "label": "PLEASURE CRAFT"
    }
}