{
    "type": "Feature",
    "geometry": {
        "type": "LineString",
        "coordinates": [
            [
                -122.3321,
                47.63022
            ],
            [
                -122.33213999504802,
                47.63023004274196
            ],
            [
                -122.33213000429059,
                47.63022009848436
            ],
            [
                -122.33212716038179,
                47.630208229275816
            ],
            [
                -122.33214135409662,
                47.63020987237441
            ],
            [
                -122.33213972206326,
                47.63020903575107
            ],
            [
                -122.3321386312308,
                47.630223628764526
            ],
            [
                -122.332127704914,
                47.63026438476512
            ],
            [
                -122.33213937000349,
                47.63022263450776
            ],
            [
                -122.33212841995142,
                47.63021492413469
            ],
            [
                -122.33213014585948,
                47.6302270989705
            ],
            [
                -122.33214997785606,
                47.63021722124863
            ],
            [
                -122.33215059347307,
                47.63020707312559
            ],
            [
                -122.33213964863775,
                47.630227025564906
            ],
            [
                -122.33213924298815,
                47.63022158020184
            ],
            [
                -122.33216026693358,
                47.6302414236505
            ],
            [
                -122.33214956937722,
                47.63024743889621
            ],
            [
                -122.33216728448102,
                47.63023744270734
            ],
            [
                -122.33216906346078,
                47.630237298649845
            ],
            [
                -122.3321483624716,
                47.63024663888688
            ],
            [
                -122.33215291123888,
                47.63024123071016
            ],
            [
                -122.33216790038081,
                47.6302356622681
            ],
            [
                -122.33216166477487,
                47.63023052828173
            ],
            [
                -122.33215691613574,
                47.630222966863265
            ],
            [
                -122.3321614418817,
                47.6302311275522
            ],
            [
                -122.33216815810536,
                47.63022308498325
            ],
            [
                -122.33215985915903,
                47.63022391988861
            ],
            [
                -122.33217031804601,
                47.63022861979082
            ],
            [
                -122.33216276901248,
                47.6302105842492
            ],
            [
                -122.33213352421677,
                47.630205709333765
            ],
            [
                -122.3321588856045,
                47.63021063858048
            ],
            [
                -122.33212525134793,
                47.630222588601136
            ],
            [
                -122.3321368721761,
                47.630223936569024
            ],
            [
                -122.33212314666686,
                47.63021228062501
            ],
            [
                -122.33216614880364,
                47.63023649558729
            ],
            [
                -122.33215153388468,
                47.6302408390908
            ],
            [
                -122.33215023077754,
                47.63022994314741
            ],
            [
                -122.33214984056119,
                47.630250355812365
            ],
            [
                -122.33216989630988,
                47.6302294438341
            ],
            [
                -122.33215997129166,
                47.63023019212595
            ],
            [
                -122.33216021154217,
                47.63025004765853
            ],
            [
                -122.33215072708549,
                47.63024047346798
            ],
            [
                -122.33214901436308,
                47.63023062283069
            ],
            [
                -122.33215971066265,
                47.630249522214434
            ],
            [
                -122.33213960024588,
                47.63022936783421
            ],
            [
                -122.33214002104809,
                47.63020166660474
            ],
            [
                -122.33216808549206,
                47.630219506943234
            ],
            [
                -122.33214898124562,
                47.63022976674043
            ],
            [
                -122.33215917261126,
                47.63020851940693
            ],
            [
                -122.33215157649948,
                47.630221396388876
            ],
            [
                -122.33214851687724,
                47.63022671150313
            ],
            [
                -122.33216137962704,
                47.630219642660435
            ],
            [
                -122.33214161220523,
                47.630226949544856
            ],
            [
                -122.33214651655344,
                47.63023023478793
            ],
            [
                -122.33215840200255,
                47.63022017063603
            ],
            [
                -122.33213994505707,
                47.630214316791516
            ],
            [
                -122.33213900941522,
                47.63021495087198
            ],
            [
                -122.33213005467937,
                47.630221922720956
            ],
            [
                -122.33214076763657,
                47.63024405795824
            ],
            [
                -122.33213593283647,
                47.63021924745873
            ],
            [
                -122.33213888163601,
                47.63021982764775
            ],
            [
                -122.3321412190803,
                47.63021525508411
            ],
            [
                -122.33215039217976,
                47.63021087420617
            ],
            [
                -122.33214750082432,
                47.63021495331995
            ],
            [
                -122.33213203113004,
                47.6302326000763
            ],
            [
                -122.33214104240643,
                47.63021851276444
            ],
            [
                -122.33211569511738,
                47.63023437216451
            ],
            [
                -122.33213363188989,
                47.630220561067304
            ],
            [
                -122.33212400176137,
                47.630244012669294
            ],
            [
                -122.3321133968765,
                47.63023709358466
            ],
            [
                -122.3321313700419,
                47.630239619129085
            ],
            [
                -122.33210924174071,
                47.630230418467086
            ],
            [
                -122.33212064254776,
                47.63022852027711
            ],
            [
                -122.3321320937856,
                47.6302318161791
            ],
            [
                -122.3321428282398,
                47.63023823013364
            ],
            [
                -122.33211991880023,
                47.63024972658248
            ],
            [
                -122.33213037094055,
                47.630250309785396
            ],
            [
                -122.33212945047234,
                47.63023867331404
            ],
            [
                -122.33213049989348,
                47.630239726476816
            ],
            [
                -122.33212979288713,
                47.63024010062029
            ],
            [
                -122.3321435244106,
                47.630240838092384
            ],
            [
                -122.3321301755823,
                47.63022012038588
            ],
            [
                -122.3321400235359,
                47.63022025613902
            ],
            [
                -122.33215022867319,
                47.63021933704249
            ],
            [
                -122.33213138029741,
                47.63021239223961
            ],
            [
                -122.33212185047854,
                47.630197983144306
            ],
            [
                -122.33212279490145,
                47.63021145013489
            ],
            [
                -122.33213097849547,
                47.63019160389545
            ],
            [
                -122.33211940326314,
                47.630209922754716
            ],
            [
                -122.33210737202496,
                47.63019886111853
            ],
            [
                -122.33212019985098,
                47.630223580837125
            ],
            [
                -122.33213927755523,
                47.6302134726719
            ],
            [
                -122.33211923061506,
                47.63023800624505
            ],
            [
                -122.33214862815016,
                47.630212202384406
            ],
            [
                -122.33212633505406,
                47.63023103193132
            ],
            [
                -122.33213420977405,
                47.63023183113186
            ],
            [
                -122.33211901208907,
                47.630242828797876
            ],
            [
                -122.33211361453853,
                47.630237462053316
            ],
            [
                -122.33215043302863,
                47.630215918368116
            ],
            [
                -122.33215340653398,
                47.630217694210515
            ],
            [
                -122.33214199068274,
                47.63023682624254
            ],
            [
                -122.33213963118705,
                47.63021026753802
            ],
            [
                -122.3321390756982,
                47.6302183737598
            ],
            [
                -122.33214856945823,
                47.63024293230532
            ],
            [
                -122.33214195008459,
                47.630202600066184
            ],
            [
                -122.33213280227484,
                47.630208429494374
            ],
            [
                -122.33214821312879,
                47.63023175634882
            ],
            [
                -122.33214672810762,
                47.630222187271016
            ],
            [
                -122.33215493942588,
                47.63022728031845
            ],
            [
                -122.33213539515657,
                47.63022341492602
            ],
            [
                -122.33213510440754,
                47.63023552238371
            ],
            [
                -122.33213719125567,
                47.63023813731556
            ],
            [
                -122.33214074253623,
                47.63023003283216
            ],
            [
                -122.33214062366976,
                47.63024032551559
            ],
            [
                -122.33213018663396,
                47.630239167483616
            ],
            [
                -122.33213198279434,
                47.630229289831135
            ],
            [
                -122.3321394221268,
                47.63022056266643
            ],
            [
                -122.33212935649033,
                47.6302301460957
            ],
            [
                -122.3321409210989,
                47.63022010564876
            ],
            [
                -122.33214,
                47.63021
            ]
        ]
    },
    "properties": {
        "trajectory_id": 4957,
        "object_id": 367540040,
        "label": "PLEASURE CRAFT"
    }
}