{
    "type": "Feature",
    "geometry": {
        "type": "LineString",
        "coordinates": [
            [
                -122.60775,
                48.51399
            ],
            [
                -122.60775000000001,
                48.51398999999885
            ],
            [
                -122.60774999999998,
                48.51398999940092
            ],
            [
                -122.60775000000001,
                48.51398983397105
            ],
            [
                -122.60774999999998,
                48.513990816598174
            ],
            [
                -122.60774999999997,
                48.513999989826736
            ],
            [
                -122.60775,
                48.51400000004547
            ],
            [
                -122.60775,
                48.51400002509336
            ],
            [
                -122.60775,
                48.513989192475016
            ],
            [
                -122.60775,
                48.51398999537102
            ],
            [
                -122.60774999999995,
                48.51398999997835
            ],
            [
                -122.60774999999882,
                48.5139900008213
            ],
            [
                -122.60774999976033,
                48.51399017102671
            ],
            [
                -122.60774994846324,
                48.51399971389405
            ],
            [
                -122.6077610827005,
                48.5139999985272
            ],
            [
                -122.60776000564329,
                48.51399999999232
            ],
            [
                -122.60776000002897,
                48.51399999999995
            ],
            [
                -122.60776000000078,
                48.51399999999937
            ],
            [
                -122.60776000012896,
                48.513999999871
            ],
            [
                -122.60776002570402,
                48.51399997429597
            ],
            [
                -122.60775200556964,
                48.51400799443036
            ],
            [
                -122.60775000680597,
                48.51400999319404
            ],
            [
                -122.60775000003396,
                48.51400999996603
            ],
            [
                -122.60775000000015,
                48.51400999999984
            ],
            [
                -122.60774999999997,
                48.51401000000205
            ],
            [
                -122.60774999999998,
                48.51401000039002
            ],
            [
                -122.60775,
                48.51401007694819
            ],
            [
                -122.60774999999984,
                48.51399928782793
            ],
            [
                -122.60774999997219,
                48.51400001527008
            ],
            [
                -122.60774999480115,
                48.51400732124484
            ],
            [
                -122.6077490100041,
                48.51400040211593
            ],
            [
                -122.6077609763725,
                48.51400987083248
            ],
            [
                -122.60774997110532,
                48.51401005951882
            ],
            [
                -122.60775000048366,
                48.51399962156261
            ],
            [
                -122.60775010362572,
                48.5139999340965
            ],
            [
                -122.60772984274135,
                48.51400115635362
            ],
            [
                -122.60774990586147,
                48.51400012419288
            ],
            [
                -122.60774999965932,
                48.51400043202778
            ],
            [
                -122.60774999999896,
                48.51400000131192
            ],
            [
                -122.60774999999998,
                48.51400000000429
            ],
            [
                -122.60775000000002,
                48.513999999999996
            ],
            [
                -122.60775000000001,
                48.51400000000001
            ],
            [
                -122.60774999999997,
                48.513999999999996
            ],
            [
                -122.60775,
                48.514
            ],
            [
                -122.60774999999998,
                48.514
            ],
            [
                -122.60775000000004,
                48.51400000000001
            ],
            [
                -122.60775000000002,
                48.51400000000002
            ],
            [
                -122.60775000000002,
                48.51400000000001
            ],
            [
                -122.60774999999998,
                48.514
            ],
            [
                -122.60774999999998,
                48.514
            ],
            [
                -122.60775000000015,
                48.51399999999999
            ],
            [
                -122.60775000003338,
                48.51400000000001
            ],
            [
                -122.60775000653277,
                48.513999999999996
            ],
            [
                -122.60775144846838,
                48.513999999999996
            ],
            [
                -122.6077298470745,
                48.513999999999996
            ],
            [
                -122.60772999918397,
                48.51400000000002
            ],
            [
                -122.60772999999591,
                48.514
            ],
            [
                -122.60772999999996,
                48.513999999999996
            ],
            [
                -122.60772999999998,
                48.513999999999996
            ],
            [
                -122.60772999999999,
                48.514
            ],
            [
                -122.60773000000002,
                48.51400000000001
            ],
            [
                -122.60773,
                48.514
            ],
            [
                -122.60773,
                48.51400000000001
            ],
            [
                -122.60772999999999,
                48.513999999999996
            ],
            [
                -122.60772999999999,
                48.51399999999999
            ],
            [
                -122.60773000000005,
                48.51399999999795
            ],
            [
                -122.60772999999998,
                48.51399999960282
            ],
            [
                -122.60773,
                48.513999927141406
            ],
            [
                -122.60772999999998,
                48.51401060455411
            ],
            [
                -122.60772999999998,
                48.51401000295396
            ],
            [
                -122.60772999999998,
                48.514010000013016
            ],
            [
                -122.60773,
                48.514010000000056
            ],
            [
                -122.60773,
                48.514009999999985
            ],
            [
                -122.60772999999998,
                48.514009999999985
            ],
            [
                -122.60773000000003,
                48.51401000000001
            ],
            [
                -122.60773,
                48.51401
            ],
            [
                -122.60772999999989,
                48.51401
            ],
            [
                -122.60772999998346,
                48.514010000000006
            ],
            [
                -122.60773000060172,
                48.51400999999999
            ],
            [
                -122.60773003442952,
                48.51400999999999
            ],
            [
                -122.60775001341885,
                48.51401
            ],
            [
                -122.60775000017713,
                48.514010000000006
            ],
            [
                -122.60775000000127,
                48.51400999999999
            ],
            [
                -122.60775000000002,
                48.514010000000006
            ],
            [
                -122.60775000000004,
                48.51401000000001
            ],
            [
                -122.60775,
                48.51400999999999
            ],
            [
                -122.60774999999998,
                48.514009999999985
            ],
            [
                -122.60775,
                48.51401
            ],
            [
                -122.60775,
                48.51401
            ],
            [
                -122.60775,
                48.51401
            ],
            [
                -122.60775000000001,
                48.51401
            ],
            [
                -122.60774999999998,
                48.51401
            ],
            [
                -122.60774999999995,
                48.51400999999998
            ],
            [
                -122.60775,
                48.51400999999999
            ],
            [
                -122.60775000000001,
                48.51401
            ],
            [
                -122.60775,
                48.51401
            ],
            [
                -122.60774999999998,
                48.51400999999999
            ],
            [
                -122.60775000000001,
                48.514010000000006
            ],
            [
                -122.60775000000001,
                48.51400999999999
            ],
            [
                -122.60774999999998,
                48.51400999999999
            ],
            [
                -122.60774999999995,
                48.514009999999985
            ],
            [
                -122.60774999999995,
                48.51401
            ],
            [
                -122.60774999999998,
                48.51400999999999
            ],
            [
                -122.60774999999997,
                48.51400999999999
            ],
            [
                -122.60774999999997,
                48.51400999999999
            ],
            [
                -122.60774999999998,
                48.514009999999985
            ],
            [
                -122.60775000000027,
                48.51401
            ],
            [
                -122.60775000005515,
                48.514010000000006
            ],
            [
                -122.6077500105988,
                48.51401
            ],
            [
                -122.60775196368208,
                48.51400999999999
            ],
            [
                -122.607729930009,
                48.514010000000006
            ],
            [
                -122.60772999966419,
                48.514009999999985
            ],
            [
                -122.60772999999857,
                48.51400999999999
            ],
            [
                -122.60772999999996,
                48.51401
            ],
            [
                -122.60772999999996,
                48.51400999999999
            ],
            [
                -122.60773,
                48.51401
            ],
            [
                -122.60773000000003,
                48.51401000000001
            ],
            [
                -122.60773,
                48.514010000000006
            ],
            [
                -122.60772999999999,
                48.51401
            ],
            [
                -122.60773,
                48.51401
            ]
        ]
    },
    "properties": {
        "trajectory_id": 5055,
        "object_id": 367585740,
        "label": "PLEASURE CRAFT"
    }
}