{
    "type": "Feature",
    "geometry": {
        "type": "LineString",
        "coordinates": [
            [
                -122.24162,
                47.59564
            ],
            [
                -122.2416301232626,
                47.59564027815303
            ],
            [
                -122.24163960500377,
                47.59563109072003
            ],
            [
                -122.2416214906606,
                47.595639465321135
            ],
            [
                -122.24163010471912,
                47.595629790699554
            ],
            [
                -122.24161984795992,
                47.59563902774746
            ],
            [
                -122.24165643210345,
                47.595653702479154
            ],
            [
                -122.24168279252125,
                47.59564041321635
            ],
            [
                -122.24160473673476,
                47.59566011073963
            ],
            [
                -122.24161628527538,
                47.59565873371493
            ],
            [
                -122.24164456498903,
                47.59563646140041
            ],
            [
                -122.2416470407502,
                47.59564199667911
            ],
            [
                -122.24164410151437,
                47.595640164248664
            ],
            [
                -122.24161392265005,
                47.59563880649925
            ],
            [
                -122.24162359031251,
                47.59564061972507
            ],
            [
                -122.24162016010456,
                47.59563585368742
            ],
            [
                -122.2416189271568,
                47.59564840727472
            ],
            [
                -122.24161865867535,
                47.59563816809854
            ],
            [
                -122.24163320730453,
                47.59565235431416
            ],
            [
                -122.24163394993211,
                47.595638468152096
            ],
            [
                -122.24163061382826,
                47.595660531553605
            ],
            [
                -122.24161432772188,
                47.59565422921705
            ],
            [
                -122.2416251862122,
                47.595643245440506
            ],
            [
                -122.24161103051237,
                47.59565061372101
            ],
            [
                -122.24161343537239,
                47.595648206842014
            ],
            [
                -122.24162394042574,
                47.59563755524173
            ],
            [
                -122.24164060233129,
                47.595633186336855
            ],
            [
                -122.2416410156772,
                47.595632767457175
            ],
            [
                -122.24160821358655,
                47.59564076549664
            ],
            [
                -122.24160128816908,
                47.5956737046702
            ],
            [
                -122.24162084130751,
                47.59564609248476
            ],
            [
                -122.24160268364706,
                47.5956520100967
            ],
            [
                -122.24162286719715,
                47.59565372992429
            ],
            [
                -122.24161141756684,
                47.595645418658236
            ],
            [
                -122.24160328508412,
                47.595640709729594
            ],
            [
                -122.24161649995621,
                47.595655773737114
            ],
            [
                -122.24161737694276,
                47.59565032149597
            ],
            [
                -122.2416177483834,
                47.59563890379563
            ],
            [
                -122.24159145354588,
                47.59565484250485
            ],
            [
                -122.24163078273497,
                47.59564640524167
            ],
            [
                -122.24162156184653,
                47.59564993007416
            ],
            [
                -122.24160964714937,
                47.59565391193867
            ],
            [
                -122.24160798897105,
                47.5956314949791
            ],
            [
                -122.24159950896549,
                47.59562918444972
            ],
            [
                -122.2416214251399,
                47.59565197799771
            ],
            [
                -122.2416467219281,
                47.595651738071545
            ],
            [
                -122.2416380476649,
                47.59565227438045
            ],
            [
                -122.24162093252211,
                47.595649133887136
            ],
            [
                -122.24163019042663,
                47.59565343908699
            ],
            [
                -122.24160270275699,
                47.59564124449125
            ],
            [
                -122.24162639442049,
                47.59564845503718
            ],
            [
                -122.24164248008373,
                47.59564839279698
            ],
            [
                -122.24162027299896,
                47.59564009287014
            ],
            [
                -122.24164003078775,
                47.59566096496551
            ],
            [
                -122.24162191080104,
                47.59565162508356
            ],
            [
                -122.24163955167636,
                47.595629021992316
            ],
            [
                -122.24165072870787,
                47.5956302654234
            ],
            [
                -122.24162949862708,
                47.59564013014497
            ],
            [
                -122.24160981340098,
                47.59563989305634
            ],
            [
                -122.24162999992296,
                47.59563999971637
            ],
            [
                -122.24161542003503,
                47.59562690380882
            ],
            [
                -122.24161047210846,
                47.59561067723707
            ],
            [
                -122.24161645096154,
                47.595626143846076
            ],
            [
                -122.2416199688019,
                47.59564003497462
            ],
            [
                -122.241611382868,
                47.59564018420221
            ],
            [
                -122.24159225872785,
                47.59563886118285
            ],
            [
                -122.24162183606636,
                47.59564894880753
            ],
            [
                -122.24162751524565,
                47.5956492282479
            ],
            [
                -122.24162137147961,
                47.59565346538386
            ],
            [
                -122.24161751100422,
                47.59564716137549
            ],
            [
                -122.24161615596213,
                47.59564853785879
            ],
            [
                -122.2416271680058,
                47.5956258069128
            ],
            [
                -122.24160847419516,
                47.5956340774905
            ],
            [
                -122.2416548737321,
                47.59564970872548
            ],
            [
                -122.24162815773882,
                47.595622182842426
            ],
            [
                -122.2416094484046,
                47.59566125266684
            ],
            [
                -122.24162272412975,
                47.59563678673359
            ],
            [
                -122.24162696935332,
                47.595649943157596
            ],
            [
                -122.24162536271767,
                47.59564039509251
            ],
            [
                -122.24161881986204,
                47.59564003672422
            ],
            [
                -122.2416177025864,
                47.595629216453275
            ],
            [
                -122.24163533413069,
                47.59563799000447
            ],
            [
                -122.24162712990844,
                47.59563822159048
            ],
            [
                -122.24162753162287,
                47.59562312325953
            ],
            [
                -122.24163323721504,
                47.5956398828714
            ],
            [
                -122.24162425526372,
                47.59563343807857
            ],
            [
                -122.24162458111678,
                47.5956431259388
            ],
            [
                -122.24162052483305,
                47.59563919204341
            ],
            [
                -122.24158935766897,
                47.59565704125327
            ],
            [
                -122.24161299530444,
                47.59564197500512
            ],
            [
                -122.24165757397694,
                47.5956054904147
            ],
            [
                -122.24161762043329,
                47.59563952003532
            ],
            [
                -122.24162092292642,
                47.59565468286163
            ],
            [
                -122.24163399491064,
                47.59564366685308
            ],
            [
                -122.24162137049882,
                47.595649600553
            ],
            [
                -122.24162392296834,
                47.595669441589465
            ],
            [
                -122.24160727787023,
                47.59565669606766
            ],
            [
                -122.24160645918555,
                47.59562962959526
            ],
            [
                -122.2416378740928,
                47.595627008473244
            ],
            [
                -122.24162799312676,
                47.595665958555344
            ],
            [
                -122.24160621684217,
                47.59563797599672
            ],
            [
                -122.24164184632488,
                47.59562697290741
            ],
            [
                -122.24161983609606,
                47.59565206447821
            ],
            [
                -122.24163251942936,
                47.59565037535505
            ],
            [
                -122.2416294772365,
                47.59562962373
            ],
            [
                -122.24163855973528,
                47.59563913218274
            ],
            [
                -122.24163786520893,
                47.595644284028104
            ],
            [
                -122.24163396814544,
                47.59563029521307
            ],
            [
                -122.24162922569715,
                47.59563140816677
            ],
            [
                -122.24161224713059,
                47.59562024653656
            ],
            [
                -122.24161358708793,
                47.59562705241997
            ],
            [
                -122.24162447230506,
                47.59564244219652
            ],
            [
                -122.24162970482558,
                47.595640817077935
            ],
            [
                -122.24161022250723,
                47.59562995955842
            ],
            [
                -122.24161732625942,
                47.59564078951568
            ],
            [
                -122.24162162986408,
                47.59563987594088
            ],
            [
                -122.24161946691606,
                47.59563929977553
            ],
            [
                -122.24160853026157,
                47.595619519156486
            ],
            [
                -122.24162024246789,
                47.595640064218344
            ],
            [
                -122.24163,
                47.59563
            ]
        ]
    },
    "properties": {
        "trajectory_id": 5079,
        "object_id": 367586630,
        "label": "PLEASURE CRAFT"
    }
}