{
    "type": "Feature",
    "geometry": {
        "type": "LineString",
        "coordinates": [
            [
                -122.37805,
                47.66067
            ],
            [
                -122.37803208521271,
                47.66067065892891
            ],
            [
                -122.37805015106248,
                47.660679402646515
            ],
            [
                -122.3780605853517,
                47.66067009976548
            ],
            [
                -122.37805054088699,
                47.66066978164378
            ],
            [
                -122.37804889468343,
                47.66066911809965
            ],
            [
                -122.37803865980777,
                47.660679828035896
            ],
            [
                -122.3780400183018,
                47.66066856971808
            ],
            [
                -122.37804065704903,
                47.66067232006361
            ],
            [
                -122.37805170783831,
                47.66066425063844
            ],
            [
                -122.37805619894431,
                47.66067855161186
            ],
            [
                -122.37805200067983,
                47.66067872049928
            ],
            [
                -122.37804341437656,
                47.66066776549067
            ],
            [
                -122.37803168312716,
                47.660672038942295
            ],
            [
                -122.37803344099056,
                47.66067933565574
            ],
            [
                -122.37802178022561,
                47.66067629153433
            ],
            [
                -122.37805322998481,
                47.66067805806356
            ],
            [
                -122.37804012503702,
                47.66065624707171
            ],
            [
                -122.37803858763763,
                47.660676036105336
            ],
            [
                -122.37803849322061,
                47.66065331688557
            ],
            [
                -122.37804458149536,
                47.66066059484448
            ],
            [
                -122.37806290906244,
                47.6606653170292
            ],
            [
                -122.37805525163424,
                47.6606708615966
            ],
            [
                -122.37805303325003,
                47.66066911771374
            ],
            [
                -122.37804874110115,
                47.66066434944577
            ],
            [
                -122.37802541950543,
                47.660655081131374
            ],
            [
                -122.37802421940643,
                47.66065940559373
            ],
            [
                -122.37802757489925,
                47.660659724114225
            ],
            [
                -122.37805114641357,
                47.660667359503066
            ],
            [
                -122.37806041380327,
                47.66066800018833
            ],
            [
                -122.37805066576692,
                47.66067154221847
            ],
            [
                -122.37805330047215,
                47.6606597181343
            ],
            [
                -122.37804968748092,
                47.66065911326895
            ],
            [
                -122.37803814793041,
                47.66066993088768
            ],
            [
                -122.37807169051987,
                47.66068910802115
            ],
            [
                -122.37805987991294,
                47.66068006702184
            ],
            [
                -122.37805012911248,
                47.66068895978613
            ],
            [
                -122.3780594017334,
                47.66068892804134
            ],
            [
                -122.37806034488734,
                47.660689946978444
            ],
            [
                -122.37804998831314,
                47.6606900005855
            ],
            [
                -122.37805180268766,
                47.66070174846117
            ],
            [
                -122.37805045841144,
                47.66068956881492
            ],
            [
                -122.37804988254513,
                47.66068944208448
            ],
            [
                -122.3780384809902,
                47.66067284403356
            ],
            [
                -122.37805007680679,
                47.66069089056156
            ],
            [
                -122.37805166888734,
                47.66068156302712
            ],
            [
                -122.37805002844773,
                47.6606888748137
            ],
            [
                -122.3780398457301,
                47.660681056125895
            ],
            [
                -122.37804950038068,
                47.66068952362296
            ],
            [
                -122.37804006123622,
                47.660687957057945
            ],
            [
                -122.37805864647481,
                47.660691460040205
            ],
            [
                -122.37805619146401,
                47.66067985458695
            ],
            [
                -122.37804656834619,
                47.66068532417315
            ],
            [
                -122.3780406687319,
                47.660687944499536
            ],
            [
                -122.37803584070996,
                47.660682630829285
            ],
            [
                -122.37803700114065,
                47.6606613266621
            ],
            [
                -122.37802930976059,
                47.66063679790338
            ],
            [
                -122.37804399148037,
                47.66065005479779
            ],
            [
                -122.37804114129902,
                47.66065854029763
            ],
            [
                -122.37804915551341,
                47.66065628886769
            ],
            [
                -122.37806061867039,
                47.66064508205386
            ],
            [
                -122.37805007171204,
                47.66064843179674
            ],
            [
                -122.37807034102941,
                47.6606631935307
            ],
            [
                -122.37806566095877,
                47.66064851727322
            ],
            [
                -122.37806677181901,
                47.6606673558714
            ],
            [
                -122.37805753480733,
                47.66066916412426
            ],
            [
                -122.37804929933921,
                47.660654707285914
            ],
            [
                -122.37804807365646,
                47.66065834059384
            ],
            [
                -122.3780446816315,
                47.66068295752979
            ],
            [
                -122.37804066027714,
                47.66067148106238
            ],
            [
                -122.3780397257945,
                47.660669139392155
            ],
            [
                -122.37803780885034,
                47.66065059611753
            ],
            [
                -122.37803780107002,
                47.66065826576803
            ],
            [
                -122.37803934764477,
                47.66066003139287
            ],
            [
                -122.3780593849116,
                47.66066952899302
            ],
            [
                -122.3780490911204,
                47.66066050013606
            ],
            [
                -122.37805000528357,
                47.66067026965905
            ],
            [
                -122.37804042209356,
                47.66067990388815
            ],
            [
                -122.37804385811862,
                47.66066507304314
            ],
            [
                -122.37803018309828,
                47.66067000350833
            ],
            [
                -122.37804973231978,
                47.66068020103066
            ],
            [
                -122.3780409439644,
                47.660679884090584
            ],
            [
                -122.37805973361053,
                47.66067957597193
            ],
            [
                -122.37803886619876,
                47.66068115100785
            ],
            [
                -122.37805205414209,
                47.660686313361786
            ],
            [
                -122.3780501718156,
                47.66066993526989
            ],
            [
                -122.37803896584441,
                47.660680886193
            ],
            [
                -122.3780383285756,
                47.6606718368569
            ],
            [
                -122.37803874442376,
                47.66067922722109
            ],
            [
                -122.37804933997387,
                47.66068159956842
            ],
            [
                -122.37805082521463,
                47.66068273642084
            ],
            [
                -122.37804568224222,
                47.660672694702264
            ],
            [
                -122.37804140769055,
                47.6606796306509
            ],
            [
                -122.37806871961966,
                47.66068150496268
            ],
            [
                -122.37805458369064,
                47.66067051377543
            ],
            [
                -122.37805122916652,
                47.660665670889266
            ],
            [
                -122.37805986566458,
                47.660666405243845
            ],
            [
                -122.37806245346576,
                47.6606750805093
            ],
            [
                -122.37806088477164,
                47.66067987624706
            ],
            [
                -122.37805711148897,
                47.660663624893346
            ],
            [
                -122.37803614928123,
                47.6606695302335
            ],
            [
                -122.37803556885697,
                47.66066089870259
            ],
            [
                -122.37804495186582,
                47.66066067308516
            ],
            [
                -122.37804341177285,
                47.66065147013273
            ],
            [
                -122.37802507648365,
                47.660640243075775
            ],
            [
                -122.37804762862689,
                47.66066071641728
            ],
            [
                -122.37804880480518,
                47.6606603979007
            ],
            [
                -122.37805224541951,
                47.66066663039627
            ],
            [
                -122.37804720546887,
                47.66067211891792
            ],
            [
                -122.37802804995076,
                47.66065243316542
            ],
            [
                -122.3780319325,
                47.6606599219746
            ],
            [
                -122.37805241632465,
                47.66066870793296
            ],
            [
                -122.37803964369482,
                47.66066055990179
            ],
            [
                -122.3780458840639,
                47.660660374500466
            ],
            [
                -122.37803878936695,
                47.66065938134231
            ],
            [
                -122.37804840387756,
                47.660668351852706
            ],
            [
                -122.37804968071724,
                47.660670832406716
            ],
            [
                -122.37803987662878,
                47.66066977247658
            ],
            [
                -122.37804977611795,
                47.66067983712383
            ],
            [
                -122.37805,
                47.66068
            ]
        ]
    },
    "properties": {
        "trajectory_id": 5118,
        "object_id": 367605210,
        "label": "PASSENGER"
    }
}