{
    "type": "Feature",
    "geometry": {
        "type": "LineString",
        "coordinates": [
            [
                -122.38236,
                47.65629
            ],
            [
                -122.3823599407695,
                47.65627998711442
            ],
            [
                -122.38237025432863,
                47.65626922214701
            ],
            [
                -122.3823594634039,
                47.65628371844802
            ],
            [
                -122.38236991287582,
                47.656290748114984
            ],
            [
                -122.38236928249319,
                47.65628115598613
            ],
            [
                -122.3823666608509,
                47.65628848616922
            ],
            [
                -122.38236051488906,
                47.65629933821839
            ],
            [
                -122.38236881203373,
                47.65628151493474
            ],
            [
                -122.38236687079343,
                47.65627335713363
            ],
            [
                -122.3823684765872,
                47.65628672018342
            ],
            [
                -122.38237212856838,
                47.65630086137452
            ],
            [
                -122.38238622148293,
                47.65627744806158
            ],
            [
                -122.38237122626028,
                47.65629943369664
            ],
            [
                -122.38236489995785,
                47.656271207520824
            ],
            [
                -122.38239167904644,
                47.6562769581415
            ],
            [
                -122.38237207649233,
                47.656274876797696
            ],
            [
                -122.38238155344575,
                47.65626561929736
            ],
            [
                -122.38237408417935,
                47.65626780532581
            ],
            [
                -122.38237544876431,
                47.656278238825465
            ],
            [
                -122.3823551725651,
                47.6562956359466
            ],
            [
                -122.38238692015425,
                47.65628417250714
            ],
            [
                -122.38237526542511,
                47.65629240382874
            ],
            [
                -122.38237359222433,
                47.65629369674946
            ],
            [
                -122.38235288640603,
                47.65626896686971
            ],
            [
                -122.3823703353892,
                47.65628865546029
            ],
            [
                -122.38237005304586,
                47.65628578830822
            ],
            [
                -122.38236940335955,
                47.656298130523126
            ],
            [
                -122.38233703771814,
                47.6562525552798
            ],
            [
                -122.38238238515267,
                47.6562845852721
            ],
            [
                -122.38240314942304,
                47.65627924445409
            ],
            [
                -122.38239235162548,
                47.656267276195074
            ],
            [
                -122.38237635473256,
                47.65627942561009
            ],
            [
                -122.38237168651148,
                47.65630573743873
            ],
            [
                -122.38236870630755,
                47.65630042772137
            ],
            [
                -122.38236202860737,
                47.656285984322324
            ],
            [
                -122.38237034840118,
                47.656278993237514
            ],
            [
                -122.38236740214896,
                47.65628304244417
            ],
            [
                -122.38236799158013,
                47.65628470661812
            ],
            [
                -122.38236680419291,
                47.65627219862821
            ],
            [
                -122.38238120679362,
                47.65627953836646
            ],
            [
                -122.38236447932243,
                47.656301743018545
            ],
            [
                -122.38236102893393,
                47.65628619186937
            ],
            [
                -122.3823593052212,
                47.65627996142527
            ],
            [
                -122.38236900258384,
                47.656297912972896
            ],
            [
                -122.38236619852347,
                47.65629437932075
            ],
            [
                -122.38237339694032,
                47.65629481626111
            ],
            [
                -122.38236056737263,
                47.65629661036572
            ],
            [
                -122.38240337278496,
                47.65625787723026
            ],
            [
                -122.38236729905866,
                47.65628500465372
            ],
            [
                -122.38238339186464,
                47.65624324772514
            ],
            [
                -122.38235366787929,
                47.65629863507349
            ],
            [
                -122.38238956351906,
                47.65627135387369
            ],
            [
                -122.3823710498705,
                47.656301626081955
            ],
            [
                -122.38236839915942,
                47.65626990710427
            ],
            [
                -122.38237954035237,
                47.656268981585605
            ],
            [
                -122.3823585452368,
                47.65629364012154
            ],
            [
                -122.38237133385577,
                47.65628088364221
            ],
            [
                -122.38239722118102,
                47.65630238257164
            ],
            [
                -122.38236994459157,
                47.65629977992962
            ],
            [
                -122.38236011444482,
                47.656299927511064
            ],
            [
                -122.38236537194109,
                47.65630762523561
            ],
            [
                -122.38236032531937,
                47.65628863914012
            ],
            [
                -122.38237011771525,
                47.65628979518197
            ],
            [
                -122.38235824296902,
                47.656252064529795
            ],
            [
                -122.38239223024559,
                47.65630221888168
            ],
            [
                -122.38237126018944,
                47.656287532966104
            ],
            [
                -122.38236857292442,
                47.656291003032095
            ],
            [
                -122.38238998437538,
                47.65628338472362
            ],
            [
                -122.38236154274574,
                47.65630662834878
            ],
            [
                -122.3823704065226,
                47.65627780089228
            ],
            [
                -122.38234250719194,
                47.656305109276886
            ],
            [
                -122.38236834575623,
                47.65630775158809
            ],
            [
                -122.38242607101742,
                47.65628578972487
            ],
            [
                -122.38239755915622,
                47.65628799438173
            ],
            [
                -122.38235463871608,
                47.65630045009436
            ],
            [
                -122.38236622656468,
                47.656294422583095
            ],
            [
                -122.38236778274887,
                47.65627242047992
            ],
            [
                -122.38236175065161,
                47.65628166865363
            ],
            [
                -122.38238441544911,
                47.656283261415346
            ],
            [
                -122.382348252384,
                47.6562821437776
            ],
            [
                -122.38236845348334,
                47.65628115104994
            ],
            [
                -122.38236984567897,
                47.65628559748204
            ],
            [
                -122.38236967800468,
                47.65629241752319
            ],
            [
                -122.38236450021807,
                47.656273270699664
            ],
            [
                -122.38234041748125,
                47.656257746815726
            ],
            [
                -122.38233072227938,
                47.65624657517217
            ],
            [
                -122.3823910893963,
                47.65630720653576
            ],
            [
                -122.3823758375474,
                47.65629735673838
            ],
            [
                -122.3823689514695,
                47.65627861315331
            ],
            [
                -122.38236511915576,
                47.656292387376055
            ],
            [
                -122.382388824431,
                47.65630518098428
            ],
            [
                -122.38237032437203,
                47.656314887001635
            ],
            [
                -122.38235189268887,
                47.656325829307285
            ],
            [
                -122.38237346341178,
                47.656338468986746
            ],
            [
                -122.3823711596929,
                47.65632076691765
            ],
            [
                -122.38237864466204,
                47.656317014523815
            ],
            [
                -122.38236928994434,
                47.656342002078325
            ],
            [
                -122.3823706601919,
                47.656321171228505
            ],
            [
                -122.3823662604535,
                47.65633021172387
            ],
            [
                -122.3823800414512,
                47.656326261625885
            ],
            [
                -122.38238258161638,
                47.656326922450326
            ],
            [
                -122.38240210535484,
                47.65631562328217
            ],
            [
                -122.38238309623777,
                47.65632075927963
            ],
            [
                -122.38237521554029,
                47.656323364921136
            ],
            [
                -122.38237236486582,
                47.65631639019397
            ],
            [
                -122.38237007684535,
                47.65632593868159
            ],
            [
                -122.38237058522824,
                47.65638769832328
            ],
            [
                -122.38237500572997,
                47.65637720831516
            ],
            [
                -122.38236823519091,
                47.65631965471341
            ],
            [
                -122.38236988755567,
                47.6563185840474
            ],
            [
                -122.38236878593406,
                47.65631128141288
            ],
            [
                -122.38239134335461,
                47.65631976307155
            ],
            [
                -122.3823742913825,
                47.656328922791
            ],
            [
                -122.38236790608542,
                47.65633077265851
            ],
            [
                -122.38235970358092,
                47.656329791447064
            ],
            [
                -122.38238570371735,
                47.65632202356895
            ],
            [
                -122.38237383155365,
                47.656316900890666
            ],
            [
                -122.38239552027184,
                47.656346672357586
            ],
            [
                -122.3824,
                47.65634
            ]
        ]
    },
    "properties": {
        "trajectory_id": 5140,
        "object_id": 367616650,
        "label": "FISHING"
    }
}