{
    "type": "Feature",
    "geometry": {
        "type": "LineString",
        "coordinates": [
            [
                -122.64615,
                48.51156
            ],
            [
                -122.64614000097937,
                48.5115599670479
            ],
            [
                -122.64614000014525,
                48.511560056895476
            ],
            [
                -122.64614004965061,
                48.511560348181824
            ],
            [
                -122.64613915887129,
                48.511560191791915
            ],
            [
                -122.64614135936347,
                48.511570664619654
            ],
            [
                -122.64614083329128,
                48.511561666774654
            ],
            [
                -122.64614090808581,
                48.51156186108852
            ],
            [
                -122.64613999667795,
                48.51155998415308
            ],
            [
                -122.64614072207276,
                48.511560013505694
            ],
            [
                -122.64614290692398,
                48.51156326184636
            ],
            [
                -122.64614349907984,
                48.511563449193424
            ],
            [
                -122.64612875164036,
                48.51155882992508
            ],
            [
                -122.6461324879847,
                48.511558716242675
            ],
            [
                -122.64613918638693,
                48.511563740692274
            ],
            [
                -122.64614324143498,
                48.511565187752645
            ],
            [
                -122.64614550357368,
                48.51156031377627
            ],
            [
                -122.64613991579616,
                48.51156000155725
            ],
            [
                -122.646144398051,
                48.51156000008555
            ],
            [
                -122.64613255347024,
                48.51155999509389
            ],
            [
                -122.64614899200375,
                48.51155862995538
            ],
            [
                -122.64614696213697,
                48.5115637346875
            ],
            [
                -122.6461453982866,
                48.51156319316422
            ],
            [
                -122.64614815911094,
                48.51156287681908
            ],
            [
                -122.64614863728664,
                48.51157175832106
            ],
            [
                -122.64613791852811,
                48.511568599925475
            ],
            [
                -122.64613918466301,
                48.51155995113164
            ],
            [
                -122.6461497409928,
                48.51155993700967
            ],
            [
                -122.64615165246823,
                48.51157039683957
            ],
            [
                -122.64614908619151,
                48.51157103166973
            ],
            [
                -122.64613999188323,
                48.51156941037529
            ],
            [
                -122.64614981748836,
                48.51156991345436
            ],
            [
                -122.64614003372792,
                48.51157059494967
            ],
            [
                -122.64614000438007,
                48.51156005662939
            ],
            [
                -122.64614999999999,
                48.51156
            ],
            [
                -122.64614000099705,
                48.511559949164436
            ],
            [
                -122.6461405017271,
                48.51156008938003
            ],
            [
                -122.64613934805648,
                48.51155995368029
            ],
            [
                -122.64613998128911,
                48.51155999844847
            ],
            [
                -122.64615068887822,
                48.51155967604858
            ],
            [
                -122.64614089780791,
                48.51155082414888
            ],
            [
                -122.64615145075047,
                48.51155950469189
            ],
            [
                -122.64613918601073,
                48.511552521340555
            ],
            [
                -122.64615280973696,
                48.51157177691208
            ],
            [
                -122.64615055201058,
                48.51157104815722
            ],
            [
                -122.64614638972012,
                48.5115599435858
            ],
            [
                -122.64614691737093,
                48.51156413361244
            ],
            [
                -122.64614009448167,
                48.51156623895684
            ],
            [
                -122.64615067899395,
                48.511566598063204
            ],
            [
                -122.64613691675234,
                48.51157075491449
            ],
            [
                -122.64613931214369,
                48.5115719126054
            ],
            [
                -122.64614096872941,
                48.51155928839498
            ],
            [
                -122.64613946127038,
                48.511573556198954
            ],
            [
                -122.64614477803988,
                48.51156977089137
            ],
            [
                -122.64614993978441,
                48.51155938397729
            ],
            [
                -122.64613828024397,
                48.511571116817855
            ],
            [
                -122.6461456874085,
                48.51156699145871
            ],
            [
                -122.64613922370164,
                48.511559933032174
            ],
            [
                -122.64614669134708,
                48.51156001864539
            ],
            [
                -122.64613809006268,
                48.511567323101175
            ],
            [
                -122.64614296591135,
                48.51156195127112
            ],
            [
                -122.64615291987853,
                48.51156560827109
            ],
            [
                -122.64615019756333,
                48.51156272931169
            ],
            [
                -122.6461310571342,
                48.51156001024041
            ],
            [
                -122.64613888502751,
                48.51155918590314
            ],
            [
                -122.64614005747661,
                48.5115609185983
            ],
            [
                -122.64613965961105,
                48.51155963551941
            ],
            [
                -122.6461400361436,
                48.51157001837112
            ],
            [
                -122.64613999999999,
                48.51156
            ],
            [
                -122.64614030895405,
                48.51157004352459
            ],
            [
                -122.64613988941245,
                48.51156001141316
            ],
            [
                -122.64614001299022,
                48.51156070720389
            ],
            [
                -122.6461303563382,
                48.51156002587196
            ],
            [
                -122.64612815712852,
                48.51155949517079
            ],
            [
                -122.6461290148766,
                48.511560399494066
            ],
            [
                -122.64614981110216,
                48.51156251498301
            ],
            [
                -122.64614014862217,
                48.511560488003425
            ],
            [
                -122.64614918498611,
                48.51156831025575
            ],
            [
                -122.64614976119569,
                48.511560830557414
            ],
            [
                -122.64613994540987,
                48.5115605026353
            ],
            [
                -122.64613862813285,
                48.511559805976205
            ],
            [
                -122.64615001007894,
                48.51155991604813
            ],
            [
                -122.64614394405957,
                48.511558951681266
            ],
            [
                -122.64615004601174,
                48.511559996237466
            ],
            [
                -122.6461391345884,
                48.51156034805643
            ],
            [
                -122.64615074985464,
                48.5115503651788
            ],
            [
                -122.64614016343418,
                48.51155988579532
            ],
            [
                -122.64613276953003,
                48.51155465451072
            ],
            [
                -122.64614945611545,
                48.511560659102436
            ],
            [
                -122.64614901512304,
                48.511560161036776
            ],
            [
                -122.64614947017637,
                48.51156000580723
            ],
            [
                -122.64615056971806,
                48.5115611707635
            ],
            [
                -122.64614254804296,
                48.51156033959734
            ],
            [
                -122.6461508495303,
                48.51155017749815
            ],
            [
                -122.64613981507755,
                48.51155995036793
            ],
            [
                -122.64613477198715,
                48.51156004227783
            ],
            [
                -122.64613966646365,
                48.511556721231756
            ],
            [
                -122.64615218447425,
                48.51155644734798
            ],
            [
                -122.64614998032967,
                48.511559829814246
            ],
            [
                -122.64614344704256,
                48.511558705995625
            ],
            [
                -122.6461521936327,
                48.51155472356638
            ],
            [
                -122.64614259963633,
                48.511559906450685
            ],
            [
                -122.6461496414133,
                48.5115545332045
            ],
            [
                -122.6461609639635,
                48.51155003663295
            ],
            [
                -122.64616141004339,
                48.51155576264632
            ],
            [
                -122.64614777654302,
                48.51155463438655
            ],
            [
                -122.64615659088017,
                48.5115610771359
            ],
            [
                -122.646153827728,
                48.51154923541558
            ],
            [
                -122.64614006267328,
                48.51155037910037
            ],
            [
                -122.6461386929502,
                48.51154781534144
            ],
            [
                -122.6461437029257,
                48.51155787675541
            ],
            [
                -122.6461402341812,
                48.511551851063345
            ],
            [
                -122.64614237103,
                48.511559949704974
            ],
            [
                -122.64614033412606,
                48.51156917492558
            ],
            [
                -122.6461384549696,
                48.51155893079743
            ],
            [
                -122.64615005954587,
                48.51155058607243
            ],
            [
                -122.64614025011218,
                48.51156001558216
            ],
            [
                -122.6461400889501,
                48.51156000952199
            ],
            [
                -122.6461398391124,
                48.51157020536869
            ],
            [
                -122.64614,
                48.51155
            ]
        ]
    },
    "properties": {
        "trajectory_id": 5161,
        "object_id": 367620550,
        "label": "PLEASURE CRAFT"
    }
}