{
    "type": "Feature",
    "geometry": {
        "type": "LineString",
        "coordinates": [
            [
                -122.37868,
                47.65626
            ],
            [
                -122.37866974322205,
                47.65629040655585
            ],
            [
                -122.37864947657505,
                47.65630125907398
            ],
            [
                -122.37864810013028,
                47.65631284988876
            ],
            [
                -122.37864119949019,
                47.65629900441246
            ],
            [
                -122.37866056196094,
                47.6562500387731
            ],
            [
                -122.37868386014199,
                47.65617902841433
            ],
            [
                -122.37868819765622,
                47.656287833588564
            ],
            [
                -122.37864234731676,
                47.656283060298634
            ],
            [
                -122.37867730083637,
                47.65625717704867
            ],
            [
                -122.37865551554042,
                47.65626163371102
            ],
            [
                -122.3787156253997,
                47.656241774974724
            ],
            [
                -122.37868069319462,
                47.65617239181519
            ],
            [
                -122.37869388645522,
                47.65625212767274
            ],
            [
                -122.37865418009076,
                47.65630545540266
            ],
            [
                -122.37868534625545,
                47.65627809788001
            ],
            [
                -122.37870062533891,
                47.656220966985835
            ],
            [
                -122.37869419691816,
                47.65623837366964
            ],
            [
                -122.37869306699923,
                47.65623029808324
            ],
            [
                -122.3786692907957,
                47.65626804485615
            ],
            [
                -122.37868362580797,
                47.65621475006401
            ],
            [
                -122.3786692270719,
                47.65626522394472
            ],
            [
                -122.37865853255657,
                47.6562770818521
            ],
            [
                -122.37866149517191,
                47.656262573916464
            ],
            [
                -122.37866842858028,
                47.65629365266837
            ],
            [
                -122.37866948094265,
                47.656261628231306
            ],
            [
                -122.37870078827673,
                47.656260894321
            ],
            [
                -122.37869389094482,
                47.65629947460355
            ],
            [
                -122.37866656598598,
                47.65627260404109
            ],
            [
                -122.3786965193804,
                47.656329013219576
            ],
            [
                -122.37868177449798,
                47.656303325863576
            ],
            [
                -122.37863395115862,
                47.65622208881416
            ],
            [
                -122.3786340693137,
                47.656249532369436
            ],
            [
                -122.37866581507774,
                47.656261896371504
            ],
            [
                -122.3786955783492,
                47.656243860389424
            ],
            [
                -122.37864211499603,
                47.65622615151091
            ],
            [
                -122.37867025046474,
                47.656199613745194
            ],
            [
                -122.37867975394488,
                47.65627933746857
            ],
            [
                -122.37866054126546,
                47.656279752011415
            ],
            [
                -122.37866979244876,
                47.65628001029669
            ],
            [
                -122.37866997843715,
                47.656290484708265
            ],
            [
                -122.37864002096919,
                47.6563100815898
            ],
            [
                -122.37863083820794,
                47.65628938822761
            ],
            [
                -122.37868086119285,
                47.656241238476504
            ],
            [
                -122.3786776097826,
                47.65622267532921
            ],
            [
                -122.37867276990146,
                47.65625335902598
            ],
            [
                -122.37872300175694,
                47.65624602839962
            ],
            [
                -122.37866840342514,
                47.65623613546965
            ],
            [
                -122.37866987779923,
                47.65625278758244
            ],
            [
                -122.3786476896209,
                47.65627597256052
            ],
            [
                -122.37863777121866,
                47.65626299896931
            ],
            [
                -122.37860232387543,
                47.65634548744281
            ],
            [
                -122.37869126928894,
                47.656235453593304
            ],
            [
                -122.37866851734967,
                47.6562677378284
            ],
            [
                -122.3786611219273,
                47.656294116043824
            ],
            [
                -122.37866176203127,
                47.65635838400361
            ],
            [
                -122.3786761957268,
                47.65629978867756
            ],
            [
                -122.37869496689233,
                47.656303843708514
            ],
            [
                -122.37864017735193,
                47.65625277182453
            ],
            [
                -122.37869269258596,
                47.65629685267672
            ],
            [
                -122.3786672569303,
                47.65628974243734
            ],
            [
                -122.37862539569768,
                47.65630774909396
            ],
            [
                -122.37865554144764,
                47.65627558086663
            ],
            [
                -122.37868779500705,
                47.6562113504754
            ],
            [
                -122.3786518356082,
                47.65630634545844
            ],
            [
                -122.37871375278849,
                47.65623585582
            ],
            [
                -122.37870277733595,
                47.656253387840884
            ],
            [
                -122.37870781304619,
                47.656317203133746
            ],
            [
                -122.37871096004564,
                47.65626780532506
            ],
            [
                -122.37866257391943,
                47.65621770351361
            ],
            [
                -122.37870614932814,
                47.6562315635962
            ],
            [
                -122.37868438906358,
                47.65625071640797
            ],
            [
                -122.37867008310761,
                47.65622692624723
            ],
            [
                -122.37866991815596,
                47.65622326256401
            ],
            [
                -122.37872706768069,
                47.65620513937006
            ],
            [
                -122.37866122562606,
                47.65624141954186
            ],
            [
                -122.37869921586763,
                47.65624932783323
            ],
            [
                -122.3786954163499,
                47.65622292465711
            ],
            [
                -122.37868922152359,
                47.65624117527744
            ],
            [
                -122.3787004393544,
                47.65622984717909
            ],
            [
                -122.37867031041378,
                47.65625043936059
            ],
            [
                -122.37864952476244,
                47.65627123591757
            ],
            [
                -122.3786700914601,
                47.6562384493345
            ],
            [
                -122.37869641152243,
                47.65623017020925
            ],
            [
                -122.37870298536798,
                47.65624194717033
            ],
            [
                -122.37871520447753,
                47.6562326585656
            ],
            [
                -122.3787056336691,
                47.656260705886204
            ],
            [
                -122.37867962037606,
                47.65625865114197
            ],
            [
                -122.37865519213588,
                47.656257794411474
            ],
            [
                -122.37866073157326,
                47.65625353449558
            ],
            [
                -122.37868763070054,
                47.65625338813676
            ],
            [
                -122.37869882833259,
                47.656243878989706
            ],
            [
                -122.3786754745517,
                47.656305828029204
            ],
            [
                -122.37868944668622,
                47.65629800615773
            ],
            [
                -122.37866731746037,
                47.65629813866333
            ],
            [
                -122.37857302865586,
                47.656367329945994
            ],
            [
                -122.37869402897925,
                47.65625039822555
            ],
            [
                -122.37870639217627,
                47.65625673929498
            ],
            [
                -122.37864206586362,
                47.65628471954506
            ],
            [
                -122.37867194284438,
                47.656285178198885
            ],
            [
                -122.37870066093977,
                47.65624957574598
            ],
            [
                -122.37867012757614,
                47.65617260617607
            ],
            [
                -122.37866530723629,
                47.656232975768525
            ],
            [
                -122.37869688267205,
                47.656276232878895
            ],
            [
                -122.37870004159923,
                47.65620059883379
            ],
            [
                -122.37867155206109,
                47.65625690647906
            ],
            [
                -122.37866011401425,
                47.65626551569037
            ],
            [
                -122.37869948700664,
                47.65626150265945
            ],
            [
                -122.37867708156905,
                47.65625120793434
            ],
            [
                -122.37868089738112,
                47.65625692836437
            ],
            [
                -122.37871553394507,
                47.65627140783415
            ],
            [
                -122.3786609841607,
                47.65627195928356
            ],
            [
                -122.37865930893781,
                47.65626835444348
            ],
            [
                -122.37868134578147,
                47.65625154706616
            ],
            [
                -122.37864914847998,
                47.65625034837183
            ],
            [
                -122.37872062807476,
                47.65627147718468
            ],
            [
                -122.37866120686483,
                47.65628003118384
            ],
            [
                -122.37869968884348,
                47.65626074089297
            ],
            [
                -122.37871970502864,
                47.65625967840171
            ],
            [
                -122.37869,
                47.65628
            ]
        ]
    },
    "properties": {
        "trajectory_id": 5199,
        "object_id": 367634170,
        "label": "FISHING"
    }
}