{
    "type": "Feature",
    "geometry": {
        "type": "LineString",
        "coordinates": [
            [
                -123.10686,
                49.31184
            ],
            [
                -123.10682532425156,
                49.311846577555805
            ],
            [
                -123.10685717096125,
                49.3118642819656
            ],
            [
                -123.10685137035769,
                49.31186724950693
            ],
            [
                -123.10680976390161,
                49.31184731640594
            ],
            [
                -123.10684221735178,
                49.31185142416411
            ],
            [
                -123.10685009077051,
                49.31190098860457
            ],
            [
                -123.10687751619815,
                49.31185092058327
            ],
            [
                -123.10686562015884,
                49.31182950504492
            ],
            [
                -123.10685918322245,
                49.311812773150095
            ],
            [
                -123.10685049720082,
                49.3119004581854
            ],
            [
                -123.10685914851635,
                49.31185477498382
            ],
            [
                -123.1068664768347,
                49.31186683680691
            ],
            [
                -123.10690063876504,
                49.31179170887084
            ],
            [
                -123.1068322104554,
                49.3118597109331
            ],
            [
                -123.10681317175784,
                49.31189893956973
            ],
            [
                -123.10686001947025,
                49.31187000803267
            ],
            [
                -123.10685715427421,
                49.31181920455583
            ],
            [
                -123.10683443582764,
                49.31182338733222
            ],
            [
                -123.10685957187323,
                49.31181984676836
            ],
            [
                -123.1068609463271,
                49.311752546802744
            ],
            [
                -123.10684158197321,
                49.311845924956444
            ],
            [
                -123.10685872222498,
                49.31183857204911
            ],
            [
                -123.10686180688347,
                49.311835860249865
            ],
            [
                -123.10683595292154,
                49.311798226764544
            ],
            [
                -123.10684793751932,
                49.311849365329444
            ],
            [
                -123.10680509096622,
                49.311839299151224
            ],
            [
                -123.10685591139061,
                49.31185716325225
            ],
            [
                -123.10690279906301,
                49.31186564397769
            ],
            [
                -123.10691915377691,
                49.31186578287076
            ],
            [
                -123.10688982114729,
                49.31175023083018
            ],
            [
                -123.10682342031572,
                49.31183027128694
            ],
            [
                -123.10684957072854,
                49.31184004555021
            ],
            [
                -123.106850995385,
                49.3118386052097
            ],
            [
                -123.1068592793273,
                49.31185017062201
            ],
            [
                -123.10681312039229,
                49.31188839151678
            ],
            [
                -123.1068788535416,
                49.311830797616224
            ],
            [
                -123.10687039474294,
                49.31182211808045
            ],
            [
                -123.10682841846985,
                49.31183302908471
            ],
            [
                -123.10687019750891,
                49.31181019105495
            ],
            [
                -123.10684197717134,
                49.31186760545286
            ],
            [
                -123.10686210662267,
                49.31184968972833
            ],
            [
                -123.10683480672905,
                49.311880860721814
            ],
            [
                -123.10686063496927,
                49.31192305842116
            ],
            [
                -123.1068574595513,
                49.311878756862555
            ],
            [
                -123.10686048559404,
                49.311832985016615
            ],
            [
                -123.10681261973686,
                49.3118439518615
            ],
            [
                -123.10683064292932,
                49.31181801902079
            ],
            [
                -123.1068654441443,
                49.311844510312696
            ],
            [
                -123.10687019884121,
                49.31183034418369
            ],
            [
                -123.10686036084235,
                49.31184028980585
            ],
            [
                -123.1068716977595,
                49.311830241983515
            ],
            [
                -123.10687953170216,
                49.31184107451003
            ],
            [
                -123.10683747281645,
                49.311827508272614
            ],
            [
                -123.10683997568145,
                49.31186002179741
            ],
            [
                -123.10687087076501,
                49.31184357995591
            ],
            [
                -123.10686031723246,
                49.31183941201478
            ],
            [
                -123.10684573866928,
                49.31188866820228
            ],
            [
                -123.10685104020335,
                49.31185828778351
            ],
            [
                -123.10687797553578,
                49.31184604154168
            ],
            [
                -123.10685203997306,
                49.3118293565909
            ],
            [
                -123.10687975050061,
                49.311849947377425
            ],
            [
                -123.10687981333372,
                49.31185017912913
            ],
            [
                -123.10689352960964,
                49.31183284580933
            ],
            [
                -123.10686990167788,
                49.3118400287804
            ],
            [
                -123.10691204801107,
                49.31178021966142
            ],
            [
                -123.10683745018909,
                49.31187085307386
            ],
            [
                -123.10686967599453,
                49.31182974111349
            ],
            [
                -123.10686095474986,
                49.311829411891615
            ],
            [
                -123.10686729948549,
                49.31184910920567
            ],
            [
                -123.10638844465662,
                49.31021904979121
            ],
            [
                -123.09822575121497,
                49.302386977095885
            ],
            [
                -123.10369043158067,
                49.29577596837118
            ],
            [
                -123.10490290975002,
                49.31048991741238
            ],
            [
                -123.10479049850144,
                49.311523760021224
            ],
            [
                -123.10606777723241,
                49.30952640334018
            ],
            [
                -123.10678660290625,
                49.31185666837289
            ],
            [
                -123.10684331721751,
                49.311846649678046
            ],
            [
                -123.10686272308287,
                49.311879493031356
            ],
            [
                -123.10685,
                49.31189
            ]
        ]
    },
    "properties": {
        "trajectory_id": 520,
        "object_id": 316003659,
        "label": "TUG"
    }
}