{
    "type": "Feature",
    "geometry": {
        "type": "LineString",
        "coordinates": [
            [
                -122.50767,
                48.755
            ],
            [
                -122.50767037346503,
                48.75495964870893
            ],
            [
                -122.50763944140114,
                48.75498042634588
            ],
            [
                -122.50766939014086,
                48.75498058570481
            ],
            [
                -122.50768282548371,
                48.75497876280456
            ],
            [
                -122.50766970484914,
                48.7549903892625
            ],
            [
                -122.5076858173545,
                48.754966404403795
            ],
            [
                -122.50766880424504,
                48.75498845360164
            ],
            [
                -122.50767932026011,
                48.755010556976494
            ],
            [
                -122.50768133161601,
                48.75497556595843
            ],
            [
                -122.5076528182655,
                48.75497336611707
            ],
            [
                -122.50767224073375,
                48.75497141397432
            ],
            [
                -122.5076789294276,
                48.75498259112089
            ],
            [
                -122.50769085081427,
                48.75499155361126
            ],
            [
                -122.50768794563783,
                48.75496367741739
            ],
            [
                -122.5076729681298,
                48.7549600585061
            ],
            [
                -122.50767294955418,
                48.75498534642643
            ],
            [
                -122.50768904900819,
                48.75498607803947
            ],
            [
                -122.50766803145092,
                48.75499357957614
            ],
            [
                -122.50768660161997,
                48.754970320705276
            ],
            [
                -122.50766294022796,
                48.75498703809875
            ],
            [
                -122.50771151769581,
                48.754941403900844
            ],
            [
                -122.50767285950593,
                48.75499214149938
            ],
            [
                -122.50768284294244,
                48.754971995148246
            ],
            [
                -122.50767304539855,
                48.754991539548996
            ],
            [
                -122.50762889275848,
                48.75499993570728
            ],
            [
                -122.50766144302686,
                48.75500208592615
            ],
            [
                -122.50766981299368,
                48.75501047140289
            ],
            [
                -122.50765129396575,
                48.754985891286516
            ],
            [
                -122.50765804731466,
                48.75496502680507
            ],
            [
                -122.50767192870308,
                48.75498032774607
            ],
            [
                -122.50767854329538,
                48.75499040845007
            ],
            [
                -122.50764998597337,
                48.754990414775925
            ],
            [
                -122.50768051733066,
                48.75499621216434
            ],
            [
                -122.50766297997787,
                48.75501569350008
            ],
            [
                -122.5076713266709,
                48.7549971298266
            ],
            [
                -122.50767015237889,
                48.75497849583729
            ],
            [
                -122.50764895125774,
                48.75500074786846
            ],
            [
                -122.50766984624696,
                48.75499916694322
            ],
            [
                -122.50768007480801,
                48.75497994708112
            ],
            [
                -122.50766995637446,
                48.75495977202382
            ],
            [
                -122.5076704181521,
                48.75498130343491
            ],
            [
                -122.50767994382251,
                48.75499839163978
            ],
            [
                -122.5076704859188,
                48.75500216025873
            ],
            [
                -122.5076387945661,
                48.75497766079894
            ],
            [
                -122.50764879943391,
                48.75499441394834
            ],
            [
                -122.50765207057296,
                48.755000142185935
            ],
            [
                -122.50764470536693,
                48.75498977245995
            ],
            [
                -122.50764944671015,
                48.754967079060684
            ],
            [
                -122.50767149031005,
                48.754993499264856
            ],
            [
                -122.50772711546809,
                48.75498347675312
            ],
            [
                -122.50767707358364,
                48.75495330125093
            ],
            [
                -122.50768104535516,
                48.75495950247704
            ],
            [
                -122.5076662494799,
                48.75500699929975
            ],
            [
                -122.50767752996562,
                48.75500322735357
            ],
            [
                -122.50766851095045,
                48.75498110014377
            ],
            [
                -122.50763966738805,
                48.75497284048222
            ],
            [
                -122.5076520792011,
                48.75500384524277
            ],
            [
                -122.50767777306405,
                48.75498538650492
            ],
            [
                -122.50763824820831,
                48.75495933604371
            ],
            [
                -122.50764517493256,
                48.75495529754929
            ],
            [
                -122.50763093398952,
                48.754975123022675
            ],
            [
                -122.50768234376211,
                48.754973488003934
            ],
            [
                -122.50767430658479,
                48.75498488555356
            ],
            [
                -122.50763931647755,
                48.75500883144713
            ],
            [
                -122.50763345776318,
                48.754964149291055
            ],
            [
                -122.50765033042728,
                48.75498977055615
            ],
            [
                -122.50763884291348,
                48.75498858780672
            ],
            [
                -122.50766221819886,
                48.75499712398436
            ],
            [
                -122.50764887764952,
                48.755001481150465
            ],
            [
                -122.50769604353376,
                48.75499608886735
            ],
            [
                -122.5076713883671,
                48.755011228763884
            ],
            [
                -122.50767548107873,
                48.75498990772675
            ],
            [
                -122.50766619964497,
                48.754967823643256
            ],
            [
                -122.50767022896406,
                48.754998203211095
            ],
            [
                -122.5076712296855,
                48.75499999028964
            ],
            [
                -122.50766963029217,
                48.75500191296152
            ],
            [
                -122.50768090780679,
                48.754987864573785
            ],
            [
                -122.50771981868172,
                48.754970283470286
            ],
            [
                -122.5076900084014,
                48.75496992454156
            ],
            [
                -122.50764614294047,
                48.755036395971416
            ],
            [
                -122.50769015271987,
                48.75499970201277
            ],
            [
                -122.50767492606282,
                48.754976187484615
            ],
            [
                -122.50767006321867,
                48.75500070114289
            ],
            [
                -122.50766913792455,
                48.754988512776535
            ],
            [
                -122.5076706423496,
                48.75498822623058
            ],
            [
                -122.50767170760003,
                48.75499866750614
            ],
            [
                -122.50767115042002,
                48.754998045052844
            ],
            [
                -122.50767054426245,
                48.75500028764933
            ],
            [
                -122.5076669657748,
                48.7549879221591
            ],
            [
                -122.50763718966786,
                48.75497310804141
            ],
            [
                -122.50764650593935,
                48.75498445577717
            ],
            [
                -122.50766532451517,
                48.75500038549111
            ],
            [
                -122.50767414611886,
                48.755000267134946
            ],
            [
                -122.50766976258183,
                48.75500773932138
            ],
            [
                -122.50769342103516,
                48.754995430413246
            ],
            [
                -122.50765838627547,
                48.7550067849613
            ],
            [
                -122.50767511766182,
                48.75499005465364
            ],
            [
                -122.50765958454862,
                48.754993557593714
            ],
            [
                -122.50767052997062,
                48.75498546383588
            ],
            [
                -122.50766002605224,
                48.75496930049333
            ],
            [
                -122.50764132678711,
                48.754999855941925
            ],
            [
                -122.50767196390512,
                48.75498189203742
            ],
            [
                -122.50764488069584,
                48.75499360352765
            ],
            [
                -122.50765088583225,
                48.75500487523598
            ],
            [
                -122.50765757754283,
                48.75498837851723
            ],
            [
                -122.50765047595189,
                48.754958411747396
            ],
            [
                -122.50764441636751,
                48.75500394155221
            ],
            [
                -122.50764839016348,
                48.754989445200074
            ],
            [
                -122.50765657587992,
                48.75498602669265
            ],
            [
                -122.50764760060382,
                48.75499105684156
            ],
            [
                -122.50763899365879,
                48.754979919273666
            ],
            [
                -122.50765075955833,
                48.75498265976495
            ],
            [
                -122.50766804342548,
                48.75499134869375
            ],
            [
                -122.5076931407481,
                48.75497499265704
            ],
            [
                -122.50766879155091,
                48.75498897514149
            ],
            [
                -122.50767445174081,
                48.755014161883594
            ],
            [
                -122.50763999129487,
                48.75499954603522
            ],
            [
                -122.5076703118287,
                48.75500998928476
            ],
            [
                -122.50767,
                48.755
            ]
        ]
    },
    "properties": {
        "trajectory_id": 5213,
        "object_id": 367640280,
        "label": "PLEASURE CRAFT"
    }
}