{
    "type": "Feature",
    "geometry": {
        "type": "LineString",
        "coordinates": [
            [
                -123.01496,
                48.53731
            ],
            [
                -123.01494990498009,
                48.53730977487205
            ],
            [
                -123.01496982479959,
                48.53737042980779
            ],
            [
                -123.01494028684802,
                48.53733267154103
            ],
            [
                -123.01496006423129,
                48.5372902180302
            ],
            [
                -123.01496100029543,
                48.53730814795849
            ],
            [
                -123.01492878826332,
                48.53730874172043
            ],
            [
                -123.0149451840268,
                48.537293461657335
            ],
            [
                -123.01495908555714,
                48.53730167406837
            ],
            [
                -123.01492796525474,
                48.537314138336335
            ],
            [
                -123.01492532306293,
                48.537303016033654
            ],
            [
                -123.01496061985621,
                48.53729996065869
            ],
            [
                -123.0149376734982,
                48.53728626611887
            ],
            [
                -123.01493081717138,
                48.537310093944825
            ],
            [
                -123.01494477607714,
                48.53730325843907
            ],
            [
                -123.01497208495364,
                48.537312935492444
            ],
            [
                -123.01501355191701,
                48.537312096438704
            ],
            [
                -123.01500129919043,
                48.53731891082849
            ],
            [
                -123.01496174680304,
                48.53730786249868
            ],
            [
                -123.0149559710281,
                48.537346609705175
            ],
            [
                -123.01495942277205,
                48.537285559365145
            ],
            [
                -123.01497252337707,
                48.53729774394992
            ],
            [
                -123.01495599636307,
                48.537302027355345
            ],
            [
                -123.01496905414139,
                48.53731220800764
            ],
            [
                -123.01493689031858,
                48.537305760359025
            ],
            [
                -123.01495600496416,
                48.5373259351697
            ],
            [
                -123.01492717523516,
                48.53732030636778
            ],
            [
                -123.0149502571956,
                48.53729491203164
            ],
            [
                -123.01497728142935,
                48.53736530009673
            ],
            [
                -123.01496443629644,
                48.53731649925598
            ],
            [
                -123.01492111045455,
                48.53732842718737
            ],
            [
                -123.01495649672762,
                48.53729958035735
            ],
            [
                -123.01492376299029,
                48.53730415549419
            ],
            [
                -123.01492854158344,
                48.537310645065574
            ],
            [
                -123.01493887899154,
                48.53732283583432
            ],
            [
                -123.01491201934591,
                48.53730146165567
            ],
            [
                -123.01493020009019,
                48.537311439992074
            ],
            [
                -123.01492939228415,
                48.53730952342164
            ],
            [
                -123.01493027948146,
                48.53730988600078
            ],
            [
                -123.01494994116564,
                48.53731994957716
            ],
            [
                -123.01495002776767,
                48.53731997713425
            ],
            [
                -123.01494056608315,
                48.53731067322653
            ],
            [
                -123.01494699959372,
                48.53731417550505
            ],
            [
                -123.01490228772113,
                48.53729260131331
            ],
            [
                -123.01493250946646,
                48.53730939165664
            ],
            [
                -123.01498314836667,
                48.53731748997377
            ],
            [
                -123.01495963473388,
                48.53736666704397
            ],
            [
                -123.01491893381124,
                48.53731477683062
            ],
            [
                -123.01492895229252,
                48.537328438178484
            ],
            [
                -123.01493058634901,
                48.537310296982774
            ],
            [
                -123.0149269108548,
                48.53730931520533
            ],
            [
                -123.01493751740574,
                48.53729369947661
            ],
            [
                -123.01491816609582,
                48.537320727195265
            ],
            [
                -123.01494058277143,
                48.537282829521374
            ],
            [
                -123.01492861331263,
                48.53730051398939
            ],
            [
                -123.01492815135106,
                48.53734502268016
            ],
            [
                -123.01491456041418,
                48.53733980211388
            ],
            [
                -123.014924082759,
                48.53730654384962
            ],
            [
                -123.01491904121697,
                48.53733289418409
            ],
            [
                -123.0149196466129,
                48.53732677670207
            ],
            [
                -123.01497178829983,
                48.53733707037637
            ],
            [
                -123.01497014245034,
                48.5373159356518
            ],
            [
                -123.01492023572945,
                48.53733602497925
            ],
            [
                -123.01494658334441,
                48.537345400023874
            ],
            [
                -123.01493933719733,
                48.53733920504544
            ],
            [
                -123.01492550158981,
                48.53733328090729
            ],
            [
                -123.01495536821655,
                48.53732882794048
            ],
            [
                -123.01496407896249,
                48.53732841317683
            ],
            [
                -123.01494653687492,
                48.53733149778631
            ],
            [
                -123.0149365554865,
                48.53731152538114
            ],
            [
                -123.01494920299028,
                48.53732959467377
            ],
            [
                -123.01494897284157,
                48.537326446451466
            ],
            [
                -123.01493158352017,
                48.537310101892466
            ],
            [
                -123.01494077822527,
                48.53730084245492
            ],
            [
                -123.0149372548333,
                48.537340993996054
            ],
            [
                -123.01494393286873,
                48.53731764763478
            ],
            [
                -123.01495236997438,
                48.537340712076876
            ],
            [
                -123.01493939688032,
                48.53735060350231
            ],
            [
                -123.01495090616129,
                48.537310049770824
            ],
            [
                -123.01495001114915,
                48.537309982187416
            ],
            [
                -123.01495015532369,
                48.53732057601136
            ],
            [
                -123.01498233963873,
                48.53730877238415
            ],
            [
                -123.01496074422874,
                48.53731072110171
            ],
            [
                -123.01494911972809,
                48.53730964851778
            ],
            [
                -123.014961522521,
                48.537342273351605
            ],
            [
                -123.01496665449733,
                48.53730122370216
            ],
            [
                -123.01495483466176,
                48.53730138624487
            ],
            [
                -123.01490699315487,
                48.537326277991795
            ],
            [
                -123.01494832314656,
                48.53732916116909
            ],
            [
                -123.01496285711993,
                48.537339659524335
            ],
            [
                -123.01493749524259,
                48.537319907658784
            ],
            [
                -123.01493066142359,
                48.53730588071527
            ],
            [
                -123.01492230818657,
                48.53733094906946
            ],
            [
                -123.01491719220017,
                48.53731321577145
            ],
            [
                -123.01489861219105,
                48.53732412530785
            ],
            [
                -123.01491404073568,
                48.5373371912046
            ],
            [
                -123.01491887144493,
                48.537325336044674
            ],
            [
                -123.01493493233637,
                48.537312461777034
            ],
            [
                -123.01491867662445,
                48.53732877783369
            ],
            [
                -123.01493947359783,
                48.53732473394643
            ],
            [
                -123.01488892979941,
                48.53730178842448
            ],
            [
                -123.01489384478262,
                48.53731450902896
            ],
            [
                -123.01494085982995,
                48.537359763461
            ],
            [
                -123.01492038086496,
                48.53730377317945
            ],
            [
                -123.01495828349515,
                48.53732300337525
            ],
            [
                -123.01495059428575,
                48.53734304818822
            ],
            [
                -123.01493906623394,
                48.537307154380485
            ],
            [
                -123.01495868061284,
                48.537315922790036
            ],
            [
                -123.01496695506839,
                48.53730273366098
            ],
            [
                -123.01495514809176,
                48.5372818042807
            ],
            [
                -123.01492130442598,
                48.53729328298233
            ],
            [
                -123.01495743466141,
                48.53729780401063
            ],
            [
                -123.01495163649517,
                48.53730829054404
            ],
            [
                -123.01492828712405,
                48.53730594437705
            ],
            [
                -123.01496218043914,
                48.537308455210834
            ],
            [
                -123.01494098962202,
                48.53729997458124
            ],
            [
                -123.01494930064254,
                48.53728102144869
            ],
            [
                -123.0149412092023,
                48.537276605747536
            ],
            [
                -123.0149398104544,
                48.537250431819
            ],
            [
                -123.01497,
                48.53729
            ]
        ]
    },
    "properties": {
        "trajectory_id": 5220,
        "object_id": 367640650,
        "label": "PLEASURE CRAFT"
    }
}