{
    "type": "Feature",
    "geometry": {
        "type": "LineString",
        "coordinates": [
            [
                -122.2197,
                48.00267
            ],
            [
                -122.21972227930195,
                48.00265886010018
            ],
            [
                -122.21969962798003,
                48.00267018621604
            ],
            [
                -122.2196991615193,
                48.00267047410894
            ],
            [
                -122.21972008254157,
                48.00265995473627
            ],
            [
                -122.21972001094518,
                48.0026599195613
            ],
            [
                -122.21972000667665,
                48.002660442322586
            ],
            [
                -122.21971995160938,
                48.00266921806557
            ],
            [
                -122.21972020633103,
                48.00265155154077
            ],
            [
                -122.2197149787771,
                48.00266442999525
            ],
            [
                -122.21970690366203,
                48.002659388787556
            ],
            [
                -122.21971869622553,
                48.00267211452683
            ],
            [
                -122.2197264597666,
                48.00264968930713
            ],
            [
                -122.21973294046424,
                48.00266392988571
            ],
            [
                -122.21973133180688,
                48.00266517314162
            ],
            [
                -122.21972940189113,
                48.00266130498199
            ],
            [
                -122.21972154414973,
                48.002668463085406
            ],
            [
                -122.21971805659548,
                48.0026664656905
            ],
            [
                -122.21972275376226,
                48.002655442592726
            ],
            [
                -122.2197172062681,
                48.00266066738358
            ],
            [
                -122.21971575652374,
                48.00267099816707
            ],
            [
                -122.21972203842894,
                48.0026478318284
            ],
            [
                -122.21973671146601,
                48.00266032435235
            ],
            [
                -122.21971507885681,
                48.00267013444139
            ],
            [
                -122.21971940178365,
                48.00266293808079
            ],
            [
                -122.21972886289213,
                48.00267021872018
            ],
            [
                -122.21970234878168,
                48.00266011250905
            ],
            [
                -122.2197130574579,
                48.002651924580725
            ],
            [
                -122.21971626861186,
                48.00267164205097
            ],
            [
                -122.21971879679192,
                48.00266243353527
            ],
            [
                -122.2197151947665,
                48.002657885182884
            ],
            [
                -122.2197195415862,
                48.0026601652258
            ],
            [
                -122.2197352297679,
                48.002667086211424
            ],
            [
                -122.21973494235377,
                48.002666925147125
            ],
            [
                -122.21971220919488,
                48.00266893142582
            ],
            [
                -122.21972546927992,
                48.002667972735836
            ],
            [
                -122.21976858819306,
                48.00264699813215
            ],
            [
                -122.21971319399573,
                48.00266194528319
            ],
            [
                -122.21970462301996,
                48.00268287600917
            ],
            [
                -122.21972869005216,
                48.00266108719408
            ],
            [
                -122.21972108748629,
                48.0026530539078
            ],
            [
                -122.21971638245182,
                48.00265897635853
            ],
            [
                -122.21972119563495,
                48.002670129547305
            ],
            [
                -122.21975931022519,
                48.00265550174832
            ],
            [
                -122.21973002318438,
                48.00266992762102
            ],
            [
                -122.21973442677657,
                48.00264012655344
            ],
            [
                -122.21971281929821,
                48.00265611647177
            ],
            [
                -122.21971963459154,
                48.002659856987535
            ],
            [
                -122.21972819999706,
                48.00266024975441
            ],
            [
                -122.21973951853658,
                48.0026646529803
            ],
            [
                -122.21970728874692,
                48.002662645651284
            ],
            [
                -122.21972478305823,
                48.002671142799336
            ],
            [
                -122.21973090614961,
                48.00266769920009
            ],
            [
                -122.21972982343117,
                48.002660831041595
            ],
            [
                -122.21972967746467,
                48.002660082534184
            ],
            [
                -122.21971890133798,
                48.002660854745336
            ],
            [
                -122.21973239954612,
                48.002657447998104
            ],
            [
                -122.21969904925182,
                48.00267448395777
            ],
            [
                -122.21971548204016,
                48.00267712209994
            ],
            [
                -122.2197019644468,
                48.002627984471665
            ],
            [
                -122.219715606802,
                48.00267405810823
            ],
            [
                -122.2197032991233,
                48.00266538935271
            ],
            [
                -122.21970546415355,
                48.002674597286074
            ],
            [
                -122.21973924322373,
                48.002657866498204
            ],
            [
                -122.21968548152932,
                48.00269041653641
            ],
            [
                -122.2197173085729,
                48.00267408819332
            ],
            [
                -122.21972179487798,
                48.002674447033975
            ],
            [
                -122.21972234212464,
                48.00267106593765
            ],
            [
                -122.21971619378108,
                48.00266411353688
            ],
            [
                -122.21970236478987,
                48.002671156739595
            ],
            [
                -122.21972905367595,
                48.002660185308045
            ],
            [
                -122.219729951231,
                48.00266902458815
            ],
            [
                -122.2197179968794,
                48.00265558725646
            ],
            [
                -122.21972540054696,
                48.00265761807715
            ],
            [
                -122.2197242942432,
                48.00267329161107
            ],
            [
                -122.21968552015767,
                48.00270718205122
            ],
            [
                -122.2197307588907,
                48.00266102319568
            ],
            [
                -122.2197037844654,
                48.002668228077354
            ],
            [
                -122.21972741242939,
                48.002678177914504
            ],
            [
                -122.21971053216667,
                48.002667714031
            ],
            [
                -122.21972975090277,
                48.002655349183996
            ],
            [
                -122.21971607457867,
                48.00266718229755
            ],
            [
                -122.21972579668277,
                48.00266706439451
            ],
            [
                -122.21971162940396,
                48.002662558348305
            ],
            [
                -122.21973396169572,
                48.00265831676576
            ],
            [
                -122.21971841970925,
                48.00266584845236
            ],
            [
                -122.2197019236335,
                48.0026595276713
            ],
            [
                -122.21973991972115,
                48.0026607007853
            ],
            [
                -122.21970529196189,
                48.002661339496704
            ],
            [
                -122.21971089241218,
                48.00265899452112
            ],
            [
                -122.21973042447368,
                48.0026590779208
            ],
            [
                -122.21970965297619,
                48.00269037958107
            ],
            [
                -122.21971227202575,
                48.002675633817894
            ],
            [
                -122.21972004954551,
                48.002669949070636
            ],
            [
                -122.2197500504996,
                48.00264989638798
            ],
            [
                -122.21972001593826,
                48.00266063044377
            ],
            [
                -122.21973878603204,
                48.00265026576023
            ],
            [
                -122.21973909103743,
                48.00265952382976
            ],
            [
                -122.2197453428001,
                48.002649572396535
            ],
            [
                -122.2197910530436,
                48.002679576487914
            ],
            [
                -122.21987705069455,
                48.002701583838046
            ],
            [
                -122.2198095202115,
                48.002702282746625
            ],
            [
                -122.2197263552857,
                48.00267809293153
            ],
            [
                -122.21975047902002,
                48.00264683527663
            ],
            [
                -122.2197175234107,
                48.002664382342125
            ],
            [
                -122.21972583732587,
                48.00265216558551
            ],
            [
                -122.21974972082599,
                48.00263230270453
            ],
            [
                -122.2197239750998,
                48.002666604002556
            ],
            [
                -122.21973967827802,
                48.002658445137975
            ],
            [
                -122.21970806831143,
                48.00265759307445
            ],
            [
                -122.2197192501734,
                48.00265403239212
            ],
            [
                -122.21972078151025,
                48.002658128598114
            ],
            [
                -122.21972979465079,
                48.00266229197143
            ],
            [
                -122.21971833392317,
                48.00266828253211
            ],
            [
                -122.21973981377165,
                48.00266770138797
            ],
            [
                -122.21972063113101,
                48.002669477467016
            ],
            [
                -122.2197097789134,
                48.002659201025054
            ],
            [
                -122.2197311296122,
                48.00266957698064
            ],
            [
                -122.21972840668968,
                48.002646349514116
            ],
            [
                -122.21974,
                48.00265
            ]
        ]
    },
    "properties": {
        "trajectory_id": 5290,
        "object_id": 367658410,
        "label": "PLEASURE CRAFT"
    }
}