{
    "type": "Feature",
    "geometry": {
        "type": "LineString",
        "coordinates": [
            [
                -122.38043,
                47.65606
            ],
            [
                -122.38041834879536,
                47.656023442393334
            ],
            [
                -122.3804208367316,
                47.65595821674092
            ],
            [
                -122.38041965242542,
                47.65595187408732
            ],
            [
                -122.38043922640222,
                47.655959585994786
            ],
            [
                -122.38044336162537,
                47.6559351724732
            ],
            [
                -122.38041970685946,
                47.65595907157297
            ],
            [
                -122.38041161514747,
                47.655959645902215
            ],
            [
                -122.38040815896576,
                47.655982722169256
            ],
            [
                -122.38042349708076,
                47.655960904423566
            ],
            [
                -122.38041862996769,
                47.65596788976603
            ],
            [
                -122.38040922738503,
                47.65598527388259
            ],
            [
                -122.38041140244819,
                47.655994741848396
            ],
            [
                -122.38043708827075,
                47.65599787298029
            ],
            [
                -122.38042137337231,
                47.655976751306845
            ],
            [
                -122.38040748701377,
                47.655969450656904
            ],
            [
                -122.38045175434853,
                47.655949520425466
            ],
            [
                -122.38042850406951,
                47.65598373442045
            ],
            [
                -122.38044873703856,
                47.65600321852202
            ],
            [
                -122.38042189890955,
                47.655993290142575
            ],
            [
                -122.38040884124591,
                47.65596042851311
            ],
            [
                -122.38040004552887,
                47.65594998358171
            ],
            [
                -122.38039963036462,
                47.65598020882863
            ],
            [
                -122.38042205482833,
                47.65598543814453
            ],
            [
                -122.38043821022814,
                47.65601055604677
            ],
            [
                -122.3804094356737,
                47.65597569770755
            ],
            [
                -122.38037840456302,
                47.65598084790904
            ],
            [
                -122.38040702440567,
                47.65598387789825
            ],
            [
                -122.38040439004014,
                47.65594893345384
            ],
            [
                -122.38040106094834,
                47.6559441588713
            ],
            [
                -122.3804527693388,
                47.65596175249091
            ],
            [
                -122.38037877221532,
                47.65600899639222
            ],
            [
                -122.3804340293883,
                47.65597702995116
            ],
            [
                -122.38044259077006,
                47.65600049497115
            ],
            [
                -122.38042821335054,
                47.65597111635973
            ],
            [
                -122.38043678137359,
                47.655981259964
            ],
            [
                -122.38044211338672,
                47.655981330760184
            ],
            [
                -122.38046580070166,
                47.6559619402161
            ],
            [
                -122.38045546239209,
                47.65600203024405
            ],
            [
                -122.3804266381922,
                47.655992908551355
            ],
            [
                -122.3804411552798,
                47.656014053415966
            ],
            [
                -122.38046316561096,
                47.65593544889015
            ],
            [
                -122.38044736418621,
                47.655978122210186
            ],
            [
                -122.38042599414139,
                47.65599599673109
            ],
            [
                -122.38040230173642,
                47.65592622308143
            ],
            [
                -122.38042324462961,
                47.65597340926954
            ],
            [
                -122.38042103414685,
                47.655959660970396
            ],
            [
                -122.38041118341063,
                47.65596088506713
            ],
            [
                -122.38043833575392,
                47.65600143852339
            ],
            [
                -122.38042750262231,
                47.655975908028225
            ],
            [
                -122.38040154025755,
                47.65599840025882
            ],
            [
                -122.38041717944085,
                47.655951453293135
            ],
            [
                -122.38041892382337,
                47.65601700157532
            ],
            [
                -122.38042464533186,
                47.65598056195196
            ],
            [
                -122.38043903134297,
                47.65596621124074
            ],
            [
                -122.38042999948095,
                47.655976870979934
            ],
            [
                -122.38045618195531,
                47.65595718398968
            ],
            [
                -122.38045525301801,
                47.65598118281746
            ],
            [
                -122.3804128038437,
                47.65597456203371
            ],
            [
                -122.38043603347799,
                47.65599200221392
            ],
            [
                -122.38041412549764,
                47.65597355442753
            ],
            [
                -122.38043600433363,
                47.65597968363789
            ],
            [
                -122.38044478574281,
                47.65598934882692
            ],
            [
                -122.38044251688237,
                47.655976405249156
            ],
            [
                -122.38043591461303,
                47.655984877058245
            ],
            [
                -122.38042163824866,
                47.65595278286743
            ],
            [
                -122.38042619398367,
                47.6559809746953
            ],
            [
                -122.38041101209564,
                47.65599131967757
            ],
            [
                -122.38041001774671,
                47.655986591700994
            ],
            [
                -122.38043462904204,
                47.65596727095832
            ],
            [
                -122.3804295395207,
                47.65598681115612
            ],
            [
                -122.3804350725891,
                47.655979726699265
            ],
            [
                -122.38044621139143,
                47.655983819548354
            ],
            [
                -122.38037912001802,
                47.65597498103209
            ],
            [
                -122.38042776793974,
                47.65595430977998
            ],
            [
                -122.38043289000694,
                47.65599493922797
            ],
            [
                -122.3804309082718,
                47.65599162637238
            ],
            [
                -122.38041679180134,
                47.65595411392913
            ],
            [
                -122.380404156233,
                47.65595065612483
            ],
            [
                -122.38041159420676,
                47.655971521800886
            ],
            [
                -122.38042713036617,
                47.65597843820699
            ],
            [
                -122.38042270423921,
                47.65596984456657
            ],
            [
                -122.38042147862062,
                47.655993441298726
            ],
            [
                -122.38045038762365,
                47.65595846772629
            ],
            [
                -122.38040974010858,
                47.655961283222126
            ],
            [
                -122.38040976735932,
                47.65596156218199
            ],
            [
                -122.38046268013451,
                47.6559402014001
            ],
            [
                -122.38046034983546,
                47.655963897850754
            ],
            [
                -122.38042966315393,
                47.655989981896646
            ],
            [
                -122.38044835292712,
                47.65595167281089
            ],
            [
                -122.3804249475723,
                47.65596483776442
            ],
            [
                -122.38039417688584,
                47.656015760542964
            ],
            [
                -122.38044019909523,
                47.655979381078026
            ],
            [
                -122.38044665071497,
                47.656001165128615
            ],
            [
                -122.38034324275317,
                47.65597835420839
            ],
            [
                -122.38040594542228,
                47.65597220398469
            ],
            [
                -122.380400544398,
                47.655991916095296
            ],
            [
                -122.38044246079774,
                47.655964216227076
            ],
            [
                -122.3804356704233,
                47.65600581527445
            ],
            [
                -122.38042467503371,
                47.65601731977665
            ],
            [
                -122.38044315319668,
                47.655989241716746
            ],
            [
                -122.38042086275598,
                47.655965086013936
            ],
            [
                -122.38037663791062,
                47.65596670260554
            ],
            [
                -122.3804204940196,
                47.65599567615729
            ],
            [
                -122.38042256801327,
                47.655940797263504
            ],
            [
                -122.38045054521403,
                47.65596907439514
            ],
            [
                -122.3803864186074,
                47.65599151472004
            ],
            [
                -122.3804352550689,
                47.655976601964234
            ],
            [
                -122.38043684571943,
                47.65597940250862
            ],
            [
                -122.38041556794869,
                47.65598048522382
            ],
            [
                -122.38044211756997,
                47.655975257577666
            ],
            [
                -122.38044749635232,
                47.655975554637806
            ],
            [
                -122.38041841294782,
                47.65600081538227
            ],
            [
                -122.38043799002519,
                47.65599689788234
            ],
            [
                -122.3804665126293,
                47.65600963282074
            ],
            [
                -122.38041989970885,
                47.65597076281847
            ],
            [
                -122.38044100703536,
                47.655975911477896
            ],
            [
                -122.38040452452582,
                47.6559779398938
            ],
            [
                -122.3804698340002,
                47.65598982181672
            ],
            [
                -122.38041,
                47.65597
            ]
        ]
    },
    "properties": {
        "trajectory_id": 5331,
        "object_id": 367667260,
        "label": "FISHING"
    }
}