{
    "type": "Feature",
    "geometry": {
        "type": "LineString",
        "coordinates": [
            [
                -122.38043,
                47.65597
            ],
            [
                -122.38041031975807,
                47.65596525860303
            ],
            [
                -122.38042034273963,
                47.65595970580403
            ],
            [
                -122.380439860313,
                47.65598597152567
            ],
            [
                -122.38042127634549,
                47.65599260588405
            ],
            [
                -122.38044167288714,
                47.65596787797481
            ],
            [
                -122.38040516520125,
                47.6559804006798
            ],
            [
                -122.38044074457473,
                47.65595931589935
            ],
            [
                -122.38043010878766,
                47.655961156328104
            ],
            [
                -122.38042580261241,
                47.655989705261995
            ],
            [
                -122.38042575768613,
                47.65599461710278
            ],
            [
                -122.38044154451877,
                47.656005810393935
            ],
            [
                -122.38043452313754,
                47.65598026097965
            ],
            [
                -122.3804422840235,
                47.655979487266535
            ],
            [
                -122.38043082693461,
                47.65595497935174
            ],
            [
                -122.38042584830166,
                47.655955324013654
            ],
            [
                -122.38043416750062,
                47.65598590232495
            ],
            [
                -122.38045722872549,
                47.655958935362406
            ],
            [
                -122.38045399314707,
                47.65594804419739
            ],
            [
                -122.38043473992208,
                47.655971881560006
            ],
            [
                -122.38043214883413,
                47.65596075014738
            ],
            [
                -122.3803972105283,
                47.655975308553735
            ],
            [
                -122.38040120297036,
                47.65600748056412
            ],
            [
                -122.38043373768951,
                47.65600268797349
            ],
            [
                -122.3804292654166,
                47.65595842890653
            ],
            [
                -122.3804206091528,
                47.65598056889835
            ],
            [
                -122.38041748706083,
                47.65596594951305
            ],
            [
                -122.38040087522893,
                47.655971996746075
            ],
            [
                -122.38041845987955,
                47.655987939867074
            ],
            [
                -122.38044494513979,
                47.65598598063716
            ],
            [
                -122.38046193278869,
                47.6559750981016
            ],
            [
                -122.38041047537615,
                47.65598355196906
            ],
            [
                -122.3804401276124,
                47.65595381301802
            ],
            [
                -122.38044195320691,
                47.65597060039864
            ],
            [
                -122.38040069480508,
                47.65599826829405
            ],
            [
                -122.38043192411781,
                47.655964876694746
            ],
            [
                -122.3804595538753,
                47.65595306082805
            ],
            [
                -122.38045752949793,
                47.65599576995912
            ],
            [
                -122.3804416754339,
                47.6559961191103
            ],
            [
                -122.38040633190731,
                47.655967942546766
            ],
            [
                -122.38042339321915,
                47.65593059443284
            ],
            [
                -122.38043130106018,
                47.655953194390165
            ],
            [
                -122.38045782482205,
                47.65598309147933
            ],
            [
                -122.38037552984542,
                47.655912682995016
            ],
            [
                -122.38039646671037,
                47.65593591940922
            ],
            [
                -122.38041678662964,
                47.655933198833296
            ],
            [
                -122.3804357408041,
                47.65595845272977
            ],
            [
                -122.38042045229267,
                47.65595826687168
            ],
            [
                -122.3804303647793,
                47.6559850882426
            ],
            [
                -122.3804520912756,
                47.65596617492731
            ],
            [
                -122.38043017957798,
                47.65595881697084
            ],
            [
                -122.38042024161848,
                47.65601274488751
            ],
            [
                -122.38042074312081,
                47.655970995834736
            ],
            [
                -122.380419233313,
                47.65596980705389
            ],
            [
                -122.38044006628922,
                47.65597992696975
            ],
            [
                -122.38044102858436,
                47.655960410130334
            ],
            [
                -122.38044115358852,
                47.65598997377368
            ],
            [
                -122.3804418351106,
                47.65597667078914
            ],
            [
                -122.38041785825745,
                47.65600262185918
            ],
            [
                -122.38043149682144,
                47.65596953098337
            ],
            [
                -122.3804509350302,
                47.65595554090968
            ],
            [
                -122.38043280049129,
                47.65596966398037
            ],
            [
                -122.38043765409454,
                47.655970645522125
            ],
            [
                -122.38041661398672,
                47.6559662075913
            ],
            [
                -122.38044142783545,
                47.65594840849429
            ],
            [
                -122.3804346534622,
                47.65598713457502
            ],
            [
                -122.38040560215514,
                47.65600548435526
            ],
            [
                -122.38039993517766,
                47.656001854579394
            ],
            [
                -122.38041982262,
                47.65601365798706
            ],
            [
                -122.38042433554445,
                47.65594993917917
            ],
            [
                -122.38042273020153,
                47.65596506489711
            ],
            [
                -122.38045598242292,
                47.655972540225925
            ],
            [
                -122.38040903469623,
                47.65597768362355
            ],
            [
                -122.38042577900133,
                47.65597882598081
            ],
            [
                -122.38042979320016,
                47.655979181676386
            ],
            [
                -122.38043060647855,
                47.65596720213683
            ],
            [
                -122.38042790125033,
                47.65600178035257
            ],
            [
                -122.38042025487343,
                47.65597487273526
            ],
            [
                -122.38044367800447,
                47.65595082226275
            ],
            [
                -122.38042173200436,
                47.65598748620366
            ],
            [
                -122.38041790150302,
                47.65600285639502
            ],
            [
                -122.38040845109973,
                47.656000649233974
            ],
            [
                -122.38042924501022,
                47.65597893392942
            ],
            [
                -122.38043013193095,
                47.655960418177095
            ],
            [
                -122.38041066866708,
                47.655965001058895
            ],
            [
                -122.38044967152796,
                47.65594007917145
            ],
            [
                -122.38044787588852,
                47.65595911660474
            ],
            [
                -122.38043487406301,
                47.65598833313708
            ],
            [
                -122.38042705523094,
                47.65597858096652
            ],
            [
                -122.38043914163242,
                47.655977915048446
            ],
            [
                -122.38041768243255,
                47.65601399708257
            ],
            [
                -122.38046217497697,
                47.65595554667572
            ],
            [
                -122.38046155797673,
                47.65597185054581
            ],
            [
                -122.38041981631629,
                47.655974285767556
            ],
            [
                -122.3804325902038,
                47.65600092617939
            ],
            [
                -122.3804279002427,
                47.65594016447172
            ],
            [
                -122.38044994315756,
                47.655962476558294
            ],
            [
                -122.38043955921036,
                47.65599126361101
            ],
            [
                -122.38041099835391,
                47.65597262876181
            ],
            [
                -122.38042153871629,
                47.65597276281875
            ],
            [
                -122.38039071989618,
                47.65597782177488
            ],
            [
                -122.38042379901674,
                47.65597422585919
            ],
            [
                -122.38042478775546,
                47.65597705269459
            ],
            [
                -122.38043394717343,
                47.655947615718375
            ],
            [
                -122.3804357424107,
                47.65596879388512
            ],
            [
                -122.38044706433877,
                47.65595768996956
            ],
            [
                -122.38045696887653,
                47.655949544154915
            ],
            [
                -122.38044695478266,
                47.655958453372264
            ],
            [
                -122.380433315637,
                47.65595853909918
            ],
            [
                -122.3804576256483,
                47.656001814222684
            ],
            [
                -122.38040536386754,
                47.65598347586547
            ],
            [
                -122.3804383157723,
                47.655989695016814
            ],
            [
                -122.38046826539565,
                47.65598237527442
            ],
            [
                -122.3804669114164,
                47.65601559401509
            ],
            [
                -122.3803877519364,
                47.65597190180207
            ],
            [
                -122.38044616512764,
                47.65596876176285
            ],
            [
                -122.38038057198796,
                47.65594283007545
            ],
            [
                -122.38042270521707,
                47.65598027138044
            ],
            [
                -122.38044992462636,
                47.65601019351574
            ],
            [
                -122.38044,
                47.656
            ]
        ]
    },
    "properties": {
        "trajectory_id": 5332,
        "object_id": 367667260,
        "label": "FISHING"
    }
}