{
    "type": "Feature",
    "geometry": {
        "type": "LineString",
        "coordinates": [
            [
                -123.45476,
                48.12565
            ],
            [
                -123.45471987919052,
                48.12562960619221
            ],
            [
                -123.45471983585587,
                48.125640238255144
            ],
            [
                -123.45474020056115,
                48.12565020968038
            ],
            [
                -123.45474872946201,
                48.12564964744469
            ],
            [
                -123.45471978012375,
                48.12565015784545
            ],
            [
                -123.45473060257741,
                48.12564908092417
            ],
            [
                -123.45473069737588,
                48.12564083695139
            ],
            [
                -123.45473252744083,
                48.12563991825063
            ],
            [
                -123.45471874590689,
                48.125640434692755
            ],
            [
                -123.45472877231636,
                48.12564556322231
            ],
            [
                -123.45473726175967,
                48.12565323030144
            ],
            [
                -123.45473721863185,
                48.1256295360335
            ],
            [
                -123.45474957343204,
                48.125657803399505
            ],
            [
                -123.45471695579678,
                48.12565173185787
            ],
            [
                -123.45473755010435,
                48.125641257425464
            ],
            [
                -123.45471515302916,
                48.12565292417623
            ],
            [
                -123.4547316048849,
                48.125641427561334
            ],
            [
                -123.45472238524223,
                48.12565480392559
            ],
            [
                -123.45472744946818,
                48.12564875227028
            ],
            [
                -123.45472449129888,
                48.12562769941128
            ],
            [
                -123.45472483044959,
                48.12564696222029
            ],
            [
                -123.45471728158736,
                48.12565278158992
            ],
            [
                -123.45471283912678,
                48.12565034158487
            ],
            [
                -123.45473354708552,
                48.1256421803607
            ],
            [
                -123.45473304102164,
                48.12564673465203
            ],
            [
                -123.45474267430635,
                48.12563837602055
            ],
            [
                -123.45472058580273,
                48.12565756466577
            ],
            [
                -123.45472167290215,
                48.12568596605498
            ],
            [
                -123.4547413146331,
                48.125662557262956
            ],
            [
                -123.45473638513235,
                48.12566103699431
            ],
            [
                -123.45474311499157,
                48.125649037675984
            ],
            [
                -123.45473111292327,
                48.125649573774346
            ],
            [
                -123.45474094002024,
                48.12566228130028
            ],
            [
                -123.45473118200786,
                48.125647772199635
            ],
            [
                -123.45473697382012,
                48.12564133500658
            ],
            [
                -123.45472743245331,
                48.12565157510946
            ],
            [
                -123.45471471369409,
                48.12565426492566
            ],
            [
                -123.4547330007826,
                48.125634143500285
            ],
            [
                -123.4547279239643,
                48.12564196720985
            ],
            [
                -123.45473123776135,
                48.12562577991477
            ],
            [
                -123.45472924174264,
                48.125654063359704
            ],
            [
                -123.45473563260198,
                48.12565098414615
            ],
            [
                -123.45471282879133,
                48.125649577444804
            ],
            [
                -123.45470182005222,
                48.12562955308352
            ],
            [
                -123.45472809809806,
                48.12564018255909
            ],
            [
                -123.45471841858817,
                48.125657164734264
            ],
            [
                -123.45472125655422,
                48.12565256879761
            ],
            [
                -123.45472343820504,
                48.12565801739894
            ],
            [
                -123.45474052544887,
                48.12565841461914
            ],
            [
                -123.45473913690701,
                48.12563921258098
            ],
            [
                -123.45473218560593,
                48.125630537907654
            ],
            [
                -123.45472201960273,
                48.12565055519074
            ],
            [
                -123.45472902615288,
                48.12566186387727
            ],
            [
                -123.45471046914957,
                48.12564917390978
            ],
            [
                -123.45472217741656,
                48.125660121053826
            ],
            [
                -123.45473026015604,
                48.125670350114795
            ],
            [
                -123.45474000073227,
                48.125640557923866
            ],
            [
                -123.45471017127207,
                48.125650388719336
            ],
            [
                -123.45470997934487,
                48.12566003171
            ],
            [
                -123.4547080842002,
                48.12565929715304
            ],
            [
                -123.45471991206367,
                48.12565001340686
            ],
            [
                -123.45471972020405,
                48.12563036236436
            ],
            [
                -123.45474065208771,
                48.12563979722267
            ],
            [
                -123.45473124815555,
                48.12563918007019
            ],
            [
                -123.4547298319084,
                48.12564049717633
            ],
            [
                -123.45474040719809,
                48.1256485314917
            ],
            [
                -123.45473122074678,
                48.12563260837266
            ],
            [
                -123.45472020951524,
                48.125648220719754
            ],
            [
                -123.45471810169353,
                48.125641936716335
            ],
            [
                -123.45472272583729,
                48.12565447577875
            ],
            [
                -123.45472945590835,
                48.12565067513125
            ],
            [
                -123.4547320512247,
                48.125641067473595
            ],
            [
                -123.45470820494388,
                48.12564127391226
            ],
            [
                -123.45472912290553,
                48.125652579821754
            ],
            [
                -123.45475246627211,
                48.12564938455106
            ],
            [
                -123.45470946897481,
                48.12564291723412
            ],
            [
                -123.45475223941324,
                48.12563641020658
            ],
            [
                -123.45474115562376,
                48.12564190084971
            ],
            [
                -123.45470829749289,
                48.12566373501274
            ],
            [
                -123.45472952517596,
                48.12564258612092
            ],
            [
                -123.45474364292564,
                48.12563444867698
            ],
            [
                -123.45471980143697,
                48.12566341701049
            ],
            [
                -123.45473209098206,
                48.12564543243024
            ],
            [
                -123.45471856126022,
                48.125650524462976
            ],
            [
                -123.45472966624088,
                48.125656818371056
            ],
            [
                -123.45471903126264,
                48.12564378466392
            ],
            [
                -123.45472421141227,
                48.125643878173
            ],
            [
                -123.45472412871584,
                48.12564323407047
            ],
            [
                -123.45471322080887,
                48.12564454699506
            ],
            [
                -123.45473420889645,
                48.12565268417877
            ],
            [
                -123.45473979038378,
                48.12566100990219
            ],
            [
                -123.45473958041624,
                48.12564354587399
            ],
            [
                -123.45471457181172,
                48.12565036139409
            ],
            [
                -123.4547445675001,
                48.12563759160612
            ],
            [
                -123.45470470416453,
                48.125657000079876
            ],
            [
                -123.45472843569245,
                48.12564420859969
            ],
            [
                -123.45474311048115,
                48.12563008033926
            ],
            [
                -123.45471515078827,
                48.125646918339534
            ],
            [
                -123.45466590829658,
                48.12567913930624
            ],
            [
                -123.45464222122894,
                48.12569912758151
            ],
            [
                -123.45464609026669,
                48.125701114766485
            ],
            [
                -123.45467949995054,
                48.125679344972866
            ],
            [
                -123.45474052757477,
                48.12563064948128
            ],
            [
                -123.45474469598017,
                48.12564509145501
            ],
            [
                -123.45473497960859,
                48.12566672689478
            ],
            [
                -123.45474332534853,
                48.12564774683236
            ],
            [
                -123.45471235201542,
                48.12566617440115
            ],
            [
                -123.4547439021572,
                48.12564681852633
            ],
            [
                -123.45474237574321,
                48.12563240323271
            ],
            [
                -123.45471970164606,
                48.125659812837924
            ],
            [
                -123.45474162570399,
                48.125640532984974
            ],
            [
                -123.4547411408772,
                48.12564156739738
            ],
            [
                -123.45472003355879,
                48.12564156116531
            ],
            [
                -123.45471159464537,
                48.12564067310286
            ],
            [
                -123.4547097964503,
                48.12564019097904
            ],
            [
                -123.45472969104955,
                48.125640063686504
            ],
            [
                -123.45471011653152,
                48.125650479303815
            ],
            [
                -123.45472996813083,
                48.125639978531524
            ],
            [
                -123.45474,
                48.12564
            ]
        ]
    },
    "properties": {
        "trajectory_id": 5364,
        "object_id": 367672410,
        "label": "FISHING"
    }
}