{
    "type": "Feature",
    "geometry": {
        "type": "LineString",
        "coordinates": [
            [
                -122.64474,
                47.53949
            ],
            [
                -122.64477927975504,
                47.53955991003358
            ],
            [
                -122.64475004836503,
                47.539570378245976
            ],
            [
                -122.64474110720404,
                47.53957656141245
            ],
            [
                -122.64473892429659,
                47.53961111609122
            ],
            [
                -122.64475881397145,
                47.539580057602194
            ],
            [
                -122.64484257350854,
                47.539606157057996
            ],
            [
                -122.64462125408707,
                47.53943768151054
            ],
            [
                -122.64468595377679,
                47.539510831785066
            ],
            [
                -122.64477021424291,
                47.539550361967855
            ],
            [
                -122.64483781892997,
                47.539574589772315
            ],
            [
                -122.64471165582299,
                47.53951122933595
            ],
            [
                -122.64468680167367,
                47.53948567488591
            ],
            [
                -122.64470678547883,
                47.53951692532717
            ],
            [
                -122.64467884740115,
                47.53961017693999
            ],
            [
                -122.64470340447396,
                47.53959211965495
            ],
            [
                -122.64475054587112,
                47.53962580338455
            ],
            [
                -122.64478584870778,
                47.53957307949039
            ],
            [
                -122.64477913827996,
                47.53956081896801
            ],
            [
                -122.64481475260976,
                47.53953507963022
            ],
            [
                -122.64471277355354,
                47.53955686001999
            ],
            [
                -122.64475028271123,
                47.5395851284391
            ],
            [
                -122.64472420037528,
                47.53961588601448
            ],
            [
                -122.64472857423314,
                47.53955846183108
            ],
            [
                -122.64472934910745,
                47.539575620666014
            ],
            [
                -122.64476970330725,
                47.53955896696138
            ],
            [
                -122.64472343722305,
                47.53953947527553
            ],
            [
                -122.64481423248554,
                47.5396124915927
            ],
            [
                -122.64473157525461,
                47.53955161771027
            ],
            [
                -122.64476288935546,
                47.53952442472982
            ],
            [
                -122.64475969169698,
                47.53952122415781
            ],
            [
                -122.64467284980881,
                47.539502859503706
            ],
            [
                -122.6448015967634,
                47.53953617468694
            ],
            [
                -122.64475011910108,
                47.53950959112406
            ],
            [
                -122.64476898735855,
                47.53954851050877
            ],
            [
                -122.64479132466826,
                47.53956532562891
            ],
            [
                -122.64477984151094,
                47.53949927854792
            ],
            [
                -122.64479445241676,
                47.539523587055946
            ],
            [
                -122.64477055614238,
                47.53955057606807
            ],
            [
                -122.64477003907112,
                47.53954012368812
            ],
            [
                -122.64478006794467,
                47.539590226101176
            ],
            [
                -122.64474592758637,
                47.53947440613102
            ],
            [
                -122.64478147102679,
                47.53956899868713
            ],
            [
                -122.64474824409824,
                47.539538038922416
            ],
            [
                -122.64472973077169,
                47.539511155023064
            ],
            [
                -122.64473953536123,
                47.53954444175511
            ],
            [
                -122.6447272658262,
                47.53954887966197
            ],
            [
                -122.64472044445654,
                47.53949588729098
            ],
            [
                -122.6447956055324,
                47.53951295398093
            ],
            [
                -122.64478229910176,
                47.53951517107332
            ],
            [
                -122.644675155238,
                47.539554565124966
            ],
            [
                -122.64470249188686,
                47.5395760700079
            ],
            [
                -122.64472946283486,
                47.539541593781884
            ],
            [
                -122.64474651068319,
                47.53955873614331
            ],
            [
                -122.64478206000926,
                47.53949239682204
            ],
            [
                -122.64475620987392,
                47.539560092961246
            ],
            [
                -122.64477815430226,
                47.53954000232613
            ],
            [
                -122.64477737986246,
                47.53952302022026
            ],
            [
                -122.6447463952841,
                47.539575094026326
            ],
            [
                -122.64468023177665,
                47.53954808173436
            ],
            [
                -122.64473879709885,
                47.53956851480456
            ],
            [
                -122.6447398941264,
                47.53956011229014
            ],
            [
                -122.64469082039487,
                47.539606875704145
            ],
            [
                -122.64474113900899,
                47.5395718133814
            ],
            [
                -122.64471555310514,
                47.539626455948586
            ],
            [
                -122.64470453313471,
                47.53958047095261
            ],
            [
                -122.64476785358482,
                47.53957063648876
            ],
            [
                -122.64473112835418,
                47.53951222314798
            ],
            [
                -122.64478246865309,
                47.539513729954045
            ],
            [
                -122.6448259128956,
                47.539534479478
            ],
            [
                -122.64473380044352,
                47.539516450886644
            ],
            [
                -122.64479158845737,
                47.539554546862945
            ],
            [
                -122.64476012955768,
                47.53956712655001
            ],
            [
                -122.6447797709833,
                47.539629126060866
            ],
            [
                -122.64474026570691,
                47.53956106944197
            ],
            [
                -122.64477823992101,
                47.53957519141639
            ],
            [
                -122.6447466925905,
                47.53956143074991
            ],
            [
                -122.64479961359196,
                47.53961758262105
            ],
            [
                -122.6447787534939,
                47.53954371934765
            ],
            [
                -122.64475999441365,
                47.53960076642993
            ],
            [
                -122.64476029604526,
                47.539590067759434
            ],
            [
                -122.64475496964359,
                47.5395081858002
            ],
            [
                -122.64477101979065,
                47.53957053896807
            ],
            [
                -122.64478364612819,
                47.53961170825963
            ],
            [
                -122.64473824823598,
                47.53958533312679
            ],
            [
                -122.64481304460595,
                47.53958252215514
            ],
            [
                -122.64469170720785,
                47.53952106161563
            ],
            [
                -122.64476720189013,
                47.5395509500375
            ],
            [
                -122.64469119141627,
                47.53946533033636
            ],
            [
                -122.64479886587372,
                47.53958648879777
            ],
            [
                -122.64475939872261,
                47.539573050357056
            ],
            [
                -122.6447553846891,
                47.539565312628966
            ],
            [
                -122.64479010320382,
                47.53950214229244
            ],
            [
                -122.64482829743878,
                47.539494268177364
            ],
            [
                -122.6448073390969,
                47.539522888746184
            ],
            [
                -122.64477443722261,
                47.539548880560545
            ],
            [
                -122.64479547008494,
                47.53954375777817
            ],
            [
                -122.64480746932334,
                47.539557968877595
            ],
            [
                -122.64476133770457,
                47.53953039662502
            ],
            [
                -122.64471332718418,
                47.53955032284742
            ],
            [
                -122.64482118481745,
                47.53951158863777
            ],
            [
                -122.64472932568202,
                47.53955955411081
            ],
            [
                -122.64475273738496,
                47.539531876333385
            ],
            [
                -122.6447376739829,
                47.53951506573169
            ],
            [
                -122.6447316443501,
                47.539482417348694
            ],
            [
                -122.64477813999298,
                47.5395238813347
            ],
            [
                -122.6447552099657,
                47.53950444829489
            ],
            [
                -122.64478251502514,
                47.539498506323646
            ],
            [
                -122.64471341060913,
                47.53950979239051
            ],
            [
                -122.64478703633895,
                47.53953597517207
            ],
            [
                -122.6447853853345,
                47.53953059229549
            ],
            [
                -122.64484465110789,
                47.53952399428977
            ],
            [
                -122.64481543360255,
                47.5395196625203
            ],
            [
                -122.64478462881215,
                47.539532875665564
            ],
            [
                -122.64480401604854,
                47.5395197265888
            ],
            [
                -122.64480359906763,
                47.53956525341249
            ],
            [
                -122.64470993331238,
                47.539554965750874
            ],
            [
                -122.64464829587948,
                47.53949978868072
            ],
            [
                -122.64473256815717,
                47.53952029546289
            ],
            [
                -122.64475,
                47.53953
            ]
        ]
    },
    "properties": {
        "trajectory_id": 5369,
        "object_id": 367674620,
        "label": "PLEASURE CRAFT"
    }
}