{
    "type": "Feature",
    "geometry": {
        "type": "LineString",
        "coordinates": [
            [
                -123.10615,
                49.31079
            ],
            [
                -123.10613098889344,
                49.31086259479867
            ],
            [
                -123.10664684309005,
                49.307460455472444
            ],
            [
                -123.11317538493009,
                49.30666382616752
            ],
            [
                -123.10693016852812,
                49.311192077183286
            ],
            [
                -123.10701994813073,
                49.31118057723312
            ],
            [
                -123.10708968141589,
                49.311264474089626
            ],
            [
                -123.10703999631517,
                49.31134235424798
            ],
            [
                -123.10698613710007,
                49.31134646919996
            ],
            [
                -123.1070153632398,
                49.31140811915521
            ],
            [
                -123.106957016545,
                49.31132473307193
            ],
            [
                -123.10701815348311,
                49.31132226640458
            ],
            [
                -123.10697857233748,
                49.31128755894127
            ],
            [
                -123.10474001309198,
                49.31046889178519
            ],
            [
                -123.10620314462588,
                49.30905016180317
            ],
            [
                -123.1061645592149,
                49.31000333365834
            ],
            [
                -123.10459656147577,
                49.31031679059422
            ],
            [
                -123.1048037183147,
                49.310451166328605
            ],
            [
                -123.10399019517978,
                49.30868540687422
            ],
            [
                -123.11496398423216,
                49.30702710343229
            ],
            [
                -123.12238093984323,
                49.31050667830016
            ],
            [
                -123.1256467093652,
                49.311566257723825
            ],
            [
                -123.1256815506462,
                49.31155304842425
            ],
            [
                -123.12566247810604,
                49.31159970622663
            ],
            [
                -123.12515091645454,
                49.311456696111144
            ],
            [
                -123.10679634998982,
                49.311229988010524
            ],
            [
                -123.10689314208047,
                49.31121017203422
            ],
            [
                -123.1068622865655,
                49.311269931962016
            ],
            [
                -123.1068813929839,
                49.311254162488815
            ],
            [
                -123.10686804999058,
                49.31126028307012
            ],
            [
                -123.10690491547967,
                49.311222939827
            ],
            [
                -123.10692028854102,
                49.3112102553501
            ],
            [
                -123.10687358669462,
                49.31124736628358
            ],
            [
                -123.106862695121,
                49.311240854151926
            ],
            [
                -123.10691979395382,
                49.31121696873647
            ],
            [
                -123.10691122937162,
                49.31124030505065
            ],
            [
                -123.10687992533327,
                49.31123998086076
            ],
            [
                -123.10686354637984,
                49.31126356269974
            ],
            [
                -123.10688003166817,
                49.31123998264983
            ],
            [
                -123.106946568375,
                49.3111584225959
            ],
            [
                -123.10703140959771,
                49.31118053231389
            ],
            [
                -123.10692571411539,
                49.31117485392213
            ],
            [
                -123.10697855202375,
                49.31121976346345
            ],
            [
                -123.10705800771666,
                49.31122281070482
            ],
            [
                -123.10706071726901,
                49.31118973161418
            ],
            [
                -123.10698785592191,
                49.31123844994951
            ],
            [
                -123.10704772054352,
                49.31128089129405
            ],
            [
                -123.10689015839769,
                49.31124961938709
            ],
            [
                -123.10694239150885,
                49.31121589438685
            ],
            [
                -123.10692870577003,
                49.311210766240606
            ],
            [
                -123.1068483561775,
                49.311237933644996
            ],
            [
                -123.10685452624459,
                49.311223750476394
            ],
            [
                -123.10685025070242,
                49.3112597149891
            ],
            [
                -123.10684905582136,
                49.3112520176451
            ],
            [
                -123.1068399958303,
                49.311260103410454
            ],
            [
                -123.10689530396301,
                49.3112800025612
            ],
            [
                -123.10686933445602,
                49.31123646835424
            ],
            [
                -123.10688020103989,
                49.31126935631225
            ],
            [
                -123.10686097489422,
                49.31127083715739
            ],
            [
                -123.1068803890713,
                49.31125971703354
            ],
            [
                -123.10686868193415,
                49.31168083311256
            ],
            [
                -123.10690787053944,
                49.311779948789706
            ],
            [
                -123.10691957915355,
                49.31173356663775
            ],
            [
                -123.10688223322359,
                49.31170559179649
            ],
            [
                -123.1069077832956,
                49.31159948678196
            ],
            [
                -123.10691951198676,
                49.311475111278654
            ],
            [
                -123.10694059607256,
                49.31128707386592
            ],
            [
                -123.10688268389184,
                49.311267290319435
            ],
            [
                -123.10687128580494,
                49.31123497147878
            ],
            [
                -123.10687507340751,
                49.311212568967
            ],
            [
                -123.10685959399308,
                49.31108992353181
            ],
            [
                -123.10686991523342,
                49.31130595157962
            ],
            [
                -123.10692498326964,
                49.311259676754815
            ],
            [
                -123.10688169176862,
                49.31123013093379
            ],
            [
                -123.10691196140671,
                49.311328919470895
            ],
            [
                -123.10700555814024,
                49.311251041927164
            ],
            [
                -123.10704784183162,
                49.31129912935972
            ],
            [
                -123.1070027321508,
                49.31122861411705
            ],
            [
                -123.1070366034252,
                49.311286461433745
            ],
            [
                -123.1071,
                49.31126
            ]
        ]
    },
    "properties": {
        "trajectory_id": 542,
        "object_id": 316003667,
        "label": "TUG"
    }
}