{
    "type": "Feature",
    "geometry": {
        "type": "LineString",
        "coordinates": [
            [
                -122.39229,
                47.66706
            ],
            [
                -122.39233899272952,
                47.66696087634336
            ],
            [
                -122.39239937251749,
                47.667169734030466
            ],
            [
                -122.39208275233864,
                47.66699851751545
            ],
            [
                -122.39229448038238,
                47.66708598949872
            ],
            [
                -122.39241808054277,
                47.66694123684158
            ],
            [
                -122.3923018176698,
                47.66696385815074
            ],
            [
                -122.392333727192,
                47.66706113555658
            ],
            [
                -122.39223283443684,
                47.66700729795724
            ],
            [
                -122.39225986269498,
                47.66692382755085
            ],
            [
                -122.39217347809563,
                47.66692478433251
            ],
            [
                -122.39232036999458,
                47.66693177700785
            ],
            [
                -122.39229713129743,
                47.66702948108954
            ],
            [
                -122.39226745941663,
                47.66704255327465
            ],
            [
                -122.39222051391718,
                47.667075507361965
            ],
            [
                -122.39226034911401,
                47.66708434979519
            ],
            [
                -122.39222960739673,
                47.66699476686823
            ],
            [
                -122.39224398480346,
                47.6669519459918
            ],
            [
                -122.39232603124447,
                47.6668947855128
            ],
            [
                -122.3923599971114,
                47.666965775333786
            ],
            [
                -122.39227928656274,
                47.66702382446157
            ],
            [
                -122.39223243598754,
                47.66703817724635
            ],
            [
                -122.39215821404075,
                47.66696683549384
            ],
            [
                -122.39234989991449,
                47.666886645234406
            ],
            [
                -122.39211136233067,
                47.66696679820506
            ],
            [
                -122.39225348299097,
                47.666926905975586
            ],
            [
                -122.39215056123561,
                47.66689533961484
            ],
            [
                -122.39210530914274,
                47.66696981536172
            ],
            [
                -122.39219008130063,
                47.66709778723472
            ],
            [
                -122.39217970662386,
                47.66701819152909
            ],
            [
                -122.39226170675745,
                47.66696820863138
            ],
            [
                -122.39220985243706,
                47.667050002413774
            ],
            [
                -122.39213892958303,
                47.66705016755969
            ],
            [
                -122.39221677548491,
                47.667009496452316
            ],
            [
                -122.39223806062519,
                47.66704488641543
            ],
            [
                -122.39231912915535,
                47.66687160719438
            ],
            [
                -122.39221015560011,
                47.66739567075614
            ],
            [
                -122.39224139236724,
                47.666872120574695
            ],
            [
                -122.3924335310619,
                47.66696152750774
            ],
            [
                -122.39220968979645,
                47.66698838411977
            ],
            [
                -122.39236134792831,
                47.66708978734757
            ],
            [
                -122.39226983407077,
                47.6669993333274
            ],
            [
                -122.39205471625641,
                47.666985296966246
            ],
            [
                -122.39235974600172,
                47.66697864255882
            ],
            [
                -122.3924145590207,
                47.666999325160425
            ],
            [
                -122.3923823672393,
                47.66700205959206
            ],
            [
                -122.39223452842353,
                47.66694905282426
            ],
            [
                -122.39210002612685,
                47.667074813375194
            ],
            [
                -122.39210598287417,
                47.66712484471468
            ],
            [
                -122.39226235611679,
                47.66710158215586
            ],
            [
                -122.39211761510866,
                47.66700471086929
            ],
            [
                -122.39217667349736,
                47.66696066370884
            ],
            [
                -122.39234152020653,
                47.66703620896093
            ],
            [
                -122.39216135174408,
                47.666926147316346
            ],
            [
                -122.39241938836923,
                47.66702618062811
            ],
            [
                -122.39239570189189,
                47.66700648470895
            ],
            [
                -122.39247618772049,
                47.667071914142745
            ],
            [
                -122.39243000505269,
                47.667027978946855
            ],
            [
                -122.3924047949481,
                47.66711635475431
            ],
            [
                -122.39223927187035,
                47.667109226268266
            ],
            [
                -122.39230852169864,
                47.667037689181015
            ],
            [
                -122.39218309321102,
                47.667086034024095
            ],
            [
                -122.39229739112253,
                47.666911368897615
            ],
            [
                -122.39215668377912,
                47.66704507394422
            ],
            [
                -122.39216004988081,
                47.66701012125775
            ],
            [
                -122.39204070186966,
                47.66695479963533
            ],
            [
                -122.3921179710549,
                47.666928334479906
            ],
            [
                -122.39237823249255,
                47.666988283375105
            ],
            [
                -122.39205690704296,
                47.66715387970203
            ],
            [
                -122.39213886003144,
                47.66693009738602
            ],
            [
                -122.39232411401792,
                47.66700489044493
            ],
            [
                -122.39231621288825,
                47.66700831730531
            ],
            [
                -122.3922937158489,
                47.66691864755614
            ],
            [
                -122.39251136669127,
                47.66699458629014
            ],
            [
                -122.39249360828036,
                47.66697587456709
            ],
            [
                -122.39224851347016,
                47.666876336459566
            ],
            [
                -122.39237899209768,
                47.66717882588188
            ],
            [
                -122.39222820188428,
                47.667083643205686
            ],
            [
                -122.39214792953987,
                47.66700480414425
            ],
            [
                -122.3921038534104,
                47.667007952724504
            ],
            [
                -122.39243499991177,
                47.667027917432364
            ],
            [
                -122.39223189770284,
                47.66704706457107
            ],
            [
                -122.39224074497841,
                47.667238936899686
            ],
            [
                -122.39212543284748,
                47.66721762606354
            ],
            [
                -122.39209324933638,
                47.66705345836227
            ],
            [
                -122.3922092831576,
                47.666928686817585
            ],
            [
                -122.39228868816828,
                47.66703793375996
            ],
            [
                -122.39223820911138,
                47.66700973245896
            ],
            [
                -122.39236641726426,
                47.66744565356921
            ],
            [
                -122.39216425443155,
                47.66697551099219
            ],
            [
                -122.3921783242504,
                47.6670021459315
            ],
            [
                -122.39213171582371,
                47.66699717060093
            ],
            [
                -122.3921934692486,
                47.66697457207702
            ],
            [
                -122.39223142220854,
                47.667018678897186
            ],
            [
                -122.3922543430655,
                47.66696573336243
            ],
            [
                -122.39229668575186,
                47.667003526151234
            ],
            [
                -122.39247435607749,
                47.66688659517476
            ],
            [
                -122.39239964863012,
                47.66676009919022
            ],
            [
                -122.39238483369019,
                47.666762793964246
            ],
            [
                -122.39244700231254,
                47.66672775142474
            ],
            [
                -122.39268762239286,
                47.66671392913352
            ],
            [
                -122.39252564345392,
                47.666808282316595
            ],
            [
                -122.39216394538546,
                47.66676216002254
            ],
            [
                -122.3924670867385,
                47.66697122272434
            ],
            [
                -122.39244667947189,
                47.66680957359412
            ],
            [
                -122.39224302445126,
                47.66704288602139
            ],
            [
                -122.39220433284781,
                47.667133666013164
            ],
            [
                -122.3920922068873,
                47.66707611431424
            ],
            [
                -122.3921939552368,
                47.66708848898685
            ],
            [
                -122.39233456531923,
                47.667150445036526
            ],
            [
                -122.39217280796582,
                47.66702617351545
            ],
            [
                -122.39217802456515,
                47.667019513018396
            ],
            [
                -122.39229008980458,
                47.666983926453575
            ],
            [
                -122.39215371914041,
                47.66700047212841
            ],
            [
                -122.39244341234419,
                47.666981220497114
            ],
            [
                -122.39230926625656,
                47.66701537568759
            ],
            [
                -122.39235673831061,
                47.6669415500455
            ],
            [
                -122.3926455774115,
                47.66697504113434
            ],
            [
                -122.39250480975181,
                47.66696990610251
            ],
            [
                -122.39229,
                47.66697
            ]
        ]
    },
    "properties": {
        "trajectory_id": 5429,
        "object_id": 367697710,
        "label": "PLEASURE CRAFT"
    }
}