{
    "type": "Feature",
    "geometry": {
        "type": "LineString",
        "coordinates": [
            [
                -122.24466,
                47.53755
            ],
            [
                -122.2446598896136,
                47.53755995127463
            ],
            [
                -122.24466100110857,
                47.53755044903692
            ],
            [
                -122.24464063167822,
                47.537561323119476
            ],
            [
                -122.24465540114873,
                47.537565472294446
            ],
            [
                -122.24465073629642,
                47.537560831012286
            ],
            [
                -122.24464966984364,
                47.537552164330194
            ],
            [
                -122.2446505552297,
                47.5375539209065
            ],
            [
                -122.24466503592005,
                47.53754907367168
            ],
            [
                -122.24465835709486,
                47.5375439411582
            ],
            [
                -122.24465846697785,
                47.53755383846941
            ],
            [
                -122.24465950431826,
                47.53754994228515
            ],
            [
                -122.24463932346433,
                47.53754999340506
            ],
            [
                -122.24462989546562,
                47.53754886126127
            ],
            [
                -122.24463691085761,
                47.537555364245414
            ],
            [
                -122.24464006338263,
                47.537560654513925
            ],
            [
                -122.24464960101935,
                47.53754927067494
            ],
            [
                -122.24465905172791,
                47.53754942025994
            ],
            [
                -122.24465071966318,
                47.537560279490755
            ],
            [
                -122.2446500888646,
                47.53754999592083
            ],
            [
                -122.24465191746955,
                47.53755597672061
            ],
            [
                -122.24464992774294,
                47.53755004446688
            ],
            [
                -122.24464964037101,
                47.537540041616936
            ],
            [
                -122.24464961765277,
                47.537561612351126
            ],
            [
                -122.24468121907239,
                47.53753427627677
            ],
            [
                -122.24464953840338,
                47.53754940545482
            ],
            [
                -122.24466141689886,
                47.53755053174053
            ],
            [
                -122.2446593303007,
                47.53754956150197
            ],
            [
                -122.24464639625978,
                47.537553224635616
            ],
            [
                -122.24465032087903,
                47.537551966578306
            ],
            [
                -122.24464995253314,
                47.53754895402035
            ],
            [
                -122.24465849233387,
                47.53755013532848
            ],
            [
                -122.24463888499855,
                47.537560690200294
            ],
            [
                -122.24464004724646,
                47.53755950190097
            ],
            [
                -122.2446509994151,
                47.53756804797251
            ],
            [
                -122.24465928127665,
                47.537558830661
            ],
            [
                -122.24466632616586,
                47.537553888415076
            ],
            [
                -122.2446489686224,
                47.537550413592385
            ],
            [
                -122.24464973521702,
                47.53755556498608
            ],
            [
                -122.24463929261316,
                47.53754871410754
            ],
            [
                -122.24464751506798,
                47.5375600535274
            ],
            [
                -122.2446774160755,
                47.53756042154453
            ],
            [
                -122.24467311865925,
                47.537552203178585
            ],
            [
                -122.24465053741804,
                47.53753838295557
            ],
            [
                -122.2446504926267,
                47.53755112375648
            ],
            [
                -122.24465194764394,
                47.537560118824366
            ],
            [
                -122.24464029934013,
                47.5375518253731
            ],
            [
                -122.24466742272959,
                47.53754858631806
            ],
            [
                -122.24466919565883,
                47.537557137591676
            ],
            [
                -122.24465053638882,
                47.5375722710621
            ],
            [
                -122.2446669300063,
                47.537550685226634
            ],
            [
                -122.24466033461327,
                47.53754764116516
            ],
            [
                -122.24464879517467,
                47.53756061633259
            ],
            [
                -122.24465338924114,
                47.53756621847205
            ],
            [
                -122.24464975499268,
                47.537548280044106
            ],
            [
                -122.24465278250972,
                47.53756001549366
            ],
            [
                -122.24464973782224,
                47.53755981505752
            ],
            [
                -122.2446502436413,
                47.53754942200758
            ],
            [
                -122.2446380101719,
                47.53755014660948
            ],
            [
                -122.24466059281474,
                47.53754525272355
            ],
            [
                -122.24465982284109,
                47.53755998808791
            ],
            [
                -122.24464068378528,
                47.537540430407276
            ],
            [
                -122.24465110153787,
                47.537560091420694
            ],
            [
                -122.24466058983158,
                47.53758046871299
            ],
            [
                -122.24465146249348,
                47.53755569226263
            ],
            [
                -122.24464916363347,
                47.5375595637441
            ],
            [
                -122.24465876518693,
                47.53757035444635
            ],
            [
                -122.24464813774242,
                47.537541013136234
            ],
            [
                -122.24466189301485,
                47.53755004849046
            ],
            [
                -122.24465859522716,
                47.537559805996096
            ],
            [
                -122.24465035502239,
                47.53754974121195
            ],
            [
                -122.24464978197842,
                47.53754675109908
            ],
            [
                -122.24464178189781,
                47.537550619145286
            ],
            [
                -122.24463826935694,
                47.537557515576424
            ],
            [
                -122.24465496663692,
                47.53755818158319
            ],
            [
                -122.24466116558546,
                47.53754433789343
            ],
            [
                -122.24462861600506,
                47.53757365448042
            ],
            [
                -122.24454868862554,
                47.53761239862381
            ],
            [
                -122.24465704274347,
                47.53754832860898
            ],
            [
                -122.24465007047652,
                47.53753999427671
            ],
            [
                -122.2446602374404,
                47.53754987111467
            ],
            [
                -122.24466953669193,
                47.537550741516085
            ],
            [
                -122.24466091187095,
                47.53755933867857
            ],
            [
                -122.24465934678734,
                47.537538993833614
            ],
            [
                -122.24466087633745,
                47.5375500848439
            ],
            [
                -122.24465836209683,
                47.537530640051806
            ],
            [
                -122.24463852074426,
                47.537549683758854
            ],
            [
                -122.2446519762936,
                47.537540313861236
            ],
            [
                -122.24465072860585,
                47.53755465329396
            ],
            [
                -122.24465175768418,
                47.53753927392716
            ],
            [
                -122.24461574351555,
                47.53752775613946
            ],
            [
                -122.24464222911566,
                47.53755117806981
            ],
            [
                -122.2446585040799,
                47.537555436335474
            ],
            [
                -122.24465966570708,
                47.53754056093979
            ],
            [
                -122.24465869339515,
                47.537546667785016
            ],
            [
                -122.24465028767345,
                47.53755736196297
            ],
            [
                -122.24464974183182,
                47.537561206107924
            ],
            [
                -122.24464279529388,
                47.537557108956946
            ],
            [
                -122.24464718993359,
                47.53756075947189
            ],
            [
                -122.24465170543041,
                47.53754517980214
            ],
            [
                -122.24465886340266,
                47.53763567890351
            ],
            [
                -122.24460027820766,
                47.53763927821632
            ],
            [
                -122.24462603956306,
                47.53756253165744
            ],
            [
                -122.24465975255464,
                47.537548653460924
            ],
            [
                -122.24465682846382,
                47.537551809328825
            ],
            [
                -122.24466123687942,
                47.537552494110386
            ],
            [
                -122.24466163993347,
                47.537551303102894
            ],
            [
                -122.24466075898071,
                47.537560158783805
            ],
            [
                -122.24467358664383,
                47.53755590130887
            ],
            [
                -122.24466197233323,
                47.53755307023107
            ],
            [
                -122.24465280259452,
                47.53755531082727
            ],
            [
                -122.24464759899529,
                47.53754937782268
            ],
            [
                -122.24465180481788,
                47.5375499740275
            ],
            [
                -122.24465876527344,
                47.5375705977822
            ],
            [
                -122.24465034466631,
                47.537558712986446
            ],
            [
                -122.24465014500527,
                47.537540780012804
            ],
            [
                -122.24464931992884,
                47.53754018112893
            ],
            [
                -122.24465002839051,
                47.53753991752588
            ],
            [
                -122.24465993415558,
                47.53754019462139
            ],
            [
                -122.24465,
                47.53755
            ]
        ]
    },
    "properties": {
        "trajectory_id": 5440,
        "object_id": 367700540,
        "label": "PLEASURE CRAFT"
    }
}