{
    "type": "Feature",
    "geometry": {
        "type": "LineString",
        "coordinates": [
            [
                -122.35861,
                47.26209
            ],
            [
                -122.35840990287976,
                47.26195025418196
            ],
            [
                -122.358510872677,
                47.26201489675774
            ],
            [
                -122.35860736710436,
                47.262106844954644
            ],
            [
                -122.35861824113786,
                47.26208980391638
            ],
            [
                -122.35862898875953,
                47.262060478173545
            ],
            [
                -122.35847001367951,
                47.26205002751533
            ],
            [
                -122.35851760061757,
                47.262066561597365
            ],
            [
                -122.3585605621492,
                47.26208009387207
            ],
            [
                -122.35858906664147,
                47.26206362321161
            ],
            [
                -122.35850096178355,
                47.2620315889841
            ],
            [
                -122.35859058202958,
                47.262105297449615
            ],
            [
                -122.35860738197628,
                47.262092639443814
            ],
            [
                -122.35842399145594,
                47.262054695901
            ],
            [
                -122.35853169264622,
                47.26201631735885
            ],
            [
                -122.35858898817314,
                47.26206842999443
            ],
            [
                -122.35856622549132,
                47.262078481321254
            ],
            [
                -122.35854823399174,
                47.26206851588326
            ],
            [
                -122.35857833492659,
                47.26208162986999
            ],
            [
                -122.35860287493487,
                47.262089674032275
            ],
            [
                -122.35859959343667,
                47.26209230102759
            ],
            [
                -122.3586211052637,
                47.262080541995786
            ],
            [
                -122.35858696921727,
                47.262096588050944
            ],
            [
                -122.35847825714673,
                47.26205283458535
            ],
            [
                -122.35857503519357,
                47.26208652759192
            ],
            [
                -122.35855417700876,
                47.262091447207794
            ],
            [
                -122.35859646145475,
                47.26209284529859
            ],
            [
                -122.35861154486128,
                47.26209833778257
            ],
            [
                -122.35856553589767,
                47.26208155586942
            ],
            [
                -122.35858559233378,
                47.262098172855474
            ],
            [
                -122.35854576668582,
                47.26205202797419
            ],
            [
                -122.35864666899148,
                47.262102925148646
            ],
            [
                -122.358600997771,
                47.26208698886036
            ],
            [
                -122.35857970457891,
                47.26206821963114
            ],
            [
                -122.3586017297673,
                47.26208925833433
            ],
            [
                -122.35860862042723,
                47.26208689282208
            ],
            [
                -122.3585986762412,
                47.262080449974775
            ],
            [
                -122.3585746277686,
                47.26206734937522
            ],
            [
                -122.35858077911567,
                47.26211073216072
            ],
            [
                -122.35857979925566,
                47.26207949510886
            ],
            [
                -122.35862989605391,
                47.26209995293036
            ],
            [
                -122.35863071785937,
                47.262110290144015
            ],
            [
                -122.35860979340153,
                47.26210043539191
            ],
            [
                -122.35855483087389,
                47.2620550686257
            ],
            [
                -122.35858722010255,
                47.26206865509516
            ],
            [
                -122.35848312762798,
                47.26202158927868
            ],
            [
                -122.35844121902511,
                47.26199973216269
            ],
            [
                -122.35859922039201,
                47.262081879380965
            ],
            [
                -122.35856712344494,
                47.26209308684209
            ],
            [
                -122.35856165127718,
                47.2620980161067
            ],
            [
                -122.35860443415382,
                47.262094024239104
            ],
            [
                -122.35857622542743,
                47.26209010645038
            ],
            [
                -122.35858200983412,
                47.26209541854566
            ],
            [
                -122.3585256701532,
                47.262064534377274
            ],
            [
                -122.35856918900826,
                47.26209404530482
            ],
            [
                -122.35854988178166,
                47.26209769131822
            ],
            [
                -122.35854956029723,
                47.262081044144765
            ],
            [
                -122.35860189587086,
                47.26210046794404
            ],
            [
                -122.35859342095092,
                47.26208676840538
            ],
            [
                -122.35851495298799,
                47.26203938109004
            ],
            [
                -122.35858164512503,
                47.262100002428866
            ],
            [
                -122.35858974095122,
                47.262093861076835
            ],
            [
                -122.35859871436259,
                47.26209424924787
            ],
            [
                -122.35859639625262,
                47.26210182121843
            ],
            [
                -122.35858713283399,
                47.26209011981653
            ],
            [
                -122.35858249476595,
                47.26207625893256
            ],
            [
                -122.35850876919835,
                47.262078910837076
            ],
            [
                -122.35833638840454,
                47.2619618662815
            ],
            [
                -122.35848160783245,
                47.26209796919659
            ],
            [
                -122.3585939178734,
                47.26208045354773
            ],
            [
                -122.35859430261432,
                47.262066015733375
            ],
            [
                -122.35858595869327,
                47.262083064444745
            ],
            [
                -122.35859222575372,
                47.26207445740754
            ],
            [
                -122.35862982550277,
                47.2620957090771
            ],
            [
                -122.35853164721817,
                47.26200099238555
            ],
            [
                -122.35857993594433,
                47.26207827557285
            ],
            [
                -122.35860853821256,
                47.26207248589939
            ],
            [
                -122.35860147555194,
                47.262100928876905
            ],
            [
                -122.35857999499501,
                47.26210901909285
            ],
            [
                -122.35862982738577,
                47.26208006576958
            ],
            [
                -122.35855921275855,
                47.262070216177435
            ],
            [
                -122.35841719656486,
                47.262079703091466
            ],
            [
                -122.35856230833392,
                47.262101287967944
            ],
            [
                -122.35856384722422,
                47.26209022973662
            ],
            [
                -122.35855260327993,
                47.26208214492905
            ],
            [
                -122.35854690787842,
                47.26205283066477
            ],
            [
                -122.35860928072934,
                47.26203549051126
            ],
            [
                -122.3585729059531,
                47.26206824592047
            ],
            [
                -122.35843756977808,
                47.26206312970525
            ],
            [
                -122.35855595435547,
                47.26206859854075
            ],
            [
                -122.35853543437288,
                47.26203985661485
            ],
            [
                -122.35842495510506,
                47.26202868083488
            ],
            [
                -122.3585906798232,
                47.26206830538401
            ],
            [
                -122.35853409322333,
                47.2621159724198
            ],
            [
                -122.35856149839924,
                47.26207487097149
            ],
            [
                -122.35856319856106,
                47.262105175192765
            ],
            [
                -122.35862402853775,
                47.26206609497065
            ],
            [
                -122.35862940603513,
                47.26206084658418
            ],
            [
                -122.35865818732253,
                47.26193815563726
            ],
            [
                -122.35858966971897,
                47.26206137930283
            ],
            [
                -122.35863452894533,
                47.26210970873625
            ],
            [
                -122.35860364640247,
                47.26201051126065
            ],
            [
                -122.35862369332557,
                47.26204146184494
            ],
            [
                -122.35860424107302,
                47.262037530046975
            ],
            [
                -122.3585960552163,
                47.26208049828488
            ],
            [
                -122.35854896078581,
                47.262052861323305
            ],
            [
                -122.35859175814605,
                47.262080727987126
            ],
            [
                -122.35860585407326,
                47.26206947471973
            ],
            [
                -122.35861661930043,
                47.26208042064556
            ],
            [
                -122.35862151569255,
                47.26209015209073
            ],
            [
                -122.35862112158759,
                47.262083064525974
            ],
            [
                -122.35857175466506,
                47.262091788446725
            ],
            [
                -122.35856173662319,
                47.262068625234235
            ],
            [
                -122.35857582783197,
                47.26209862566971
            ],
            [
                -122.35860022146132,
                47.26208943416396
            ],
            [
                -122.35862316929175,
                47.26208162717665
            ],
            [
                -122.35860890883225,
                47.26209172299262
            ],
            [
                -122.35866957405041,
                47.26211912681638
            ],
            [
                -122.35857491345381,
                47.262063350554726
            ],
            [
                -122.35861,
                47.26209
            ]
        ]
    },
    "properties": {
        "trajectory_id": 5536,
        "object_id": 367731170,
        "label": "PLEASURE CRAFT"
    }
}