{
    "type": "Feature",
    "geometry": {
        "type": "LineString",
        "coordinates": [
            [
                -122.39204,
                47.62888
            ],
            [
                -122.39204993043366,
                47.62888025176704
            ],
            [
                -122.3920499712368,
                47.62890876694199
            ],
            [
                -122.3920289860708,
                47.628880014733504
            ],
            [
                -122.39204073885091,
                47.62889090898626
            ],
            [
                -122.39204908672566,
                47.62888972733393
            ],
            [
                -122.39204973671012,
                47.62888126826886
            ],
            [
                -122.39204205438864,
                47.628911454988774
            ],
            [
                -122.39203778539174,
                47.62889213308658
            ],
            [
                -122.39204932747863,
                47.62888934425373
            ],
            [
                -122.39203820801406,
                47.62890076260307
            ],
            [
                -122.39205010145858,
                47.62887489184543
            ],
            [
                -122.39203814248604,
                47.62887869691958
            ],
            [
                -122.39204403218612,
                47.628895103170066
            ],
            [
                -122.39203581789135,
                47.62888856622156
            ],
            [
                -122.39204661143265,
                47.62888553292696
            ],
            [
                -122.39203922119874,
                47.62890832701206
            ],
            [
                -122.3920525952726,
                47.6288957578813
            ],
            [
                -122.39204076006543,
                47.628886423967806
            ],
            [
                -122.39204434755577,
                47.628892627130604
            ],
            [
                -122.39204753447716,
                47.62888463298679
            ],
            [
                -122.39204637052806,
                47.628891853547444
            ],
            [
                -122.39204018050626,
                47.62888371700358
            ],
            [
                -122.39204376314012,
                47.628884241819144
            ],
            [
                -122.39205196300996,
                47.62890714286166
            ],
            [
                -122.39206266798706,
                47.628905083569066
            ],
            [
                -122.39203789661575,
                47.628886182090135
            ],
            [
                -122.39204421981663,
                47.62889248336043
            ],
            [
                -122.39204250206036,
                47.628879507831705
            ],
            [
                -122.39204769825804,
                47.628875734750466
            ],
            [
                -122.39203821036381,
                47.628888588183536
            ],
            [
                -122.39205058994042,
                47.628889725706436
            ],
            [
                -122.39204044552955,
                47.62888224558791
            ],
            [
                -122.39204208676605,
                47.62889871581395
            ],
            [
                -122.39204847287,
                47.628899230212326
            ],
            [
                -122.3920408132241,
                47.62889041856493
            ],
            [
                -122.39204085262828,
                47.628889703073774
            ],
            [
                -122.39204950569466,
                47.62887948734043
            ],
            [
                -122.39205021360141,
                47.62890023340189
            ],
            [
                -122.39204016229394,
                47.62889006478534
            ],
            [
                -122.39208010163989,
                47.628900044367825
            ],
            [
                -122.39205013457878,
                47.62889013711487
            ],
            [
                -122.3920797515022,
                47.6289098002364
            ],
            [
                -122.39204074986998,
                47.628881173556124
            ],
            [
                -122.39204975991102,
                47.62889959014743
            ],
            [
                -122.39205007153305,
                47.62891055830021
            ],
            [
                -122.39205136868709,
                47.6288794593857
            ],
            [
                -122.3920497140278,
                47.62889918271705
            ],
            [
                -122.39204823489106,
                47.628911199927686
            ],
            [
                -122.39204894874536,
                47.628890832120916
            ],
            [
                -122.39204022092008,
                47.62890102370027
            ],
            [
                -122.3920412210717,
                47.62889940086978
            ],
            [
                -122.39204630678506,
                47.62888642538325
            ],
            [
                -122.39204062334976,
                47.62889905941198
            ],
            [
                -122.39203854613731,
                47.62889033672619
            ],
            [
                -122.39204730239686,
                47.62889071011433
            ],
            [
                -122.3920482174794,
                47.62890016951449
            ],
            [
                -122.39203840577348,
                47.62889368505504
            ],
            [
                -122.3920471704753,
                47.62888995373623
            ],
            [
                -122.39204458933321,
                47.62889651044811
            ],
            [
                -122.39203893910869,
                47.628899161343895
            ],
            [
                -122.3920326168756,
                47.62889095008754
            ],
            [
                -122.39204690081118,
                47.62891107203264
            ],
            [
                -122.39203992264764,
                47.62890235820996
            ],
            [
                -122.39204036621575,
                47.62889228787574
            ],
            [
                -122.3920389866783,
                47.62889351648927
            ],
            [
                -122.39204035425615,
                47.62888990480461
            ],
            [
                -122.39203815284664,
                47.62889123290872
            ],
            [
                -122.39204656325829,
                47.628891064288524
            ],
            [
                -122.39203880939604,
                47.62889341614664
            ],
            [
                -122.39204258922302,
                47.62889369277122
            ],
            [
                -122.39205156234138,
                47.628902272690816
            ],
            [
                -122.39204995281852,
                47.62889847111157
            ],
            [
                -122.39204901898995,
                47.62891090524178
            ],
            [
                -122.39205089795139,
                47.628899583400575
            ],
            [
                -122.39204998581684,
                47.62890021923031
            ],
            [
                -122.39204941460159,
                47.62888843928973
            ],
            [
                -122.39204038735718,
                47.628890196506234
            ],
            [
                -122.39204975974681,
                47.62887992020313
            ],
            [
                -122.3920400333539,
                47.628889891136495
            ],
            [
                -122.39204985375825,
                47.628890041084674
            ],
            [
                -122.39204020702445,
                47.62888014853589
            ],
            [
                -122.3920403765499,
                47.62887925804625
            ],
            [
                -122.39204055072143,
                47.62888872362238
            ],
            [
                -122.39202948433666,
                47.62889984565583
            ],
            [
                -122.39203967496397,
                47.6288982780545
            ],
            [
                -122.3920487775231,
                47.628911333283554
            ],
            [
                -122.39204827436737,
                47.62889241203738
            ],
            [
                -122.39204893296714,
                47.62890606354299
            ],
            [
                -122.39203993151814,
                47.628900442509384
            ],
            [
                -122.39204883891186,
                47.628899683657686
            ],
            [
                -122.39204245452933,
                47.62891058020457
            ],
            [
                -122.39204391062921,
                47.62888853220278
            ],
            [
                -122.39203985157873,
                47.62889131502532
            ],
            [
                -122.39204320110687,
                47.628896722899825
            ],
            [
                -122.3920467566047,
                47.62888889885621
            ],
            [
                -122.39204401199926,
                47.62891017097256
            ],
            [
                -122.39204557609787,
                47.62888993106503
            ],
            [
                -122.39204428212774,
                47.62889349784416
            ],
            [
                -122.39203966313521,
                47.628892247628414
            ],
            [
                -122.39204533443078,
                47.62888634469869
            ],
            [
                -122.39203925211629,
                47.62890272886075
            ],
            [
                -122.3920494947871,
                47.62889051381283
            ],
            [
                -122.39204768464424,
                47.628887753160505
            ],
            [
                -122.39204971436918,
                47.62887634172361
            ],
            [
                -122.39205100021331,
                47.62889473589073
            ],
            [
                -122.39205198899232,
                47.62888235383667
            ],
            [
                -122.39205082642243,
                47.628893493826205
            ],
            [
                -122.39205036579631,
                47.62889700193416
            ],
            [
                -122.3920500921044,
                47.628882357975776
            ],
            [
                -122.39204736678244,
                47.62888025960002
            ],
            [
                -122.39204931300472,
                47.62888988991424
            ],
            [
                -122.39203896904978,
                47.62889007055773
            ],
            [
                -122.39203944543306,
                47.62888839015778
            ],
            [
                -122.39203973194813,
                47.628889198094264
            ],
            [
                -122.39205017911,
                47.6288891820631
            ],
            [
                -122.3920400149976,
                47.628889841838976
            ],
            [
                -122.39204968553308,
                47.62889981708017
            ],
            [
                -122.39204993945728,
                47.62889994107776
            ],
            [
                -122.39204,
                47.6289
            ]
        ]
    },
    "properties": {
        "trajectory_id": 5572,
        "object_id": 367734870,
        "label": "PLEASURE CRAFT"
    }
}