{
    "type": "Feature",
    "geometry": {
        "type": "LineString",
        "coordinates": [
            [
                -122.99925,
                48.52814
            ],
            [
                -122.999249998855,
                48.5281400542435
            ],
            [
                -122.99925025288749,
                48.52812983827256
            ],
            [
                -122.99926720568489,
                48.528145059731
            ],
            [
                -122.99926947544802,
                48.52815922842624
            ],
            [
                -122.99927112600496,
                48.528129187872906
            ],
            [
                -122.99926886487418,
                48.528139644459536
            ],
            [
                -122.99927110685601,
                48.528138065566495
            ],
            [
                -122.99927222659122,
                48.52814803065754
            ],
            [
                -122.99924816105728,
                48.528138314678586
            ],
            [
                -122.99925434035357,
                48.528141108658865
            ],
            [
                -122.99924694302999,
                48.52814683675792
            ],
            [
                -122.99928131648022,
                48.52812672812986
            ],
            [
                -122.99924945760571,
                48.52814095313589
            ],
            [
                -122.99927366421294,
                48.528149205458504
            ],
            [
                -122.9992620211155,
                48.528139903137976
            ],
            [
                -122.99927221681145,
                48.52814375705941
            ],
            [
                -122.99926370458587,
                48.52813453756306
            ],
            [
                -122.99924972841357,
                48.52812488254008
            ],
            [
                -122.99925177452559,
                48.52813341861772
            ],
            [
                -122.99927238459085,
                48.528137144815275
            ],
            [
                -122.99926996587487,
                48.528142988191604
            ],
            [
                -122.99925810863867,
                48.52812715764538
            ],
            [
                -122.9992487969165,
                48.5281525518112
            ],
            [
                -122.99925970393471,
                48.528142690864755
            ],
            [
                -122.99924837038571,
                48.52814192802995
            ],
            [
                -122.99924054652693,
                48.52814810538587
            ],
            [
                -122.99927334525792,
                48.52813212013413
            ],
            [
                -122.9992539065898,
                48.528136716530604
            ],
            [
                -122.9992485568443,
                48.52814809452796
            ],
            [
                -122.99924707498933,
                48.528130386458415
            ],
            [
                -122.99927006074579,
                48.528139462983006
            ],
            [
                -122.99926945041368,
                48.52813982837749
            ],
            [
                -122.99926880378871,
                48.52814027073937
            ],
            [
                -122.99926691678571,
                48.528139364161916
            ],
            [
                -122.99926954201997,
                48.52813062061931
            ],
            [
                -122.99925080325234,
                48.52814981483145
            ],
            [
                -122.99925024007317,
                48.52813906292428
            ],
            [
                -122.99925051775804,
                48.528149976819286
            ],
            [
                -122.99925006504375,
                48.52814020808957
            ],
            [
                -122.9992700050997,
                48.52814011884311
            ],
            [
                -122.99927000015329,
                48.52813995747671
            ],
            [
                -122.99926999735554,
                48.528150327775
            ],
            [
                -122.99926929569125,
                48.5281624993237
            ],
            [
                -122.99927004625165,
                48.528142405373345
            ],
            [
                -122.99925266344731,
                48.52814968245807
            ],
            [
                -122.99925187294266,
                48.52816315252088
            ],
            [
                -122.99923741461706,
                48.52814927092139
            ],
            [
                -122.99924836756529,
                48.52814121606489
            ],
            [
                -122.99925478668449,
                48.52813819876927
            ],
            [
                -122.99925648277176,
                48.52815076617346
            ],
            [
                -122.99925342513218,
                48.528150414399995
            ],
            [
                -122.99926444582235,
                48.52814562067573
            ],
            [
                -122.99927255772191,
                48.528163477681595
            ],
            [
                -122.99926082406958,
                48.52814269424206
            ],
            [
                -122.99925868119018,
                48.52815196329596
            ],
            [
                -122.9992388256224,
                48.52815025011738
            ],
            [
                -122.99924886675298,
                48.52815093491516
            ],
            [
                -122.99927029205794,
                48.52814844840013
            ],
            [
                -122.99924783400944,
                48.528136757724255
            ],
            [
                -122.99927399423282,
                48.52813402371572
            ],
            [
                -122.99924793447157,
                48.52813489129357
            ],
            [
                -122.99924831595925,
                48.52812867021925
            ],
            [
                -122.99924871099064,
                48.52813232656212
            ],
            [
                -122.99926977127699,
                48.528152004346914
            ],
            [
                -122.99927386710094,
                48.528150533240265
            ],
            [
                -122.99926445345676,
                48.52813796750267
            ],
            [
                -122.99925928016204,
                48.52816013024629
            ],
            [
                -122.99924902683738,
                48.52814285248528
            ],
            [
                -122.99927236337618,
                48.52815351372311
            ],
            [
                -122.99926406368677,
                48.52813258544947
            ],
            [
                -122.99925512013357,
                48.5281315390454
            ],
            [
                -122.9992402587009,
                48.528140807878145
            ],
            [
                -122.99924943927142,
                48.5281365285118
            ],
            [
                -122.99925254390614,
                48.528140003758764
            ],
            [
                -122.99926285268964,
                48.52814251061067
            ],
            [
                -122.99924968522443,
                48.52816075204843
            ],
            [
                -122.99924965498192,
                48.52814397950845
            ],
            [
                -122.99926950943382,
                48.52813964996126
            ],
            [
                -122.99926991365544,
                48.52813005350819
            ],
            [
                -122.99926995115655,
                48.528140217028344
            ],
            [
                -122.99924997113018,
                48.52814968623904
            ],
            [
                -122.99924942278628,
                48.528149424107625
            ],
            [
                -122.99924829675727,
                48.528139861040316
            ],
            [
                -122.99927164085489,
                48.528128791183846
            ],
            [
                -122.99926709052801,
                48.52814091237001
            ],
            [
                -122.99925048280846,
                48.528148839873204
            ],
            [
                -122.9992574405988,
                48.52814094415791
            ],
            [
                -122.99924647158045,
                48.52813622677172
            ],
            [
                -122.99926981201216,
                48.528132608186645
            ],
            [
                -122.9992529360198,
                48.52813066895594
            ],
            [
                -122.99927022618947,
                48.52814279390039
            ],
            [
                -122.99926451077411,
                48.52814172463901
            ],
            [
                -122.99926909754033,
                48.52813384507692
            ],
            [
                -122.99925976501704,
                48.52814001603145
            ],
            [
                -122.99924462267361,
                48.52815099614966
            ],
            [
                -122.99924979031297,
                48.528145075828974
            ],
            [
                -122.99924885394461,
                48.5281478990775
            ],
            [
                -122.9992718203081,
                48.528140651778756
            ],
            [
                -122.9992683922967,
                48.52813373738101
            ],
            [
                -122.99925709330896,
                48.52813567287134
            ],
            [
                -122.99925923421361,
                48.52813553795093
            ],
            [
                -122.99925625697082,
                48.52814184455915
            ],
            [
                -122.9992456227989,
                48.52813174235585
            ],
            [
                -122.9992750112804,
                48.528126925959995
            ],
            [
                -122.99926897726554,
                48.528152811761736
            ],
            [
                -122.9992665276665,
                48.52813294040865
            ],
            [
                -122.99924987254502,
                48.52812867757983
            ],
            [
                -122.99924817173452,
                48.528130131219854
            ],
            [
                -122.99924946319013,
                48.52814144703403
            ],
            [
                -122.99925167242304,
                48.52813256172079
            ],
            [
                -122.99926973406541,
                48.528130868020696
            ],
            [
                -122.99926909876785,
                48.5281411416933
            ],
            [
                -122.99926839983553,
                48.528130697804286
            ],
            [
                -122.99925014119559,
                48.52813116006875
            ],
            [
                -122.99925078262126,
                48.5281387862325
            ],
            [
                -122.99927048795206,
                48.52814990282324
            ],
            [
                -122.99924941220814,
                48.52813940955335
            ],
            [
                -122.99927005439561,
                48.528139879412144
            ],
            [
                -122.99925,
                48.52814
            ]
        ]
    },
    "properties": {
        "trajectory_id": 5605,
        "object_id": 367743650,
        "label": "PLEASURE CRAFT"
    }
}