{
    "type": "Feature",
    "geometry": {
        "type": "LineString",
        "coordinates": [
            [
                -122.3855,
                47.66177
            ],
            [
                -122.38551065236973,
                47.661769374911806
            ],
            [
                -122.38553857756138,
                47.66173156716289
            ],
            [
                -122.38549958748338,
                47.661790322340934
            ],
            [
                -122.38550619149419,
                47.661792019312145
            ],
            [
                -122.38549171331682,
                47.66177846915178
            ],
            [
                -122.38550899145298,
                47.661769243810404
            ],
            [
                -122.38551411808663,
                47.661760042556736
            ],
            [
                -122.38550629581793,
                47.66177767832261
            ],
            [
                -122.38553416521984,
                47.66175435824985
            ],
            [
                -122.38551751207494,
                47.66176285278073
            ],
            [
                -122.38553110178131,
                47.66174873448557
            ],
            [
                -122.38552794892763,
                47.66175809798325
            ],
            [
                -122.38553480385019,
                47.661753255734354
            ],
            [
                -122.38551371445261,
                47.66177722430535
            ],
            [
                -122.38551910701757,
                47.66176023501341
            ],
            [
                -122.38551473524358,
                47.661764816027855
            ],
            [
                -122.38550271956967,
                47.66176173072191
            ],
            [
                -122.38551863054676,
                47.661762328202684
            ],
            [
                -122.38553307328176,
                47.661758329237045
            ],
            [
                -122.38550745517107,
                47.66174715579747
            ],
            [
                -122.38549505980845,
                47.66177097022117
            ],
            [
                -122.38549505180688,
                47.66176952660574
            ],
            [
                -122.3855092012994,
                47.66176484778434
            ],
            [
                -122.38551286073627,
                47.66177147340062
            ],
            [
                -122.38551980930175,
                47.66176500504571
            ],
            [
                -122.38550039422373,
                47.66177570588244
            ],
            [
                -122.38550866937699,
                47.66175969749919
            ],
            [
                -122.38550586108494,
                47.6617939009209
            ],
            [
                -122.38554368647223,
                47.66176414801127
            ],
            [
                -122.38550094624253,
                47.66176141460207
            ],
            [
                -122.38553368897122,
                47.66175409019628
            ],
            [
                -122.3855346248343,
                47.661762495232665
            ],
            [
                -122.38549833860866,
                47.661768698772356
            ],
            [
                -122.38551035999784,
                47.661769678353224
            ],
            [
                -122.38550943718452,
                47.66176264917862
            ],
            [
                -122.38551102164689,
                47.6617613404822
            ],
            [
                -122.3855198121405,
                47.66175957115338
            ],
            [
                -122.38550043993247,
                47.66177039494084
            ],
            [
                -122.38549991529439,
                47.66176976183447
            ],
            [
                -122.38551011065435,
                47.66176990906156
            ],
            [
                -122.38550998877183,
                47.66179099747286
            ],
            [
                -122.38551336302416,
                47.66174689151549
            ],
            [
                -122.38551956824074,
                47.66178929445838
            ],
            [
                -122.3855013549836,
                47.66175916863882
            ],
            [
                -122.38550225543072,
                47.66176650894457
            ],
            [
                -122.38555041271864,
                47.661778992545486
            ],
            [
                -122.3855202314694,
                47.661768824801875
            ],
            [
                -122.38552941803071,
                47.66174360832246
            ],
            [
                -122.3855186471176,
                47.66176427533654
            ],
            [
                -122.38551933818911,
                47.661754973917446
            ],
            [
                -122.38551105570768,
                47.66178090651594
            ],
            [
                -122.38548701798271,
                47.661775043717185
            ],
            [
                -122.38550413317856,
                47.66177007544872
            ],
            [
                -122.38551304463822,
                47.66179041901861
            ],
            [
                -122.38549975599032,
                47.66174371411857
            ],
            [
                -122.38549649311666,
                47.6617812246151
            ],
            [
                -122.3855004384335,
                47.661779605961506
            ],
            [
                -122.38549867868753,
                47.66176570427616
            ],
            [
                -122.38549403532352,
                47.66176371643769
            ],
            [
                -122.38553234764542,
                47.6617091210212
            ],
            [
                -122.38552779942839,
                47.66175970161578
            ],
            [
                -122.3855055220268,
                47.66176421277704
            ],
            [
                -122.38551019989774,
                47.66176818876891
            ],
            [
                -122.38551407160213,
                47.66176139821188
            ],
            [
                -122.38552152802328,
                47.66176707618382
            ],
            [
                -122.38551772045793,
                47.661777888973134
            ],
            [
                -122.38550814701875,
                47.66178428226069
            ],
            [
                -122.38551258181639,
                47.66175881300243
            ],
            [
                -122.38551532354799,
                47.66177000558672
            ],
            [
                -122.38551024242473,
                47.66174861178998
            ],
            [
                -122.38550553644235,
                47.66176964986894
            ],
            [
                -122.38551199125097,
                47.66177012514461
            ],
            [
                -122.38552749598229,
                47.66176976853909
            ],
            [
                -122.38550069314103,
                47.66178280294132
            ],
            [
                -122.38553055506571,
                47.66177291832909
            ],
            [
                -122.38550459293282,
                47.66175228922255
            ],
            [
                -122.38550958623765,
                47.66173992311752
            ],
            [
                -122.38551061728775,
                47.661779610216506
            ],
            [
                -122.3855100529967,
                47.661759942625245
            ],
            [
                -122.38551999323413,
                47.66176012897679
            ],
            [
                -122.38552606294554,
                47.66178348849031
            ],
            [
                -122.38550868566176,
                47.66175165946505
            ],
            [
                -122.38551055040111,
                47.66175951302343
            ],
            [
                -122.38548009084009,
                47.66178958396205
            ],
            [
                -122.38552147139252,
                47.66177120870771
            ],
            [
                -122.38551801870072,
                47.66176530509988
            ],
            [
                -122.38551231434496,
                47.66175690785061
            ],
            [
                -122.38549862258911,
                47.66176076468661
            ],
            [
                -122.38551181762962,
                47.66175783748862
            ],
            [
                -122.38551158919647,
                47.66175849613305
            ],
            [
                -122.38553015216206,
                47.66181671840162
            ],
            [
                -122.38548283758968,
                47.661772755652734
            ],
            [
                -122.38551808309505,
                47.66177168222668
            ],
            [
                -122.38550935614319,
                47.66175876141624
            ],
            [
                -122.3855096793414,
                47.66177491355818
            ],
            [
                -122.38551349914127,
                47.66176406084318
            ],
            [
                -122.3855188748984,
                47.66175947134565
            ],
            [
                -122.38551441207915,
                47.66175978474587
            ],
            [
                -122.38552017721587,
                47.66176948529756
            ],
            [
                -122.38550161142915,
                47.66177782881804
            ],
            [
                -122.38550830479947,
                47.661764412366765
            ],
            [
                -122.38551139229737,
                47.66177752155676
            ],
            [
                -122.38549022255125,
                47.66175956684262
            ],
            [
                -122.3854944588106,
                47.661771362532924
            ],
            [
                -122.38550291768401,
                47.66175103649918
            ],
            [
                -122.38550640656118,
                47.6617706270369
            ],
            [
                -122.38551629220414,
                47.66178855340507
            ],
            [
                -122.38550812654454,
                47.661762496964236
            ],
            [
                -122.38547892355211,
                47.66176281743726
            ],
            [
                -122.38551854799144,
                47.66176239562463
            ],
            [
                -122.3855025327802,
                47.66176902785274
            ],
            [
                -122.38550142946895,
                47.66175480859817
            ],
            [
                -122.38550733787527,
                47.66175758276661
            ],
            [
                -122.38551258705505,
                47.66175182254232
            ],
            [
                -122.38550043893756,
                47.6617695586665
            ],
            [
                -122.38550878902969,
                47.66176907933244
            ],
            [
                -122.38551036176182,
                47.66176033336684
            ],
            [
                -122.38550981284935,
                47.66175019141315
            ],
            [
                -122.38549,
                47.66175
            ]
        ]
    },
    "properties": {
        "trajectory_id": 5611,
        "object_id": 367744660,
        "label": "PLEASURE CRAFT"
    }
}