{
    "type": "Feature",
    "geometry": {
        "type": "LineString",
        "coordinates": [
            [
                -122.39121,
                47.62918
            ],
            [
                -122.39120001352913,
                47.62918000001168
            ],
            [
                -122.3912002643198,
                47.62918000348137
            ],
            [
                -122.39121976966544,
                47.629169301424454
            ],
            [
                -122.39120044389139,
                47.62915999402862
            ],
            [
                -122.39121985246295,
                47.62916986486595
            ],
            [
                -122.39120999916982,
                47.629161031283296
            ],
            [
                -122.3912208816976,
                47.62917084144087
            ],
            [
                -122.39122055869412,
                47.62915995848636
            ],
            [
                -122.39122000198608,
                47.62915999985519
            ],
            [
                -122.39121965542614,
                47.62916002618759
            ],
            [
                -122.39121921831709,
                47.62914915757596
            ],
            [
                -122.39121987405422,
                47.62915000420011
            ],
            [
                -122.39121023979946,
                47.62915183325986
            ],
            [
                -122.39121000135032,
                47.62915796656069
            ],
            [
                -122.39120999996175,
                47.6291592157512
            ],
            [
                -122.39120999015083,
                47.629180492146624
            ],
            [
                -122.39120787599674,
                47.62919242335761
            ],
            [
                -122.39122768539737,
                47.6291709983676
            ],
            [
                -122.39121957791465,
                47.62917368691354
            ],
            [
                -122.39120983650035,
                47.629175971115906
            ],
            [
                -122.39122048669698,
                47.62918087532223
            ],
            [
                -122.39120992167514,
                47.62916993973519
            ],
            [
                -122.39120999959826,
                47.6291738190929
            ],
            [
                -122.39121000033253,
                47.62916882319204
            ],
            [
                -122.391210064619,
                47.62916999417366
            ],
            [
                -122.39119919983956,
                47.629169997890735
            ],
            [
                -122.39120971327179,
                47.629169584497724
            ],
            [
                -122.39120999213239,
                47.62917655921073
            ],
            [
                -122.39120876127276,
                47.62917984137998
            ],
            [
                -122.39121025858813,
                47.62917026340658
            ],
            [
                -122.39122101262933,
                47.62916998132734
            ],
            [
                -122.391218899241,
                47.62916445315234
            ],
            [
                -122.39122406958897,
                47.62917087651825
            ],
            [
                -122.39121025505274,
                47.62918096867171
            ],
            [
                -122.39121000126892,
                47.62916915311464
            ],
            [
                -122.39121000051564,
                47.629169713241396
            ],
            [
                -122.39121009733215,
                47.629160132338896
            ],
            [
                -122.39120577421619,
                47.62917081036743
            ],
            [
                -122.39120207566238,
                47.629171055307964
            ],
            [
                -122.39121006520996,
                47.62915996950186
            ],
            [
                -122.39121007763151,
                47.629167058793236
            ],
            [
                -122.39119935667962,
                47.62916999044577
            ],
            [
                -122.39120027547169,
                47.62917049717352
            ],
            [
                -122.39121214110418,
                47.62921107447053
            ],
            [
                -122.39119186702413,
                47.62916930223003
            ],
            [
                -122.39119253125027,
                47.629162945118644
            ],
            [
                -122.39117735236226,
                47.62913031903781
            ],
            [
                -122.39120056068346,
                47.62915065528092
            ],
            [
                -122.3912000015174,
                47.62915990798189
            ],
            [
                -122.3911998013804,
                47.62916026609867
            ],
            [
                -122.3911908085931,
                47.629167687461226
            ],
            [
                -122.3911799820763,
                47.62918001057281
            ],
            [
                -122.39118000068638,
                47.62917980088908
            ],
            [
                -122.39118014082936,
                47.6291809844468
            ],
            [
                -122.3911805439337,
                47.62917953323819
            ],
            [
                -122.39117994904144,
                47.629157400246754
            ],
            [
                -122.39119142711107,
                47.629177206441284
            ],
            [
                -122.39118322898794,
                47.62920027143953
            ],
            [
                -122.39117993602173,
                47.62918109231991
            ],
            [
                -122.39119072084198,
                47.629169945904614
            ],
            [
                -122.3911896501176,
                47.62916964629577
            ],
            [
                -122.39119079455295,
                47.629170769847136
            ],
            [
                -122.39118966351373,
                47.62916117308653
            ],
            [
                -122.39119167882207,
                47.62916019602197
            ],
            [
                -122.39118022901921,
                47.62915900858041
            ],
            [
                -122.39118987087399,
                47.62917003510609
            ],
            [
                -122.39119023470049,
                47.6291700013817
            ],
            [
                -122.39119989358144,
                47.6291702228271
            ],
            [
                -122.39119998382108,
                47.62917966792877
            ],
            [
                -122.3911915393813,
                47.62917952076331
            ],
            [
                -122.39120882007278,
                47.6291603485897
            ],
            [
                -122.3912098408582,
                47.629181069685565
            ],
            [
                -122.39120979202221,
                47.629159489047936
            ],
            [
                -122.39120925178614,
                47.62919827930653
            ],
            [
                -122.39120955565564,
                47.629188727775215
            ],
            [
                -122.39120034762648,
                47.62919040578153
            ],
            [
                -122.39119971691323,
                47.629179575781535
            ],
            [
                -122.3912091176347,
                47.62918021017553
            ],
            [
                -122.39123006828532,
                47.629169998542345
            ],
            [
                -122.39121001994502,
                47.629170000007264
            ],
            [
                -122.39119996865182,
                47.629169991100596
            ],
            [
                -122.39121001601902,
                47.62916005832498
            ],
            [
                -122.39121000010877,
                47.62916000881544
            ],
            [
                -122.39121000024532,
                47.62915011579589
            ],
            [
                -122.39121006025796,
                47.629159987834925
            ],
            [
                -122.39120928356385,
                47.62915999997673
            ],
            [
                -122.39120999712964,
                47.62916001080623
            ],
            [
                -122.39121026289958,
                47.62916227857767
            ],
            [
                -122.3912002420717,
                47.629182901355826
            ],
            [
                -122.39120070530082,
                47.62919072128922
            ],
            [
                -122.39119849129129,
                47.62919018246207
            ],
            [
                -122.39120092413954,
                47.62918023794165
            ],
            [
                -122.39118909680852,
                47.62918000126019
            ],
            [
                -122.39119017088979,
                47.62918000000686
            ],
            [
                -122.39118876770695,
                47.629180000000076
            ],
            [
                -122.39119054347915,
                47.62918000000933
            ],
            [
                -122.39118195951116,
                47.62917999788489
            ],
            [
                -122.39117887216662,
                47.62917721720376
            ],
            [
                -122.39117907108434,
                47.629180683106945
            ],
            [
                -122.39118748104299,
                47.629173814736916
            ],
            [
                -122.39118993194172,
                47.62917067174073
            ],
            [
                -122.39118999838293,
                47.62916999763475
            ],
            [
                -122.39118993294791,
                47.629169999988534
            ],
            [
                -122.39120151517349,
                47.629169999998126
            ],
            [
                -122.39118195220787,
                47.629169999658586
            ],
            [
                -122.39119050027323,
                47.62916993586618
            ],
            [
                -122.39119024642099,
                47.62918077154961
            ],
            [
                -122.3911998898109,
                47.6291792795918
            ],
            [
                -122.39119925083811,
                47.62916988759383
            ],
            [
                -122.39121002187287,
                47.629160345846635
            ],
            [
                -122.39120995479735,
                47.62916866302691
            ],
            [
                -122.39122089742426,
                47.62915967564949
            ],
            [
                -122.3912201782305,
                47.62917018746611
            ],
            [
                -122.3912204376854,
                47.62917000076878
            ],
            [
                -122.39121011026879,
                47.629169999533076
            ],
            [
                -122.39120983046497,
                47.629169895487365
            ],
            [
                -122.3912099987589,
                47.62916001923162
            ],
            [
                -122.39120991584787,
                47.629159917156805
            ],
            [
                -122.3912,
                47.62916
            ]
        ]
    },
    "properties": {
        "trajectory_id": 5621,
        "object_id": 367746390,
        "label": "PLEASURE CRAFT"
    }
}