{
    "type": "Feature",
    "geometry": {
        "type": "LineString",
        "coordinates": [
            [
                -122.74415,
                48.03113
            ],
            [
                -122.74413300002574,
                48.03114063257019
            ],
            [
                -122.74413034594379,
                48.031133051710626
            ],
            [
                -122.74412686877353,
                48.03114097568675
            ],
            [
                -122.74412164422793,
                48.03114135982083
            ],
            [
                -122.74413096759521,
                48.03113098777461
            ],
            [
                -122.74412014011551,
                48.0311500950188
            ],
            [
                -122.74409990327517,
                48.03114447312107
            ],
            [
                -122.74411293805375,
                48.031130223178046
            ],
            [
                -122.74411586586518,
                48.03113817693792
            ],
            [
                -122.74412917965272,
                48.031141434319736
            ],
            [
                -122.74413932033221,
                48.03113999390732
            ],
            [
                -122.74413944743227,
                48.03115752170894
            ],
            [
                -122.74412383643414,
                48.03112991688432
            ],
            [
                -122.74415494844854,
                48.03116439145445
            ],
            [
                -122.74414306618354,
                48.031138823985714
            ],
            [
                -122.74412014212064,
                48.031149667385634
            ],
            [
                -122.74413022202064,
                48.031149918051526
            ],
            [
                -122.7441143727475,
                48.03112952541511
            ],
            [
                -122.74413003468979,
                48.03114860496194
            ],
            [
                -122.74413345049267,
                48.0311432091361
            ],
            [
                -122.7441335150224,
                48.031159595687235
            ],
            [
                -122.74414053261106,
                48.031129964919785
            ],
            [
                -122.74414257282713,
                48.03114787966303
            ],
            [
                -122.74412200316468,
                48.031144444389
            ],
            [
                -122.74409593695503,
                48.03115450225523
            ],
            [
                -122.74413901897685,
                48.03114624499019
            ],
            [
                -122.74411986408803,
                48.0311398639364
            ],
            [
                -122.74412580760607,
                48.03112893262707
            ],
            [
                -122.74415064408475,
                48.03115527340857
            ],
            [
                -122.74412866426471,
                48.03115274548387
            ],
            [
                -122.74414793785449,
                48.031141249874175
            ],
            [
                -122.74411780254968,
                48.03115056856756
            ],
            [
                -122.74410850062885,
                48.03116166030285
            ],
            [
                -122.74412894227159,
                48.03113905775498
            ],
            [
                -122.74411496136392,
                48.03113781259299
            ],
            [
                -122.74412003794698,
                48.031132647353964
            ],
            [
                -122.74413180218455,
                48.031138920743295
            ],
            [
                -122.7441201021188,
                48.03113978226049
            ],
            [
                -122.74410106060265,
                48.03115058762372
            ],
            [
                -122.74410803213433,
                48.03114753530787
            ],
            [
                -122.74410848710704,
                48.03114029386897
            ],
            [
                -122.74410796374892,
                48.03113185445008
            ],
            [
                -122.74412095967041,
                48.03112913943546
            ],
            [
                -122.74412211432877,
                48.03114289086708
            ],
            [
                -122.74410909195066,
                48.031150301753485
            ],
            [
                -122.74408977523085,
                48.03115444022011
            ],
            [
                -122.74411530818034,
                48.03113619389067
            ],
            [
                -122.74410914238472,
                48.03113916460013
            ],
            [
                -122.7441490093959,
                48.03112900100609
            ],
            [
                -122.74410336277663,
                48.03114621947061
            ],
            [
                -122.74413150671494,
                48.0311412761516
            ],
            [
                -122.74413256282234,
                48.03115768151728
            ],
            [
                -122.74412080336285,
                48.03116124155912
            ],
            [
                -122.74413977545211,
                48.03115014020228
            ],
            [
                -122.74413995146027,
                48.03113930840833
            ],
            [
                -122.74412280253755,
                48.03113901295064
            ],
            [
                -122.74411727910562,
                48.031139251037175
            ],
            [
                -122.74412779536506,
                48.031144257574965
            ],
            [
                -122.74413109699276,
                48.03114035899563
            ],
            [
                -122.74414069039308,
                48.03114919846126
            ],
            [
                -122.74414445465261,
                48.03117269948022
            ],
            [
                -122.74412235754859,
                48.03114109940327
            ],
            [
                -122.74412844187042,
                48.031135119274396
            ],
            [
                -122.74411928462973,
                48.03113823833096
            ],
            [
                -122.74411989740442,
                48.03112994913525
            ],
            [
                -122.7441104426356,
                48.031178100271845
            ],
            [
                -122.74412296080608,
                48.03114693389422
            ],
            [
                -122.74411765646603,
                48.031144271497254
            ],
            [
                -122.74413615657451,
                48.03114030095867
            ],
            [
                -122.74411992966799,
                48.03115012964061
            ],
            [
                -122.74411807436856,
                48.03116129088619
            ],
            [
                -122.74411954988713,
                48.03113088078569
            ],
            [
                -122.74409775465213,
                48.031136888031725
            ],
            [
                -122.74411448804186,
                48.03113980908007
            ],
            [
                -122.74412812840721,
                48.03113884073094
            ],
            [
                -122.74412972224523,
                48.031140006993546
            ],
            [
                -122.74413015487677,
                48.0311488733513
            ],
            [
                -122.74412317568078,
                48.03114658133471
            ],
            [
                -122.74414703009438,
                48.031147918430435
            ],
            [
                -122.74413364129349,
                48.03112915284586
            ],
            [
                -122.74411002271476,
                48.03113995079537
            ],
            [
                -122.74412959901092,
                48.03113814862829
            ],
            [
                -122.74413107163751,
                48.03114752485581
            ],
            [
                -122.74410740066405,
                48.03115615184681
            ],
            [
                -122.7441125625904,
                48.031147211203894
            ],
            [
                -122.7441206353161,
                48.03114851056129
            ],
            [
                -122.74411964503193,
                48.03116051630138
            ],
            [
                -122.74413978160044,
                48.03115759588932
            ],
            [
                -122.74411198915178,
                48.03114739661018
            ],
            [
                -122.74411550172731,
                48.03115280512074
            ],
            [
                -122.7441117700478,
                48.03113723537945
            ],
            [
                -122.74412172263224,
                48.03117012929059
            ],
            [
                -122.74413328011319,
                48.03114151879611
            ],
            [
                -122.74412568814384,
                48.031136522090954
            ],
            [
                -122.74412502952104,
                48.03115254933634
            ],
            [
                -122.74410263051978,
                48.03113691721008
            ],
            [
                -122.74413031121068,
                48.03113966787238
            ],
            [
                -122.74414236634306,
                48.031140530413886
            ],
            [
                -122.74408932236038,
                48.031157119874635
            ],
            [
                -122.74411850858564,
                48.03115637756863
            ],
            [
                -122.74415059015037,
                48.03116523612392
            ],
            [
                -122.7441311776364,
                48.03114046704276
            ],
            [
                -122.74413052998432,
                48.031130654042016
            ],
            [
                -122.74410908479736,
                48.03114046128373
            ],
            [
                -122.74411906359333,
                48.03114164347349
            ],
            [
                -122.74411653156073,
                48.03113025479381
            ],
            [
                -122.74411639414889,
                48.031131608076635
            ],
            [
                -122.7441192353646,
                48.03111984320721
            ],
            [
                -122.7441471199516,
                48.03114225327087
            ],
            [
                -122.744129039153,
                48.031142010433
            ],
            [
                -122.74413183041611,
                48.03113894252253
            ],
            [
                -122.74411321306566,
                48.03115935985926
            ],
            [
                -122.74408141249383,
                48.031142328552555
            ],
            [
                -122.74412966647614,
                48.03114018242529
            ],
            [
                -122.74410898677182,
                48.03116346799992
            ],
            [
                -122.74413425074874,
                48.03112893620911
            ],
            [
                -122.74412783027002,
                48.03113022446257
            ],
            [
                -122.74412020672428,
                48.03112546983262
            ],
            [
                -122.74411,
                48.03114
            ]
        ]
    },
    "properties": {
        "trajectory_id": 5675,
        "object_id": 367770070,
        "label": "PLEASURE CRAFT"
    }
}