{
    "type": "Feature",
    "geometry": {
        "type": "LineString",
        "coordinates": [
            [
                -122.77918,
                48.10711
            ],
            [
                -122.77915705825636,
                48.10710157770933
            ],
            [
                -122.77915133287044,
                48.107069534445095
            ],
            [
                -122.77915830619153,
                48.10703638697748
            ],
            [
                -122.77913016962914,
                48.107069847433785
            ],
            [
                -122.77913750189386,
                48.10708885505758
            ],
            [
                -122.77911525423298,
                48.107114863786705
            ],
            [
                -122.77916598890117,
                48.10709087540238
            ],
            [
                -122.77918023662502,
                48.10710759293811
            ],
            [
                -122.77911091736645,
                48.10707057856322
            ],
            [
                -122.77912735161996,
                48.10708827243994
            ],
            [
                -122.77911999081351,
                48.10712036755513
            ],
            [
                -122.77913632276801,
                48.10712680737135
            ],
            [
                -122.77912188329876,
                48.10709491091107
            ],
            [
                -122.77912259554208,
                48.107100031682194
            ],
            [
                -122.77916052366452,
                48.10709043310706
            ],
            [
                -122.7791515753766,
                48.10707961734551
            ],
            [
                -122.77917142090749,
                48.10706776337392
            ],
            [
                -122.77918731571279,
                48.107066437721386
            ],
            [
                -122.77917785560885,
                48.107080769221746
            ],
            [
                -122.77916709374189,
                48.10707090933394
            ],
            [
                -122.77915342474726,
                48.107096704509146
            ],
            [
                -122.77917750041775,
                48.10709060732304
            ],
            [
                -122.7791424605557,
                48.10708743458297
            ],
            [
                -122.77914514881371,
                48.107086525714294
            ],
            [
                -122.77915939175993,
                48.10710116504122
            ],
            [
                -122.77915943802691,
                48.10709992422961
            ],
            [
                -122.77915996587268,
                48.10709000699875
            ],
            [
                -122.7791504122167,
                48.10708992891169
            ],
            [
                -122.77918070003562,
                48.10709514084565
            ],
            [
                -122.77915948576769,
                48.10710397002782
            ],
            [
                -122.77911326299552,
                48.107081965846184
            ],
            [
                -122.77913141782729,
                48.1071055209854
            ],
            [
                -122.77912802052262,
                48.107067924002294
            ],
            [
                -122.77915153137984,
                48.1070806040419
            ],
            [
                -122.77915352238222,
                48.10709491483798
            ],
            [
                -122.77913069316573,
                48.10706716229176
            ],
            [
                -122.77913988475744,
                48.10709703100198
            ],
            [
                -122.77909755051971,
                48.10707959353938
            ],
            [
                -122.7791195411339,
                48.10706976105375
            ],
            [
                -122.77911990794776,
                48.10707994661727
            ],
            [
                -122.7791187435741,
                48.107088033711705
            ],
            [
                -122.77915695838786,
                48.10711158805029
            ],
            [
                -122.77913472918956,
                48.10711257211709
            ],
            [
                -122.77910721810184,
                48.10709148212549
            ],
            [
                -122.77910721808625,
                48.10711012607266
            ],
            [
                -122.77913007034381,
                48.10710007693245
            ],
            [
                -122.77912356418472,
                48.10709286027511
            ],
            [
                -122.77907631299307,
                48.10708769122652
            ],
            [
                -122.77908840702838,
                48.10708244033596
            ],
            [
                -122.77910006917811,
                48.10710617742854
            ],
            [
                -122.77911994631111,
                48.10707995437427
            ],
            [
                -122.77913948369626,
                48.107057455004764
            ],
            [
                -122.77913478931517,
                48.10707884101789
            ],
            [
                -122.77913873649703,
                48.10710281256237
            ],
            [
                -122.77915858339807,
                48.10708153581265
            ],
            [
                -122.77916497666031,
                48.10712570256088
            ],
            [
                -122.77912130001258,
                48.107155541796615
            ],
            [
                -122.77909957565227,
                48.10715141674562
            ],
            [
                -122.77917093901046,
                48.10709945909027
            ],
            [
                -122.77916304558485,
                48.10706469087725
            ],
            [
                -122.77917039201824,
                48.107040385388906
            ],
            [
                -122.77916256041789,
                48.10706665771005
            ],
            [
                -122.77915090238226,
                48.10703348274055
            ],
            [
                -122.77915241972758,
                48.10707139100566
            ],
            [
                -122.77913013624705,
                48.107091422577966
            ],
            [
                -122.77915707634283,
                48.10707545009468
            ],
            [
                -122.77916577438944,
                48.107082607923665
            ],
            [
                -122.7791614282421,
                48.107090705733285
            ],
            [
                -122.77915204434886,
                48.107079767911145
            ],
            [
                -122.77916202726153,
                48.1070901178232
            ],
            [
                -122.77918025626339,
                48.107103887668664
            ],
            [
                -122.77915072445163,
                48.10710453043216
            ],
            [
                -122.77913117604689,
                48.10705097485372
            ],
            [
                -122.77919048565721,
                48.10707758649605
            ],
            [
                -122.77918699405862,
                48.10713297589882
            ],
            [
                -122.77913019789406,
                48.107079667144134
            ],
            [
                -122.7791796124709,
                48.10708033798608
            ],
            [
                -122.77910982099012,
                48.107111009768985
            ],
            [
                -122.77912937752644,
                48.10710562123837
            ],
            [
                -122.77912350615883,
                48.1071070246455
            ],
            [
                -122.77916819559113,
                48.10711473987091
            ],
            [
                -122.77913009539381,
                48.10708897931172
            ],
            [
                -122.77912050418814,
                48.10707642281013
            ],
            [
                -122.77912586772926,
                48.107074664169126
            ],
            [
                -122.7791342047265,
                48.107069264498946
            ],
            [
                -122.77914530758503,
                48.10708531976048
            ],
            [
                -122.77917897653224,
                48.10708144636799
            ],
            [
                -122.77917472856818,
                48.107099568755615
            ],
            [
                -122.77915866037382,
                48.10710094463438
            ],
            [
                -122.77913813448785,
                48.107128048654026
            ],
            [
                -122.77910209853387,
                48.107110155527835
            ],
            [
                -122.77912234795211,
                48.1070910996449
            ],
            [
                -122.77916455028709,
                48.107103310552795
            ],
            [
                -122.77915670337475,
                48.107123511275816
            ],
            [
                -122.77911027084022,
                48.10711495544871
            ],
            [
                -122.77913034866538,
                48.10711985445904
            ],
            [
                -122.779166377854,
                48.10710444475523
            ],
            [
                -122.77914025026489,
                48.107110386704925
            ],
            [
                -122.77913818626415,
                48.10710354128854
            ],
            [
                -122.77914207207485,
                48.10707924382881
            ],
            [
                -122.77915995539135,
                48.10706997505471
            ],
            [
                -122.77915043462947,
                48.107070936395544
            ],
            [
                -122.77917044790523,
                48.10709034087684
            ],
            [
                -122.77919085164572,
                48.107089806110416
            ],
            [
                -122.77921318806649,
                48.107075292535676
            ],
            [
                -122.77916112495735,
                48.10706139237592
            ],
            [
                -122.77917964717581,
                48.10706082815111
            ],
            [
                -122.77917003940422,
                48.10708000965735
            ],
            [
                -122.7791706790192,
                48.10706762849391
            ],
            [
                -122.77918713045354,
                48.10705713367444
            ],
            [
                -122.77917233498765,
                48.10708831465226
            ],
            [
                -122.77911563302675,
                48.10711508390318
            ],
            [
                -122.77914008061094,
                48.10711998016602
            ],
            [
                -122.77912966112044,
                48.10710079668857
            ],
            [
                -122.77913456533527,
                48.10710067433264
            ],
            [
                -122.77917957625729,
                48.10710035048735
            ],
            [
                -122.7791425372471,
                48.10708096147001
            ],
            [
                -122.77915497825707,
                48.10709903965019
            ],
            [
                -122.77911,
                48.10705
            ]
        ]
    },
    "properties": {
        "trajectory_id": 5744,
        "object_id": 367778530,
        "label": "FISHING"
    }
}