{
    "type": "Feature",
    "geometry": {
        "type": "LineString",
        "coordinates": [
            [
                -122.33047,
                47.6333
            ],
            [
                -122.330490507656,
                47.633249310963265
            ],
            [
                -122.33047056200868,
                47.63323097915597
            ],
            [
                -122.33038227898204,
                47.63327295666953
            ],
            [
                -122.33045663329825,
                47.6332581505788
            ],
            [
                -122.3304436408419,
                47.63326851014516
            ],
            [
                -122.33042301041739,
                47.63326589742922
            ],
            [
                -122.32952735541994,
                47.63353776978774
            ],
            [
                -122.33047923275304,
                47.63328900744533
            ],
            [
                -122.33048923936408,
                47.63326678916061
            ],
            [
                -122.33044685152687,
                47.633279123331555
            ],
            [
                -122.33046245557355,
                47.63328473049698
            ],
            [
                -122.3304552384665,
                47.633297976256486
            ],
            [
                -122.33046832283353,
                47.63327401198943
            ],
            [
                -122.33045650520747,
                47.633273223547285
            ],
            [
                -122.33043080178908,
                47.63326706523025
            ],
            [
                -122.33043130977012,
                47.633302406996556
            ],
            [
                -122.33041712948037,
                47.63331406434398
            ],
            [
                -122.33043943624472,
                47.633303276840174
            ],
            [
                -122.33050002363245,
                47.633279938327625
            ],
            [
                -122.33046647669563,
                47.633273561995914
            ],
            [
                -122.33045243893473,
                47.633262892854724
            ],
            [
                -122.33043799281106,
                47.63328757700403
            ],
            [
                -122.33042298931305,
                47.633281851952034
            ],
            [
                -122.33044891081674,
                47.63327356923373
            ],
            [
                -122.33046226303081,
                47.63326925711289
            ],
            [
                -122.33045367331356,
                47.63329873442149
            ],
            [
                -122.3304275496286,
                47.63328653713131
            ],
            [
                -122.33052527103979,
                47.63328842867995
            ],
            [
                -122.33038344839642,
                47.63327819901123
            ],
            [
                -122.33048131187901,
                47.63329745585223
            ],
            [
                -122.3304853948398,
                47.63328357350113
            ],
            [
                -122.3304437940258,
                47.63329847291969
            ],
            [
                -122.33042748207863,
                47.63327294068904
            ],
            [
                -122.33040343647262,
                47.63325642657646
            ],
            [
                -122.33044334181157,
                47.63329448594921
            ],
            [
                -122.33044860107188,
                47.63326986260611
            ],
            [
                -122.33043138126399,
                47.633279093514076
            ],
            [
                -122.33043983915275,
                47.6332694670146
            ],
            [
                -122.33051908808648,
                47.63338854011195
            ],
            [
                -122.33045011109375,
                47.63328978809656
            ],
            [
                -122.3304401922556,
                47.63327018071512
            ],
            [
                -122.33043117308146,
                47.63327095571418
            ],
            [
                -122.3303996558564,
                47.63319000911039
            ],
            [
                -122.33044444245108,
                47.63329410846557
            ],
            [
                -122.33042991831472,
                47.63329330462619
            ],
            [
                -122.33047335916154,
                47.6333015195104
            ],
            [
                -122.33044553873559,
                47.63330751380372
            ],
            [
                -122.33029244129698,
                47.63332921343654
            ],
            [
                -122.3304402291155,
                47.63329905679525
            ],
            [
                -122.33047227383256,
                47.633291002966004
            ],
            [
                -122.33043462645517,
                47.63329898391313
            ],
            [
                -122.33046059895156,
                47.63330930982696
            ],
            [
                -122.33045426235381,
                47.633264426497135
            ],
            [
                -122.33045901762726,
                47.633273266352866
            ],
            [
                -122.33047929874596,
                47.63328330251167
            ],
            [
                -122.33045823141092,
                47.63328992058316
            ],
            [
                -122.33043848757637,
                47.633257588773354
            ],
            [
                -122.33044739609859,
                47.633322471006245
            ],
            [
                -122.33044634426683,
                47.63327397527095
            ],
            [
                -122.33041897696337,
                47.63324408700162
            ],
            [
                -122.33042755623552,
                47.63326590371691
            ],
            [
                -122.33047132656328,
                47.633292741957376
            ],
            [
                -122.33040489871553,
                47.63326497917513
            ],
            [
                -122.33046279054929,
                47.633253455775964
            ],
            [
                -122.33043723978476,
                47.6332733418688
            ],
            [
                -122.3304470438445,
                47.63331150156517
            ],
            [
                -122.33044223786847,
                47.633252474707504
            ],
            [
                -122.33041744512254,
                47.63325118122084
            ],
            [
                -122.3304223704509,
                47.63327361741056
            ],
            [
                -122.33044704095317,
                47.63328759483618
            ],
            [
                -122.33060706536503,
                47.63339296751166
            ],
            [
                -122.33046506736292,
                47.63328873338343
            ],
            [
                -122.33048377492442,
                47.63330676828205
            ],
            [
                -122.33041233790581,
                47.63326588801146
            ],
            [
                -122.33044839084725,
                47.63328789494443
            ],
            [
                -122.33047166703157,
                47.633331054387604
            ],
            [
                -122.33045137241946,
                47.63330950537693
            ],
            [
                -122.33046048459616,
                47.63329017595972
            ],
            [
                -122.33041994416655,
                47.6333199277036
            ],
            [
                -122.33042986664827,
                47.63342070084726
            ],
            [
                -122.33047946384167,
                47.63327903024119
            ],
            [
                -122.33047919833892,
                47.63327938941751
            ],
            [
                -122.33046164448537,
                47.63326751457266
            ],
            [
                -122.33043902241165,
                47.633298684868976
            ],
            [
                -122.33043005376432,
                47.633300007367545
            ],
            [
                -122.33044891890273,
                47.633281580596545
            ],
            [
                -122.33042402678004,
                47.63331741032605
            ],
            [
                -122.33046245901996,
                47.63329311629689
            ],
            [
                -122.33045657868544,
                47.63328572362443
            ],
            [
                -122.3304669990248,
                47.63334390145994
            ],
            [
                -122.33049070290242,
                47.63332348221711
            ],
            [
                -122.33043401790212,
                47.63329271151283
            ],
            [
                -122.33049398409983,
                47.63328390302699
            ],
            [
                -122.33046865709642,
                47.63336097857368
            ],
            [
                -122.33046514764332,
                47.63327114813138
            ],
            [
                -122.33044087503161,
                47.63330067469812
            ],
            [
                -122.33044453919979,
                47.633349201871795
            ],
            [
                -122.33045102467626,
                47.6332720524059
            ],
            [
                -122.3304428959072,
                47.63327345206341
            ],
            [
                -122.33043419259225,
                47.6332871618537
            ],
            [
                -122.33041293829045,
                47.63325389803539
            ],
            [
                -122.33043509030337,
                47.63325289953274
            ],
            [
                -122.33041329648377,
                47.63326974680572
            ],
            [
                -122.33046480656847,
                47.63327822219583
            ],
            [
                -122.33047457195566,
                47.633297233600004
            ],
            [
                -122.33043135663189,
                47.63327800323203
            ],
            [
                -122.33044371121055,
                47.633282227943496
            ],
            [
                -122.33043657347338,
                47.6332569438228
            ],
            [
                -122.3304473347243,
                47.63328381486816
            ],
            [
                -122.33045972340108,
                47.63328724139345
            ],
            [
                -122.33046816884924,
                47.633260722431885
            ],
            [
                -122.33048318837737,
                47.63331038789036
            ],
            [
                -122.33047814774972,
                47.63324919834239
            ],
            [
                -122.3304708832141,
                47.6332841855967
            ],
            [
                -122.33044796367119,
                47.63327860224613
            ],
            [
                -122.33050096447393,
                47.63328000978581
            ],
            [
                -122.33046134336287,
                47.63327082493694
            ],
            [
                -122.33044935775622,
                47.63327940692763
            ],
            [
                -122.33045,
                47.63329
            ]
        ]
    },
    "properties": {
        "trajectory_id": 5771,
        "object_id": 367782830,
        "label": "TOWING"
    }
}