{
    "type": "Feature",
    "geometry": {
        "type": "LineString",
        "coordinates": [
            [
                -122.39574,
                47.63017
            ],
            [
                -122.39573026147247,
                47.63016024837043
            ],
            [
                -122.39574952028933,
                47.63014968967062
            ],
            [
                -122.39575956372265,
                47.63016224226049
            ],
            [
                -122.39573097553114,
                47.63016820778699
            ],
            [
                -122.39575890549017,
                47.630160493419055
            ],
            [
                -122.39573788306953,
                47.630150506042156
            ],
            [
                -122.39575157666006,
                47.63014917197966
            ],
            [
                -122.3957412407561,
                47.63015479861696
            ],
            [
                -122.3957396191061,
                47.63015272953004
            ],
            [
                -122.39574231819516,
                47.63016774026226
            ],
            [
                -122.39574997415521,
                47.63016008498062
            ],
            [
                -122.39575006824222,
                47.630148844268106
            ],
            [
                -122.39574005389701,
                47.63015118374135
            ],
            [
                -122.39574451514353,
                47.63015555270957
            ],
            [
                -122.39575806027894,
                47.6301627397606
            ],
            [
                -122.39574634254791,
                47.630163369333246
            ],
            [
                -122.39576092640546,
                47.63015511476949
            ],
            [
                -122.39575433813904,
                47.63016334882204
            ],
            [
                -122.39574524314881,
                47.630156819171546
            ],
            [
                -122.39575110098434,
                47.630148351163776
            ],
            [
                -122.39574850345844,
                47.63015381184163
            ],
            [
                -122.3957507308903,
                47.63016155984869
            ],
            [
                -122.39575097112228,
                47.630158415242235
            ],
            [
                -122.39574952949603,
                47.63014887349186
            ],
            [
                -122.39574080284868,
                47.63016046558869
            ],
            [
                -122.3957447313056,
                47.63015259701923
            ],
            [
                -122.39575958282128,
                47.63015118615465
            ],
            [
                -122.39575125890957,
                47.63015728774904
            ],
            [
                -122.39574002592117,
                47.63014004878055
            ],
            [
                -122.39575010507855,
                47.63015013760195
            ],
            [
                -122.39574020517925,
                47.63017036066599
            ],
            [
                -122.39574980587712,
                47.63015799314545
            ],
            [
                -122.39575921616141,
                47.630171087962246
            ],
            [
                -122.39575141014653,
                47.63016122380288
            ],
            [
                -122.39574233599323,
                47.63015563218652
            ],
            [
                -122.39574442383443,
                47.630153044609266
            ],
            [
                -122.39574678298405,
                47.63016080623849
            ],
            [
                -122.39574134945792,
                47.630171546294235
            ],
            [
                -122.3957644355627,
                47.63015635037775
            ],
            [
                -122.39575911409693,
                47.63016250668763
            ],
            [
                -122.39575630498017,
                47.630149598707845
            ],
            [
                -122.39573638821767,
                47.630156937776036
            ],
            [
                -122.3957451570245,
                47.63015179399221
            ],
            [
                -122.39574605938155,
                47.63015206432283
            ],
            [
                -122.39573906926861,
                47.63017144470188
            ],
            [
                -122.3957398619759,
                47.63014973712976
            ],
            [
                -122.3957361008318,
                47.63014530395385
            ],
            [
                -122.39573793268728,
                47.63015073421144
            ],
            [
                -122.39573759965369,
                47.63014942796455
            ],
            [
                -122.39574213909587,
                47.63014788857055
            ],
            [
                -122.39575175574006,
                47.63015512339287
            ],
            [
                -122.39573285539235,
                47.63015806053725
            ],
            [
                -122.39572913048144,
                47.63016146575382
            ],
            [
                -122.39574125134087,
                47.63016008928844
            ],
            [
                -122.39574926207894,
                47.63017190899806
            ],
            [
                -122.3957502958604,
                47.63015968563315
            ],
            [
                -122.3957501948704,
                47.63016032380151
            ],
            [
                -122.39575021499938,
                47.63013982984958
            ],
            [
                -122.39575015153487,
                47.6301600383072
            ],
            [
                -122.39575017645586,
                47.63015999723014
            ],
            [
                -122.39573966311335,
                47.6301497662617
            ],
            [
                -122.39575268138967,
                47.63016827101425
            ],
            [
                -122.39573898903893,
                47.63014759742545
            ],
            [
                -122.39575906295369,
                47.630141533539025
            ],
            [
                -122.39574869800354,
                47.630161285555545
            ],
            [
                -122.39574019677349,
                47.630170615422095
            ],
            [
                -122.39574088115438,
                47.63016632243338
            ],
            [
                -122.39574029898385,
                47.6301428361598
            ],
            [
                -122.39576465767861,
                47.630156247034556
            ],
            [
                -122.39575197527887,
                47.630147931315186
            ],
            [
                -122.3957485279127,
                47.63015824237692
            ],
            [
                -122.39574379263364,
                47.630156025001426
            ],
            [
                -122.39575131199756,
                47.63016095048308
            ],
            [
                -122.39575607368185,
                47.63018017292796
            ],
            [
                -122.39574430630036,
                47.630141995076016
            ],
            [
                -122.39574084343371,
                47.63014362396577
            ],
            [
                -122.39573740265743,
                47.63016988262301
            ],
            [
                -122.39574512822588,
                47.63015910476405
            ],
            [
                -122.39575425370863,
                47.63017099644279
            ],
            [
                -122.3957510393098,
                47.63014659172664
            ],
            [
                -122.39575682627837,
                47.63015620283997
            ],
            [
                -122.39575778821562,
                47.63015886148438
            ],
            [
                -122.39574910139314,
                47.63015982349919
            ],
            [
                -122.39574589209454,
                47.63015106952443
            ],
            [
                -122.39574094413099,
                47.63014945478382
            ],
            [
                -122.39575008406413,
                47.63015957842255
            ],
            [
                -122.395750439267,
                47.63015061224718
            ],
            [
                -122.3957502392172,
                47.63015014148321
            ],
            [
                -122.3957499747261,
                47.630150057194506
            ],
            [
                -122.39574037340209,
                47.630149975605555
            ],
            [
                -122.39573002596582,
                47.630149398571334
            ],
            [
                -122.39574018166236,
                47.63016026565125
            ],
            [
                -122.3957487830072,
                47.63016040691845
            ],
            [
                -122.3957502145576,
                47.63015912987839
            ],
            [
                -122.3957385820647,
                47.63014932436047
            ],
            [
                -122.39573304449293,
                47.630154864610745
            ],
            [
                -122.39574363943177,
                47.630172047491904
            ],
            [
                -122.39573616555947,
                47.63016632740886
            ],
            [
                -122.39575745748601,
                47.63013720983823
            ],
            [
                -122.39574974326527,
                47.630148152073176
            ],
            [
                -122.39573720350435,
                47.63014991227427
            ],
            [
                -122.39575596146139,
                47.63014896061855
            ],
            [
                -122.3957520124392,
                47.63014447837821
            ],
            [
                -122.39573906749342,
                47.63015648113736
            ],
            [
                -122.39573891469665,
                47.630150378785636
            ],
            [
                -122.39575090914649,
                47.63014743174796
            ],
            [
                -122.3957490102728,
                47.630162906695375
            ],
            [
                -122.39575202696733,
                47.63015649569694
            ],
            [
                -122.39574945397085,
                47.63014754087228
            ],
            [
                -122.39576266336027,
                47.63014228997776
            ],
            [
                -122.39574108277202,
                47.630150317298146
            ],
            [
                -122.39574228030878,
                47.63014821899524
            ],
            [
                -122.39574978374138,
                47.63014993529946
            ],
            [
                -122.39575004408265,
                47.63014946352722
            ],
            [
                -122.39578044643383,
                47.63015977651808
            ],
            [
                -122.39573993395857,
                47.63014988285256
            ],
            [
                -122.39573943224359,
                47.630160362030054
            ],
            [
                -122.39575018707994,
                47.63015983747371
            ],
            [
                -122.39575,
                47.63017
            ]
        ]
    },
    "properties": {
        "trajectory_id": 5802,
        "object_id": 367789830,
        "label": "PLEASURE CRAFT"
    }
}