{
    "type": "Feature",
    "geometry": {
        "type": "LineString",
        "coordinates": [
            [
                -122.2224,
                48.00314
            ],
            [
                -122.22238378946065,
                48.003152404854944
            ],
            [
                -122.22240119781654,
                48.00317901492346
            ],
            [
                -122.22238919602417,
                48.00314038539651
            ],
            [
                -122.22241094901563,
                48.003130227577834
            ],
            [
                -122.22241009516291,
                48.00315004560736
            ],
            [
                -122.22239005273647,
                48.003159951033496
            ],
            [
                -122.22240975672462,
                48.00315975455274
            ],
            [
                -122.22241021114863,
                48.0031501562864
            ],
            [
                -122.2224091866837,
                48.003150925797044
            ],
            [
                -122.22241964157337,
                48.00313877874418
            ],
            [
                -122.22241235535188,
                48.003159079991185
            ],
            [
                -122.22240786294769,
                48.00316003799964
            ],
            [
                -122.22239096316373,
                48.003140274004885
            ],
            [
                -122.22240923509261,
                48.00313190489484
            ],
            [
                -122.22242996613667,
                48.003130562653254
            ],
            [
                -122.22242857165891,
                48.00312276382488
            ],
            [
                -122.22241891183188,
                48.00314642002998
            ],
            [
                -122.22239046072458,
                48.0031511819381
            ],
            [
                -122.22241924650194,
                48.003158494235365
            ],
            [
                -122.22239101025964,
                48.00315080848039
            ],
            [
                -122.22239191244164,
                48.00315521273796
            ],
            [
                -122.22238355494767,
                48.00314297268929
            ],
            [
                -122.22240772236935,
                48.003148322337466
            ],
            [
                -122.22240051124368,
                48.00314014189581
            ],
            [
                -122.22240407405084,
                48.0031556563038
            ],
            [
                -122.22239588601201,
                48.00313769376881
            ],
            [
                -122.22240190179858,
                48.00315104760509
            ],
            [
                -122.22242226899434,
                48.00314613396192
            ],
            [
                -122.22239055680885,
                48.00312701716396
            ],
            [
                -122.22241145709528,
                48.00315219054345
            ],
            [
                -122.22239660489927,
                48.00315939521006
            ],
            [
                -122.22240346867842,
                48.00313905114163
            ],
            [
                -122.22239682855607,
                48.003149658095346
            ],
            [
                -122.22242084979167,
                48.00315202104687
            ],
            [
                -122.22240963847605,
                48.003141081969886
            ],
            [
                -122.2224054625165,
                48.00313373565038
            ],
            [
                -122.2223996666211,
                48.003142178107204
            ],
            [
                -122.22240074759638,
                48.00313664835612
            ],
            [
                -122.22238957938711,
                48.003140056927236
            ],
            [
                -122.22240971095108,
                48.003140873718664
            ],
            [
                -122.2224054952722,
                48.003153464989325
            ],
            [
                -122.22242531102928,
                48.00316038596658
            ],
            [
                -122.222416461213,
                48.00314563848668
            ],
            [
                -122.22240991040505,
                48.003157243808026
            ],
            [
                -122.22241988611715,
                48.00316090476562
            ],
            [
                -122.22239129118769,
                48.00314055781529
            ],
            [
                -122.22240997493974,
                48.00313096407488
            ],
            [
                -122.22242000751373,
                48.00313976086146
            ],
            [
                -122.22240881159277,
                48.00314803788697
            ],
            [
                -122.22239978157211,
                48.00315959206667
            ],
            [
                -122.22239967783997,
                48.003149420349466
            ],
            [
                -122.2224199634219,
                48.00314053664659
            ],
            [
                -122.2223897308933,
                48.003159451049804
            ],
            [
                -122.22240084025513,
                48.003139131176546
            ],
            [
                -122.22239858401747,
                48.00316120096071
            ],
            [
                -122.2224009736192,
                48.003149999642616
            ],
            [
                -122.2224097313119,
                48.00314091699234
            ],
            [
                -122.22242892831359,
                48.00313069052744
            ],
            [
                -122.222412013324,
                48.003141203276044
            ],
            [
                -122.22241968919768,
                48.00313263922134
            ],
            [
                -122.22241867844849,
                48.00314274165299
            ],
            [
                -122.22238602138954,
                48.00314262352204
            ],
            [
                -122.222412775383,
                48.00314763837162
            ],
            [
                -122.22237136365517,
                48.003159108260064
            ],
            [
                -122.22240242507701,
                48.00315383800655
            ],
            [
                -122.22240153696562,
                48.003145432718895
            ],
            [
                -122.22241337399615,
                48.00314784111693
            ],
            [
                -122.22241192868994,
                48.003155920898244
            ],
            [
                -122.22242702582707,
                48.00317573364268
            ],
            [
                -122.22239851992035,
                48.00314793341413
            ],
            [
                -122.222426722887,
                48.003162576662916
            ],
            [
                -122.222413179644,
                48.00314328141896
            ],
            [
                -122.22241157461411,
                48.00314662266628
            ],
            [
                -122.22240127429006,
                48.0031446907721
            ],
            [
                -122.22240416178683,
                48.00314368551868
            ],
            [
                -122.2224145783567,
                48.00316827011691
            ],
            [
                -122.22239437494986,
                48.003141367466746
            ],
            [
                -122.2224116700909,
                48.00314978402207
            ],
            [
                -122.2224250873316,
                48.00313136534452
            ],
            [
                -122.22240007136242,
                48.003143300998886
            ],
            [
                -122.22241094304475,
                48.00313183487496
            ],
            [
                -122.22239832930154,
                48.00314593888105
            ],
            [
                -122.22240963310465,
                48.00313983477315
            ],
            [
                -122.22240438720871,
                48.00315146225703
            ],
            [
                -122.22238409047034,
                48.003140471889694
            ],
            [
                -122.22238801075426,
                48.00314076085589
            ],
            [
                -122.22238620354062,
                48.003136362693496
            ],
            [
                -122.22241149152839,
                48.003159175178176
            ],
            [
                -122.22241222317105,
                48.003152701189805
            ],
            [
                -122.2224092654857,
                48.00314970634992
            ],
            [
                -122.22240320316267,
                48.00316459143398
            ],
            [
                -122.22241271505816,
                48.00314487450966
            ],
            [
                -122.22241000712293,
                48.00313999060949
            ],
            [
                -122.22241378244797,
                48.00313510354733
            ],
            [
                -122.2224097236452,
                48.00314638218575
            ],
            [
                -122.22237030300151,
                48.003211056072985
            ],
            [
                -122.2224188445979,
                48.00315190622304
            ],
            [
                -122.22241427748446,
                48.00311349505403
            ],
            [
                -122.22242287155629,
                48.003124518819334
            ],
            [
                -122.22241263985984,
                48.00313228509131
            ],
            [
                -122.22239057988185,
                48.003151107850385
            ],
            [
                -122.22239811243912,
                48.00315190147922
            ],
            [
                -122.22241866897527,
                48.003142791728955
            ],
            [
                -122.22242271541214,
                48.003146600738795
            ],
            [
                -122.22241126786724,
                48.00316419680808
            ],
            [
                -122.22241112454662,
                48.00314043135364
            ],
            [
                -122.22240692308397,
                48.00316408337457
            ],
            [
                -122.22239614928384,
                48.00314340845499
            ],
            [
                -122.22240056095525,
                48.003131567074234
            ],
            [
                -122.22240902500582,
                48.00314105378465
            ],
            [
                -122.22241019149526,
                48.003139990246
            ],
            [
                -122.22239168046585,
                48.00316028016788
            ],
            [
                -122.22241079967516,
                48.00314460827321
            ],
            [
                -122.22240442165042,
                48.00313186971462
            ],
            [
                -122.22240036169096,
                48.00313345012731
            ],
            [
                -122.2223992704009,
                48.00312870440211
            ],
            [
                -122.22240004511374,
                48.00313958435075
            ],
            [
                -122.22241999986629,
                48.00316000133986
            ],
            [
                -122.22241,
                48.00316
            ]
        ]
    },
    "properties": {
        "trajectory_id": 5811,
        "object_id": 367791710,
        "label": "PLEASURE CRAFT"
    }
}