{
    "type": "Feature",
    "geometry": {
        "type": "LineString",
        "coordinates": [
            [
                -122.68275,
                48.49294
            ],
            [
                -122.682760049614,
                48.49294014195551
            ],
            [
                -122.68276519087823,
                48.49293889763378
            ],
            [
                -122.68277329945462,
                48.49291334546107
            ],
            [
                -122.6827526201913,
                48.49295750272943
            ],
            [
                -122.68275766545797,
                48.49294839157674
            ],
            [
                -122.68279389931517,
                48.49298410355399
            ],
            [
                -122.6828578388713,
                48.49296084941525
            ],
            [
                -122.6828810241171,
                48.49291940421979
            ],
            [
                -122.6828776204807,
                48.492918282203355
            ],
            [
                -122.68297077680685,
                48.49297362528449
            ],
            [
                -122.68248741228972,
                48.4929642965234
            ],
            [
                -122.682808776384,
                48.49292073843562
            ],
            [
                -122.68281194881114,
                48.492921467094185
            ],
            [
                -122.68280900772352,
                48.492975917057414
            ],
            [
                -122.68281706187004,
                48.49294552241702
            ],
            [
                -122.68279896872677,
                48.49293121989869
            ],
            [
                -122.68281000927666,
                48.492914030463524
            ],
            [
                -122.68281354351,
                48.492924181250906
            ],
            [
                -122.68273951315001,
                48.49295849617565
            ],
            [
                -122.68280210617176,
                48.4929502868619
            ],
            [
                -122.68281682609714,
                48.49292345194906
            ],
            [
                -122.68285169180291,
                48.49289340619251
            ],
            [
                -122.68273867349316,
                48.49293656048721
            ],
            [
                -122.68270307784258,
                48.49290475346995
            ],
            [
                -122.68260677612848,
                48.49289645052819
            ],
            [
                -122.68282771280585,
                48.49295923562735
            ],
            [
                -122.68272311606675,
                48.492939402033834
            ],
            [
                -122.6827665581501,
                48.49294157901477
            ],
            [
                -122.68273938025837,
                48.49293138758295
            ],
            [
                -122.68275612951967,
                48.492923953862025
            ],
            [
                -122.6827458096819,
                48.492989639726034
            ],
            [
                -122.68282829824182,
                48.492962493382564
            ],
            [
                -122.68273182691672,
                48.49289767213178
            ],
            [
                -122.68279963218664,
                48.4929286876059
            ],
            [
                -122.682775512283,
                48.49295018684346
            ],
            [
                -122.68272773581798,
                48.49293862420014
            ],
            [
                -122.6827730777088,
                48.49295674826258
            ],
            [
                -122.68275913047309,
                48.49299066918109
            ],
            [
                -122.68281016757294,
                48.4929700745661
            ],
            [
                -122.68275011827104,
                48.49297974338163
            ],
            [
                -122.68261313338617,
                48.492920933445795
            ],
            [
                -122.68273042178792,
                48.492940005479085
            ],
            [
                -122.68276373832256,
                48.4929545168005
            ],
            [
                -122.6827193245834,
                48.49292091476802
            ],
            [
                -122.6828715053722,
                48.49296835643729
            ],
            [
                -122.68282707392552,
                48.49295999588144
            ],
            [
                -122.68280791828151,
                48.492956529186245
            ],
            [
                -122.6827513898187,
                48.492959387714436
            ],
            [
                -122.68275269068452,
                48.49295006042963
            ],
            [
                -122.68269377813755,
                48.49293186066573
            ],
            [
                -122.68274500164162,
                48.492883289966834
            ],
            [
                -122.68262849522172,
                48.49300105936556
            ],
            [
                -122.68269873257,
                48.492990336715636
            ],
            [
                -122.68282308549854,
                48.49301855998666
            ],
            [
                -122.68266782788018,
                48.49292733642478
            ],
            [
                -122.6825931544977,
                48.49296564665937
            ],
            [
                -122.68278615455603,
                48.49294113365676
            ],
            [
                -122.6826507670677,
                48.4929579950558
            ],
            [
                -122.6827578453705,
                48.49294822805704
            ],
            [
                -122.68287300202287,
                48.492836965788875
            ],
            [
                -122.68311234223192,
                48.492801527580895
            ],
            [
                -122.68315550219452,
                48.492899981190476
            ],
            [
                -122.68296717354053,
                48.492959985007715
            ],
            [
                -122.68278329047948,
                48.49301283562205
            ],
            [
                -122.68281157652953,
                48.49294118320467
            ],
            [
                -122.68274551763179,
                48.49293726953572
            ],
            [
                -122.6827723090329,
                48.49297109089019
            ],
            [
                -122.68273385617798,
                48.49294851011128
            ],
            [
                -122.68277186247211,
                48.492941384779954
            ],
            [
                -122.6827306895586,
                48.49297760048914
            ],
            [
                -122.68272699154846,
                48.492966312947786
            ],
            [
                -122.68276914625379,
                48.492990763396506
            ],
            [
                -122.68271551959198,
                48.49289826181395
            ],
            [
                -122.68275053204215,
                48.492940506305224
            ],
            [
                -122.68276439770887,
                48.492991128220055
            ],
            [
                -122.6827499662573,
                48.49300828050416
            ],
            [
                -122.68287145016879,
                48.492939368359444
            ],
            [
                -122.68279914213443,
                48.49297991561203
            ],
            [
                -122.68283657304794,
                48.492889065769106
            ],
            [
                -122.68276928770833,
                48.49295041399861
            ],
            [
                -122.68280346842766,
                48.49300205508671
            ],
            [
                -122.6828228155299,
                48.49292265813588
            ],
            [
                -122.68273234617514,
                48.49296375366466
            ],
            [
                -122.68277222871808,
                48.49295121506007
            ],
            [
                -122.6827296087106,
                48.49292430195036
            ],
            [
                -122.6827291462101,
                48.49293053005785
            ],
            [
                -122.68276882264485,
                48.49294901500311
            ],
            [
                -122.68272645108476,
                48.49295674891632
            ],
            [
                -122.6827682401003,
                48.49302878855641
            ],
            [
                -122.6827348050241,
                48.492974502132704
            ],
            [
                -122.68272009860831,
                48.492898999065176
            ],
            [
                -122.68278735699782,
                48.49290122567522
            ],
            [
                -122.68279174203114,
                48.49293716754025
            ],
            [
                -122.68275053870833,
                48.49298192887684
            ],
            [
                -122.68274055589305,
                48.49298359803679
            ],
            [
                -122.6828471944005,
                48.49294871587687
            ],
            [
                -122.68275340376924,
                48.49288862851944
            ],
            [
                -122.68281605419477,
                48.492989181972305
            ],
            [
                -122.68282894744773,
                48.492891612394125
            ],
            [
                -122.68279993300581,
                48.49287978778598
            ],
            [
                -122.68280536381724,
                48.49291354287813
            ],
            [
                -122.68271850325581,
                48.492840504838114
            ],
            [
                -122.68274629081975,
                48.49287466553667
            ],
            [
                -122.68280323313542,
                48.49297736663463
            ],
            [
                -122.68279999910209,
                48.49299128072037
            ],
            [
                -122.6827968053751,
                48.49297822319189
            ],
            [
                -122.68283029101175,
                48.492990079976174
            ],
            [
                -122.68280448288112,
                48.492964520703424
            ],
            [
                -122.68277175708408,
                48.49295899393165
            ],
            [
                -122.68270647813885,
                48.49295299524887
            ],
            [
                -122.68272249661159,
                48.49295566634972
            ],
            [
                -122.6828030480234,
                48.49302746735376
            ],
            [
                -122.68280632209402,
                48.49297187173355
            ],
            [
                -122.6828278111376,
                48.49299063907999
            ],
            [
                -122.68276881767235,
                48.492950174364616
            ],
            [
                -122.68276607627749,
                48.492939598286185
            ],
            [
                -122.68277020318729,
                48.49292951482877
            ],
            [
                -122.68273001456296,
                48.49288068442054
            ],
            [
                -122.68276,
                48.49296
            ]
        ]
    },
    "properties": {
        "trajectory_id": 5831,
        "object_id": 367795060,
        "label": "PLEASURE CRAFT"
    }
}