{
    "type": "Feature",
    "geometry": {
        "type": "LineString",
        "coordinates": [
            [
                -122.74406,
                48.03081
            ],
            [
                -122.7440599920782,
                48.03082002796661
            ],
            [
                -122.74405345184937,
                48.0308008979764
            ],
            [
                -122.74405006029548,
                48.03080997615916
            ],
            [
                -122.74404979759301,
                48.03080028426577
            ],
            [
                -122.74406199574796,
                48.0308101950161
            ],
            [
                -122.74405611685151,
                48.030809983040136
            ],
            [
                -122.74408383706006,
                48.03080996700239
            ],
            [
                -122.74407240014143,
                48.03080999285034
            ],
            [
                -122.74405947883182,
                48.030809930049635
            ],
            [
                -122.74404982080938,
                48.030801382933305
            ],
            [
                -122.74404863518619,
                48.03081393128036
            ],
            [
                -122.74403027776347,
                48.03080462408073
            ],
            [
                -122.74405579399756,
                48.030808975057674
            ],
            [
                -122.74406579363658,
                48.030796267600586
            ],
            [
                -122.74405762471305,
                48.0307861512966
            ],
            [
                -122.74407283480376,
                48.030786957285116
            ],
            [
                -122.74405457367412,
                48.03079804108902
            ],
            [
                -122.74405505451834,
                48.0307943423291
            ],
            [
                -122.74406478862218,
                48.030801876345386
            ],
            [
                -122.74406163853463,
                48.0307874016454
            ],
            [
                -122.74406098849725,
                48.03079927882196
            ],
            [
                -122.74406277766587,
                48.03081210395656
            ],
            [
                -122.74404929299055,
                48.03079776510908
            ],
            [
                -122.7440526970234,
                48.0308113457317
            ],
            [
                -122.7440518972058,
                48.03082876609347
            ],
            [
                -122.74405123974586,
                48.03080758075727
            ],
            [
                -122.74404052776518,
                48.03081349038286
            ],
            [
                -122.74403714119698,
                48.0308119189501
            ],
            [
                -122.74404860225623,
                48.03080418635069
            ],
            [
                -122.74406196335181,
                48.030801234144086
            ],
            [
                -122.74405108988407,
                48.030799655363545
            ],
            [
                -122.74404373193227,
                48.03080389822801
            ],
            [
                -122.74403981378637,
                48.03080148016455
            ],
            [
                -122.74405002236239,
                48.03080821880511
            ],
            [
                -122.74404062669632,
                48.03080119552902
            ],
            [
                -122.74404995506544,
                48.0307995372617
            ],
            [
                -122.7440493633214,
                48.030789785752596
            ],
            [
                -122.7440398284795,
                48.030799969616936
            ],
            [
                -122.74404980503128,
                48.03078993037499
            ],
            [
                -122.74405011767695,
                48.03081016397079
            ],
            [
                -122.74405020821223,
                48.03080974417454
            ],
            [
                -122.74406678508441,
                48.03080139080207
            ],
            [
                -122.74404952380978,
                48.03081001911885
            ],
            [
                -122.74404897004781,
                48.03081963665335
            ],
            [
                -122.74405816308838,
                48.030826693629244
            ],
            [
                -122.74405194738029,
                48.030809729134006
            ],
            [
                -122.74404870645701,
                48.03081151706696
            ],
            [
                -122.74406100052623,
                48.030819980790476
            ],
            [
                -122.74404037490122,
                48.030819530293236
            ],
            [
                -122.7440673759432,
                48.03081883103755
            ],
            [
                -122.74405325146793,
                48.03080529196007
            ],
            [
                -122.74405318696466,
                48.03081405279354
            ],
            [
                -122.74404799254837,
                48.0307968101451
            ],
            [
                -122.74404078927448,
                48.03078415300452
            ],
            [
                -122.74405176852433,
                48.030806014530754
            ],
            [
                -122.74404344709423,
                48.03081182733327
            ],
            [
                -122.74403734500517,
                48.03080567738246
            ],
            [
                -122.74406005706513,
                48.030804479473616
            ],
            [
                -122.74404803160314,
                48.03081583489937
            ],
            [
                -122.74405318619525,
                48.03081988829075
            ],
            [
                -122.7440151008856,
                48.03082773065848
            ],
            [
                -122.74397980540756,
                48.0308374927123
            ],
            [
                -122.74399573311368,
                48.03082629432846
            ],
            [
                -122.7440567613842,
                48.03079549020614
            ],
            [
                -122.74406375748981,
                48.030796677115944
            ],
            [
                -122.7440552084924,
                48.03079591825672
            ],
            [
                -122.7440532926323,
                48.03080398676781
            ],
            [
                -122.74405337665708,
                48.030807706125486
            ],
            [
                -122.74403720923843,
                48.03080559139862
            ],
            [
                -122.74402467801646,
                48.03080249889992
            ],
            [
                -122.7440422871614,
                48.030807856338576
            ],
            [
                -122.74402995759755,
                48.03079777640946
            ],
            [
                -122.74405715315781,
                48.030792348538334
            ],
            [
                -122.74404830825037,
                48.03081123509975
            ],
            [
                -122.74403992743652,
                48.03079980240618
            ],
            [
                -122.74404043811474,
                48.030799685416675
            ],
            [
                -122.74404992970793,
                48.03082034152615
            ],
            [
                -122.74404042873334,
                48.03082928641448
            ],
            [
                -122.74403028914539,
                48.030800310314966
            ],
            [
                -122.74404390252317,
                48.03080059659153
            ],
            [
                -122.74404973643551,
                48.030800011868976
            ],
            [
                -122.74406955797829,
                48.030799600409544
            ],
            [
                -122.7440495892947,
                48.03079972064083
            ],
            [
                -122.74407133082188,
                48.03081018723752
            ],
            [
                -122.744049982597,
                48.030818994723944
            ],
            [
                -122.7440300319455,
                48.03081106579377
            ],
            [
                -122.74405159760228,
                48.0308010764468
            ],
            [
                -122.74404783170849,
                48.0308080358
            ],
            [
                -122.7440512898416,
                48.030809393373545
            ],
            [
                -122.74402167412015,
                48.03080681656872
            ],
            [
                -122.74403425305528,
                48.03082804860819
            ],
            [
                -122.74404531737068,
                48.030819897752096
            ],
            [
                -122.74407081856502,
                48.03082111757082
            ],
            [
                -122.74405603662457,
                48.03080148892633
            ],
            [
                -122.74405487588747,
                48.03078538197208
            ],
            [
                -122.74404761898158,
                48.03081343802104
            ],
            [
                -122.74404720622114,
                48.030790227353094
            ],
            [
                -122.7440623143552,
                48.030806604876986
            ],
            [
                -122.74405072827838,
                48.030811994258954
            ],
            [
                -122.74405418101364,
                48.03080116882316
            ],
            [
                -122.74405052772556,
                48.03079489569585
            ],
            [
                -122.7440587608912,
                48.03079571984487
            ],
            [
                -122.74405685683885,
                48.030795285465544
            ],
            [
                -122.7440784772284,
                48.03081595469498
            ],
            [
                -122.7440640985046,
                48.03080359544878
            ],
            [
                -122.7440570541212,
                48.0307991573612
            ],
            [
                -122.74406086267484,
                48.030805879855016
            ],
            [
                -122.7440450513443,
                48.030810926345055
            ],
            [
                -122.74405596450185,
                48.030802879642636
            ],
            [
                -122.74405216306545,
                48.030795903500305
            ],
            [
                -122.74403915435771,
                48.03082948675291
            ],
            [
                -122.7440394389543,
                48.03080834218203
            ],
            [
                -122.74405149641669,
                48.03080842248768
            ],
            [
                -122.74406370775667,
                48.030795000152025
            ],
            [
                -122.74405798592466,
                48.03083039266589
            ],
            [
                -122.74406854743775,
                48.03081530625363
            ],
            [
                -122.74405963964513,
                48.03080999810706
            ],
            [
                -122.74404947465,
                48.03080995106112
            ],
            [
                -122.74405,
                48.03082
            ]
        ]
    },
    "properties": {
        "trajectory_id": 5837,
        "object_id": 367797150,
        "label": "PLEASURE CRAFT"
    }
}