{
    "type": "Feature",
    "geometry": {
        "type": "LineString",
        "coordinates": [
            [
                -122.26827,
                47.65843
            ],
            [
                -122.26827032505285,
                47.65840999695574
            ],
            [
                -122.26828001145138,
                47.65840976468713
            ],
            [
                -122.26827987078708,
                47.6584197433361
            ],
            [
                -122.26827018502546,
                47.6584099994171
            ],
            [
                -122.26827995119876,
                47.658411129373825
            ],
            [
                -122.268280928328,
                47.65840915075094
            ],
            [
                -122.26828034925099,
                47.65841156787056
            ],
            [
                -122.26827023443697,
                47.65840998040751
            ],
            [
                -122.26827769588583,
                47.65840989452108
            ],
            [
                -122.26828949709711,
                47.6584073966617
            ],
            [
                -122.26827794287261,
                47.65840922463564
            ],
            [
                -122.26827868381822,
                47.6584010172635
            ],
            [
                -122.26827833239314,
                47.65840765183502
            ],
            [
                -122.26826903298527,
                47.658403268984024
            ],
            [
                -122.26827947520785,
                47.658409231187576
            ],
            [
                -122.26827986657794,
                47.658415159186504
            ],
            [
                -122.268274097369,
                47.65841978584972
            ],
            [
                -122.26826914797823,
                47.65842941369841
            ],
            [
                -122.26827473784022,
                47.65842806515705
            ],
            [
                -122.26827511387935,
                47.65841396273371
            ],
            [
                -122.26828360341572,
                47.65841910803884
            ],
            [
                -122.26827624573822,
                47.65842134574233
            ],
            [
                -122.2682812807137,
                47.658410572869684
            ],
            [
                -122.26827388568786,
                47.658419503065616
            ],
            [
                -122.2682734066879,
                47.658434781133245
            ],
            [
                -122.26828102933214,
                47.6584078687779
            ],
            [
                -122.26828469852799,
                47.65841669636426
            ],
            [
                -122.26828259785339,
                47.65842187501757
            ],
            [
                -122.26828113782058,
                47.65841178364341
            ],
            [
                -122.26828414708282,
                47.658414400583396
            ],
            [
                -122.2682779194656,
                47.65840986581984
            ],
            [
                -122.26828075508797,
                47.65842097227558
            ],
            [
                -122.26827966306959,
                47.658409610904144
            ],
            [
                -122.26827968911861,
                47.65840909160375
            ],
            [
                -122.26828021267818,
                47.65841010004486
            ],
            [
                -122.26827068234005,
                47.65841994395079
            ],
            [
                -122.26827686986455,
                47.65841222319495
            ],
            [
                -122.26827644160866,
                47.658415985067585
            ],
            [
                -122.26826996477514,
                47.6584098351563
            ],
            [
                -122.26828000312965,
                47.658410034465874
            ],
            [
                -122.26826998160934,
                47.65841939749909
            ],
            [
                -122.26827037751895,
                47.65841016566163
            ],
            [
                -122.26827996810619,
                47.6584198194204
            ],
            [
                -122.26827001498681,
                47.658410011765866
            ],
            [
                -122.2682679968312,
                47.658410016001945
            ],
            [
                -122.26823703242982,
                47.658409888201206
            ],
            [
                -122.26824319097332,
                47.65841105631804
            ],
            [
                -122.26826722380528,
                47.65841015210561
            ],
            [
                -122.2682492566682,
                47.658408763492616
            ],
            [
                -122.26823159681939,
                47.65842167450901
            ],
            [
                -122.2682392628151,
                47.65840883174657
            ],
            [
                -122.26827991642298,
                47.658407273474026
            ],
            [
                -122.26824110923025,
                47.65842057352141
            ],
            [
                -122.26825678393108,
                47.65842094487814
            ],
            [
                -122.26825460920641,
                47.65841730836871
            ],
            [
                -122.2682403736224,
                47.658421719950105
            ],
            [
                -122.26825740695955,
                47.65841879412982
            ],
            [
                -122.26826952235078,
                47.658417819615345
            ],
            [
                -122.26823976053639,
                47.658421791183265
            ],
            [
                -122.2682631530482,
                47.658407641705544
            ],
            [
                -122.26825711203138,
                47.65840574388654
            ],
            [
                -122.2682539399575,
                47.658415678128144
            ],
            [
                -122.26826828023079,
                47.65843802811543
            ],
            [
                -122.26827589298864,
                47.65840688845943
            ],
            [
                -122.2682744081539,
                47.658417083066446
            ],
            [
                -122.26824916514792,
                47.6584304329483
            ],
            [
                -122.26826734386832,
                47.658428088924545
            ],
            [
                -122.26823507230229,
                47.65842244929115
            ],
            [
                -122.26827035521221,
                47.65841606439843
            ],
            [
                -122.26827181570863,
                47.65841241187852
            ],
            [
                -122.2682812783386,
                47.658432519432836
            ],
            [
                -122.2682803845025,
                47.65842207983374
            ],
            [
                -122.2682739375054,
                47.658407497397306
            ],
            [
                -122.26827992313731,
                47.65840855657423
            ],
            [
                -122.26828025335647,
                47.65841020694596
            ],
            [
                -122.26827999284899,
                47.65842212357323
            ],
            [
                -122.26827992418914,
                47.6584293440956
            ],
            [
                -122.26828048117842,
                47.65841920940905
            ],
            [
                -122.26828011980737,
                47.658419753357286
            ],
            [
                -122.26827999968401,
                47.658419950683765
            ],
            [
                -122.26827667647198,
                47.658418156688946
            ],
            [
                -122.26828001517877,
                47.65842031168192
            ],
            [
                -122.26826930937514,
                47.65840954033664
            ],
            [
                -122.26828051459825,
                47.658411106418136
            ],
            [
                -122.26827721032645,
                47.65841749480537
            ],
            [
                -122.26828008951026,
                47.658418275842685
            ],
            [
                -122.26829063683833,
                47.65841812208419
            ],
            [
                -122.26827995747077,
                47.65841001036973
            ],
            [
                -122.2682705331421,
                47.658414214326925
            ],
            [
                -122.26828467710685,
                47.65840804147067
            ],
            [
                -122.26827030218162,
                47.65840951395573
            ],
            [
                -122.26826998028874,
                47.65842703976341
            ],
            [
                -122.26826946669213,
                47.65841381244557
            ],
            [
                -122.26828743903519,
                47.65843618670165
            ],
            [
                -122.26825884953874,
                47.6584351212815
            ],
            [
                -122.26823714124829,
                47.65841395846796
            ],
            [
                -122.26824595971522,
                47.65843146052127
            ],
            [
                -122.26823243543377,
                47.65843013598856
            ],
            [
                -122.2682608412315,
                47.658400475973394
            ],
            [
                -122.2682602718585,
                47.65839605337592
            ],
            [
                -122.26827098866804,
                47.65840600700682
            ],
            [
                -122.26827414286029,
                47.65840988960615
            ],
            [
                -122.2682690049294,
                47.65841524610146
            ],
            [
                -122.2682700148097,
                47.6584099334638
            ],
            [
                -122.26827005389198,
                47.6584099996506
            ],
            [
                -122.26827934025884,
                47.65840999879503
            ],
            [
                -122.26827277552177,
                47.65840990212075
            ],
            [
                -122.26827702219725,
                47.65841277820144
            ],
            [
                -122.2682683024359,
                47.65841721196784
            ],
            [
                -122.26827020526207,
                47.65841924142249
            ],
            [
                -122.26826809411699,
                47.65840251734289
            ],
            [
                -122.26828034493651,
                47.65840960487619
            ],
            [
                -122.26827070674062,
                47.658410335176946
            ],
            [
                -122.2682799105342,
                47.65841930918274
            ],
            [
                -122.26828053715164,
                47.658411289405834
            ],
            [
                -122.26826962983368,
                47.65840998633284
            ],
            [
                -122.26827436415448,
                47.65840839787336
            ],
            [
                -122.26828005200498,
                47.65840938617327
            ],
            [
                -122.26828,
                47.65841
            ]
        ]
    },
    "properties": {
        "trajectory_id": 5842,
        "object_id": 367797960,
        "label": "PLEASURE CRAFT"
    }
}