{
    "type": "Feature",
    "geometry": {
        "type": "LineString",
        "coordinates": [
            [
                -123.13595,
                49.1962
            ],
            [
                -123.13593402385806,
                49.196197632996586
            ],
            [
                -123.13593613811499,
                49.196185570369806
            ],
            [
                -123.13593202799042,
                49.19613957867661
            ],
            [
                -123.13598660702891,
                49.19622971291939
            ],
            [
                -123.13598077201567,
                49.196168773954255
            ],
            [
                -123.1359878344447,
                49.196174759307866
            ],
            [
                -123.13587994786788,
                49.196179618316826
            ],
            [
                -123.13597688722352,
                49.196240582759195
            ],
            [
                -123.1359574644692,
                49.19619053997176
            ],
            [
                -123.1359253134023,
                49.19618818056686
            ],
            [
                -123.13586625927341,
                49.19609986393064
            ],
            [
                -123.13593882687132,
                49.19621090056031
            ],
            [
                -123.13595879189043,
                49.19624079334724
            ],
            [
                -123.13598737513558,
                49.19621512009698
            ],
            [
                -123.13596081938798,
                49.19619769897264
            ],
            [
                -123.13603371879955,
                49.196234758201754
            ],
            [
                -123.13602297576035,
                49.196179306564375
            ],
            [
                -123.13594864197916,
                49.19615561173196
            ],
            [
                -123.13595964346871,
                49.19614903989006
            ],
            [
                -123.13595675252314,
                49.19622935641061
            ],
            [
                -123.13585285980433,
                49.1961891527371
            ],
            [
                -123.13587927866412,
                49.1961931123892
            ],
            [
                -123.13596887862879,
                49.19619791575836
            ],
            [
                -123.1359399923166,
                49.19618758511443
            ],
            [
                -123.13593117818694,
                49.196206025745234
            ],
            [
                -123.13594623671659,
                49.1961665328955
            ],
            [
                -123.13593237191998,
                49.19617810202901
            ],
            [
                -123.13596994500264,
                49.196290378277986
            ],
            [
                -123.13595354760126,
                49.196276857968314
            ],
            [
                -123.13596292573546,
                49.196126224179444
            ],
            [
                -123.13600957619326,
                49.196129566201314
            ],
            [
                -123.13599044258214,
                49.19612996528045
            ],
            [
                -123.13591147505788,
                49.19619427863707
            ],
            [
                -123.13607743454983,
                49.19618301646349
            ],
            [
                -123.135971766086,
                49.196218375278576
            ],
            [
                -123.1359506231322,
                49.196169967071675
            ],
            [
                -123.13596207702031,
                49.19614852977978
            ],
            [
                -123.13592254598888,
                49.19607004428905
            ],
            [
                -123.13599084218303,
                49.19616044300652
            ],
            [
                -123.13599782865995,
                49.19627443911937
            ],
            [
                -123.13598054501458,
                49.196286687101754
            ],
            [
                -123.13590522606287,
                49.196080739518294
            ],
            [
                -123.13598547821012,
                49.19615190574209
            ],
            [
                -123.13593339812269,
                49.1961738256519
            ],
            [
                -123.13595692588616,
                49.19616685280833
            ],
            [
                -123.13596468062444,
                49.19617780160461
            ],
            [
                -123.13591764730994,
                49.19617997897968
            ],
            [
                -123.13590894132756,
                49.19618248091298
            ],
            [
                -123.13592212724963,
                49.19617974962985
            ],
            [
                -123.13586675089431,
                49.196235462450204
            ],
            [
                -123.13597837183556,
                49.19606983410256
            ],
            [
                -123.13584401714408,
                49.19625430029939
            ],
            [
                -123.13584880778659,
                49.19626383499177
            ],
            [
                -123.13585123106148,
                49.19620878635096
            ],
            [
                -123.13586941048408,
                49.19616172532628
            ],
            [
                -123.13593012868456,
                49.19614938721791
            ],
            [
                -123.13588891799066,
                49.196236138696236
            ],
            [
                -123.13594054494334,
                49.19613341199775
            ],
            [
                -123.13592325815205,
                49.19617700973115
            ],
            [
                -123.13595142233301,
                49.196175705322425
            ],
            [
                -123.135948249735,
                49.19615636254592
            ],
            [
                -123.13597977298639,
                49.19622969924814
            ],
            [
                -123.13595543140512,
                49.19615717587846
            ],
            [
                -123.13596075014271,
                49.19616059198135
            ],
            [
                -123.13595999268885,
                49.19618227174346
            ],
            [
                -123.13596789359777,
                49.196163679561685
            ],
            [
                -123.13597784516236,
                49.196233698810204
            ],
            [
                -123.13596400632741,
                49.19615398902383
            ],
            [
                -123.13594254203271,
                49.19616818098832
            ],
            [
                -123.13597220430285,
                49.196152649577044
            ],
            [
                -123.13592035193241,
                49.19618036777965
            ],
            [
                -123.13593861801984,
                49.196140264289554
            ],
            [
                -123.13595574679357,
                49.19614646050116
            ],
            [
                -123.13593975535663,
                49.19619885803604
            ],
            [
                -123.1359403724847,
                49.19616540903659
            ],
            [
                -123.1359299291945,
                49.19614975652298
            ],
            [
                -123.1359190129874,
                49.19614788035926
            ],
            [
                -123.13590403169115,
                49.196173801170175
            ],
            [
                -123.13599,
                49.19617
            ]
        ]
    },
    "properties": {
        "trajectory_id": 586,
        "object_id": 316004658,
        "label": "TUG"
    }
}