{
    "type": "Feature",
    "geometry": {
        "type": "LineString",
        "coordinates": [
            [
                -122.39395,
                47.628
            ],
            [
                -122.39395881448522,
                47.62801833612405
            ],
            [
                -122.39394034465862,
                47.62800018560603
            ],
            [
                -122.39394751608343,
                47.628021180958335
            ],
            [
                -122.39395138919792,
                47.627991085108285
            ],
            [
                -122.39393122243123,
                47.627979441717315
            ],
            [
                -122.39398012469903,
                47.62800002212762
            ],
            [
                -122.39394026209746,
                47.62800931807758
            ],
            [
                -122.3939511312884,
                47.627999318293824
            ],
            [
                -122.3939213357534,
                47.62800026276901
            ],
            [
                -122.39395779915374,
                47.62799024415571
            ],
            [
                -122.39395027840186,
                47.62802982170889
            ],
            [
                -122.39394489910843,
                47.628000412352534
            ],
            [
                -122.39393752396349,
                47.62801795067053
            ],
            [
                -122.39393683996605,
                47.62802212105396
            ],
            [
                -122.39392356588358,
                47.62801128928024
            ],
            [
                -122.39394968000343,
                47.62801677980128
            ],
            [
                -122.39394228078231,
                47.62799764068729
            ],
            [
                -122.39394976551316,
                47.628017776866784
            ],
            [
                -122.39395945210565,
                47.62798274911091
            ],
            [
                -122.39394915591453,
                47.62800105409947
            ],
            [
                -122.39395772524401,
                47.62801898618895
            ],
            [
                -122.39395524091915,
                47.62800837734562
            ],
            [
                -122.39397231736359,
                47.628012299915795
            ],
            [
                -122.39396650043736,
                47.627999011834575
            ],
            [
                -122.3939399034675,
                47.628017896585064
            ],
            [
                -122.39396077281806,
                47.628019964354756
            ],
            [
                -122.39394639266614,
                47.62801210540284
            ],
            [
                -122.393960137023,
                47.62803556188418
            ],
            [
                -122.39395020646435,
                47.628028548646625
            ],
            [
                -122.39398414126087,
                47.627998570047275
            ],
            [
                -122.39396153826148,
                47.628006188073606
            ],
            [
                -122.39399036806503,
                47.62800508800227
            ],
            [
                -122.39394556106676,
                47.62801969308899
            ],
            [
                -122.3939693810412,
                47.6279920321438
            ],
            [
                -122.3939692156079,
                47.62801224289246
            ],
            [
                -122.3939552485402,
                47.62801200804912
            ],
            [
                -122.39394295106678,
                47.62803719942576
            ],
            [
                -122.39396889624186,
                47.62803385154648
            ],
            [
                -122.39393577018475,
                47.62801964688645
            ],
            [
                -122.39395609475262,
                47.628024624644866
            ],
            [
                -122.39393475669958,
                47.62802759758754
            ],
            [
                -122.3939539044676,
                47.628029080522914
            ],
            [
                -122.39396589741287,
                47.62802947281086
            ],
            [
                -122.39395790021979,
                47.62800053132057
            ],
            [
                -122.39397498435522,
                47.62801336446019
            ],
            [
                -122.39395706374597,
                47.62798610495103
            ],
            [
                -122.39396911927186,
                47.62801425251958
            ],
            [
                -122.3939634876641,
                47.62799412912381
            ],
            [
                -122.39395299957619,
                47.628010132577145
            ],
            [
                -122.39392856749696,
                47.62800039347253
            ],
            [
                -122.39393767695809,
                47.62800079359973
            ],
            [
                -122.39395080671373,
                47.62801919513759
            ],
            [
                -122.39396120356423,
                47.62799916938812
            ],
            [
                -122.39395096473707,
                47.62801322253515
            ],
            [
                -122.39395104175559,
                47.628009824011755
            ],
            [
                -122.39394805802756,
                47.62803009482921
            ],
            [
                -122.39396000011554,
                47.62801000098157
            ],
            [
                -122.39393563119381,
                47.62803171689086
            ],
            [
                -122.39393876860986,
                47.62801055759575
            ],
            [
                -122.39394015115329,
                47.62805011121367
            ],
            [
                -122.39395094800784,
                47.62802104231049
            ],
            [
                -122.39393161829958,
                47.628009731718315
            ],
            [
                -122.39394170047773,
                47.628017638267025
            ],
            [
                -122.39398025999978,
                47.62798999976217
            ],
            [
                -122.39396856549567,
                47.62802005856766
            ],
            [
                -122.39398889896577,
                47.62800101892554
            ],
            [
                -122.39393805022678,
                47.62801401253056
            ],
            [
                -122.39396089349154,
                47.62798950421106
            ],
            [
                -122.3939523538476,
                47.62800972346975
            ],
            [
                -122.3939498746531,
                47.627998515653466
            ],
            [
                -122.39392909222484,
                47.628019377421204
            ],
            [
                -122.39395184046751,
                47.62800806588353
            ],
            [
                -122.3939620643779,
                47.62801127911238
            ],
            [
                -122.39396990870014,
                47.628013343648014
            ],
            [
                -122.39395300680353,
                47.62800360919896
            ],
            [
                -122.3939554479278,
                47.62800164251886
            ],
            [
                -122.39396141709807,
                47.628007187810574
            ],
            [
                -122.39394915363276,
                47.628013881539154
            ],
            [
                -122.39398236243879,
                47.62802127481207
            ],
            [
                -122.39398474422575,
                47.62799476635755
            ],
            [
                -122.39397505520704,
                47.62799925050102
            ],
            [
                -122.39396753042564,
                47.62801622508721
            ],
            [
                -122.3939563220541,
                47.627986620409835
            ],
            [
                -122.39395819967653,
                47.62800144029387
            ],
            [
                -122.39395695324308,
                47.628018543637296
            ],
            [
                -122.39397149510718,
                47.62799970951329
            ],
            [
                -122.39395366725047,
                47.62797006123484
            ],
            [
                -122.39396606501589,
                47.62799646690772
            ],
            [
                -122.39395244233191,
                47.627991920571006
            ],
            [
                -122.39395948100764,
                47.62800861557293
            ],
            [
                -122.3939621881261,
                47.62799966974795
            ],
            [
                -122.39396018532575,
                47.62798940197188
            ],
            [
                -122.39395419079796,
                47.62796329843501
            ],
            [
                -122.3939709416953,
                47.62800517273369
            ],
            [
                -122.39398310739423,
                47.62800912820197
            ],
            [
                -122.39395208022378,
                47.62799899998885
            ],
            [
                -122.39396727962306,
                47.62800240255168
            ],
            [
                -122.39398322766574,
                47.62801630975254
            ],
            [
                -122.39400279100491,
                47.62799987374191
            ],
            [
                -122.39399077849498,
                47.627988746905984
            ],
            [
                -122.3939613319377,
                47.6279999237613
            ],
            [
                -122.39393494044944,
                47.628025925789146
            ],
            [
                -122.39397058792864,
                47.62799355881265
            ],
            [
                -122.39397840576727,
                47.62798595138501
            ],
            [
                -122.39393727032753,
                47.627990688709616
            ],
            [
                -122.39394039633979,
                47.62800892686769
            ],
            [
                -122.39398678842754,
                47.62800864348091
            ],
            [
                -122.39396282348115,
                47.627999501596214
            ],
            [
                -122.39396222082698,
                47.62800022317733
            ],
            [
                -122.39395872366879,
                47.62799936003514
            ],
            [
                -122.39392815863266,
                47.628040432596706
            ],
            [
                -122.39397995378722,
                47.627999522328096
            ],
            [
                -122.39393031142541,
                47.62799926861295
            ],
            [
                -122.39393020655174,
                47.628009787404174
            ],
            [
                -122.393960347793,
                47.62800023585183
            ],
            [
                -122.39392084519525,
                47.627998850834665
            ],
            [
                -122.39397028492061,
                47.627999794261875
            ],
            [
                -122.39394998589378,
                47.62798998595329
            ],
            [
                -122.39396,
                47.62799
            ]
        ]
    },
    "properties": {
        "trajectory_id": 5872,
        "object_id": 368006350,
        "label": "PLEASURE CRAFT"
    }
}