{
    "type": "Feature",
    "geometry": {
        "type": "LineString",
        "coordinates": [
            [
                -122.39397,
                47.628
            ],
            [
                -122.39396882300929,
                47.62802066735948
            ],
            [
                -122.39394678622028,
                47.62800662259516
            ],
            [
                -122.3939481780438,
                47.62800017165883
            ],
            [
                -122.3939789243591,
                47.62801227636131
            ],
            [
                -122.39392381303472,
                47.62801776790017
            ],
            [
                -122.39396353387,
                47.62802320795064
            ],
            [
                -122.39391889727469,
                47.62803538210134
            ],
            [
                -122.39396001270946,
                47.62800187355395
            ],
            [
                -122.39393960833823,
                47.62801285126854
            ],
            [
                -122.39397324653706,
                47.628012778228324
            ],
            [
                -122.39396365514747,
                47.62800624746917
            ],
            [
                -122.39392654923533,
                47.62801960110326
            ],
            [
                -122.39392612117516,
                47.628009415364794
            ],
            [
                -122.39395114572781,
                47.62802001020781
            ],
            [
                -122.39393424758683,
                47.62802457277313
            ],
            [
                -122.3939269062257,
                47.62804122457653
            ],
            [
                -122.39393211346001,
                47.628007414276816
            ],
            [
                -122.3939383955273,
                47.62802601005305
            ],
            [
                -122.39395363291612,
                47.62800546911952
            ],
            [
                -122.39397148734444,
                47.62800051265013
            ],
            [
                -122.39395509992079,
                47.62799671518171
            ],
            [
                -122.39397652251779,
                47.627996981852974
            ],
            [
                -122.39397046150353,
                47.62800003336161
            ],
            [
                -122.3939409935995,
                47.62803744116949
            ],
            [
                -122.39397268277895,
                47.62800806750141
            ],
            [
                -122.39396239725725,
                47.62800008682698
            ],
            [
                -122.39397359907922,
                47.62803038992641
            ],
            [
                -122.39396396786348,
                47.628005378523305
            ],
            [
                -122.39397376667672,
                47.62800053624637
            ],
            [
                -122.39396988627742,
                47.628002814403374
            ],
            [
                -122.39395095061013,
                47.628020716559064
            ],
            [
                -122.39396617534211,
                47.628000035956035
            ],
            [
                -122.3939733093523,
                47.62802021670468
            ],
            [
                -122.39388577397611,
                47.62799885044775
            ],
            [
                -122.39393964654343,
                47.62802989250234
            ],
            [
                -122.39395696875256,
                47.62800125946752
            ],
            [
                -122.39396207372951,
                47.62799867519847
            ],
            [
                -122.39394735458788,
                47.62802010703256
            ],
            [
                -122.39393131151479,
                47.62802011136869
            ],
            [
                -122.39397103924568,
                47.62802951719134
            ],
            [
                -122.39395940273344,
                47.62801998153245
            ],
            [
                -122.39393993742792,
                47.62800963240343
            ],
            [
                -122.39392836862254,
                47.62799209054121
            ],
            [
                -122.39395701760603,
                47.627981112157435
            ],
            [
                -122.39395223189707,
                47.627989783068706
            ],
            [
                -122.393962013284,
                47.62798875607498
            ],
            [
                -122.39392979168713,
                47.628000258385704
            ],
            [
                -122.39392227817551,
                47.62799973601945
            ],
            [
                -122.39392612575017,
                47.627999362914686
            ],
            [
                -122.39395013800326,
                47.62801147650641
            ],
            [
                -122.39393138967719,
                47.628010725523886
            ],
            [
                -122.3939374594075,
                47.628023621713716
            ],
            [
                -122.39394358030322,
                47.62801417913417
            ],
            [
                -122.39394915857451,
                47.628030449936276
            ],
            [
                -122.39394691201646,
                47.62801498282955
            ],
            [
                -122.39393237159317,
                47.6280308705358
            ],
            [
                -122.39394757085938,
                47.62803699643339
            ],
            [
                -122.39393448966273,
                47.628029052566525
            ],
            [
                -122.39393474005776,
                47.6280174455557
            ],
            [
                -122.39392370774078,
                47.628027835240076
            ],
            [
                -122.39390235942156,
                47.62802638628509
            ],
            [
                -122.39395550626747,
                47.627996218494474
            ],
            [
                -122.39396088309712,
                47.62801997487241
            ],
            [
                -122.39395662859704,
                47.627993295404224
            ],
            [
                -122.39391477262734,
                47.62800646207873
            ],
            [
                -122.39393848246988,
                47.62800769820245
            ],
            [
                -122.39395505310506,
                47.628003977002805
            ],
            [
                -122.39394986032276,
                47.62799248069034
            ],
            [
                -122.39390346077305,
                47.627993505796894
            ],
            [
                -122.39392282404582,
                47.627999864980154
            ],
            [
                -122.39395665199272,
                47.628006512585266
            ],
            [
                -122.39394792426621,
                47.62801448319533
            ],
            [
                -122.39394770468446,
                47.62800031229026
            ],
            [
                -122.39394023056866,
                47.62799019052348
            ],
            [
                -122.39394852070188,
                47.62798948900635
            ],
            [
                -122.39394388937431,
                47.628006231155574
            ],
            [
                -122.39395037737258,
                47.62801957156293
            ],
            [
                -122.39396706864466,
                47.62799506713051
            ],
            [
                -122.39395923566624,
                47.62798013531904
            ],
            [
                -122.39394280604756,
                47.628030023509844
            ],
            [
                -122.39394034079764,
                47.62802027651056
            ],
            [
                -122.39398000700731,
                47.62802995410534
            ],
            [
                -122.3939318101696,
                47.62801886480992
            ],
            [
                -122.39397562694828,
                47.62800845693591
            ],
            [
                -122.39396318412251,
                47.628017366343265
            ],
            [
                -122.39394172455235,
                47.628028455841296
            ],
            [
                -122.39395419060266,
                47.628010757488624
            ],
            [
                -122.3939528360604,
                47.62800541802604
            ],
            [
                -122.39395717537506,
                47.628021106382555
            ],
            [
                -122.39395598570187,
                47.62800697309758
            ],
            [
                -122.39396015334484,
                47.628010877331924
            ],
            [
                -122.39390550775846,
                47.62803768676121
            ],
            [
                -122.39394285618023,
                47.62800988240432
            ],
            [
                -122.39395024955172,
                47.62802031471807
            ],
            [
                -122.3939423608871,
                47.628020800152285
            ],
            [
                -122.39394578315546,
                47.62799876250315
            ],
            [
                -122.39395550934401,
                47.627995983132074
            ],
            [
                -122.39392856723973,
                47.628034664679774
            ],
            [
                -122.39395544820836,
                47.628010045431935
            ],
            [
                -122.39394713781722,
                47.62797836113575
            ],
            [
                -122.39398177655019,
                47.62792828898732
            ],
            [
                -122.3939770006546,
                47.62794879974619
            ],
            [
                -122.3939469647617,
                47.62799642231868
            ],
            [
                -122.39393541339423,
                47.62800271621856
            ],
            [
                -122.39396942118238,
                47.628008877857596
            ],
            [
                -122.39396212626525,
                47.62800699307148
            ],
            [
                -122.39396467391387,
                47.628019254155504
            ],
            [
                -122.39396838755334,
                47.62800883090052
            ],
            [
                -122.39394343570083,
                47.62804458496728
            ],
            [
                -122.39397186874416,
                47.62801475956794
            ],
            [
                -122.39394860561302,
                47.62801008481317
            ],
            [
                -122.39396139861016,
                47.62800172170884
            ],
            [
                -122.39398314103892,
                47.62800291929447
            ],
            [
                -122.39393935972868,
                47.628010249967744
            ],
            [
                -122.39397082433435,
                47.62800025010475
            ],
            [
                -122.39394987094246,
                47.62800916083568
            ],
            [
                -122.3939502331167,
                47.62799014957623
            ],
            [
                -122.39396071956611,
                47.628010765894324
            ],
            [
                -122.39394,
                47.62802
            ]
        ]
    },
    "properties": {
        "trajectory_id": 5876,
        "object_id": 368006350,
        "label": "PLEASURE CRAFT"
    }
}