{
    "type": "Feature",
    "geometry": {
        "type": "LineString",
        "coordinates": [
            [
                -122.33972,
                47.63056
            ],
            [
                -122.33973003462171,
                47.63057976163985
            ],
            [
                -122.33972060086444,
                47.630569913327605
            ],
            [
                -122.33973056398432,
                47.63057075973254
            ],
            [
                -122.33972787281215,
                47.630568170188496
            ],
            [
                -122.33973678110479,
                47.63056715988801
            ],
            [
                -122.3397302152827,
                47.63057824763448
            ],
            [
                -122.33975832474862,
                47.63057035221137
            ],
            [
                -122.33974543364472,
                47.63057167477942
            ],
            [
                -122.33975048494665,
                47.630566432852724
            ],
            [
                -122.33974936520332,
                47.63055063809343
            ],
            [
                -122.33975523524039,
                47.630548000048805
            ],
            [
                -122.33974966782398,
                47.63055666072401
            ],
            [
                -122.33975649067938,
                47.63055332327646
            ],
            [
                -122.3397524459821,
                47.630554565624415
            ],
            [
                -122.33973789869489,
                47.630563557899045
            ],
            [
                -122.33976258048065,
                47.63056766405115
            ],
            [
                -122.33973323506072,
                47.630564194860455
            ],
            [
                -122.33974821272048,
                47.63056976277569
            ],
            [
                -122.33974315589806,
                47.63057976382641
            ],
            [
                -122.3397155700427,
                47.630587616802956
            ],
            [
                -122.33974141433819,
                47.630579398848695
            ],
            [
                -122.3397301056631,
                47.63057169143376
            ],
            [
                -122.3397342588055,
                47.630581328144366
            ],
            [
                -122.33972510738077,
                47.63057965450934
            ],
            [
                -122.33972290925044,
                47.63057588205264
            ],
            [
                -122.33975983532537,
                47.630551749666694
            ],
            [
                -122.33972930811618,
                47.63058121907923
            ],
            [
                -122.33973954665372,
                47.63058016324781
            ],
            [
                -122.33976950491694,
                47.63058009441191
            ],
            [
                -122.3397200006491,
                47.63057000042729
            ],
            [
                -122.33973959264812,
                47.63056058986186
            ],
            [
                -122.33971987808664,
                47.630568847319246
            ],
            [
                -122.33974179106964,
                47.63056835526528
            ],
            [
                -122.33972556453338,
                47.63057955188932
            ],
            [
                -122.33972851103702,
                47.630555815532695
            ],
            [
                -122.33973607308884,
                47.63056848107581
            ],
            [
                -122.3397384259894,
                47.6305525945276
            ],
            [
                -122.33972681651603,
                47.63056983700696
            ],
            [
                -122.33973160100803,
                47.630550362700966
            ],
            [
                -122.33973690790778,
                47.63057476850146
            ],
            [
                -122.33973177806338,
                47.630558267771335
            ],
            [
                -122.33973096528834,
                47.63057118287412
            ],
            [
                -122.33974255357438,
                47.63057262249425
            ],
            [
                -122.33971908401064,
                47.630558287199534
            ],
            [
                -122.33976636108432,
                47.63057831470249
            ],
            [
                -122.33972641529665,
                47.63058041298549
            ],
            [
                -122.33971975061627,
                47.63059174199943
            ],
            [
                -122.33973810003252,
                47.63056636202774
            ],
            [
                -122.33972831294598,
                47.63058400194967
            ],
            [
                -122.33973977635924,
                47.63057570111309
            ],
            [
                -122.33972753988559,
                47.63059775073008
            ],
            [
                -122.33974710182359,
                47.63056080562752
            ],
            [
                -122.33975953800282,
                47.63056003781899
            ],
            [
                -122.33973828620825,
                47.63056586745061
            ],
            [
                -122.33975012547232,
                47.63057935751938
            ],
            [
                -122.33974997859777,
                47.630562359685364
            ],
            [
                -122.33970907013264,
                47.630559856953155
            ],
            [
                -122.33972959356939,
                47.63058003671043
            ],
            [
                -122.33973000587258,
                47.630559868828655
            ],
            [
                -122.33971996125416,
                47.630559383015004
            ],
            [
                -122.33970007570632,
                47.630569721072135
            ],
            [
                -122.339730655378,
                47.630582492052206
            ],
            [
                -122.33974738629077,
                47.63054991367201
            ],
            [
                -122.33973832207286,
                47.630569016392165
            ],
            [
                -122.33972981411502,
                47.63056766823442
            ],
            [
                -122.33972985672499,
                47.630565377740915
            ],
            [
                -122.33974537222478,
                47.63057659449621
            ],
            [
                -122.33974649153247,
                47.63059028082618
            ],
            [
                -122.33974681730642,
                47.63055795211197
            ],
            [
                -122.33974874341186,
                47.630570408483756
            ],
            [
                -122.33972367962092,
                47.63056258865144
            ],
            [
                -122.33973546139427,
                47.63055629705729
            ],
            [
                -122.33973191311956,
                47.63057039389338
            ],
            [
                -122.3397474365758,
                47.63057003175293
            ],
            [
                -122.33973499575328,
                47.6305577585632
            ],
            [
                -122.33972195607487,
                47.63056580786877
            ],
            [
                -122.33972235859214,
                47.63056877339143
            ],
            [
                -122.33973365484233,
                47.63057015400272
            ],
            [
                -122.33973486277333,
                47.630583237904624
            ],
            [
                -122.33972570856687,
                47.63056780466932
            ],
            [
                -122.3397432485655,
                47.630564690704766
            ],
            [
                -122.33973125306908,
                47.6305723367587
            ],
            [
                -122.33975147503892,
                47.63056512246571
            ],
            [
                -122.33974403682652,
                47.63054676657796
            ],
            [
                -122.33974053160766,
                47.630566843174684
            ],
            [
                -122.33973939221056,
                47.63057180105192
            ],
            [
                -122.33974011295862,
                47.6305700804649
            ],
            [
                -122.33976100498884,
                47.63057906231116
            ],
            [
                -122.33975996047853,
                47.630569858810475
            ],
            [
                -122.33971931999233,
                47.63057008060913
            ],
            [
                -122.33974030784961,
                47.63055801508075
            ],
            [
                -122.33972972888571,
                47.63056317393297
            ],
            [
                -122.33972977833577,
                47.630569886116014
            ],
            [
                -122.33974150198374,
                47.63055974041738
            ],
            [
                -122.33974214532596,
                47.63055733547495
            ],
            [
                -122.33973721373545,
                47.63057372540717
            ],
            [
                -122.33972898894038,
                47.63058158671781
            ],
            [
                -122.33974429733067,
                47.63055055978311
            ],
            [
                -122.33973578785773,
                47.63057478925657
            ],
            [
                -122.3397338981907,
                47.63056651617135
            ],
            [
                -122.33973332255897,
                47.6305651179607
            ],
            [
                -122.33973235121721,
                47.63057512351255
            ],
            [
                -122.33973749384486,
                47.6305705338545
            ],
            [
                -122.33976457098443,
                47.63057469932086
            ],
            [
                -122.33973319408365,
                47.63056583557886
            ],
            [
                -122.33972797706213,
                47.63055090408079
            ],
            [
                -122.33972006514885,
                47.6305987668502
            ],
            [
                -122.33974571103838,
                47.63054183967733
            ],
            [
                -122.33972330870539,
                47.63057521306212
            ],
            [
                -122.33976186031082,
                47.63053058500116
            ],
            [
                -122.33974084879927,
                47.63055459623713
            ],
            [
                -122.33974127098568,
                47.630552334261274
            ],
            [
                -122.33974213606898,
                47.6305497391824
            ],
            [
                -122.33974660058529,
                47.63054871226013
            ],
            [
                -122.33974162503911,
                47.63054956326516
            ],
            [
                -122.33976024057003,
                47.6305691494853
            ],
            [
                -122.33975903751136,
                47.63056027768248
            ],
            [
                -122.3397502294274,
                47.63056996864961
            ],
            [
                -122.33976,
                47.63057
            ]
        ]
    },
    "properties": {
        "trajectory_id": 5927,
        "object_id": 368019350,
        "label": "PLEASURE CRAFT"
    }
}