{
    "type": "Feature",
    "geometry": {
        "type": "LineString",
        "coordinates": [
            [
                -122.33975,
                47.63056
            ],
            [
                -122.33973957668681,
                47.63056985626954
            ],
            [
                -122.33974029749118,
                47.63055991849211
            ],
            [
                -122.3397299950194,
                47.63058116018574
            ],
            [
                -122.33973044724272,
                47.63057980496615
            ],
            [
                -122.33974007085858,
                47.63056825815452
            ],
            [
                -122.3397488520346,
                47.63055117841407
            ],
            [
                -122.33975090979821,
                47.630580064449184
            ],
            [
                -122.33975141360064,
                47.63054749550524
            ],
            [
                -122.33974006597622,
                47.630579161897366
            ],
            [
                -122.33974962930417,
                47.6305608351862
            ],
            [
                -122.33973467636493,
                47.630586329016296
            ],
            [
                -122.33974231239151,
                47.63056292259503
            ],
            [
                -122.33973258515282,
                47.630560146015036
            ],
            [
                -122.33974494550144,
                47.63057147501174
            ],
            [
                -122.33975623667662,
                47.630574871756544
            ],
            [
                -122.33974463199232,
                47.63057058706042
            ],
            [
                -122.3397383875492,
                47.63057596905444
            ],
            [
                -122.33972095969669,
                47.630576377854716
            ],
            [
                -122.33972829774179,
                47.6305688011561
            ],
            [
                -122.33975532779743,
                47.63057280155887
            ],
            [
                -122.33973468401973,
                47.63058158897229
            ],
            [
                -122.33973055606363,
                47.63058589075741
            ],
            [
                -122.33973453793492,
                47.63056217334732
            ],
            [
                -122.33971409418412,
                47.630567813035626
            ],
            [
                -122.33974405157522,
                47.63058279733077
            ],
            [
                -122.33975574480513,
                47.630559619777834
            ],
            [
                -122.33975842259942,
                47.630557585370504
            ],
            [
                -122.33975127162239,
                47.6305695585493
            ],
            [
                -122.33974722063925,
                47.63057025888627
            ],
            [
                -122.33974070306772,
                47.63055915621962
            ],
            [
                -122.33974074830496,
                47.63056204193085
            ],
            [
                -122.33973505086925,
                47.63055772288037
            ],
            [
                -122.3397530321521,
                47.63057159489497
            ],
            [
                -122.33976258450802,
                47.63056206338358
            ],
            [
                -122.33972847110658,
                47.63056964989188
            ],
            [
                -122.33972798595566,
                47.63057586728605
            ],
            [
                -122.33972771549654,
                47.63056662129124
            ],
            [
                -122.33973316607333,
                47.63055491337234
            ],
            [
                -122.33973273211181,
                47.63057943074364
            ],
            [
                -122.33973143807592,
                47.63055959301451
            ],
            [
                -122.33973171311656,
                47.63059000790773
            ],
            [
                -122.33973407961524,
                47.63057486540163
            ],
            [
                -122.33979894463128,
                47.63062104916052
            ],
            [
                -122.33977049679818,
                47.63061335621575
            ],
            [
                -122.33972915746901,
                47.630567917942564
            ],
            [
                -122.33974566433328,
                47.63057008623122
            ],
            [
                -122.33973091308529,
                47.63059305417205
            ],
            [
                -122.33972750656186,
                47.63059052398422
            ],
            [
                -122.33973956338608,
                47.63057265196076
            ],
            [
                -122.33974864233878,
                47.63058255952535
            ],
            [
                -122.33974032322476,
                47.630571467328735
            ],
            [
                -122.3397296563672,
                47.63057707276557
            ],
            [
                -122.33974833877508,
                47.630562411189345
            ],
            [
                -122.33977833237056,
                47.63053812750688
            ],
            [
                -122.33976060035901,
                47.630560037013126
            ],
            [
                -122.33973977181512,
                47.630569922911945
            ],
            [
                -122.33974989904047,
                47.630590434171
            ],
            [
                -122.3397404166421,
                47.63056054402053
            ],
            [
                -122.33974013619147,
                47.63057995126646
            ],
            [
                -122.33972005094185,
                47.63054981992244
            ],
            [
                -122.33973017289516,
                47.630540867028444
            ],
            [
                -122.3397406541714,
                47.63054986822674
            ],
            [
                -122.33974985661702,
                47.630560093570445
            ],
            [
                -122.33973030865225,
                47.630561089505356
            ],
            [
                -122.33973043592603,
                47.630561342410246
            ],
            [
                -122.33973762744336,
                47.63056332948721
            ],
            [
                -122.33972901767804,
                47.63056181331135
            ],
            [
                -122.33973288648136,
                47.63058767784279
            ],
            [
                -122.3397193162469,
                47.630565040810126
            ],
            [
                -122.33974335170188,
                47.630563455247376
            ],
            [
                -122.33972071289303,
                47.630559145611
            ],
            [
                -122.33974130126646,
                47.63056456133047
            ],
            [
                -122.33974134112492,
                47.630569745959704
            ],
            [
                -122.3397381746041,
                47.63058664169254
            ],
            [
                -122.33973200958606,
                47.63055527876184
            ],
            [
                -122.3397472484521,
                47.63057290146508
            ],
            [
                -122.33973104639718,
                47.63056991435166
            ],
            [
                -122.33974712431302,
                47.63057246772643
            ],
            [
                -122.33972402877393,
                47.63059378541213
            ],
            [
                -122.33973885158498,
                47.630562147767655
            ],
            [
                -122.33972650984396,
                47.6305630540194
            ],
            [
                -122.33972913527481,
                47.63058525444669
            ],
            [
                -122.33977166831005,
                47.630551504560245
            ],
            [
                -122.33975565974528,
                47.6305642226504
            ],
            [
                -122.33973407373733,
                47.63057115660293
            ],
            [
                -122.33975241444898,
                47.63056679359694
            ],
            [
                -122.33972057222446,
                47.630572912777524
            ],
            [
                -122.33975138426801,
                47.63058923617607
            ],
            [
                -122.33976313513043,
                47.63059578268689
            ],
            [
                -122.33974442261244,
                47.63059815628414
            ],
            [
                -122.33973705903317,
                47.63057333843243
            ],
            [
                -122.33972337949726,
                47.63059675259728
            ],
            [
                -122.33971971186492,
                47.630581640819685
            ],
            [
                -122.33972983768012,
                47.630574634465624
            ],
            [
                -122.33975353132824,
                47.63056936884307
            ],
            [
                -122.33973026371869,
                47.63057807399562
            ],
            [
                -122.33973079389114,
                47.63057616328147
            ],
            [
                -122.33971700153468,
                47.63057667669757
            ],
            [
                -122.33972923511776,
                47.63058672927203
            ],
            [
                -122.33971071182995,
                47.63057934299041
            ],
            [
                -122.33974222542622,
                47.630568215602366
            ],
            [
                -122.3397174463027,
                47.63058932514088
            ],
            [
                -122.33976619810873,
                47.63056313564344
            ],
            [
                -122.33975318589395,
                47.63058517248955
            ],
            [
                -122.33974565810671,
                47.63055753346576
            ],
            [
                -122.33974566775382,
                47.63056748377188
            ],
            [
                -122.3397210820697,
                47.630585024262096
            ],
            [
                -122.33973296341618,
                47.63056038703505
            ],
            [
                -122.3397171179865,
                47.63058418500837
            ],
            [
                -122.33974948795318,
                47.630567872818034
            ],
            [
                -122.33973998643818,
                47.63058825848708
            ],
            [
                -122.33974894704347,
                47.63057158352376
            ],
            [
                -122.33973978790432,
                47.63058059977076
            ],
            [
                -122.33976862836622,
                47.63057094221705
            ],
            [
                -122.33974059463705,
                47.63057999144701
            ],
            [
                -122.33975041254462,
                47.63056985420063
            ],
            [
                -122.33974995338033,
                47.63057034111031
            ],
            [
                -122.33975002658033,
                47.63058010236145
            ],
            [
                -122.33975,
                47.63056
            ]
        ]
    },
    "properties": {
        "trajectory_id": 5928,
        "object_id": 368019350,
        "label": "PLEASURE CRAFT"
    }
}