{
    "type": "Feature",
    "geometry": {
        "type": "LineString",
        "coordinates": [
            [
                -122.39692,
                47.52317
            ],
            [
                -122.39685927054626,
                47.52317793850159
            ],
            [
                -122.43299679916413,
                47.52364441052951
            ],
            [
                -122.48752041328831,
                47.523453234194335
            ],
            [
                -122.49568381491802,
                47.51320898858536
            ],
            [
                -122.46508973055165,
                47.5174586546083
            ],
            [
                -122.46329058831944,
                47.51111953163826
            ],
            [
                -122.43577990776059,
                47.516729793000174
            ],
            [
                -122.39692971819309,
                47.52318669453681
            ],
            [
                -122.39693365534644,
                47.52318436004521
            ],
            [
                -122.45307710139848,
                47.51636576037618
            ],
            [
                -122.4633471875283,
                47.511034095730764
            ],
            [
                -122.49564440429126,
                47.51320694012337
            ],
            [
                -122.47931933666162,
                47.51585991007516
            ],
            [
                -122.40293327989188,
                47.522756657892494
            ],
            [
                -122.39693063214332,
                47.52316005950712
            ],
            [
                -122.45250206829571,
                47.514678573200555
            ],
            [
                -122.46327039519309,
                47.513012706808134
            ],
            [
                -122.4956138056322,
                47.513163682514474
            ],
            [
                -122.44168044601004,
                47.52249792608536
            ],
            [
                -122.39691334710301,
                47.52316400197506
            ],
            [
                -122.443924788712,
                47.51597849139308
            ],
            [
                -122.46327021490679,
                47.51109044110514
            ],
            [
                -122.49563200123447,
                47.513199772291365
            ],
            [
                -122.45468669561924,
                47.51924383013621
            ],
            [
                -122.39692617697017,
                47.523179647429465
            ],
            [
                -122.39683777456506,
                47.523169572769284
            ],
            [
                -122.45808364219369,
                47.51517548001554
            ],
            [
                -122.46334656565996,
                47.51110036002583
            ],
            [
                -122.46331436760991,
                47.5110963202577
            ],
            [
                -122.46328168818634,
                47.511158673757805
            ],
            [
                -122.46316039136002,
                47.510763473882314
            ],
            [
                -122.463170094259,
                47.51071953581501
            ],
            [
                -122.46316812192306,
                47.51074308629468
            ],
            [
                -122.46314678651966,
                47.51069703730042
            ],
            [
                -122.463129567978,
                47.51074708941315
            ],
            [
                -122.46317268847648,
                47.51074781811048
            ],
            [
                -122.46308688182941,
                47.51076024098072
            ],
            [
                -122.46315386201175,
                47.510759276980245
            ],
            [
                -122.46315435819034,
                47.51076769162567
            ],
            [
                -122.46315405221401,
                47.51070817030089
            ],
            [
                -122.4631391937596,
                47.5107208252388
            ],
            [
                -122.46315115108906,
                47.510728643972556
            ],
            [
                -122.46315039059255,
                47.510788324122096
            ],
            [
                -122.46317245035192,
                47.51075896583978
            ],
            [
                -122.4631316218294,
                47.51074648829409
            ],
            [
                -122.46311417252029,
                47.510745018268686
            ],
            [
                -122.46317974847756,
                47.510764764559134
            ],
            [
                -122.46314782164949,
                47.51073351657473
            ],
            [
                -122.46310823015664,
                47.51075163882156
            ],
            [
                -122.46313048471676,
                47.51076528462372
            ],
            [
                -122.46309341149536,
                47.51084531488579
            ],
            [
                -122.46314666274196,
                47.51080399438375
            ],
            [
                -122.46312996105436,
                47.51080791408338
            ],
            [
                -122.46314939899733,
                47.510771553765515
            ],
            [
                -122.46317943687387,
                47.510758766264765
            ],
            [
                -122.46314206778659,
                47.51077954200328
            ],
            [
                -122.46315937242515,
                47.51073407763319
            ],
            [
                -122.46312024450883,
                47.510802789370565
            ],
            [
                -122.46467322730506,
                47.51366624352059
            ],
            [
                -122.49561166477696,
                47.51316977927009
            ],
            [
                -122.47848059982444,
                47.51725521360712
            ],
            [
                -122.46384894780367,
                47.51115998086151
            ],
            [
                -122.41537134078939,
                47.52319931469255
            ],
            [
                -122.39693017264432,
                47.52315993838954
            ],
            [
                -122.39790274012447,
                47.523268189810935
            ],
            [
                -122.46230728598658,
                47.51393785835151
            ],
            [
                -122.46893549321086,
                47.51514276676566
            ],
            [
                -122.49565920516103,
                47.51323178260413
            ],
            [
                -122.49295763466894,
                47.514120421373185
            ],
            [
                -122.46325812808055,
                47.511127054747575
            ],
            [
                -122.45177374244534,
                47.51529980633899
            ],
            [
                -122.39713747883796,
                47.5231711589839
            ],
            [
                -122.39694973499125,
                47.52317122560332
            ],
            [
                -122.44716192094499,
                47.517674272950764
            ],
            [
                -122.4638919150984,
                47.51117009437209
            ],
            [
                -122.45816906412136,
                47.515263133976504
            ],
            [
                -122.41668230937805,
                47.51567461370557
            ],
            [
                -122.39688856039079,
                47.52320488108717
            ],
            [
                -122.42312424737908,
                47.512209965303846
            ],
            [
                -122.46393185314861,
                47.51114513683904
            ],
            [
                -122.49048744604728,
                47.51640247634478
            ],
            [
                -122.495649168114,
                47.51323115044198
            ],
            [
                -122.49053585011599,
                47.51393376893961
            ],
            [
                -122.46327195463525,
                47.51113950491256
            ],
            [
                -122.45052002902817,
                47.515312519566564
            ],
            [
                -122.39689943112475,
                47.5231745908108
            ],
            [
                -122.39693376961888,
                47.52317387403208
            ],
            [
                -122.44517024926658,
                47.51909009365355
            ],
            [
                -122.46392039398737,
                47.511214254011065
            ],
            [
                -122.49453687699406,
                47.514166757619975
            ],
            [
                -122.49563209763919,
                47.51319219486622
            ],
            [
                -122.46320420400185,
                47.51128957868522
            ],
            [
                -122.44753981844943,
                47.5169553559127
            ],
            [
                -122.3969694847916,
                47.52320436501339
            ],
            [
                -122.39687627571861,
                47.52321333317583
            ],
            [
                -122.3969450616386,
                47.52317054912317
            ],
            [
                -122.40662399981382,
                47.52327574773508
            ],
            [
                -122.46337256886606,
                47.51107505250388
            ],
            [
                -122.46222766034637,
                47.512980132206685
            ],
            [
                -122.49567097860529,
                47.5132289274277
            ],
            [
                -122.49455141538697,
                47.5142727779824
            ],
            [
                -122.46327372147289,
                47.511116181780174
            ],
            [
                -122.46331053526073,
                47.51107384401582
            ],
            [
                -122.40688888058028,
                47.523009197363464
            ],
            [
                -122.39691063191883,
                47.52317000958785
            ],
            [
                -122.41954012736102,
                47.52102672000622
            ],
            [
                -122.46325958677969,
                47.51108112808193
            ],
            [
                -122.45981920585133,
                47.513912210518136
            ],
            [
                -122.3972586347565,
                47.52311631721615
            ],
            [
                -122.3968858254572,
                47.5231695462206
            ],
            [
                -122.44431009342874,
                47.51917565252409
            ],
            [
                -122.46327636681983,
                47.51109501140548
            ],
            [
                -122.49546784766963,
                47.513307613795774
            ],
            [
                -122.4956664066508,
                47.51323808852901
            ],
            [
                -122.46172218173004,
                47.51379367740702
            ],
            [
                -122.46329460316981,
                47.51108092903272
            ],
            [
                -122.42868540054812,
                47.51916279337367
            ],
            [
                -122.39692435074565,
                47.523161909227724
            ],
            [
                -122.39692,
                47.52319
            ]
        ]
    },
    "properties": {
        "trajectory_id": 5954,
        "object_id": 368027230,
        "label": "PASSENGER"
    }
}