{
    "type": "Feature",
    "geometry": {
        "type": "LineString",
        "coordinates": [
            [
                -122.37949,
                47.62965
            ],
            [
                -122.37950003376463,
                47.629679844233635
            ],
            [
                -122.37949943492887,
                47.629629595322676
            ],
            [
                -122.37949960855096,
                47.629630650948435
            ],
            [
                -122.37944974567914,
                47.62964886467563
            ],
            [
                -122.37947248243806,
                47.629642706791834
            ],
            [
                -122.37949041398866,
                47.62962657508286
            ],
            [
                -122.37950641508291,
                47.62959940585776
            ],
            [
                -122.37949856521733,
                47.62962935649428
            ],
            [
                -122.37948639529836,
                47.62964213749782
            ],
            [
                -122.3795234905787,
                47.629634247139464
            ],
            [
                -122.3794646825463,
                47.62963988571705
            ],
            [
                -122.37948275472804,
                47.62965708126173
            ],
            [
                -122.37949347333101,
                47.629637341844344
            ],
            [
                -122.3795029587145,
                47.62962036961839
            ],
            [
                -122.3795120867288,
                47.6296503802762
            ],
            [
                -122.37949658605105,
                47.62966617676104
            ],
            [
                -122.37948742847321,
                47.629662048724164
            ],
            [
                -122.37947709177584,
                47.62964226815075
            ],
            [
                -122.3794906164317,
                47.62964521167228
            ],
            [
                -122.37948515733315,
                47.62965926456422
            ],
            [
                -122.37951947908837,
                47.62963654451275
            ],
            [
                -122.37949963552623,
                47.62965530423208
            ],
            [
                -122.37950749340676,
                47.62965998453514
            ],
            [
                -122.37950134009996,
                47.62966035981267
            ],
            [
                -122.37949180015353,
                47.6296570451557
            ],
            [
                -122.37950036592542,
                47.629661295532905
            ],
            [
                -122.37949145655426,
                47.629654328920815
            ],
            [
                -122.37949801375109,
                47.62966666250978
            ],
            [
                -122.37950721993954,
                47.629633636864625
            ],
            [
                -122.37948847713233,
                47.629617142964925
            ],
            [
                -122.37951360977758,
                47.62963633746774
            ],
            [
                -122.37948396383713,
                47.62965487790376
            ],
            [
                -122.37950752154129,
                47.62965166738158
            ],
            [
                -122.3795042816945,
                47.629659213306134
            ],
            [
                -122.37950054881044,
                47.62965158006688
            ],
            [
                -122.3794860438333,
                47.62965706541561
            ],
            [
                -122.37948240499938,
                47.62964916050839
            ],
            [
                -122.37945901186856,
                47.62963969149
            ],
            [
                -122.3795089772943,
                47.629669706344266
            ],
            [
                -122.37947982501342,
                47.62964037572307
            ],
            [
                -122.37946923114731,
                47.62965910050117
            ],
            [
                -122.3794699467343,
                47.62964021644554
            ],
            [
                -122.37949035158242,
                47.62970050438296
            ],
            [
                -122.37948013548568,
                47.62968068525628
            ],
            [
                -122.37946012029612,
                47.629650353581944
            ],
            [
                -122.37950065773181,
                47.6296672397074
            ],
            [
                -122.37948086781881,
                47.6296600102559
            ],
            [
                -122.3795148474747,
                47.62964757116439
            ],
            [
                -122.37949467972076,
                47.629659735985285
            ],
            [
                -122.37949350473082,
                47.62966421298718
            ],
            [
                -122.37948880543794,
                47.629655450548746
            ],
            [
                -122.3795023306666,
                47.62965021751269
            ],
            [
                -122.37947131083985,
                47.62964222657244
            ],
            [
                -122.37949660210093,
                47.629653636656506
            ],
            [
                -122.37947716981535,
                47.629664879899316
            ],
            [
                -122.37947060995488,
                47.62964703713868
            ],
            [
                -122.37948939032557,
                47.629639161933184
            ],
            [
                -122.37950113499238,
                47.629626215135474
            ],
            [
                -122.37946648242388,
                47.62966005398616
            ],
            [
                -122.3794897896741,
                47.62965531253159
            ],
            [
                -122.3794829199741,
                47.62970796215014
            ],
            [
                -122.37946563048095,
                47.62967509320914
            ],
            [
                -122.37945701906548,
                47.629643374049
            ],
            [
                -122.37948020231516,
                47.62965398228331
            ],
            [
                -122.37947198787151,
                47.62966020489764
            ],
            [
                -122.3794803323957,
                47.62966287959365
            ],
            [
                -122.37948042947285,
                47.629672728000294
            ],
            [
                -122.37948846944633,
                47.62967570356963
            ],
            [
                -122.37946248910646,
                47.62965390984879
            ],
            [
                -122.37947318043652,
                47.62967901871856
            ],
            [
                -122.37948230567618,
                47.62966671408066
            ],
            [
                -122.37949624976399,
                47.62965283394987
            ],
            [
                -122.37948287203939,
                47.62965616051659
            ],
            [
                -122.37948060775533,
                47.629643651000464
            ],
            [
                -122.37951146143863,
                47.62963582115658
            ],
            [
                -122.37950131476967,
                47.62963944880474
            ],
            [
                -122.3794731873971,
                47.629668913093234
            ],
            [
                -122.37950930842985,
                47.62964226601693
            ],
            [
                -122.37951175680965,
                47.62964144835068
            ],
            [
                -122.37947981069658,
                47.62964185428307
            ],
            [
                -122.37949844186996,
                47.62965994968336
            ],
            [
                -122.37949134037457,
                47.62964042162735
            ],
            [
                -122.37950924664557,
                47.62965042474386
            ],
            [
                -122.37948077706648,
                47.629650035887025
            ],
            [
                -122.37950999083358,
                47.629659984132175
            ],
            [
                -122.37949984247301,
                47.629639920568934
            ],
            [
                -122.37945879670929,
                47.62969190084904
            ],
            [
                -122.37948867948471,
                47.62964608453443
            ],
            [
                -122.37947933024783,
                47.62966845435174
            ],
            [
                -122.37946860298888,
                47.6296792430924
            ],
            [
                -122.37950080682441,
                47.629661223606796
            ],
            [
                -122.3794994132837,
                47.62965882209787
            ],
            [
                -122.37946112749364,
                47.62969109514198
            ],
            [
                -122.37953517233807,
                47.629642987216634
            ],
            [
                -122.37950668192588,
                47.62963212031531
            ],
            [
                -122.37951115959712,
                47.62964145792202
            ],
            [
                -122.37948072369959,
                47.629663117158834
            ],
            [
                -122.37950795063908,
                47.6296473641592
            ],
            [
                -122.37948845568269,
                47.62964827817101
            ],
            [
                -122.3794918258993,
                47.629644356880995
            ],
            [
                -122.37950066934695,
                47.629642746680034
            ],
            [
                -122.37950872371088,
                47.62964568869997
            ],
            [
                -122.37949569964229,
                47.629660928414204
            ],
            [
                -122.37948078227136,
                47.629627167676745
            ],
            [
                -122.37950831794677,
                47.62963941469686
            ],
            [
                -122.37949061789435,
                47.62969254724984
            ],
            [
                -122.37946486053134,
                47.62968002657466
            ],
            [
                -122.37916218505228,
                47.62955687186854
            ],
            [
                -122.38132669654878,
                47.6278545231698
            ],
            [
                -122.38089250093267,
                47.63031451329606
            ],
            [
                -122.3808901200733,
                47.63032158199476
            ],
            [
                -122.38088838263101,
                47.6303385318171
            ],
            [
                -122.38089302462738,
                47.630319912694816
            ],
            [
                -122.38087124454512,
                47.63032092399306
            ],
            [
                -122.38084763729647,
                47.630319052581704
            ],
            [
                -122.38084920796052,
                47.630310132972234
            ],
            [
                -122.38086025539255,
                47.63030973395637
            ],
            [
                -122.38085987273435,
                47.63033071455394
            ],
            [
                -122.38085,
                47.63031
            ]
        ]
    },
    "properties": {
        "trajectory_id": 5979,
        "object_id": 368032000,
        "label": "TOWING"
    }
}