{
    "type": "Feature",
    "geometry": {
        "type": "LineString",
        "coordinates": [
            [
                -122.57668,
                47.32853
            ],
            [
                -122.57668067305612,
                47.3285292006852
            ],
            [
                -122.57667987630194,
                47.328540017439366
            ],
            [
                -122.57668026706475,
                47.328549982515916
            ],
            [
                -122.57669043945796,
                47.32854985147759
            ],
            [
                -122.57668094872099,
                47.328549614680554
            ],
            [
                -122.57668014639705,
                47.3285506982091
            ],
            [
                -122.57667034684903,
                47.32854979466681
            ],
            [
                -122.57666767044412,
                47.328523630818054
            ],
            [
                -122.57666181205947,
                47.32852143054229
            ],
            [
                -122.57667913289197,
                47.32852846948052
            ],
            [
                -122.57665978904168,
                47.32853409101107
            ],
            [
                -122.57667213717671,
                47.32853094005032
            ],
            [
                -122.57668044044951,
                47.32852016839269
            ],
            [
                -122.57668164082563,
                47.328519741639816
            ],
            [
                -122.57667033814937,
                47.32852987460429
            ],
            [
                -122.57667300905472,
                47.328531227818374
            ],
            [
                -122.5766818346243,
                47.328532523134356
            ],
            [
                -122.57667997602815,
                47.328540035375816
            ],
            [
                -122.5766727672582,
                47.32854721124287
            ],
            [
                -122.57666976519667,
                47.328553083799235
            ],
            [
                -122.57666957114897,
                47.32855992702985
            ],
            [
                -122.57667288717087,
                47.32855998789126
            ],
            [
                -122.57667343466582,
                47.32856077315792
            ],
            [
                -122.57666857969473,
                47.328549747698816
            ],
            [
                -122.57668657783402,
                47.32854999865193
            ],
            [
                -122.57669061168902,
                47.32855000010926
            ],
            [
                -122.57669796774134,
                47.328549999887805
            ],
            [
                -122.57669117307572,
                47.32855000680867
            ],
            [
                -122.57669243352561,
                47.32855061107722
            ],
            [
                -122.57666050604354,
                47.328553460559824
            ],
            [
                -122.57668992084184,
                47.32854116650559
            ],
            [
                -122.57667938567526,
                47.328550105628985
            ],
            [
                -122.57667849958338,
                47.32853881963957
            ],
            [
                -122.57668043310241,
                47.32854033740866
            ],
            [
                -122.57667994512929,
                47.32853999690782
            ],
            [
                -122.57667121614723,
                47.32854005156655
            ],
            [
                -122.57667006787247,
                47.328540950800466
            ],
            [
                -122.57667014625964,
                47.3285496980605
            ],
            [
                -122.57668035637427,
                47.328550047567546
            ],
            [
                -122.57667038730136,
                47.32854233318773
            ],
            [
                -122.57667022407436,
                47.32855110257358
            ],
            [
                -122.57667976109815,
                47.328549792901946
            ],
            [
                -122.57666560525755,
                47.32854486959563
            ],
            [
                -122.57666076246537,
                47.328540403594495
            ],
            [
                -122.57664997241548,
                47.32854336264727
            ],
            [
                -122.57663929699864,
                47.328540209264574
            ],
            [
                -122.5766399121603,
                47.328540055218824
            ],
            [
                -122.57663972454024,
                47.32853997465707
            ],
            [
                -122.5766500530134,
                47.328549813178086
            ],
            [
                -122.57666017615509,
                47.32853975370088
            ],
            [
                -122.5766600995747,
                47.32855001765576
            ],
            [
                -122.57664973421298,
                47.32854964097365
            ],
            [
                -122.57665019012217,
                47.3285398716822
            ],
            [
                -122.57669011957225,
                47.32851998879441
            ],
            [
                -122.57668000701624,
                47.328509927943344
            ],
            [
                -122.57668000090054,
                47.32852000203126
            ],
            [
                -122.57667011750372,
                47.3285398905446
            ],
            [
                -122.57666028383022,
                47.32853028127314
            ],
            [
                -122.57666002488217,
                47.32853002158504
            ],
            [
                -122.57665999286331,
                47.32852543579557
            ],
            [
                -122.57666102297861,
                47.3285195950338
            ],
            [
                -122.57668942609385,
                47.32853905457061
            ],
            [
                -122.57667968666662,
                47.328559768067635
            ],
            [
                -122.5766714734015,
                47.32855997147774
            ],
            [
                -122.57666979145186,
                47.328559997590546
            ],
            [
                -122.57666112883503,
                47.32855785255882
            ],
            [
                -122.5766600064153,
                47.3285502747706
            ],
            [
                -122.57665999966635,
                47.32854809739751
            ],
            [
                -122.57665999586943,
                47.32854989983153
            ],
            [
                -122.57666023754523,
                47.328549987753384
            ],
            [
                -122.57666922607314,
                47.32855819886504
            ],
            [
                -122.57664739345522,
                47.32853927948374
            ],
            [
                -122.57666379855294,
                47.32854520024545
            ],
            [
                -122.57665983984448,
                47.32853231184219
            ],
            [
                -122.57666041987065,
                47.328507139071704
            ],
            [
                -122.57665279486142,
                47.32855620299647
            ],
            [
                -122.5766551868497,
                47.32855682740195
            ],
            [
                -122.57670099462426,
                47.3285694454325
            ],
            [
                -122.57669101277457,
                47.32856104205051
            ],
            [
                -122.57667920606674,
                47.32854938286978
            ],
            [
                -122.57667973173136,
                47.32854349393246
            ],
            [
                -122.5766685684521,
                47.328564791652404
            ],
            [
                -122.57666810096494,
                47.3285480912227
            ],
            [
                -122.57667948009559,
                47.328550044173134
            ],
            [
                -122.57668514142568,
                47.328550000671456
            ],
            [
                -122.57667936021703,
                47.32854999968145
            ],
            [
                -122.57668755887025,
                47.32854995827978
            ],
            [
                -122.57668002103244,
                47.328549742677595
            ],
            [
                -122.57668430195966,
                47.32855817757319
            ],
            [
                -122.57669031579117,
                47.328558507974016
            ],
            [
                -122.57669080170439,
                47.328549190835794
            ],
            [
                -122.5766787882495,
                47.328573806081536
            ],
            [
                -122.57665977220942,
                47.32856033413733
            ],
            [
                -122.57666003560055,
                47.3285600247252
            ],
            [
                -122.57665624448934,
                47.328555819853605
            ],
            [
                -122.57665171852555,
                47.32855014103534
            ],
            [
                -122.57666006300657,
                47.32854934104271
            ],
            [
                -122.57666006577846,
                47.328540091851835
            ],
            [
                -122.57666101536252,
                47.32853977000898
            ],
            [
                -122.57668522561735,
                47.32853210356637
            ],
            [
                -122.57666813737596,
                47.328530065924916
            ],
            [
                -122.57667948843819,
                47.328531708266176
            ],
            [
                -122.5766605123482,
                47.328559847698926
            ],
            [
                -122.57667245753939,
                47.328552273710585
            ],
            [
                -122.57667059152173,
                47.32855030113005
            ],
            [
                -122.5766704373781,
                47.32855000903202
            ],
            [
                -122.5766605352258,
                47.32855150434682
            ],
            [
                -122.57667001709338,
                47.328561153080486
            ],
            [
                -122.57666900558304,
                47.328560158420615
            ],
            [
                -122.57668084483903,
                47.32856005045768
            ],
            [
                -122.57667738753803,
                47.32855656359407
            ],
            [
                -122.57668050923449,
                47.32855018831111
            ],
            [
                -122.5766799512434,
                47.32854070626677
            ],
            [
                -122.57667999957422,
                47.32854000616241
            ],
            [
                -122.57667999953907,
                47.328540003358
            ],
            [
                -122.57668000005243,
                47.32854000926682
            ],
            [
                -122.57667999999987,
                47.32853999341379
            ],
            [
                -122.5766799999992,
                47.32853881486072
            ],
            [
                -122.57668,
                47.32853
            ]
        ]
    },
    "properties": {
        "trajectory_id": 6009,
        "object_id": 368038310,
        "label": "PLEASURE CRAFT"
    }
}