{
    "type": "Feature",
    "geometry": {
        "type": "LineString",
        "coordinates": [
            [
                -122.60687,
                48.51233
            ],
            [
                -122.6068498329271,
                48.51234963394876
            ],
            [
                -122.60687006178091,
                48.51233980341521
            ],
            [
                -122.60684979847413,
                48.51235980675407
            ],
            [
                -122.60687009498052,
                48.51235810293373
            ],
            [
                -122.60682372835745,
                48.512354898459385
            ],
            [
                -122.60691040630252,
                48.5122991647061
            ],
            [
                -122.6068704172832,
                48.51229742523551
            ],
            [
                -122.60686698285244,
                48.51232906479257
            ],
            [
                -122.60685648242608,
                48.51233066100849
            ],
            [
                -122.60686971341693,
                48.51235071033909
            ],
            [
                -122.60685203589061,
                48.51235452240212
            ],
            [
                -122.60687160043145,
                48.51235828711838
            ],
            [
                -122.60686927345047,
                48.512383493892585
            ],
            [
                -122.60683960701292,
                48.51232766866979
            ],
            [
                -122.60683748019551,
                48.51232888267632
            ],
            [
                -122.60685182192182,
                48.512341334136906
            ],
            [
                -122.60686832820633,
                48.51232172676755
            ],
            [
                -122.60686851792771,
                48.51232042417382
            ],
            [
                -122.60686872542298,
                48.512312610031564
            ],
            [
                -122.60684987167183,
                48.51234771726451
            ],
            [
                -122.60687064102746,
                48.51234022779886
            ],
            [
                -122.60686722217271,
                48.512343055473515
            ],
            [
                -122.60686641519344,
                48.51234185765239
            ],
            [
                -122.60687072760675,
                48.51233507259666
            ],
            [
                -122.6068514410337,
                48.5123394326918
            ],
            [
                -122.60687120172155,
                48.51234355260343
            ],
            [
                -122.6068685807652,
                48.5123174069466
            ],
            [
                -122.60684627625035,
                48.5123351437466
            ],
            [
                -122.60685774065722,
                48.51233233217556
            ],
            [
                -122.60684453397899,
                48.512344024643376
            ],
            [
                -122.60685611317336,
                48.512344375292535
            ],
            [
                -122.60684518016485,
                48.51236350714673
            ],
            [
                -122.60687051407378,
                48.51233278824385
            ],
            [
                -122.60684371487528,
                48.51235798118358
            ],
            [
                -122.60684728811333,
                48.51235011190623
            ],
            [
                -122.60686506517541,
                48.5122935080649
            ],
            [
                -122.60684604552083,
                48.512352363076836
            ],
            [
                -122.60684448696983,
                48.51234885166817
            ],
            [
                -122.60684337569553,
                48.51232723620504
            ],
            [
                -122.60683663939842,
                48.51234023933606
            ],
            [
                -122.60683757459641,
                48.51231893020018
            ],
            [
                -122.60687070808069,
                48.51235022039373
            ],
            [
                -122.6068568376908,
                48.51232714944111
            ],
            [
                -122.60683871540287,
                48.51233183465302
            ],
            [
                -122.60690349198958,
                48.512391482545745
            ],
            [
                -122.60687198576436,
                48.512355087092516
            ],
            [
                -122.60688546359219,
                48.51237839546557
            ],
            [
                -122.60686662690333,
                48.512335048629375
            ],
            [
                -122.6068227317165,
                48.51234791710105
            ],
            [
                -122.60684310096423,
                48.51233269270299
            ],
            [
                -122.60685119587686,
                48.51235067774822
            ],
            [
                -122.60685413402821,
                48.51232376372218
            ],
            [
                -122.60684419614357,
                48.51235114898
            ],
            [
                -122.60685062308166,
                48.51235282521699
            ],
            [
                -122.60685904413269,
                48.51232227392281
            ],
            [
                -122.60686389191257,
                48.51234611387333
            ],
            [
                -122.60684027856846,
                48.51236142057259
            ],
            [
                -122.60685051484921,
                48.51232635105123
            ],
            [
                -122.60681736395117,
                48.51230387213645
            ],
            [
                -122.60682773777067,
                48.51233294454394
            ],
            [
                -122.6068221351858,
                48.51234158238482
            ],
            [
                -122.60686938796171,
                48.512367417642814
            ],
            [
                -122.60684326829835,
                48.51232295747504
            ],
            [
                -122.60688693586813,
                48.51234132745868
            ],
            [
                -122.60685058495656,
                48.512345874274246
            ],
            [
                -122.60684957689892,
                48.512328437545676
            ],
            [
                -122.60681774278432,
                48.51236062850422
            ],
            [
                -122.60681715533991,
                48.51235841831584
            ],
            [
                -122.606861830289,
                48.512368853265734
            ],
            [
                -122.60686531380463,
                48.512336243254445
            ],
            [
                -122.60686924452489,
                48.51233983717399
            ],
            [
                -122.6068461049237,
                48.512358595223446
            ],
            [
                -122.60687030967662,
                48.5123215743406
            ],
            [
                -122.60685311800313,
                48.512352676592585
            ],
            [
                -122.60687014462852,
                48.512346274630865
            ],
            [
                -122.60687562067015,
                48.51235457346665
            ],
            [
                -122.60684681404088,
                48.51235280478829
            ],
            [
                -122.6068709161606,
                48.51235902834208
            ],
            [
                -122.60687478110829,
                48.51232970882804
            ],
            [
                -122.60687301277908,
                48.51233344079918
            ],
            [
                -122.60687770395185,
                48.51229911776075
            ],
            [
                -122.60686498227058,
                48.51234872661189
            ],
            [
                -122.60686340828741,
                48.51232259956553
            ],
            [
                -122.60685565754623,
                48.5123423735064
            ],
            [
                -122.60684989730494,
                48.51235169198896
            ],
            [
                -122.60684144001732,
                48.51235372545716
            ],
            [
                -122.60683391966553,
                48.51233629743673
            ],
            [
                -122.60686811375925,
                48.51234534071936
            ],
            [
                -122.6068489402093,
                48.512352145245266
            ],
            [
                -122.60686613647398,
                48.512357413895835
            ],
            [
                -122.60684763477894,
                48.51233668127201
            ],
            [
                -122.60685442475335,
                48.51238624185099
            ],
            [
                -122.6068723186404,
                48.512314049234334
            ],
            [
                -122.60686484924062,
                48.51234744736058
            ],
            [
                -122.6068558615701,
                48.51232208121065
            ],
            [
                -122.6068402169369,
                48.51234855249494
            ],
            [
                -122.60684159730214,
                48.51233251856237
            ],
            [
                -122.60683882243409,
                48.5123406460435
            ],
            [
                -122.60684537526832,
                48.5123481123661
            ],
            [
                -122.60684648000002,
                48.51235969634192
            ],
            [
                -122.60684074670525,
                48.512349973936864
            ],
            [
                -122.6068389609632,
                48.51235005720647
            ],
            [
                -122.60684958712685,
                48.512340220476084
            ],
            [
                -122.60684940399034,
                48.51232320789204
            ],
            [
                -122.60685187235354,
                48.5123522321715
            ],
            [
                -122.60687797560543,
                48.51233152667586
            ],
            [
                -122.60687064308287,
                48.512348895247825
            ],
            [
                -122.60686889989552,
                48.5123500802249
            ],
            [
                -122.60686973457078,
                48.51237957658225
            ],
            [
                -122.60686828867712,
                48.512369879476736
            ],
            [
                -122.60687081735232,
                48.5123599505462
            ],
            [
                -122.60684938960296,
                48.51232903867775
            ],
            [
                -122.60686926460568,
                48.51232041927037
            ],
            [
                -122.60687987938809,
                48.512340045126194
            ],
            [
                -122.60685030573585,
                48.512349439400865
            ],
            [
                -122.60683980335816,
                48.5123500302329
            ],
            [
                -122.60685237647115,
                48.51232444500372
            ],
            [
                -122.60684998809539,
                48.51233001506377
            ],
            [
                -122.60687,
                48.51234
            ]
        ]
    },
    "properties": {
        "trajectory_id": 6027,
        "object_id": 368040980,
        "label": "PLEASURE CRAFT"
    }
}