{
    "type": "Feature",
    "geometry": {
        "type": "LineString",
        "coordinates": [
            [
                -122.52016,
                47.62078
            ],
            [
                -122.52014923061515,
                47.62077069265205
            ],
            [
                -122.52015017749903,
                47.620800392352955
            ],
            [
                -122.52014879518532,
                47.62078953415529
            ],
            [
                -122.52013829883576,
                47.62080023395655
            ],
            [
                -122.5201402479186,
                47.62080842562336
            ],
            [
                -122.52014899030267,
                47.620788563717795
            ],
            [
                -122.5200871744469,
                47.62078308211249
            ],
            [
                -122.52011390152438,
                47.62079943697569
            ],
            [
                -122.5201462052219,
                47.620792657758294
            ],
            [
                -122.52015369488066,
                47.62079283849113
            ],
            [
                -122.52015497799685,
                47.62081550490927
            ],
            [
                -122.52014658784024,
                47.62079828301637
            ],
            [
                -122.5201518166589,
                47.62079570127667
            ],
            [
                -122.52015293504995,
                47.62080212303404
            ],
            [
                -122.52013775585654,
                47.62078781264205
            ],
            [
                -122.52015190432125,
                47.620789005430574
            ],
            [
                -122.52014370307698,
                47.62080012918101
            ],
            [
                -122.52015858718269,
                47.62078536392899
            ],
            [
                -122.52018094746128,
                47.62078449917479
            ],
            [
                -122.52015168398337,
                47.62080390551729
            ],
            [
                -122.52014645542576,
                47.62079841283976
            ],
            [
                -122.52015418699914,
                47.62080650187063
            ],
            [
                -122.52016453838924,
                47.6208014553779
            ],
            [
                -122.52014143258081,
                47.62079553351392
            ],
            [
                -122.5201333670154,
                47.62079127513234
            ],
            [
                -122.520149890196,
                47.62079955552204
            ],
            [
                -122.52016947004235,
                47.62079643665476
            ],
            [
                -122.52017829136571,
                47.62080914751199
            ],
            [
                -122.52015031870971,
                47.620799270038106
            ],
            [
                -122.52013815965168,
                47.620788011071376
            ],
            [
                -122.52014348089858,
                47.62079155715364
            ],
            [
                -122.52015091635083,
                47.620799907904136
            ],
            [
                -122.52013194974082,
                47.62079846253943
            ],
            [
                -122.52015374769623,
                47.62078316793408
            ],
            [
                -122.52015044537413,
                47.620807257515914
            ],
            [
                -122.52016084173422,
                47.620811658821225
            ],
            [
                -122.52016014070334,
                47.620809019645876
            ],
            [
                -122.5201502315027,
                47.62079953439981
            ],
            [
                -122.52015982431429,
                47.62079006576282
            ],
            [
                -122.52017009947501,
                47.620790117895716
            ],
            [
                -122.52014965386842,
                47.6207896044515
            ],
            [
                -122.52016026514661,
                47.620800383661084
            ],
            [
                -122.52013981762889,
                47.620779387458086
            ],
            [
                -122.52015124077346,
                47.62079944640093
            ],
            [
                -122.52016704659458,
                47.62080936596637
            ],
            [
                -122.5201606769021,
                47.62080904009319
            ],
            [
                -122.52014041063796,
                47.62078690817186
            ],
            [
                -122.52017536194496,
                47.620800593283214
            ],
            [
                -122.5201710848882,
                47.62076689348395
            ],
            [
                -122.52014939519668,
                47.62080889594689
            ],
            [
                -122.52017161633049,
                47.62079872723422
            ],
            [
                -122.52016532538796,
                47.620795391450514
            ],
            [
                -122.52014856981403,
                47.62080061362878
            ],
            [
                -122.52015599134633,
                47.62081896251736
            ],
            [
                -122.52014792758361,
                47.62079812241341
            ],
            [
                -122.52015604450276,
                47.62077752776612
            ],
            [
                -122.52018149865171,
                47.62079142246554
            ],
            [
                -122.52015175006258,
                47.62078709334433
            ],
            [
                -122.52015448703791,
                47.62078726136864
            ],
            [
                -122.52014030432257,
                47.62081498744427
            ],
            [
                -122.52011973704161,
                47.62078767793858
            ],
            [
                -122.52008823253949,
                47.620785801896325
            ],
            [
                -122.52009583609096,
                47.62079509308754
            ],
            [
                -122.52015527444351,
                47.6207986090471
            ],
            [
                -122.52014964262172,
                47.620800476325265
            ],
            [
                -122.52013192881547,
                47.62079866424042
            ],
            [
                -122.52014915869968,
                47.6208055208848
            ],
            [
                -122.52015040894639,
                47.62080455339399
            ],
            [
                -122.5201732753373,
                47.62079912648234
            ],
            [
                -122.52015849365823,
                47.62079674037473
            ],
            [
                -122.52017151512902,
                47.620817846093765
            ],
            [
                -122.5201806499698,
                47.620809786404855
            ],
            [
                -122.5201512999484,
                47.62078945103003
            ],
            [
                -122.52015049569518,
                47.62080068858012
            ],
            [
                -122.52015075524506,
                47.620799932494535
            ],
            [
                -122.52014830587737,
                47.62079887242771
            ],
            [
                -122.52013098829809,
                47.62078928756554
            ],
            [
                -122.52014971896813,
                47.62079061978506
            ],
            [
                -122.52012020095614,
                47.62080007605752
            ],
            [
                -122.5201702222098,
                47.620789986020824
            ],
            [
                -122.52015077057506,
                47.62079943836767
            ],
            [
                -122.52014027436843,
                47.620789004208305
            ],
            [
                -122.52015922817127,
                47.620788822184174
            ],
            [
                -122.52016774410883,
                47.62080967384246
            ],
            [
                -122.52016896417763,
                47.62079937309305
            ],
            [
                -122.52015931549201,
                47.62078990829539
            ],
            [
                -122.52016074844211,
                47.620792662710215
            ],
            [
                -122.5201555669759,
                47.62081131787166
            ],
            [
                -122.52016268830347,
                47.62082209765066
            ],
            [
                -122.52015987268318,
                47.62080403461806
            ],
            [
                -122.52013816062234,
                47.62079723052085
            ],
            [
                -122.52013051547827,
                47.620805537208206
            ],
            [
                -122.52015550132695,
                47.62080377395497
            ],
            [
                -122.52017081715258,
                47.620787001279794
            ],
            [
                -122.52014563986764,
                47.620807422845076
            ],
            [
                -122.52016614874661,
                47.620795072918526
            ],
            [
                -122.5201661704764,
                47.62079246235677
            ],
            [
                -122.52016043018409,
                47.62078490676685
            ],
            [
                -122.52016220270255,
                47.62077558911557
            ],
            [
                -122.52014832014709,
                47.62081007132122
            ],
            [
                -122.52015099222555,
                47.62078431216272
            ],
            [
                -122.52013739082912,
                47.620800764460064
            ],
            [
                -122.52016472829332,
                47.62079511536959
            ],
            [
                -122.52016210553207,
                47.62079069057431
            ],
            [
                -122.52015960878758,
                47.62078859391756
            ],
            [
                -122.52016330688208,
                47.62078351490036
            ],
            [
                -122.5201506984993,
                47.62078901430176
            ],
            [
                -122.52016969270103,
                47.62078600396125
            ],
            [
                -122.52014996633406,
                47.620797407353756
            ],
            [
                -122.52015795765897,
                47.62078971697024
            ],
            [
                -122.52013030994212,
                47.62079750016017
            ],
            [
                -122.5201603550594,
                47.62078201244884
            ],
            [
                -122.52015269734393,
                47.62079047396906
            ],
            [
                -122.52015036857023,
                47.620792334007874
            ],
            [
                -122.52014448379904,
                47.62077801144403
            ],
            [
                -122.52014986689048,
                47.62079032732193
            ],
            [
                -122.52015069518012,
                47.62079000536208
            ],
            [
                -122.52015981728344,
                47.62078983886063
            ],
            [
                -122.52015,
                47.62078
            ]
        ]
    },
    "properties": {
        "trajectory_id": 6055,
        "object_id": 368043680,
        "label": "PLEASURE CRAFT"
    }
}