{
    "type": "Feature",
    "geometry": {
        "type": "LineString",
        "coordinates": [
            [
                -122.32757,
                47.64671
            ],
            [
                -122.32756011728156,
                47.64668979839932
            ],
            [
                -122.32758015943814,
                47.64668998986351
            ],
            [
                -122.32757082297991,
                47.64671077547932
            ],
            [
                -122.32754974012666,
                47.64671953355183
            ],
            [
                -122.32758972530522,
                47.64671017651029
            ],
            [
                -122.3275712956427,
                47.64670793235108
            ],
            [
                -122.32758053549522,
                47.646711096074846
            ],
            [
                -122.32756903180524,
                47.646699721861424
            ],
            [
                -122.32756848714429,
                47.646701705007885
            ],
            [
                -122.3275649315944,
                47.64669815696663
            ],
            [
                -122.32756120329101,
                47.64670293198282
            ],
            [
                -122.32757206592511,
                47.64671079739424
            ],
            [
                -122.32757052300512,
                47.64669610253575
            ],
            [
                -122.3275690684776,
                47.64670081911772
            ],
            [
                -122.32757370171379,
                47.64671797126395
            ],
            [
                -122.3275668525205,
                47.64669798740362
            ],
            [
                -122.3275623044465,
                47.64670990976602
            ],
            [
                -122.32756502812758,
                47.646705431471915
            ],
            [
                -122.32756630380456,
                47.646705271523366
            ],
            [
                -122.32759355529919,
                47.64669596354363
            ],
            [
                -122.32757387166741,
                47.64671451058178
            ],
            [
                -122.32757066907894,
                47.64669594117792
            ],
            [
                -122.32755976481957,
                47.64669730587095
            ],
            [
                -122.32757404620129,
                47.646694807031736
            ],
            [
                -122.32756461176932,
                47.6466932865646
            ],
            [
                -122.32755421657279,
                47.64670345502539
            ],
            [
                -122.32756054287462,
                47.646690214770004
            ],
            [
                -122.32756744046851,
                47.64669772409359
            ],
            [
                -122.32757329310114,
                47.64669590297793
            ],
            [
                -122.32756012000726,
                47.64669223294869
            ],
            [
                -122.32756666853332,
                47.64669819720074
            ],
            [
                -122.32757996940498,
                47.646690862626066
            ],
            [
                -122.32757075053729,
                47.64670031353555
            ],
            [
                -122.32758125232326,
                47.646699899658415
            ],
            [
                -122.3275804311593,
                47.646701190654404
            ],
            [
                -122.32757602751543,
                47.646701566650506
            ],
            [
                -122.3275706460403,
                47.64669940114769
            ],
            [
                -122.3275804016396,
                47.64668972296144
            ],
            [
                -122.3275800231611,
                47.64671012410679
            ],
            [
                -122.3275800278162,
                47.64669992487081
            ],
            [
                -122.32757955907338,
                47.646710023543974
            ],
            [
                -122.32757997225073,
                47.64670718043894
            ],
            [
                -122.32758043414864,
                47.646719998566304
            ],
            [
                -122.32758962339179,
                47.64670987989663
            ],
            [
                -122.32760052867775,
                47.64671158251071
            ],
            [
                -122.32758191957873,
                47.64670891578072
            ],
            [
                -122.32758235142637,
                47.64670998485362
            ],
            [
                -122.32757781427392,
                47.64670804654487
            ],
            [
                -122.32756785724885,
                47.64670887577615
            ],
            [
                -122.32756889112999,
                47.646719519303225
            ],
            [
                -122.32756164196158,
                47.64670150174716
            ],
            [
                -122.32756570189665,
                47.64670364937453
            ],
            [
                -122.32756854633989,
                47.64671396901659
            ],
            [
                -122.32758048955712,
                47.64670410729112
            ],
            [
                -122.32757025022984,
                47.64670520937671
            ],
            [
                -122.32757523026957,
                47.64671644836679
            ],
            [
                -122.32757275453625,
                47.646709910971936
            ],
            [
                -122.32758340278029,
                47.64671000488435
            ],
            [
                -122.32757341909503,
                47.646711069420206
            ],
            [
                -122.32758301387298,
                47.64668894625403
            ],
            [
                -122.3275799293665,
                47.646690085144066
            ],
            [
                -122.3275866201085,
                47.64668450827441
            ],
            [
                -122.32755968716046,
                47.646691154240116
            ],
            [
                -122.327573420724,
                47.646703200851825
            ],
            [
                -122.32757251353561,
                47.64669833447192
            ],
            [
                -122.32757290415921,
                47.6466959924294
            ],
            [
                -122.32758120605205,
                47.64669897936736
            ],
            [
                -122.32758269668993,
                47.64670655437779
            ],
            [
                -122.32758518053286,
                47.64670556363381
            ],
            [
                -122.3275823070628,
                47.646702687402765
            ],
            [
                -122.32757079366894,
                47.64670830463992
            ],
            [
                -122.32758108107505,
                47.6467093181287
            ],
            [
                -122.32757887119323,
                47.64670917920472
            ],
            [
                -122.32757644580393,
                47.64669997536339
            ],
            [
                -122.32758006967357,
                47.64669985624331
            ],
            [
                -122.32755987153656,
                47.6466901608583
            ],
            [
                -122.32757068803699,
                47.64669016797103
            ],
            [
                -122.32756964920273,
                47.64671021859954
            ],
            [
                -122.32757002539716,
                47.646700097367784
            ],
            [
                -122.32758013137419,
                47.64671005609746
            ],
            [
                -122.32758401423207,
                47.64668899464147
            ],
            [
                -122.32757930996746,
                47.64670057189576
            ],
            [
                -122.32757000847914,
                47.64670988010273
            ],
            [
                -122.32756967616568,
                47.646698907759266
            ],
            [
                -122.32757162967792,
                47.64671963016046
            ],
            [
                -122.32758953412737,
                47.646710163605206
            ],
            [
                -122.3275700827326,
                47.64669976431036
            ],
            [
                -122.32757897855473,
                47.64672252641794
            ],
            [
                -122.32757227851916,
                47.646718828347936
            ],
            [
                -122.32758035786011,
                47.64671231825388
            ],
            [
                -122.32758091363613,
                47.64671020998885
            ],
            [
                -122.32756926508361,
                47.646720386611655
            ],
            [
                -122.32757306799009,
                47.646720776841136
            ],
            [
                -122.32758387818201,
                47.646709704464556
            ],
            [
                -122.32757315495071,
                47.64669919101372
            ],
            [
                -122.3275699219409,
                47.646705317843754
            ],
            [
                -122.32757635820147,
                47.6467054711977
            ],
            [
                -122.32757056807075,
                47.64669500712476
            ],
            [
                -122.32756495667599,
                47.64669403242133
            ],
            [
                -122.3275708144842,
                47.64669026461708
            ],
            [
                -122.32755861104741,
                47.64669598271632
            ],
            [
                -122.3275601421509,
                47.64669493774412
            ],
            [
                -122.3275508465368,
                47.646693735286796
            ],
            [
                -122.32756907931093,
                47.646689689422246
            ],
            [
                -122.32757418238674,
                47.64668556206442
            ],
            [
                -122.32757730699363,
                47.646692091099375
            ],
            [
                -122.32757006053572,
                47.646682618394024
            ],
            [
                -122.32758077195074,
                47.64667271004698
            ],
            [
                -122.3275629795284,
                47.64667987796688
            ],
            [
                -122.32755876189111,
                47.64668812343802
            ],
            [
                -122.3275703742278,
                47.64668775854639
            ],
            [
                -122.3275687991647,
                47.64670019845102
            ],
            [
                -122.3275713791912,
                47.64669844123613
            ],
            [
                -122.32757110771936,
                47.64668985765636
            ],
            [
                -122.3275793396321,
                47.646689498451494
            ],
            [
                -122.32758058341139,
                47.64671041138642
            ],
            [
                -122.32757001721754,
                47.64670986544942
            ],
            [
                -122.32759012910329,
                47.64670004817308
            ],
            [
                -122.32758,
                47.6467
            ]
        ]
    },
    "properties": {
        "trajectory_id": 6090,
        "object_id": 368048220,
        "label": "PLEASURE CRAFT"
    }
}