{
    "type": "Feature",
    "geometry": {
        "type": "LineString",
        "coordinates": [
            [
                -122.32757,
                47.64671
            ],
            [
                -122.3275800863033,
                47.64669992679065
            ],
            [
                -122.32755971589317,
                47.64670026690135
            ],
            [
                -122.32757003176742,
                47.646700458377076
            ],
            [
                -122.32756954633967,
                47.64670981613397
            ],
            [
                -122.32756959364335,
                47.646700630079415
            ],
            [
                -122.32755851507063,
                47.646701312432604
            ],
            [
                -122.32756026269773,
                47.64670016274941
            ],
            [
                -122.32755884322485,
                47.64669990478547
            ],
            [
                -122.32754949311611,
                47.64669937415218
            ],
            [
                -122.3275414889073,
                47.646690275931505
            ],
            [
                -122.32754815249288,
                47.646689966463775
            ],
            [
                -122.32755978261622,
                47.64669912508645
            ],
            [
                -122.32754991369343,
                47.6466944420421
            ],
            [
                -122.32755018717137,
                47.64670262074799
            ],
            [
                -122.32754763277244,
                47.64671002138032
            ],
            [
                -122.32754454807994,
                47.646707053780055
            ],
            [
                -122.32755190277874,
                47.64670932984031
            ],
            [
                -122.32755938800047,
                47.646710360058215
            ],
            [
                -122.32756196587921,
                47.64671000181985
            ],
            [
                -122.32756037445125,
                47.64670999997131
            ],
            [
                -122.32754832854552,
                47.64671000036089
            ],
            [
                -122.32755433760485,
                47.64671007522626
            ],
            [
                -122.32756005537581,
                47.646702252831666
            ],
            [
                -122.32755185644498,
                47.64671148665698
            ],
            [
                -122.32756531868819,
                47.64671007432489
            ],
            [
                -122.3275636397348,
                47.64671007609855
            ],
            [
                -122.32756911359391,
                47.64670451764471
            ],
            [
                -122.32756426785602,
                47.64670437240258
            ],
            [
                -122.32756478758716,
                47.64670524505245
            ],
            [
                -122.32757269008971,
                47.64671351235684
            ],
            [
                -122.32757022977789,
                47.64670126055139
            ],
            [
                -122.32757000128127,
                47.646704533835354
            ],
            [
                -122.32756999820658,
                47.64670594040083
            ],
            [
                -122.32756963435423,
                47.64670535475452
            ],
            [
                -122.32757000074847,
                47.64669860393128
            ],
            [
                -122.32757387862422,
                47.64669059570705
            ],
            [
                -122.32757095562397,
                47.64668901049625
            ],
            [
                -122.32756328952591,
                47.64669583300695
            ],
            [
                -122.32756897695526,
                47.64668784132448
            ],
            [
                -122.32757041128583,
                47.64668908318302
            ],
            [
                -122.32756700244359,
                47.64668301511327
            ],
            [
                -122.32755427582029,
                47.646687546644955
            ],
            [
                -122.32754913045933,
                47.64668021035515
            ],
            [
                -122.32755749896761,
                47.64668986385321
            ],
            [
                -122.32756954198975,
                47.64669837647285
            ],
            [
                -122.32756126667367,
                47.64670063293528
            ],
            [
                -122.3275721227302,
                47.64669668454304
            ],
            [
                -122.32757139715872,
                47.64669773659603
            ],
            [
                -122.32757206518686,
                47.646699433470616
            ],
            [
                -122.32755398266444,
                47.64670914277831
            ],
            [
                -122.3275696500645,
                47.64670025839068
            ],
            [
                -122.32756033032241,
                47.6467085316586
            ],
            [
                -122.32757090534197,
                47.64670903461756
            ],
            [
                -122.32755925018436,
                47.64670988368564
            ],
            [
                -122.32757023068856,
                47.64670966518622
            ],
            [
                -122.32756088994941,
                47.64672050340951
            ],
            [
                -122.32755991146198,
                47.64670998415509
            ],
            [
                -122.32753980273581,
                47.646720025468184
            ],
            [
                -122.32756994163566,
                47.64671000554571
            ],
            [
                -122.32757000401824,
                47.646719999894806
            ],
            [
                -122.32756997823732,
                47.64670975850625
            ],
            [
                -122.32756992529367,
                47.646710150850225
            ],
            [
                -122.32756112973087,
                47.64670090014174
            ],
            [
                -122.3275696651218,
                47.64669864112663
            ],
            [
                -122.3275594467518,
                47.64669935119654
            ],
            [
                -122.32756966218315,
                47.64671044141661
            ],
            [
                -122.32758109736741,
                47.646700201890646
            ],
            [
                -122.32756758252664,
                47.646690937109085
            ],
            [
                -122.32757165007972,
                47.64670004902787
            ],
            [
                -122.32759038100146,
                47.64670084830452
            ],
            [
                -122.327580021568,
                47.64670878805567
            ],
            [
                -122.32757886456028,
                47.646701177173576
            ],
            [
                -122.32755908829549,
                47.646707320345236
            ],
            [
                -122.327573005519,
                47.646698972553764
            ],
            [
                -122.32756957755682,
                47.646693053320654
            ],
            [
                -122.32757130418281,
                47.6467001520092
            ],
            [
                -122.32756810521288,
                47.64671215861316
            ],
            [
                -122.32755877205162,
                47.64671002847999
            ],
            [
                -122.327557696322,
                47.6467122868777
            ],
            [
                -122.3275741054062,
                47.64669120140823
            ],
            [
                -122.32756783008298,
                47.646701258124565
            ],
            [
                -122.32756312069763,
                47.64671346440437
            ],
            [
                -122.32758109098864,
                47.646696769921924
            ],
            [
                -122.32758082045528,
                47.6467086310504
            ],
            [
                -122.32757518766246,
                47.64671759923962
            ],
            [
                -122.32758090136926,
                47.64671354573678
            ],
            [
                -122.32757451858815,
                47.646711577631876
            ],
            [
                -122.3275634620152,
                47.64670759357972
            ],
            [
                -122.3275631873383,
                47.646715606089685
            ],
            [
                -122.3276047932873,
                47.646710281748554
            ],
            [
                -122.3275805364731,
                47.64670758828946
            ],
            [
                -122.32758538818992,
                47.64671327822098
            ],
            [
                -122.32758628049719,
                47.64671076039261
            ],
            [
                -122.32759233353146,
                47.6467003519118
            ],
            [
                -122.3275772761302,
                47.64670482953382
            ],
            [
                -122.32757269943231,
                47.64669377493067
            ],
            [
                -122.32757577942763,
                47.64669943477808
            ],
            [
                -122.32757800003645,
                47.64670106178391
            ],
            [
                -122.32756987842754,
                47.64669488393589
            ],
            [
                -122.32757403793872,
                47.64673310699445
            ],
            [
                -122.32757777627603,
                47.646728228779565
            ],
            [
                -122.3275711905761,
                47.64669345051451
            ],
            [
                -122.32757662840116,
                47.646689641596055
            ],
            [
                -122.3275812377005,
                47.646697703859346
            ],
            [
                -122.32758671015817,
                47.64670343140698
            ],
            [
                -122.32756979072057,
                47.64668161938066
            ],
            [
                -122.32757988157641,
                47.646690422544886
            ],
            [
                -122.32757139154724,
                47.64668894617466
            ],
            [
                -122.32757002668389,
                47.64669040264729
            ],
            [
                -122.32757952133333,
                47.64668965408255
            ],
            [
                -122.3275796786433,
                47.64668999814828
            ],
            [
                -122.32757999826927,
                47.64668999470865
            ],
            [
                -122.3275802276805,
                47.646689347963814
            ],
            [
                -122.32757012904203,
                47.64669001046633
            ],
            [
                -122.32759001456346,
                47.646690632892785
            ],
            [
                -122.32759029046646,
                47.646700094273605
            ],
            [
                -122.32757999824386,
                47.64670999729688
            ],
            [
                -122.32758004008552,
                47.64669999909401
            ],
            [
                -122.32758,
                47.6467
            ]
        ]
    },
    "properties": {
        "trajectory_id": 6091,
        "object_id": 368048220,
        "label": "PLEASURE CRAFT"
    }
}