{
    "type": "Feature",
    "geometry": {
        "type": "LineString",
        "coordinates": [
            [
                -122.32757,
                47.64671
            ],
            [
                -122.32758000062239,
                47.646689991093375
            ],
            [
                -122.32757036548861,
                47.646689741066204
            ],
            [
                -122.32756013246991,
                47.646699606822715
            ],
            [
                -122.32758024361488,
                47.646690065150366
            ],
            [
                -122.32756988245836,
                47.64669025102099
            ],
            [
                -122.32756587865002,
                47.64671502943805
            ],
            [
                -122.32753173070664,
                47.646733199314795
            ],
            [
                -122.32754201637368,
                47.646708946616116
            ],
            [
                -122.3275610185777,
                47.646691785139566
            ],
            [
                -122.32758794559959,
                47.64668006550477
            ],
            [
                -122.3275709011515,
                47.64668934114673
            ],
            [
                -122.32756863691111,
                47.64668951249574
            ],
            [
                -122.32757854319144,
                47.646699489887446
            ],
            [
                -122.32756509970119,
                47.64668974769232
            ],
            [
                -122.32756893366786,
                47.6466933935061
            ],
            [
                -122.32756920830752,
                47.646689658822986
            ],
            [
                -122.32756269174014,
                47.64668942700838
            ],
            [
                -122.32756833598926,
                47.64669666356521
            ],
            [
                -122.3275699625063,
                47.64669056216044
            ],
            [
                -122.32755656982387,
                47.646709663944215
            ],
            [
                -122.32757170891104,
                47.64670421448907
            ],
            [
                -122.32756528070388,
                47.64670040806324
            ],
            [
                -122.32757675372075,
                47.646692894485916
            ],
            [
                -122.32757636812482,
                47.64670259831115
            ],
            [
                -122.32756265630147,
                47.64669779138712
            ],
            [
                -122.32757623390196,
                47.64671122798848
            ],
            [
                -122.32756285801602,
                47.64669642336468
            ],
            [
                -122.32758419937176,
                47.64670347648173
            ],
            [
                -122.3275783037633,
                47.6467004351035
            ],
            [
                -122.32756582711141,
                47.646687929278905
            ],
            [
                -122.32758117556608,
                47.6466938353875
            ],
            [
                -122.32758103154303,
                47.6467002241861
            ],
            [
                -122.32756748702518,
                47.64670046298124
            ],
            [
                -122.32756859301249,
                47.64669332530339
            ],
            [
                -122.3275707326428,
                47.64669479263397
            ],
            [
                -122.3275769290287,
                47.646700270911175
            ],
            [
                -122.32757589269895,
                47.64669547303845
            ],
            [
                -122.3275821626732,
                47.6466995172377
            ],
            [
                -122.32757809981969,
                47.64669856803438
            ],
            [
                -122.3275811875927,
                47.64671552837769
            ],
            [
                -122.32756587961325,
                47.646712215161756
            ],
            [
                -122.32758389353927,
                47.646709879634464
            ],
            [
                -122.32757223559325,
                47.64670668048676
            ],
            [
                -122.3275861491257,
                47.646709023626265
            ],
            [
                -122.32758261269183,
                47.646709327444995
            ],
            [
                -122.32758062327025,
                47.64671032930918
            ],
            [
                -122.32755595862632,
                47.64670006943619
            ],
            [
                -122.32757942442655,
                47.64671147433513
            ],
            [
                -122.32755933898439,
                47.64670988336749
            ],
            [
                -122.32755921860979,
                47.646710967802015
            ],
            [
                -122.32757003526054,
                47.64670971399539
            ],
            [
                -122.32756899517871,
                47.64669945359478
            ],
            [
                -122.3275606441574,
                47.646711279254184
            ],
            [
                -122.3275707022695,
                47.64670986846533
            ],
            [
                -122.32755892561558,
                47.646719383670984
            ],
            [
                -122.32755924453025,
                47.6467001558943
            ],
            [
                -122.32756997683965,
                47.64671059417363
            ],
            [
                -122.32755870117947,
                47.646709197684956
            ],
            [
                -122.32757004039685,
                47.64669994983682
            ],
            [
                -122.32756999414883,
                47.64669997160716
            ],
            [
                -122.32754343782182,
                47.646704424554066
            ],
            [
                -122.32756577046612,
                47.64672281942416
            ],
            [
                -122.3275778534065,
                47.646720330348316
            ],
            [
                -122.32755996337583,
                47.64670041224309
            ],
            [
                -122.3275609056499,
                47.646689334735896
            ],
            [
                -122.32756740782624,
                47.64670896392688
            ],
            [
                -122.32756302381948,
                47.64670342072497
            ],
            [
                -122.32757059223812,
                47.646689704414314
            ],
            [
                -122.3275677578544,
                47.646701239336295
            ],
            [
                -122.3275622334965,
                47.64670043570388
            ],
            [
                -122.32755734878131,
                47.646690775606594
            ],
            [
                -122.32756657650663,
                47.646689470039036
            ],
            [
                -122.32757810727892,
                47.646691477974215
            ],
            [
                -122.32758088532881,
                47.646692779825344
            ],
            [
                -122.32755865148633,
                47.646701832626675
            ],
            [
                -122.32756213088952,
                47.64670017735822
            ],
            [
                -122.32757091987875,
                47.64671178558422
            ],
            [
                -122.32756025358006,
                47.646698798753874
            ],
            [
                -122.32758289155659,
                47.646707287507326
            ],
            [
                -122.32757101163284,
                47.646693484101455
            ],
            [
                -122.32757653827623,
                47.646692320484846
            ],
            [
                -122.32757289870425,
                47.64669640452108
            ],
            [
                -122.32757658810911,
                47.646688540739504
            ],
            [
                -122.32756706386654,
                47.64669698495036
            ],
            [
                -122.32757159971194,
                47.64668688201162
            ],
            [
                -122.32757175330441,
                47.64669413839503
            ],
            [
                -122.32756293389119,
                47.646698786457605
            ],
            [
                -122.32756724678354,
                47.64669824895174
            ],
            [
                -122.32755870258298,
                47.646713530560866
            ],
            [
                -122.32757136185359,
                47.646695064971986
            ],
            [
                -122.32756661172415,
                47.64670606812934
            ],
            [
                -122.32758214262424,
                47.646687413532554
            ],
            [
                -122.32757344827304,
                47.646697953519116
            ],
            [
                -122.32758646480822,
                47.64669296225704
            ],
            [
                -122.3275792024309,
                47.646694966849445
            ],
            [
                -122.32758003146108,
                47.64669893293866
            ],
            [
                -122.32757591986706,
                47.64669814067848
            ],
            [
                -122.32759671756061,
                47.64669216003176
            ],
            [
                -122.32758533167016,
                47.64669868926098
            ],
            [
                -122.32756339539873,
                47.64671601716685
            ],
            [
                -122.32757995441972,
                47.64669975162114
            ],
            [
                -122.32757899767904,
                47.646701704456966
            ],
            [
                -122.32757918528638,
                47.64669294799309
            ],
            [
                -122.32759899040977,
                47.64668958687394
            ],
            [
                -122.32757453563129,
                47.64669316684402
            ],
            [
                -122.3275722191065,
                47.64669124162265
            ],
            [
                -122.32756053327563,
                47.64668766854534
            ],
            [
                -122.3275603410892,
                47.64669268070739
            ],
            [
                -122.3275599723363,
                47.64668827772564
            ],
            [
                -122.32756021996609,
                47.64670137861641
            ],
            [
                -122.32755947047795,
                47.646689383554424
            ],
            [
                -122.3275710107364,
                47.646689933714484
            ],
            [
                -122.32755957310553,
                47.64670078092061
            ],
            [
                -122.3275654428298,
                47.646698437216706
            ],
            [
                -122.32757004950727,
                47.64670011171979
            ],
            [
                -122.32758069424953,
                47.646689949278375
            ],
            [
                -122.32758000508156,
                47.646699850326584
            ],
            [
                -122.32758000553191,
                47.646699997069305
            ],
            [
                -122.32757,
                47.6467
            ]
        ]
    },
    "properties": {
        "trajectory_id": 6092,
        "object_id": 368048220,
        "label": "PLEASURE CRAFT"
    }
}