{
    "type": "Feature",
    "geometry": {
        "type": "LineString",
        "coordinates": [
            [
                -122.60297,
                48.50403
            ],
            [
                -122.60296999041957,
                48.50403995998495
            ],
            [
                -122.60296887133042,
                48.504039930078356
            ],
            [
                -122.60297047357489,
                48.50403976359207
            ],
            [
                -122.60296267226052,
                48.504039622299075
            ],
            [
                -122.60296972832795,
                48.50402911042053
            ],
            [
                -122.60296932338639,
                48.50404193104238
            ],
            [
                -122.60296927160647,
                48.50403736993665
            ],
            [
                -122.6029714722388,
                48.504038775617204
            ],
            [
                -122.60299002413736,
                48.50403271498421
            ],
            [
                -122.60300046078297,
                48.50400948122154
            ],
            [
                -122.60299569020395,
                48.504039307748215
            ],
            [
                -122.60296990017846,
                48.50403638446026
            ],
            [
                -122.60295931825677,
                48.50403959643538
            ],
            [
                -122.60296847756359,
                48.504042943841085
            ],
            [
                -122.60295404875744,
                48.504037401810066
            ],
            [
                -122.60299423111776,
                48.504027198181824
            ],
            [
                -122.6029571337053,
                48.50403329565927
            ],
            [
                -122.60295596569144,
                48.504030038445215
            ],
            [
                -122.60296771110525,
                48.50405841568605
            ],
            [
                -122.60296461369029,
                48.504057714467635
            ],
            [
                -122.60296127527636,
                48.5040578088136
            ],
            [
                -122.60295962886,
                48.50405186044286
            ],
            [
                -122.60300859368938,
                48.504043459542345
            ],
            [
                -122.6029712638959,
                48.50403412190999
            ],
            [
                -122.6029703291244,
                48.504041970516354
            ],
            [
                -122.60296164808766,
                48.50402041618398
            ],
            [
                -122.60297167604648,
                48.50402636906898
            ],
            [
                -122.60297341985739,
                48.504027707254444
            ],
            [
                -122.60297026818027,
                48.50402143782922
            ],
            [
                -122.60296245325657,
                48.504029357172435
            ],
            [
                -122.60296081410033,
                48.50403269332824
            ],
            [
                -122.60295210612448,
                48.50399839630873
            ],
            [
                -122.60296092595081,
                48.50402785670823
            ],
            [
                -122.60296742349483,
                48.50401186480377
            ],
            [
                -122.60296134787193,
                48.503999136839944
            ],
            [
                -122.60295989846567,
                48.50399534614086
            ],
            [
                -122.60296008317363,
                48.50401918995697
            ],
            [
                -122.60295486503026,
                48.50391436343254
            ],
            [
                -122.60298473388217,
                48.50385512063195
            ],
            [
                -122.60302058389298,
                48.50393228122883
            ],
            [
                -122.60295885782234,
                48.50404070710463
            ],
            [
                -122.60295911546062,
                48.50403944333778
            ],
            [
                -122.60296129510967,
                48.50403925062451
            ],
            [
                -122.60296945662249,
                48.50404138206518
            ],
            [
                -122.60296124596928,
                48.50403969579758
            ],
            [
                -122.60296912250772,
                48.50404937850839
            ],
            [
                -122.60297031843936,
                48.50404103636801
            ],
            [
                -122.60299869548813,
                48.50405106207347
            ],
            [
                -122.60297808028716,
                48.50404188726
            ],
            [
                -122.60299199145251,
                48.504021485328174
            ],
            [
                -122.60299537745132,
                48.50405430584758
            ],
            [
                -122.60297054220328,
                48.50404024079098
            ],
            [
                -122.60298213944681,
                48.50405200041098
            ],
            [
                -122.6029780154292,
                48.504066335494215
            ],
            [
                -122.60298932704936,
                48.50403408854246
            ],
            [
                -122.60295822295316,
                48.50407118973115
            ],
            [
                -122.60298827670445,
                48.50400475758872
            ],
            [
                -122.60298313316649,
                48.50401490859648
            ],
            [
                -122.60296911171736,
                48.504034719756255
            ],
            [
                -122.60296673837871,
                48.50404005268137
            ],
            [
                -122.60295778010865,
                48.50402819687878
            ],
            [
                -122.60296844044488,
                48.504031437471745
            ],
            [
                -122.60296757955052,
                48.5040303856914
            ],
            [
                -122.60298570462714,
                48.504043685607826
            ],
            [
                -122.60299473931615,
                48.50404036037992
            ],
            [
                -122.60296598339716,
                48.50403105919543
            ],
            [
                -122.60296470386497,
                48.504039421861386
            ],
            [
                -122.60297079429498,
                48.504031288882764
            ],
            [
                -122.6029711767588,
                48.50403644076783
            ],
            [
                -122.6029801851207,
                48.504038834096114
            ],
            [
                -122.60297131290869,
                48.504051635986094
            ],
            [
                -122.60295894060447,
                48.50405091832317
            ],
            [
                -122.602949729711,
                48.50403996403013
            ],
            [
                -122.60299467035207,
                48.50403132288422
            ],
            [
                -122.60296207832465,
                48.504019988789295
            ],
            [
                -122.6029504841605,
                48.504039650395576
            ],
            [
                -122.60303617177013,
                48.50401625975688
            ],
            [
                -122.60296890613931,
                48.50402930894728
            ],
            [
                -122.60296000795763,
                48.5040400068415
            ],
            [
                -122.60299956059067,
                48.50404074447326
            ],
            [
                -122.60295998355879,
                48.504040431373916
            ],
            [
                -122.60299985365064,
                48.504039202204964
            ],
            [
                -122.60299957222334,
                48.50403205390337
            ],
            [
                -122.60300043587446,
                48.50401693721236
            ],
            [
                -122.60299583491431,
                48.504009703310665
            ],
            [
                -122.60299345986908,
                48.503999525249085
            ],
            [
                -122.60296650600556,
                48.50403258488134
            ],
            [
                -122.60297651998161,
                48.504026702415736
            ],
            [
                -122.60295935764272,
                48.50403057075491
            ],
            [
                -122.60296417173427,
                48.50403977128011
            ],
            [
                -122.60296251720726,
                48.5040295441731
            ],
            [
                -122.6029666378292,
                48.50402811723948
            ],
            [
                -122.60295915807433,
                48.50401602218612
            ],
            [
                -122.602977859674,
                48.50403103161795
            ],
            [
                -122.60296195258891,
                48.50402232836114
            ],
            [
                -122.60296077359881,
                48.50404249124766
            ],
            [
                -122.60296605073309,
                48.50403623987848
            ],
            [
                -122.60296458307705,
                48.50404302902247
            ],
            [
                -122.60297055950625,
                48.504031735122716
            ],
            [
                -122.60299358560215,
                48.504036498010514
            ],
            [
                -122.60300623745395,
                48.504007310617894
            ],
            [
                -122.60299020529214,
                48.50403205614126
            ],
            [
                -122.60298866437587,
                48.504013809107285
            ],
            [
                -122.60296722511846,
                48.50402206071497
            ],
            [
                -122.60298894351295,
                48.504028421342774
            ],
            [
                -122.60296673850557,
                48.50403860485411
            ],
            [
                -122.60300193493553,
                48.504041892227136
            ],
            [
                -122.60299892608172,
                48.50402909219122
            ],
            [
                -122.60297049536653,
                48.50403957532826
            ],
            [
                -122.60297030302381,
                48.504020036723944
            ],
            [
                -122.60297792124135,
                48.504040265887326
            ],
            [
                -122.60296874044057,
                48.50400809944982
            ],
            [
                -122.60296652293854,
                48.50404069717745
            ],
            [
                -122.60297117905682,
                48.50403173700134
            ],
            [
                -122.60296735155084,
                48.50404124292024
            ],
            [
                -122.60299770008689,
                48.50402073302859
            ],
            [
                -122.60297002013016,
                48.504039465917415
            ],
            [
                -122.60301064348874,
                48.50403991314216
            ],
            [
                -122.60297,
                48.50403
            ]
        ]
    },
    "properties": {
        "trajectory_id": 6119,
        "object_id": 368049820,
        "label": "PLEASURE CRAFT"
    }
}