{
    "type": "Feature",
    "geometry": {
        "type": "LineString",
        "coordinates": [
            [
                -122.33939,
                47.63185
            ],
            [
                -122.3393729798695,
                47.631806857664856
            ],
            [
                -122.3394095010471,
                47.6318191582386
            ],
            [
                -122.33939023732263,
                47.63184053493601
            ],
            [
                -122.3394104760172,
                47.63183976292174
            ],
            [
                -122.33942765340981,
                47.63183323757876
            ],
            [
                -122.33940826528776,
                47.63182229734333
            ],
            [
                -122.33945244027817,
                47.631830265149404
            ],
            [
                -122.33946608107931,
                47.63183061727196
            ],
            [
                -122.33940830635305,
                47.63182896666747
            ],
            [
                -122.33937138383912,
                47.63184834482745
            ],
            [
                -122.33942849547343,
                47.631838460031645
            ],
            [
                -122.33941236185204,
                47.63184117830437
            ],
            [
                -122.33939346305834,
                47.63183282748238
            ],
            [
                -122.33944182098926,
                47.6318274127405
            ],
            [
                -122.3393777651241,
                47.63183725260298
            ],
            [
                -122.3393899003114,
                47.63183450574414
            ],
            [
                -122.33940124051699,
                47.631840913120094
            ],
            [
                -122.33942670434342,
                47.631813457412505
            ],
            [
                -122.33945366251552,
                47.63184647632857
            ],
            [
                -122.33940949666479,
                47.631831856056415
            ],
            [
                -122.3394366634112,
                47.63183075453146
            ],
            [
                -122.3393959042278,
                47.631839740166534
            ],
            [
                -122.33941270694535,
                47.631829865918746
            ],
            [
                -122.33944544366645,
                47.63181745005177
            ],
            [
                -122.33941994758942,
                47.63180941665548
            ],
            [
                -122.33940050560636,
                47.631838742797484
            ],
            [
                -122.33939991369732,
                47.631830393358555
            ],
            [
                -122.33940894602148,
                47.63183963097504
            ],
            [
                -122.33941998544134,
                47.63183997968567
            ],
            [
                -122.33939998319622,
                47.63184005765204
            ],
            [
                -122.33939961686984,
                47.63184082111383
            ],
            [
                -122.33937884923944,
                47.63183084501469
            ],
            [
                -122.33938591743612,
                47.63183605223268
            ],
            [
                -122.33941235167036,
                47.63185196688327
            ],
            [
                -122.33940009813128,
                47.63184037598717
            ],
            [
                -122.33942858842971,
                47.63183886586947
            ],
            [
                -122.33941230050702,
                47.631822597172835
            ],
            [
                -122.33942485611276,
                47.63185099303479
            ],
            [
                -122.33937459372126,
                47.631831338179516
            ],
            [
                -122.33940377592633,
                47.63184317352231
            ],
            [
                -122.33941282356128,
                47.63183555843472
            ],
            [
                -122.33944136856115,
                47.631825326105634
            ],
            [
                -122.33940484051737,
                47.63182826827732
            ],
            [
                -122.33941201808655,
                47.63183743415076
            ],
            [
                -122.33942271261424,
                47.63184699985905
            ],
            [
                -122.33939313357811,
                47.631832575002214
            ],
            [
                -122.339407217645,
                47.631831143619294
            ],
            [
                -122.3393911661845,
                47.63183243273253
            ],
            [
                -122.33941363788364,
                47.63183323572778
            ],
            [
                -122.33939403868534,
                47.63184013707451
            ],
            [
                -122.33939842309263,
                47.63182764408382
            ],
            [
                -122.33940408468943,
                47.63186038644782
            ],
            [
                -122.33942968619331,
                47.63181940987445
            ],
            [
                -122.3393952353207,
                47.631846103638594
            ],
            [
                -122.33939971513597,
                47.63184075050152
            ],
            [
                -122.33941295133724,
                47.63184349472319
            ],
            [
                -122.33939506162228,
                47.63184699365557
            ],
            [
                -122.33939428911856,
                47.63184701186461
            ],
            [
                -122.33941128353773,
                47.631842673018575
            ],
            [
                -122.33934742925166,
                47.63186908992896
            ],
            [
                -122.33941844221268,
                47.63183430486821
            ],
            [
                -122.3394339813798,
                47.6318160175889
            ],
            [
                -122.33940950208724,
                47.63182255512671
            ],
            [
                -122.3394116265984,
                47.631824491067356
            ],
            [
                -122.33940831520476,
                47.63183928369588
            ],
            [
                -122.33942081755345,
                47.63183692836123
            ],
            [
                -122.33940008908439,
                47.63183082782865
            ],
            [
                -122.3393770057311,
                47.63184911588662
            ],
            [
                -122.33940336244308,
                47.63185237828469
            ],
            [
                -122.33941185065517,
                47.63185123206031
            ],
            [
                -122.33947576272546,
                47.63183880764023
            ],
            [
                -122.33939922190793,
                47.631850034369165
            ],
            [
                -122.3393996236847,
                47.63185010921964
            ],
            [
                -122.33945002372113,
                47.631850009096894
            ],
            [
                -122.33938173837896,
                47.631844722331
            ],
            [
                -122.33935995740336,
                47.63184033996861
            ],
            [
                -122.33941910601442,
                47.631829756165835
            ],
            [
                -122.33938067913395,
                47.63183151262981
            ],
            [
                -122.33938341111092,
                47.63185163320976
            ],
            [
                -122.33936679998602,
                47.63182109425558
            ],
            [
                -122.33942109762158,
                47.631849447695444
            ],
            [
                -122.33942463503234,
                47.63181272302751
            ],
            [
                -122.33941806431974,
                47.63182872008091
            ],
            [
                -122.33943172457438,
                47.63183964174012
            ],
            [
                -122.33939397036544,
                47.63182259424589
            ],
            [
                -122.33942223175391,
                47.63184928914149
            ],
            [
                -122.33936287907628,
                47.631834183323264
            ],
            [
                -122.33940148821112,
                47.63184203431917
            ],
            [
                -122.339415067776,
                47.63182989480113
            ],
            [
                -122.33941308184124,
                47.63183007031839
            ],
            [
                -122.33941557353022,
                47.631833682260606
            ],
            [
                -122.3394122372609,
                47.631846347519286
            ],
            [
                -122.33940077840977,
                47.63179837641238
            ],
            [
                -122.33940022061327,
                47.631825675791724
            ],
            [
                -122.3394161346838,
                47.63183059855951
            ],
            [
                -122.33939915826863,
                47.63183994689307
            ],
            [
                -122.33941909094699,
                47.63181227077299
            ],
            [
                -122.33936679118847,
                47.63182567550851
            ],
            [
                -122.33937923642173,
                47.63183996288933
            ],
            [
                -122.33929710454707,
                47.63188156371834
            ],
            [
                -122.33931936983925,
                47.631872460588085
            ],
            [
                -122.33941674501023,
                47.63182097195717
            ],
            [
                -122.33940393292876,
                47.63184179489917
            ],
            [
                -122.33940280084471,
                47.631840058528
            ],
            [
                -122.33940586642856,
                47.631842409084996
            ],
            [
                -122.33942162221294,
                47.63183222347485
            ],
            [
                -122.339410007499,
                47.631825645647375
            ],
            [
                -122.33940354902651,
                47.63183149699485
            ],
            [
                -122.33942153480093,
                47.631828274864475
            ],
            [
                -122.33939011758959,
                47.63183221036766
            ],
            [
                -122.3394002193622,
                47.63183355071303
            ],
            [
                -122.33940009636451,
                47.63182012998309
            ],
            [
                -122.33941014180729,
                47.631817742253006
            ],
            [
                -122.33943045188553,
                47.631831254957646
            ],
            [
                -122.33943011889644,
                47.63183072632449
            ],
            [
                -122.33937998307022,
                47.63184047265652
            ],
            [
                -122.33940123176298,
                47.63182827795268
            ],
            [
                -122.33942977698521,
                47.63183010458725
            ],
            [
                -122.33942,
                47.63184
            ]
        ]
    },
    "properties": {
        "trajectory_id": 6131,
        "object_id": 368053310,
        "label": "PLEASURE CRAFT"
    }
}