{
    "type": "Feature",
    "geometry": {
        "type": "LineString",
        "coordinates": [
            [
                -122.43237,
                47.24481
            ],
            [
                -122.43238587783667,
                47.24480620106099
            ],
            [
                -122.43237522631493,
                47.24480121254192
            ],
            [
                -122.43235910542762,
                47.244790314849496
            ],
            [
                -122.43236772399744,
                47.244796069023
            ],
            [
                -122.43238444222173,
                47.244812612832824
            ],
            [
                -122.43235084883374,
                47.24480650102008
            ],
            [
                -122.43237009635656,
                47.24477991927717
            ],
            [
                -122.4323772734755,
                47.24478552013538
            ],
            [
                -122.43237060748936,
                47.244810913172365
            ],
            [
                -122.43236029294862,
                47.24477874564747
            ],
            [
                -122.43234847370628,
                47.244809631741774
            ],
            [
                -122.43238094481627,
                47.244818048162884
            ],
            [
                -122.43236759261863,
                47.244769355691794
            ],
            [
                -122.4323688306066,
                47.24481986946919
            ],
            [
                -122.4323954495313,
                47.24481114089041
            ],
            [
                -122.43237101604201,
                47.244789263134706
            ],
            [
                -122.43236164601582,
                47.244817061452025
            ],
            [
                -122.4323783385699,
                47.244793579796564
            ],
            [
                -122.43234301395424,
                47.244795945446924
            ],
            [
                -122.43233851561102,
                47.244804148584336
            ],
            [
                -122.43238421143974,
                47.24479875252318
            ],
            [
                -122.43235226725695,
                47.24479149652382
            ],
            [
                -122.43234337423164,
                47.244800428016454
            ],
            [
                -122.43236369557928,
                47.24479416945107
            ],
            [
                -122.43237251103218,
                47.24479292431578
            ],
            [
                -122.43237998191049,
                47.244787786636934
            ],
            [
                -122.43239119358977,
                47.24478965161135
            ],
            [
                -122.43235649363139,
                47.24477194059266
            ],
            [
                -122.43237546096611,
                47.24481216467876
            ],
            [
                -122.43238993833238,
                47.24478999414235
            ],
            [
                -122.43235238112189,
                47.24479809327533
            ],
            [
                -122.43237372376701,
                47.24481330426408
            ],
            [
                -122.43239073053323,
                47.24479872529913
            ],
            [
                -122.43237772346404,
                47.24479049842967
            ],
            [
                -122.4323578952678,
                47.24481942742222
            ],
            [
                -122.43234958372008,
                47.244810656273174
            ],
            [
                -122.43237002200632,
                47.244808903704296
            ],
            [
                -122.43235631033832,
                47.24479240506129
            ],
            [
                -122.43238456243873,
                47.24482130908319
            ],
            [
                -122.43238971663429,
                47.24478653097735
            ],
            [
                -122.43238982578846,
                47.24480026851624
            ],
            [
                -122.43236618224398,
                47.244812979992
            ],
            [
                -122.43236162287928,
                47.24478724378187
            ],
            [
                -122.43236151832991,
                47.244792579763214
            ],
            [
                -122.43235029576144,
                47.244794993178
            ],
            [
                -122.4323673594514,
                47.24480710784776
            ],
            [
                -122.43235023901781,
                47.24478999221358
            ],
            [
                -122.4323692626014,
                47.244795516078604
            ],
            [
                -122.43237798437283,
                47.24480982117875
            ],
            [
                -122.4323793311712,
                47.244801530387996
            ],
            [
                -122.43238122810868,
                47.2448005646683
            ],
            [
                -122.43236688787785,
                47.244794765174866
            ],
            [
                -122.43236343337247,
                47.244781201972806
            ],
            [
                -122.4323668489407,
                47.24479769099827
            ],
            [
                -122.43239172363901,
                47.24479216499448
            ],
            [
                -122.43239110196872,
                47.24483853526162
            ],
            [
                -122.43237052310738,
                47.244810944148966
            ],
            [
                -122.43237486491945,
                47.24478151231319
            ],
            [
                -122.43241185046078,
                47.2447759643502
            ],
            [
                -122.43237429976472,
                47.24479032727606
            ],
            [
                -122.43236185839096,
                47.24479541490592
            ],
            [
                -122.43235192877657,
                47.24478233983558
            ],
            [
                -122.43235095096273,
                47.24482142611195
            ],
            [
                -122.43237280586735,
                47.2448079503408
            ],
            [
                -122.4323355428304,
                47.244823954476736
            ],
            [
                -122.43236173807134,
                47.24478923283123
            ],
            [
                -122.43235098951946,
                47.24481171643974
            ],
            [
                -122.4323704421901,
                47.24479045148774
            ],
            [
                -122.43235951189678,
                47.24478732706403
            ],
            [
                -122.4323591072505,
                47.244780596856586
            ],
            [
                -122.43235881052973,
                47.24479335572085
            ],
            [
                -122.43236791122588,
                47.24479342194449
            ],
            [
                -122.43236332284147,
                47.244799921295005
            ],
            [
                -122.43236414994267,
                47.24477915557904
            ],
            [
                -122.43236844024966,
                47.244800600217125
            ],
            [
                -122.43237660318093,
                47.24479514798169
            ],
            [
                -122.43236439369461,
                47.24479110238203
            ],
            [
                -122.43238221228674,
                47.2448087895758
            ],
            [
                -122.43237901177004,
                47.24481681776604
            ],
            [
                -122.43238000236754,
                47.24481006660318
            ],
            [
                -122.432380599367,
                47.244795347599315
            ],
            [
                -122.43239126950805,
                47.24480117588185
            ],
            [
                -122.43239770082148,
                47.24476984011752
            ],
            [
                -122.43236926559987,
                47.24481570774569
            ],
            [
                -122.43237954707796,
                47.24478759824217
            ],
            [
                -122.43236921489282,
                47.24480708200854
            ],
            [
                -122.43238006766362,
                47.244790051305266
            ],
            [
                -122.43236788331419,
                47.244791848702555
            ],
            [
                -122.43233846453029,
                47.24479648042198
            ],
            [
                -122.43237548716765,
                47.24479647921141
            ],
            [
                -122.43237497502375,
                47.24479367686198
            ],
            [
                -122.43236673642024,
                47.24479135696965
            ],
            [
                -122.4323729867625,
                47.244800383700955
            ],
            [
                -122.43236101532368,
                47.24482378359816
            ],
            [
                -122.43233841173695,
                47.24481049204067
            ],
            [
                -122.43238896071779,
                47.244810235684426
            ],
            [
                -122.43235267308057,
                47.244790889473116
            ],
            [
                -122.43235958267019,
                47.24480510296811
            ],
            [
                -122.43238421116864,
                47.24479113442604
            ],
            [
                -122.4323646541098,
                47.24478863749083
            ],
            [
                -122.43238173422662,
                47.24479377452813
            ],
            [
                -122.43236058948074,
                47.24479952378532
            ],
            [
                -122.43237956004393,
                47.24481039216271
            ],
            [
                -122.43238611754207,
                47.24477989544613
            ],
            [
                -122.43237159316128,
                47.24479007616064
            ],
            [
                -122.43239273255804,
                47.24478844308741
            ],
            [
                -122.4323665093952,
                47.24478981898188
            ],
            [
                -122.43235247652524,
                47.24479023280245
            ],
            [
                -122.43238131263969,
                47.24479876786448
            ],
            [
                -122.43236744790212,
                47.24480428518863
            ],
            [
                -122.43238145495881,
                47.24480846409925
            ],
            [
                -122.43238592407018,
                47.244787831309765
            ],
            [
                -122.43236466062618,
                47.2448015883096
            ],
            [
                -122.4323421781986,
                47.244806587733045
            ],
            [
                -122.43238885097534,
                47.24480978633093
            ],
            [
                -122.43236588816369,
                47.24481008877363
            ],
            [
                -122.43236347586976,
                47.24479981740427
            ],
            [
                -122.43238026892463,
                47.24481255657436
            ],
            [
                -122.43237,
                47.2448
            ]
        ]
    },
    "properties": {
        "trajectory_id": 6154,
        "object_id": 368059860,
        "label": "PLEASURE CRAFT"
    }
}