{
    "type": "Feature",
    "geometry": {
        "type": "LineString",
        "coordinates": [
            [
                -123.11034,
                49.08566
            ],
            [
                -123.11038030113336,
                49.08569055921451
            ],
            [
                -123.11033471469881,
                49.085669061006136
            ],
            [
                -123.1102514622046,
                49.08561833649568
            ],
            [
                -123.11022122736955,
                49.08558952564883
            ],
            [
                -123.11033469391236,
                49.08563376843123
            ],
            [
                -123.11030557220408,
                49.085659610640576
            ],
            [
                -123.11028893035845,
                49.08563509029843
            ],
            [
                -123.11028647531356,
                49.08567596449324
            ],
            [
                -123.110324919378,
                49.08564575601853
            ],
            [
                -123.1103192546446,
                49.085650221685306
            ],
            [
                -123.1103338331289,
                49.085620650143255
            ],
            [
                -123.11031591392243,
                49.08564312296376
            ],
            [
                -123.11034744570237,
                49.08567043970088
            ],
            [
                -123.11028025342218,
                49.08564343056917
            ],
            [
                -123.11034131268637,
                49.08566033922019
            ],
            [
                -123.1102996191715,
                49.08563878906703
            ],
            [
                -123.11032677910511,
                49.08564018766131
            ],
            [
                -123.11030569277477,
                49.08564567846843
            ],
            [
                -123.11030297061765,
                49.08565817210813
            ],
            [
                -123.11035163211156,
                49.08565449385998
            ],
            [
                -123.11036173994553,
                49.0856598237587
            ],
            [
                -123.11033972233035,
                49.08566993423761
            ],
            [
                -123.11033429063095,
                49.085654600234875
            ],
            [
                -123.11036339066543,
                49.08568017014795
            ],
            [
                -123.11034952313135,
                49.08566052947906
            ],
            [
                -123.1103115944266,
                49.085654044958005
            ],
            [
                -123.11033437726317,
                49.08567703662935
            ],
            [
                -123.11029738836987,
                49.085635548296025
            ],
            [
                -123.1103190824517,
                49.085661238312476
            ],
            [
                -123.11032862826231,
                49.085666101585595
            ],
            [
                -123.11026251965652,
                49.08567269111104
            ],
            [
                -123.11031454384334,
                49.085660420603986
            ],
            [
                -123.11030151682525,
                49.08567329681712
            ],
            [
                -123.11033157414312,
                49.085658087033956
            ],
            [
                -123.11034201610867,
                49.08567446971821
            ],
            [
                -123.11031888235894,
                49.085636487239114
            ],
            [
                -123.11031126851444,
                49.0856597261005
            ],
            [
                -123.11035922954248,
                49.08567265936532
            ],
            [
                -123.11033964324525,
                49.085677410250355
            ],
            [
                -123.11032972921262,
                49.08565051328897
            ],
            [
                -123.11031635903775,
                49.08566307658423
            ],
            [
                -123.11035067385419,
                49.085639726821995
            ],
            [
                -123.11035141813205,
                49.08563550020635
            ],
            [
                -123.11034172823832,
                49.08560309225458
            ],
            [
                -123.11033019954363,
                49.08561832251335
            ],
            [
                -123.1103383966689,
                49.0856406324741
            ],
            [
                -123.11034344984864,
                49.08563061645076
            ],
            [
                -123.11033770877009,
                49.08563681442667
            ],
            [
                -123.1103158414627,
                49.08564206639494
            ],
            [
                -123.11031409726147,
                49.085642589848504
            ],
            [
                -123.11034996549829,
                49.08563014190053
            ],
            [
                -123.11035401462404,
                49.08564017007269
            ],
            [
                -123.1103601196842,
                49.085660678572346
            ],
            [
                -123.1103205037071,
                49.08564598238084
            ],
            [
                -123.11033575165635,
                49.085635990187505
            ],
            [
                -123.1103331194168,
                49.085634525787455
            ],
            [
                -123.11033085859187,
                49.085649201768796
            ],
            [
                -123.11035278406014,
                49.08565929665572
            ],
            [
                -123.110339536885,
                49.08567923542804
            ],
            [
                -123.11032225889616,
                49.08566979686097
            ],
            [
                -123.1103496460979,
                49.08566127607515
            ],
            [
                -123.11031997700758,
                49.085680039760796
            ],
            [
                -123.11031590334002,
                49.08566696204093
            ],
            [
                -123.11033084747918,
                49.08568062500786
            ],
            [
                -123.11035028077124,
                49.08566528602208
            ],
            [
                -123.11035714871703,
                49.08566847199877
            ],
            [
                -123.1103347563214,
                49.08567424089454
            ],
            [
                -123.11035225746187,
                49.08564567244593
            ],
            [
                -123.11036560256308,
                49.08564869295443
            ],
            [
                -123.11031166011178,
                49.08565494795872
            ],
            [
                -123.11037037273051,
                49.085650113373724
            ],
            [
                -123.11032175627119,
                49.08566030900647
            ],
            [
                -123.1103389911801,
                49.08565971625753
            ],
            [
                -123.11034981703328,
                49.085672941323345
            ],
            [
                -123.11035321030677,
                49.08562498165013
            ],
            [
                -123.11035220887112,
                49.0856402572007
            ],
            [
                -123.11035774231688,
                49.08565652052823
            ],
            [
                -123.11039486241111,
                49.08568055714386
            ],
            [
                -123.11034,
                49.08566
            ]
        ]
    },
    "properties": {
        "trajectory_id": 631,
        "object_id": 316004787,
        "label": "FISHING"
    }
}