{
    "type": "Feature",
    "geometry": {
        "type": "LineString",
        "coordinates": [
            [
                -122.40145,
                47.28028
            ],
            [
                -122.40143937887389,
                47.28029980125134
            ],
            [
                -122.40143969422483,
                47.28027901966487
            ],
            [
                -122.40145023286827,
                47.28030962434542
            ],
            [
                -122.40142895608547,
                47.28024244328831
            ],
            [
                -122.40143998710404,
                47.280289532800616
            ],
            [
                -122.40146225168569,
                47.28028134014377
            ],
            [
                -122.40146302525237,
                47.280269566721465
            ],
            [
                -122.40139398143818,
                47.280302208897524
            ],
            [
                -122.40142196122189,
                47.28030787603393
            ],
            [
                -122.4014820780062,
                47.28028771443468
            ],
            [
                -122.40143352238935,
                47.28029642383974
            ],
            [
                -122.40144862272935,
                47.28029183624637
            ],
            [
                -122.40145582460934,
                47.28027969483176
            ],
            [
                -122.40145161727105,
                47.280310790770635
            ],
            [
                -122.40144986641397,
                47.28027280719154
            ],
            [
                -122.40144983726401,
                47.28026940972332
            ],
            [
                -122.40145224450956,
                47.28029750379678
            ],
            [
                -122.40144937584832,
                47.28030256030955
            ],
            [
                -122.40146123781601,
                47.2802673473073
            ],
            [
                -122.40144250299022,
                47.2803295321778
            ],
            [
                -122.40145195852112,
                47.28028418498706
            ],
            [
                -122.40144613378615,
                47.28030272886598
            ],
            [
                -122.40144213090478,
                47.28028568168918
            ],
            [
                -122.40143387587666,
                47.28028958871571
            ],
            [
                -122.40142751033454,
                47.28025994054167
            ],
            [
                -122.40145000916462,
                47.280298759047795
            ],
            [
                -122.40145672996823,
                47.2802650050458
            ],
            [
                -122.40145167578392,
                47.28029762107922
            ],
            [
                -122.40141712974832,
                47.2802780375596
            ],
            [
                -122.40144401458014,
                47.280277063111484
            ],
            [
                -122.40146560024894,
                47.280284142089904
            ],
            [
                -122.40146653764407,
                47.28027781469659
            ],
            [
                -122.40146018388725,
                47.28026578599719
            ],
            [
                -122.40145813192805,
                47.28028869124308
            ],
            [
                -122.40146994034619,
                47.28029083743255
            ],
            [
                -122.40144673817032,
                47.2802832482916
            ],
            [
                -122.40146055491495,
                47.28028832229231
            ],
            [
                -122.40139904117498,
                47.28030082490981
            ],
            [
                -122.40140999940074,
                47.28030962372325
            ],
            [
                -122.40145007240162,
                47.280279957917884
            ],
            [
                -122.40141987701327,
                47.28026010080338
            ],
            [
                -122.40143965977492,
                47.280310903711154
            ],
            [
                -122.4014113605718,
                47.28023130965109
            ],
            [
                -122.40148769186439,
                47.2803462857956
            ],
            [
                -122.4014482744395,
                47.28028996606454
            ],
            [
                -122.4014772834569,
                47.280299136249766
            ],
            [
                -122.40141138026374,
                47.28028008990602
            ],
            [
                -122.40142088750464,
                47.28029521259948
            ],
            [
                -122.40149418147004,
                47.28025099471179
            ],
            [
                -122.40142285240677,
                47.280330475294924
            ],
            [
                -122.40146998535643,
                47.28026246146155
            ],
            [
                -122.40145343042046,
                47.280273598473755
            ],
            [
                -122.40143734660666,
                47.280276009375164
            ],
            [
                -122.4014465315883,
                47.28026977052632
            ],
            [
                -122.40144021561322,
                47.2802721485387
            ],
            [
                -122.40146892303459,
                47.28029639602173
            ],
            [
                -122.4014622372202,
                47.280287040043625
            ],
            [
                -122.40143903040082,
                47.28028060880008
            ],
            [
                -122.40144312822534,
                47.2802585439589
            ],
            [
                -122.40143923000772,
                47.28031450211265
            ],
            [
                -122.40145339102737,
                47.28026060526495
            ],
            [
                -122.40143114004792,
                47.28029530032795
            ],
            [
                -122.40144955855197,
                47.28025929937191
            ],
            [
                -122.40142806346812,
                47.28028570935599
            ],
            [
                -122.40145128321865,
                47.2802875696879
            ],
            [
                -122.40146203139636,
                47.280280484192836
            ],
            [
                -122.40143931315627,
                47.2802810100995
            ],
            [
                -122.40143752688033,
                47.28027760413934
            ],
            [
                -122.40146069287306,
                47.280270517683945
            ],
            [
                -122.4014442572974,
                47.280296954774464
            ],
            [
                -122.40147386903594,
                47.280304620130345
            ],
            [
                -122.40142276171821,
                47.28028968300094
            ],
            [
                -122.40143525304082,
                47.28028157751479
            ],
            [
                -122.40146140522917,
                47.2802643175237
            ],
            [
                -122.4014443753156,
                47.28027855456389
            ],
            [
                -122.40141622251896,
                47.280269744978
            ],
            [
                -122.4014698238685,
                47.28029944850193
            ],
            [
                -122.4014406375489,
                47.28027008780991
            ],
            [
                -122.40144905347555,
                47.28029018796214
            ],
            [
                -122.40142983184522,
                47.28027997619891
            ],
            [
                -122.40146057809964,
                47.28025027305823
            ],
            [
                -122.40144879775477,
                47.280309716738905
            ],
            [
                -122.40144306636357,
                47.2803181615949
            ],
            [
                -122.40146085786908,
                47.280330587501446
            ],
            [
                -122.40144016522754,
                47.280274533418584
            ],
            [
                -122.40146108441742,
                47.28026901875687
            ],
            [
                -122.40143617090257,
                47.28027651949021
            ],
            [
                -122.40153507741645,
                47.28030395264518
            ],
            [
                -122.40140881891921,
                47.28027109563324
            ],
            [
                -122.40143668509319,
                47.28030016261528
            ],
            [
                -122.40143194743915,
                47.28028341211433
            ],
            [
                -122.40144052220099,
                47.2802563263584
            ],
            [
                -122.40141804775433,
                47.28026959931329
            ],
            [
                -122.40141779542627,
                47.280309431885385
            ],
            [
                -122.40143607460939,
                47.28027943658452
            ],
            [
                -122.40144715936131,
                47.28028454456423
            ],
            [
                -122.40145878422793,
                47.28029773158875
            ],
            [
                -122.40142185201553,
                47.2802974399809
            ],
            [
                -122.40142510363854,
                47.28026487924968
            ],
            [
                -122.40145222270975,
                47.28028083230498
            ],
            [
                -122.40140220180638,
                47.280287092661396
            ],
            [
                -122.40144333593742,
                47.28027221942506
            ],
            [
                -122.40144504589911,
                47.280292619823264
            ],
            [
                -122.40145727955995,
                47.280275019616255
            ],
            [
                -122.40145034888651,
                47.28028873222837
            ],
            [
                -122.40143980034154,
                47.280306277887284
            ],
            [
                -122.4014309686987,
                47.28027312859843
            ],
            [
                -122.40143063511107,
                47.280292238031976
            ],
            [
                -122.40142241348289,
                47.28030186473651
            ],
            [
                -122.40145787734605,
                47.280322166472516
            ],
            [
                -122.40145064482999,
                47.280286569736326
            ],
            [
                -122.40142286009888,
                47.2803127253994
            ],
            [
                -122.40144650970362,
                47.28029651649477
            ],
            [
                -122.40143882606054,
                47.28026822801208
            ],
            [
                -122.40146211415791,
                47.28027037685305
            ],
            [
                -122.40144171418599,
                47.280269593244576
            ],
            [
                -122.40144994013575,
                47.28027005524356
            ],
            [
                -122.40143013820482,
                47.28026008107969
            ],
            [
                -122.40145,
                47.28025
            ]
        ]
    },
    "properties": {
        "trajectory_id": 6324,
        "object_id": 368090350,
        "label": "PLEASURE CRAFT"
    }
}