{
    "type": "Feature",
    "geometry": {
        "type": "LineString",
        "coordinates": [
            [
                -122.40145,
                47.28026
            ],
            [
                -122.401420186832,
                47.2802907062702
            ],
            [
                -122.4013996132741,
                47.28024972386291
            ],
            [
                -122.40141139746015,
                47.280270487996695
            ],
            [
                -122.40145226023239,
                47.28027121934076
            ],
            [
                -122.40145821244397,
                47.28026927161392
            ],
            [
                -122.401432432066,
                47.280279732981136
            ],
            [
                -122.40144658487597,
                47.28028835064757
            ],
            [
                -122.40148678287149,
                47.28027496881596
            ],
            [
                -122.40143535364615,
                47.28028644631432
            ],
            [
                -122.40142842686643,
                47.280290465979746
            ],
            [
                -122.40145606135113,
                47.28029147952451
            ],
            [
                -122.40146196094385,
                47.28027532276171
            ],
            [
                -122.40143350906929,
                47.280298652765545
            ],
            [
                -122.40143883337836,
                47.28028685151814
            ],
            [
                -122.40144950785869,
                47.2802894907667
            ],
            [
                -122.40144634394461,
                47.28030610263798
            ],
            [
                -122.40143868440352,
                47.28028609161827
            ],
            [
                -122.4014411036272,
                47.280299092379586
            ],
            [
                -122.40145951043924,
                47.280258533317564
            ],
            [
                -122.40144663714366,
                47.28030491847817
            ],
            [
                -122.40140901021663,
                47.280292336340345
            ],
            [
                -122.40142428724103,
                47.280274898263144
            ],
            [
                -122.40144167321745,
                47.280275523242544
            ],
            [
                -122.4014296775396,
                47.280309673872
            ],
            [
                -122.40146948540337,
                47.28025779544724
            ],
            [
                -122.40146024045197,
                47.28030031551861
            ],
            [
                -122.40142363703582,
                47.28027540716695
            ],
            [
                -122.40144483226612,
                47.280278928240165
            ],
            [
                -122.40146050576439,
                47.280275799774074
            ],
            [
                -122.40145587708152,
                47.280287732271084
            ],
            [
                -122.40144022429864,
                47.28026368630328
            ],
            [
                -122.40145344914023,
                47.280300264397056
            ],
            [
                -122.40144377341379,
                47.280295406005024
            ],
            [
                -122.40146417043842,
                47.280306578762975
            ],
            [
                -122.4014720095566,
                47.28028552470226
            ],
            [
                -122.4014094889537,
                47.28028704539008
            ],
            [
                -122.40141806727272,
                47.28029171953368
            ],
            [
                -122.40145101872672,
                47.280271315752366
            ],
            [
                -122.40142542210427,
                47.28025541178677
            ],
            [
                -122.40143553268337,
                47.280304934778506
            ],
            [
                -122.40141717287105,
                47.280263954113444
            ],
            [
                -122.40149595544948,
                47.28037209036966
            ],
            [
                -122.40143070061103,
                47.28027091233404
            ],
            [
                -122.40142991297098,
                47.28026554174425
            ],
            [
                -122.40141076737461,
                47.280289320293704
            ],
            [
                -122.40141547169951,
                47.280259706589455
            ],
            [
                -122.40145109763016,
                47.280308043051825
            ],
            [
                -122.4014596194542,
                47.280302887766155
            ],
            [
                -122.40147010685654,
                47.28029031606311
            ],
            [
                -122.40145236800898,
                47.28026948898763
            ],
            [
                -122.40144959332662,
                47.280288633262124
            ],
            [
                -122.40145675732721,
                47.28028700711155
            ],
            [
                -122.40145068126424,
                47.28030234532922
            ],
            [
                -122.40145982344728,
                47.28028637812017
            ],
            [
                -122.40143541341004,
                47.28026342841173
            ],
            [
                -122.4014396359469,
                47.2802895988047
            ],
            [
                -122.40146008521847,
                47.28027981272774
            ],
            [
                -122.40143997652149,
                47.2803196284662
            ],
            [
                -122.40144003424791,
                47.280260095175
            ],
            [
                -122.40143943797975,
                47.28029055322306
            ],
            [
                -122.40142056448114,
                47.28026924774988
            ],
            [
                -122.40141961034819,
                47.28029936706338
            ],
            [
                -122.40145365685918,
                47.28029177831279
            ],
            [
                -122.40146075540926,
                47.280269127283766
            ],
            [
                -122.4014502947688,
                47.28027708997489
            ],
            [
                -122.40143599129667,
                47.28029406480988
            ],
            [
                -122.40144266370227,
                47.28029707626031
            ],
            [
                -122.4014487712517,
                47.280290908742494
            ],
            [
                -122.40145993963365,
                47.28031445661511
            ],
            [
                -122.40145398715295,
                47.28028997225084
            ],
            [
                -122.40142694927937,
                47.28026632917345
            ],
            [
                -122.40149427430121,
                47.28032446920254
            ],
            [
                -122.40140661635786,
                47.28027732039542
            ],
            [
                -122.40143095118206,
                47.280287707904805
            ],
            [
                -122.40144985170916,
                47.280277682174265
            ],
            [
                -122.40144825017657,
                47.28029816964076
            ],
            [
                -122.40142444235605,
                47.28028621457738
            ],
            [
                -122.40143775754201,
                47.280277517984445
            ],
            [
                -122.40146605482731,
                47.280278183650005
            ],
            [
                -122.40145637712533,
                47.28032130311494
            ],
            [
                -122.40143485610815,
                47.2803112484597
            ],
            [
                -122.40143658100389,
                47.28029559420315
            ],
            [
                -122.40142189279095,
                47.28027493751895
            ],
            [
                -122.40145102682266,
                47.280281628583296
            ],
            [
                -122.40146107327912,
                47.28030483746411
            ],
            [
                -122.40145482677158,
                47.28029009352901
            ],
            [
                -122.40145268872756,
                47.28029788368136
            ],
            [
                -122.4013853257571,
                47.2802328127409
            ],
            [
                -122.4014704403076,
                47.28030662551536
            ],
            [
                -122.40143749101654,
                47.2802946497186
            ],
            [
                -122.40141568457531,
                47.28029947860527
            ],
            [
                -122.4014518227248,
                47.28029616227967
            ],
            [
                -122.401430987727,
                47.28030028665338
            ],
            [
                -122.40144695548956,
                47.280284552225474
            ],
            [
                -122.40144406754744,
                47.28029157733741
            ],
            [
                -122.40142235923464,
                47.28031595245306
            ],
            [
                -122.40141225180088,
                47.2802741338507
            ],
            [
                -122.4014480841993,
                47.28032434034174
            ],
            [
                -122.40142889316665,
                47.280267095971915
            ],
            [
                -122.40141186371221,
                47.28024767237933
            ],
            [
                -122.40139826753762,
                47.280238167910674
            ],
            [
                -122.40141775218044,
                47.280258001890104
            ],
            [
                -122.40144275513234,
                47.28027603400094
            ],
            [
                -122.40143741784028,
                47.28026818428588
            ],
            [
                -122.401443268536,
                47.280277215035845
            ],
            [
                -122.4014448788593,
                47.28030577279306
            ],
            [
                -122.40142353346202,
                47.28027961519384
            ],
            [
                -122.40144949649766,
                47.28027982444283
            ],
            [
                -122.40143761732443,
                47.28028946436313
            ],
            [
                -122.40144439970187,
                47.280307624247925
            ],
            [
                -122.40143049855287,
                47.280298713125575
            ],
            [
                -122.40143973373098,
                47.28025931999832
            ],
            [
                -122.40144479351888,
                47.28026451999672
            ],
            [
                -122.4014594833487,
                47.28028889762257
            ],
            [
                -122.4014305354137,
                47.2802899909646
            ],
            [
                -122.40143904236602,
                47.28029978010354
            ],
            [
                -122.4014605996461,
                47.280290226178415
            ],
            [
                -122.40145989282843,
                47.28023059420342
            ],
            [
                -122.40146,
                47.2803
            ]
        ]
    },
    "properties": {
        "trajectory_id": 6328,
        "object_id": 368090350,
        "label": "PLEASURE CRAFT"
    }
}