{
    "type": "Feature",
    "geometry": {
        "type": "LineString",
        "coordinates": [
            [
                -122.37156,
                47.6599
            ],
            [
                -122.37155999229725,
                47.65992988081431
            ],
            [
                -122.37156002096786,
                47.65989953365853
            ],
            [
                -122.37155953736742,
                47.659871008314845
            ],
            [
                -122.37155000844835,
                47.659889284233465
            ],
            [
                -122.37156023434837,
                47.65988072140463
            ],
            [
                -122.37154999656332,
                47.65988035287522
            ],
            [
                -122.37155887185577,
                47.65989979716815
            ],
            [
                -122.37155991348024,
                47.65986987623169
            ],
            [
                -122.37159381700023,
                47.65987973075851
            ],
            [
                -122.37158895612585,
                47.65986975950975
            ],
            [
                -122.3715905193106,
                47.659862845352876
            ],
            [
                -122.37155142435097,
                47.659886869617274
            ],
            [
                -122.37156193486634,
                47.65987751319304
            ],
            [
                -122.37159649844752,
                47.659882494183165
            ],
            [
                -122.37159518035,
                47.65990079291159
            ],
            [
                -122.37159456252455,
                47.659898278241585
            ],
            [
                -122.37155193094094,
                47.65992523991143
            ],
            [
                -122.37156709722368,
                47.6598982446685
            ],
            [
                -122.37155930254876,
                47.659911250587655
            ],
            [
                -122.37154951127587,
                47.65990488942357
            ],
            [
                -122.37155625225289,
                47.65988712507152
            ],
            [
                -122.37155679225141,
                47.659899636993856
            ],
            [
                -122.37156113758493,
                47.65988570817403
            ],
            [
                -122.37154919983446,
                47.659893621949834
            ],
            [
                -122.37154890370695,
                47.65989136659763
            ],
            [
                -122.3715591473007,
                47.659895525974505
            ],
            [
                -122.37158086747144,
                47.659889726949025
            ],
            [
                -122.37157033238962,
                47.65990141900834
            ],
            [
                -122.3715382276487,
                47.6599003517898
            ],
            [
                -122.37155933241357,
                47.65990007784911
            ],
            [
                -122.37156088242384,
                47.65988892349979
            ],
            [
                -122.37155618390915,
                47.65989333795736
            ],
            [
                -122.37155576177523,
                47.659894885223224
            ],
            [
                -122.37155105134434,
                47.65990003191718
            ],
            [
                -122.37155810792414,
                47.65988445541454
            ],
            [
                -122.37155496761687,
                47.65987999903199
            ],
            [
                -122.37161084897652,
                47.659950055592304
            ],
            [
                -122.37154338099162,
                47.65988816095187
            ],
            [
                -122.37157249113098,
                47.659892825219984
            ],
            [
                -122.37154748784455,
                47.659887549138645
            ],
            [
                -122.37157103272085,
                47.6599017690619
            ],
            [
                -122.37153635800834,
                47.65990075553017
            ],
            [
                -122.37157941664557,
                47.659883338803475
            ],
            [
                -122.37159502320684,
                47.659912293493825
            ],
            [
                -122.37155962193438,
                47.65991780667606
            ],
            [
                -122.37158829381825,
                47.65990331822236
            ],
            [
                -122.37154815112689,
                47.65989927652277
            ],
            [
                -122.37159831809561,
                47.65986131374572
            ],
            [
                -122.37153204449339,
                47.65992545031845
            ],
            [
                -122.37155166903051,
                47.6598878033717
            ],
            [
                -122.37155935317477,
                47.65990067253899
            ],
            [
                -122.37156179195112,
                47.65988819096909
            ],
            [
                -122.37158893051819,
                47.65988829991747
            ],
            [
                -122.37155761584637,
                47.65990103364209
            ],
            [
                -122.37155913554797,
                47.659911493930295
            ],
            [
                -122.37153074476767,
                47.65980951147195
            ],
            [
                -122.37154886175011,
                47.659839987533516
            ],
            [
                -122.37155012502055,
                47.659860171635074
            ],
            [
                -122.37154995865797,
                47.65985013275089
            ],
            [
                -122.37154998673776,
                47.65987026016233
            ],
            [
                -122.37155981098978,
                47.65986028651155
            ],
            [
                -122.37155029770008,
                47.65989995058712
            ],
            [
                -122.37153056258961,
                47.65990070620006
            ],
            [
                -122.3715496817416,
                47.65988068617641
            ],
            [
                -122.37155796367854,
                47.65989236643641
            ],
            [
                -122.37155978375813,
                47.65989020388739
            ],
            [
                -122.37155044904493,
                47.65989131316401
            ],
            [
                -122.37155100342443,
                47.65989880766003
            ],
            [
                -122.37155027778495,
                47.65989206412993
            ],
            [
                -122.37156271004807,
                47.65991068507539
            ],
            [
                -122.37155987196292,
                47.6598820136818
            ],
            [
                -122.37155021289624,
                47.65990400872647
            ],
            [
                -122.37158398268906,
                47.65988730487409
            ],
            [
                -122.3715525557337,
                47.659901299457424
            ],
            [
                -122.37156861183863,
                47.659917299344954
            ],
            [
                -122.37158296460541,
                47.659913689065256
            ],
            [
                -122.3715861072813,
                47.65991650217768
            ],
            [
                -122.37159540328075,
                47.659884321504606
            ],
            [
                -122.37155990174676,
                47.65989781879005
            ],
            [
                -122.37156401171725,
                47.65989590602143
            ],
            [
                -122.37156065872125,
                47.6599014455841
            ],
            [
                -122.37155635902815,
                47.65989576502301
            ],
            [
                -122.37157914824854,
                47.6598878043207
            ],
            [
                -122.37158133448365,
                47.65987504912424
            ],
            [
                -122.371572007494,
                47.65988442437657
            ],
            [
                -122.37156076856382,
                47.65988369489283
            ],
            [
                -122.3715806279701,
                47.65989989421969
            ],
            [
                -122.37155350423237,
                47.6598658689871
            ],
            [
                -122.37157421252863,
                47.65989013456318
            ],
            [
                -122.37154880656182,
                47.65986205089959
            ],
            [
                -122.37157892753262,
                47.6598820284748
            ],
            [
                -122.37155746170241,
                47.6598578022598
            ],
            [
                -122.37156251002845,
                47.659895012536985
            ],
            [
                -122.3715384060898,
                47.659920940773226
            ],
            [
                -122.37151059334032,
                47.65993601131365
            ],
            [
                -122.37155587625924,
                47.65988232585074
            ],
            [
                -122.37153906890478,
                47.65990150034951
            ],
            [
                -122.37152346502263,
                47.65993632472278
            ],
            [
                -122.37152633715714,
                47.65991480068543
            ],
            [
                -122.37153157221347,
                47.65990345282256
            ],
            [
                -122.37155337252119,
                47.659896097092705
            ],
            [
                -122.37158112486283,
                47.65986568366595
            ],
            [
                -122.37155909095036,
                47.65988391658521
            ],
            [
                -122.37156260882207,
                47.65988446572322
            ],
            [
                -122.37155998976098,
                47.6598880201306
            ],
            [
                -122.37155970050928,
                47.659862975760674
            ],
            [
                -122.37156022562803,
                47.659899059869915
            ],
            [
                -122.37156054093394,
                47.65987792642608
            ],
            [
                -122.37154863979511,
                47.65988805671212
            ],
            [
                -122.37155174874462,
                47.659899812843065
            ],
            [
                -122.37153035359762,
                47.65990090504303
            ],
            [
                -122.37155025166702,
                47.65989427222689
            ],
            [
                -122.37155980091268,
                47.65989935838374
            ],
            [
                -122.37154995145238,
                47.65990989232722
            ],
            [
                -122.37155949267684,
                47.65988015495272
            ],
            [
                -122.37154386167042,
                47.659885686617535
            ],
            [
                -122.37155999334564,
                47.659900162707004
            ],
            [
                -122.37155008236819,
                47.65990018142186
            ],
            [
                -122.37156,
                47.65989
            ]
        ]
    },
    "properties": {
        "trajectory_id": 6332,
        "object_id": 368090890,
        "label": "PLEASURE CRAFT"
    }
}