{
    "type": "Feature",
    "geometry": {
        "type": "LineString",
        "coordinates": [
            [
                -122.60606,
                48.50174
            ],
            [
                -122.60611060435228,
                48.50172984324414
            ],
            [
                -122.60607930405064,
                48.501740695151184
            ],
            [
                -122.60605981696948,
                48.50175019305286
            ],
            [
                -122.60605127295167,
                48.501749802892384
            ],
            [
                -122.60608833969128,
                48.501738658783076
            ],
            [
                -122.60606416793411,
                48.50172935953532
            ],
            [
                -122.60607103763897,
                48.5017577871968
            ],
            [
                -122.60605662051285,
                48.501728926805875
            ],
            [
                -122.60602639762193,
                48.50175926714206
            ],
            [
                -122.60605028239779,
                48.50175347708098
            ],
            [
                -122.60606306039024,
                48.50173262501821
            ],
            [
                -122.60605533250174,
                48.50173148949614
            ],
            [
                -122.60607790538079,
                48.501740558736245
            ],
            [
                -122.6060735730191,
                48.50174771215319
            ],
            [
                -122.60606373000844,
                48.50173779343402
            ],
            [
                -122.6060552407446,
                48.501746827864515
            ],
            [
                -122.60607546461992,
                48.50173934135294
            ],
            [
                -122.60607993195764,
                48.501733674779885
            ],
            [
                -122.60607995555216,
                48.501734175643236
            ],
            [
                -122.60607532707927,
                48.50172686399644
            ],
            [
                -122.60607721723717,
                48.5017346092789
            ],
            [
                -122.60605869169605,
                48.50174454537165
            ],
            [
                -122.6060607250483,
                48.501748520957825
            ],
            [
                -122.60606936440057,
                48.50174092798009
            ],
            [
                -122.60607492605132,
                48.501741487475066
            ],
            [
                -122.60607747984403,
                48.50174540324841
            ],
            [
                -122.6060596353898,
                48.50173882259971
            ],
            [
                -122.60609100642901,
                48.501742457125665
            ],
            [
                -122.60607857174938,
                48.501741737479435
            ],
            [
                -122.60608283946004,
                48.501757802515954
            ],
            [
                -122.60607615402532,
                48.501747069142056
            ],
            [
                -122.60607176033295,
                48.5017497674298
            ],
            [
                -122.60610124101858,
                48.50174888301479
            ],
            [
                -122.60607919882011,
                48.50173833647388
            ],
            [
                -122.60608817596317,
                48.501751887475955
            ],
            [
                -122.60605917669726,
                48.50174059101414
            ],
            [
                -122.60607084799085,
                48.501750194370494
            ],
            [
                -122.60608060572567,
                48.50174945604083
            ],
            [
                -122.6060700099404,
                48.50171967971128
            ],
            [
                -122.60608021879558,
                48.501749744210876
            ],
            [
                -122.60608993279203,
                48.50174988637292
            ],
            [
                -122.60606981829136,
                48.501749385592205
            ],
            [
                -122.6060792568087,
                48.5017602020907
            ],
            [
                -122.60606847866556,
                48.501756463403936
            ],
            [
                -122.60606837084539,
                48.50174172889417
            ],
            [
                -122.60603668676879,
                48.50173846307135
            ],
            [
                -122.6060493400735,
                48.50173213991446
            ],
            [
                -122.60610844535009,
                48.50171989777622
            ],
            [
                -122.6060503962922,
                48.50173667960812
            ],
            [
                -122.60608144918213,
                48.501718785771416
            ],
            [
                -122.60608622001828,
                48.501738257202454
            ],
            [
                -122.60606302111258,
                48.50174589042778
            ],
            [
                -122.60606143448369,
                48.50175116584461
            ],
            [
                -122.60606618398997,
                48.5017635316486
            ],
            [
                -122.60607638753389,
                48.50173898252596
            ],
            [
                -122.60607127586414,
                48.50175625153894
            ],
            [
                -122.60607338039071,
                48.50176129559533
            ],
            [
                -122.6060739797432,
                48.501749353174795
            ],
            [
                -122.60606366774982,
                48.501748669234644
            ],
            [
                -122.60608747396658,
                48.501744841257675
            ],
            [
                -122.6060767793687,
                48.50174884512964
            ],
            [
                -122.60607293260618,
                48.501756114279615
            ],
            [
                -122.60606335029777,
                48.50176904097975
            ],
            [
                -122.60606599830987,
                48.501758267286235
            ],
            [
                -122.60607007754518,
                48.50176076811852
            ],
            [
                -122.60605984803632,
                48.50174016967905
            ],
            [
                -122.60606481078003,
                48.5017430897322
            ],
            [
                -122.6060811705866,
                48.50173498632259
            ],
            [
                -122.60608502354154,
                48.50174662195579
            ],
            [
                -122.60605509805761,
                48.50173606923164
            ],
            [
                -122.60607031184773,
                48.50173962548217
            ],
            [
                -122.60607672202258,
                48.50175254887128
            ],
            [
                -122.60607092792011,
                48.501740063219884
            ],
            [
                -122.60606039286486,
                48.50174128208975
            ],
            [
                -122.60609003728595,
                48.501731511940406
            ],
            [
                -122.60609048753892,
                48.501740981569455
            ],
            [
                -122.6060823088948,
                48.50174019889771
            ],
            [
                -122.60608942069,
                48.501730087976426
            ],
            [
                -122.6060900700092,
                48.50173004445392
            ],
            [
                -122.60608998841467,
                48.501719992169
            ],
            [
                -122.60606951410674,
                48.50173906924831
            ],
            [
                -122.60608083955104,
                48.50171970590954
            ],
            [
                -122.60608031718762,
                48.50173779362073
            ],
            [
                -122.60609057545555,
                48.501729418608434
            ],
            [
                -122.60607602167114,
                48.50174351048352
            ],
            [
                -122.60609461929945,
                48.50173897818859
            ],
            [
                -122.60607897624065,
                48.50173823590522
            ],
            [
                -122.60608057959803,
                48.501749690958675
            ],
            [
                -122.60607428892096,
                48.50173555941342
            ],
            [
                -122.60608475227556,
                48.50174885234637
            ],
            [
                -122.60606078689221,
                48.50176311510294
            ],
            [
                -122.60606505894955,
                48.50174312520599
            ],
            [
                -122.60606985114588,
                48.50175005117082
            ],
            [
                -122.60607729022084,
                48.501742864313634
            ],
            [
                -122.60607741758179,
                48.50172847670245
            ],
            [
                -122.60607680223164,
                48.50173563263515
            ],
            [
                -122.60605507011283,
                48.501743778047775
            ],
            [
                -122.60607032506451,
                48.501747894879664
            ],
            [
                -122.60606365351954,
                48.501744867672166
            ],
            [
                -122.6060814213495,
                48.501728715220736
            ],
            [
                -122.60607302007662,
                48.501753107579034
            ],
            [
                -122.60607879583732,
                48.50172801619216
            ],
            [
                -122.60608423582222,
                48.50174826621563
            ],
            [
                -122.6060724213271,
                48.50174081762508
            ],
            [
                -122.6060399960986,
                48.50173266804648
            ],
            [
                -122.60606626853718,
                48.501751726442464
            ],
            [
                -122.6060757411498,
                48.50172916926827
            ],
            [
                -122.60608022594798,
                48.50174001199835
            ],
            [
                -122.6060775003308,
                48.50174393321384
            ],
            [
                -122.60606821497352,
                48.50174646908099
            ],
            [
                -122.60605034210901,
                48.501750627619636
            ],
            [
                -122.60605213416981,
                48.50173928293948
            ],
            [
                -122.60607739645684,
                48.50172937618631
            ],
            [
                -122.60609621009976,
                48.501731471882664
            ],
            [
                -122.60606494241163,
                48.501741187971106
            ],
            [
                -122.60606087621,
                48.501749402807526
            ],
            [
                -122.60606027508086,
                48.501739558812595
            ],
            [
                -122.60608986537824,
                48.5017397652263
            ],
            [
                -122.60608,
                48.50174
            ]
        ]
    },
    "properties": {
        "trajectory_id": 6389,
        "object_id": 368100280,
        "label": "FISHING"
    }
}