{
    "type": "Feature",
    "geometry": {
        "type": "LineString",
        "coordinates": [
            [
                -122.39331,
                47.62958
            ],
            [
                -122.39331018224007,
                47.62958045069005
            ],
            [
                -122.393300256008,
                47.629579445049515
            ],
            [
                -122.39329746140024,
                47.62958108530144
            ],
            [
                -122.39330930315388,
                47.629589622003074
            ],
            [
                -122.39331208041659,
                47.62956758111068
            ],
            [
                -122.39331083672874,
                47.629570527858746
            ],
            [
                -122.3932911211158,
                47.6295795508938
            ],
            [
                -122.39329116986903,
                47.62956881777411
            ],
            [
                -122.39328985601892,
                47.62959059387723
            ],
            [
                -122.3933155021816,
                47.62956987804388
            ],
            [
                -122.39328748883162,
                47.62959572890405
            ],
            [
                -122.393296158675,
                47.62957058066963
            ],
            [
                -122.39329548590236,
                47.629575275494716
            ],
            [
                -122.3932977216599,
                47.62956716623649
            ],
            [
                -122.3932956383752,
                47.62958245199642
            ],
            [
                -122.39331378932934,
                47.629577333360984
            ],
            [
                -122.39331715892217,
                47.62957485531458
            ],
            [
                -122.39330207851617,
                47.62958242803541
            ],
            [
                -122.3932940885329,
                47.62958630804399
            ],
            [
                -122.39331503989779,
                47.629571195831225
            ],
            [
                -122.39330150116199,
                47.629559732869474
            ],
            [
                -122.3933010586431,
                47.62957060398763
            ],
            [
                -122.39330809265928,
                47.629568364231254
            ],
            [
                -122.39330571032275,
                47.629575002988915
            ],
            [
                -122.39329910717662,
                47.62957697315887
            ],
            [
                -122.3933125476314,
                47.62958424630991
            ],
            [
                -122.39329966953532,
                47.629583105147624
            ],
            [
                -122.39331984614239,
                47.62957800316053
            ],
            [
                -122.39330528733174,
                47.62957608920055
            ],
            [
                -122.39329919367648,
                47.62957897811209
            ],
            [
                -122.39330811175142,
                47.629578050791935
            ],
            [
                -122.39330816325396,
                47.62957855076558
            ],
            [
                -122.39330984507329,
                47.629579900796685
            ],
            [
                -122.39329775940874,
                47.62956920771468
            ],
            [
                -122.39330088148495,
                47.6295702584295
            ],
            [
                -122.39329000105464,
                47.629580070782815
            ],
            [
                -122.39334588376816,
                47.62959408379491
            ],
            [
                -122.39330028378612,
                47.62958009823626
            ],
            [
                -122.3932999771169,
                47.6295898131787
            ],
            [
                -122.39329995145037,
                47.629579925521895
            ],
            [
                -122.3932795156612,
                47.62957994358849
            ],
            [
                -122.39329023443536,
                47.629580118905565
            ],
            [
                -122.39328897644243,
                47.62957090599757
            ],
            [
                -122.39332606195258,
                47.629591117388415
            ],
            [
                -122.39331746358378,
                47.62957876062028
            ],
            [
                -122.39331738700722,
                47.62958117871955
            ],
            [
                -122.39331074414721,
                47.629571614039975
            ],
            [
                -122.39329699634602,
                47.62956509953171
            ],
            [
                -122.39331886231945,
                47.62956815457272
            ],
            [
                -122.39329256506373,
                47.62956518286469
            ],
            [
                -122.39331341583261,
                47.62958310144248
            ],
            [
                -122.3933031872665,
                47.62959098766426
            ],
            [
                -122.39332982465653,
                47.62959526584298
            ],
            [
                -122.39330434248532,
                47.629573812897014
            ],
            [
                -122.39330200820007,
                47.62957658235411
            ],
            [
                -122.39330021369696,
                47.629578920666255
            ],
            [
                -122.39330817878401,
                47.629580089023555
            ],
            [
                -122.39330430316949,
                47.62959164079013
            ],
            [
                -122.39328066143227,
                47.62957175919708
            ],
            [
                -122.39331287013022,
                47.62956177053563
            ],
            [
                -122.39329682564494,
                47.62958274509174
            ],
            [
                -122.39328231243329,
                47.62958208735208
            ],
            [
                -122.39329575594336,
                47.629580919287655
            ],
            [
                -122.39329904211823,
                47.629579900729986
            ],
            [
                -122.39329253380689,
                47.629588005059624
            ],
            [
                -122.3932958838192,
                47.629600483559955
            ],
            [
                -122.39330907347966,
                47.629588238897995
            ],
            [
                -122.39330406583117,
                47.629580445013744
            ],
            [
                -122.3932954170057,
                47.629578523254665
            ],
            [
                -122.39329257721738,
                47.62958834000286
            ],
            [
                -122.39330841942254,
                47.629580011278186
            ],
            [
                -122.39330000789391,
                47.62956821638132
            ],
            [
                -122.39330377462251,
                47.62957837466199
            ],
            [
                -122.39330110374576,
                47.629572936956016
            ],
            [
                -122.39331837288209,
                47.62957044014678
            ],
            [
                -122.39331075369476,
                47.62957948465463
            ],
            [
                -122.39329987683416,
                47.62957954239262
            ],
            [
                -122.39331037254942,
                47.62957970195377
            ],
            [
                -122.39330996851875,
                47.62957000106961
            ],
            [
                -122.39330002111129,
                47.62954974051425
            ],
            [
                -122.39332026569252,
                47.629559879741066
            ],
            [
                -122.39331100993964,
                47.629569841987916
            ],
            [
                -122.39330022355193,
                47.62958100434495
            ],
            [
                -122.39330028896028,
                47.62957067070969
            ],
            [
                -122.39329975760498,
                47.629581564217645
            ],
            [
                -122.39329089321534,
                47.62956258122924
            ],
            [
                -122.39329092960847,
                47.62955943372767
            ],
            [
                -122.39330739336198,
                47.629570723718416
            ],
            [
                -122.39331496432928,
                47.629582584564986
            ],
            [
                -122.39330278433745,
                47.62958258216555
            ],
            [
                -122.39328877200519,
                47.629582071353454
            ],
            [
                -122.39330041204721,
                47.6295628162727
            ],
            [
                -122.39329504082393,
                47.62958638993224
            ],
            [
                -122.39329604465179,
                47.62957680299694
            ],
            [
                -122.39328282868347,
                47.629569528266686
            ],
            [
                -122.39329667717446,
                47.62957590234507
            ],
            [
                -122.39329471871712,
                47.629580539482376
            ],
            [
                -122.39329311506127,
                47.62957780590444
            ],
            [
                -122.39327508094053,
                47.629592405069296
            ],
            [
                -122.39328064418048,
                47.62959508349088
            ],
            [
                -122.39330780737022,
                47.62957326076302
            ],
            [
                -122.39331160436181,
                47.62957176242476
            ],
            [
                -122.39330070434491,
                47.62957908531789
            ],
            [
                -122.39331412951694,
                47.62957574013175
            ],
            [
                -122.39330551725176,
                47.629565757082645
            ],
            [
                -122.39329773034949,
                47.62956767788999
            ],
            [
                -122.3933219082217,
                47.629577091797934
            ],
            [
                -122.39330160036111,
                47.62958056438994
            ],
            [
                -122.39330474465318,
                47.62956499284385
            ],
            [
                -122.39331107267489,
                47.629562288770565
            ],
            [
                -122.39332011750902,
                47.62957258106246
            ],
            [
                -122.3933079109615,
                47.62957706952762
            ],
            [
                -122.3933113206732,
                47.62957916638434
            ],
            [
                -122.39329966325504,
                47.629578807754896
            ],
            [
                -122.39330328528868,
                47.62958106103186
            ],
            [
                -122.39330907684315,
                47.629589877948376
            ],
            [
                -122.3932899507695,
                47.62957024214999
            ],
            [
                -122.39327956553088,
                47.62957039933574
            ],
            [
                -122.39328,
                47.62959
            ]
        ]
    },
    "properties": {
        "trajectory_id": 6396,
        "object_id": 368101450,
        "label": "PLEASURE CRAFT"
    }
}