{
    "type": "Feature",
    "geometry": {
        "type": "LineString",
        "coordinates": [
            [
                -122.46302,
                47.39403
            ],
            [
                -122.4630099313628,
                47.39402996558556
            ],
            [
                -122.46299009422877,
                47.39402014731343
            ],
            [
                -122.46300006965579,
                47.394020130994015
            ],
            [
                -122.46299236648115,
                47.39400878848783
            ],
            [
                -122.46299011602441,
                47.39403922361157
            ],
            [
                -122.46301186510462,
                47.39404941572327
            ],
            [
                -122.46299898241017,
                47.39404230715746
            ],
            [
                -122.46300140039418,
                47.394039495870295
            ],
            [
                -122.46300969194175,
                47.39403733299737
            ],
            [
                -122.46300939093895,
                47.394032709400065
            ],
            [
                -122.46300318959393,
                47.394040979423046
            ],
            [
                -122.4630424017013,
                47.39405842885366
            ],
            [
                -122.46302452448832,
                47.39402137378841
            ],
            [
                -122.46299084771135,
                47.394030220818905
            ],
            [
                -122.46300088733904,
                47.394040362495474
            ],
            [
                -122.46303869324957,
                47.39406707282495
            ],
            [
                -122.46302008119761,
                47.394059496111396
            ],
            [
                -122.46300403961415,
                47.394071050406545
            ],
            [
                -122.46302545055914,
                47.394045756308984
            ],
            [
                -122.46301422145343,
                47.39406450467031
            ],
            [
                -122.46303073768763,
                47.39401984751469
            ],
            [
                -122.46300685984733,
                47.39404869404935
            ],
            [
                -122.46302618117963,
                47.39404275495377
            ],
            [
                -122.46299710210425,
                47.3940453459545
            ],
            [
                -122.46300607424608,
                47.39404821515526
            ],
            [
                -122.46299995107128,
                47.394022158053374
            ],
            [
                -122.46301042118085,
                47.39406037618455
            ],
            [
                -122.46300100012027,
                47.39405823819419
            ],
            [
                -122.46299485193744,
                47.394044026252374
            ],
            [
                -122.46301349647614,
                47.39404881932842
            ],
            [
                -122.4630049833041,
                47.39405527520046
            ],
            [
                -122.46301282282847,
                47.39408805265562
            ],
            [
                -122.46300995647437,
                47.394070275161646
            ],
            [
                -122.46299869978857,
                47.39407794412579
            ],
            [
                -122.46300021084211,
                47.394046197703354
            ],
            [
                -122.46299982520571,
                47.394030539532615
            ],
            [
                -122.4630138949785,
                47.39402195218065
            ],
            [
                -122.46302233618114,
                47.39405242481561
            ],
            [
                -122.46301264865774,
                47.39404755167648
            ],
            [
                -122.46300761710167,
                47.394038374500454
            ],
            [
                -122.46300774837064,
                47.39404892505574
            ],
            [
                -122.46300227514396,
                47.39405046024892
            ],
            [
                -122.46299002136003,
                47.394054801015294
            ],
            [
                -122.46302148043375,
                47.394072473337566
            ],
            [
                -122.46299952200032,
                47.39405802945157
            ],
            [
                -122.46301929521648,
                47.39404814278898
            ],
            [
                -122.46303229303146,
                47.3940578387337
            ],
            [
                -122.46303706222257,
                47.39401951001474
            ],
            [
                -122.46304199855311,
                47.39403305612967
            ],
            [
                -122.46296252603678,
                47.39401830112691
            ],
            [
                -122.46299942381664,
                47.39404069630011
            ],
            [
                -122.46299210569842,
                47.39404928820068
            ],
            [
                -122.46300812964526,
                47.39406024834894
            ],
            [
                -122.4629897962292,
                47.39408033070109
            ],
            [
                -122.46299872159672,
                47.394051771946856
            ],
            [
                -122.46296155130511,
                47.39402807551555
            ],
            [
                -122.46298994767852,
                47.39406908544572
            ],
            [
                -122.46295371607705,
                47.394040409738594
            ],
            [
                -122.46296987260152,
                47.39403990227372
            ],
            [
                -122.4629902545521,
                47.394040080032205
            ],
            [
                -122.46300970148266,
                47.39404961742515
            ],
            [
                -122.46303176206064,
                47.39403988589369
            ],
            [
                -122.46299925222193,
                47.394039429503735
            ],
            [
                -122.46297999393491,
                47.39405059483698
            ],
            [
                -122.46300307486037,
                47.3940492304649
            ],
            [
                -122.46298929576002,
                47.394058469230906
            ],
            [
                -122.46299997871063,
                47.39405735098862
            ],
            [
                -122.46297301552659,
                47.39404213401455
            ],
            [
                -122.46301835095272,
                47.39407140784446
            ],
            [
                -122.46300707867269,
                47.3940575138966
            ],
            [
                -122.46300299214137,
                47.3940388447658
            ],
            [
                -122.4629745534259,
                47.39401964192563
            ],
            [
                -122.46299310759761,
                47.39405035587141
            ],
            [
                -122.46301554743597,
                47.39405321427124
            ],
            [
                -122.46301358899643,
                47.3940500695314
            ],
            [
                -122.46300726474281,
                47.394057097041326
            ],
            [
                -122.46304189419342,
                47.39400007482859
            ],
            [
                -122.46302828343768,
                47.394029657515496
            ],
            [
                -122.46301903381442,
                47.39402382317217
            ],
            [
                -122.4630097983246,
                47.394039122891165
            ],
            [
                -122.46305515869757,
                47.39403378478443
            ],
            [
                -122.4630091300367,
                47.39403186773342
            ],
            [
                -122.46301288242421,
                47.394046192558015
            ],
            [
                -122.46301955223998,
                47.39406079942781
            ],
            [
                -122.46301663982307,
                47.394060252256416
            ],
            [
                -122.4629927544519,
                47.39405858340522
            ],
            [
                -122.46301300132912,
                47.39407642662395
            ],
            [
                -122.46302021783166,
                47.39405903919394
            ],
            [
                -122.4629929914979,
                47.394093824650994
            ],
            [
                -122.46298225718701,
                47.39406229442715
            ],
            [
                -122.46298766679423,
                47.39408468771323
            ],
            [
                -122.46296956274287,
                47.39408631965951
            ],
            [
                -122.46296178295053,
                47.394035122305894
            ],
            [
                -122.46298558966453,
                47.39402928271793
            ],
            [
                -122.46297867849658,
                47.39404157489371
            ],
            [
                -122.46295238384567,
                47.394020865278925
            ],
            [
                -122.46297648283279,
                47.394051012558855
            ],
            [
                -122.46299376052974,
                47.39403310275704
            ],
            [
                -122.46301027032456,
                47.39403304932041
            ],
            [
                -122.46296778201261,
                47.394029767835406
            ],
            [
                -122.4629909053905,
                47.394037598537274
            ],
            [
                -122.46297384475233,
                47.39404134199053
            ],
            [
                -122.46299880249487,
                47.39405226688707
            ],
            [
                -122.46300026341625,
                47.394056400074774
            ],
            [
                -122.46299927638108,
                47.39405016495213
            ],
            [
                -122.46302103358349,
                47.394041486683115
            ],
            [
                -122.46298941688703,
                47.39400718608205
            ],
            [
                -122.46302346358365,
                47.394041433346715
            ],
            [
                -122.46301411869334,
                47.39405819633231
            ],
            [
                -122.46301942815099,
                47.394059541160395
            ],
            [
                -122.46302062563169,
                47.39405830451793
            ],
            [
                -122.46303047801298,
                47.394050322909635
            ],
            [
                -122.46301121478541,
                47.39404051885725
            ],
            [
                -122.46301004680129,
                47.39404005415123
            ],
            [
                -122.46301071862982,
                47.39405908222565
            ],
            [
                -122.4629996271824,
                47.394059977879564
            ],
            [
                -122.46300002570605,
                47.39406940089268
            ],
            [
                -122.46299992965947,
                47.394050070511994
            ],
            [
                -122.46298,
                47.39404
            ]
        ]
    },
    "properties": {
        "trajectory_id": 6417,
        "object_id": 368106960,
        "label": "PLEASURE CRAFT"
    }
}