{
    "type": "Feature",
    "geometry": {
        "type": "LineString",
        "coordinates": [
            [
                -123.40744,
                48.66976
            ],
            [
                -123.40742979088657,
                48.66974913998115
            ],
            [
                -123.40743043252479,
                48.669760416768064
            ],
            [
                -123.4074289611518,
                48.66976985264333
            ],
            [
                -123.4074286891106,
                48.66975217932098
            ],
            [
                -123.40741719870879,
                48.669762137617376
            ],
            [
                -123.4074387634604,
                48.66975956579884
            ],
            [
                -123.4074287102607,
                48.66976034662456
            ],
            [
                -123.40743897313773,
                48.669759109599305
            ],
            [
                -123.40743898166156,
                48.669752299250426
            ],
            [
                -123.40744814912166,
                48.669740800347924
            ],
            [
                -123.40745112420967,
                48.669746308988124
            ],
            [
                -123.40745766319692,
                48.66974799107964
            ],
            [
                -123.4074231133132,
                48.66975344684328
            ],
            [
                -123.40743345566821,
                48.66974978391775
            ],
            [
                -123.4074575824638,
                48.669763171150315
            ],
            [
                -123.40744425953588,
                48.669742338595746
            ],
            [
                -123.40745005758941,
                48.669728242512605
            ],
            [
                -123.40746928911332,
                48.66973554843582
            ],
            [
                -123.4074398805475,
                48.66975672617597
            ],
            [
                -123.40742524295588,
                48.66975902482134
            ],
            [
                -123.4074400669628,
                48.669767765856456
            ],
            [
                -123.40743499891408,
                48.669750881611805
            ],
            [
                -123.40744056907684,
                48.66975150612777
            ],
            [
                -123.40744239043576,
                48.66975778710638
            ],
            [
                -123.40743344061121,
                48.66975017627892
            ],
            [
                -123.4074101106429,
                48.66974732527682
            ],
            [
                -123.4074358982529,
                48.669745542871354
            ],
            [
                -123.40743792500305,
                48.66975966512425
            ],
            [
                -123.40742741138918,
                48.66976514719462
            ],
            [
                -123.40743238844418,
                48.66974609270549
            ],
            [
                -123.40743342232113,
                48.66974487518036
            ],
            [
                -123.40742993875779,
                48.66975840986787
            ],
            [
                -123.40742996992137,
                48.669749034029124
            ],
            [
                -123.4074202498584,
                48.669758651000194
            ],
            [
                -123.40742828401704,
                48.669750803515896
            ],
            [
                -123.40742965859005,
                48.66977120240559
            ],
            [
                -123.40745334840526,
                48.66980683924515
            ],
            [
                -123.40744015480063,
                48.66979889210043
            ],
            [
                -123.4074199986587,
                48.66975000066156
            ],
            [
                -123.40743999402014,
                48.669759995182694
            ],
            [
                -123.40741967974172,
                48.6697499939558
            ],
            [
                -123.4074396755937,
                48.669769303104836
            ],
            [
                -123.40743003981295,
                48.669758860225215
            ],
            [
                -123.40743209288273,
                48.6697608374521
            ],
            [
                -123.40743841755639,
                48.669749207719114
            ],
            [
                -123.40743441902994,
                48.669752428592346
            ],
            [
                -123.40743907503702,
                48.66975085751415
            ],
            [
                -123.40741869314834,
                48.669748398207126
            ],
            [
                -123.40743193018368,
                48.66974704746035
            ],
            [
                -123.40743180098943,
                48.66975372816709
            ],
            [
                -123.40740666858099,
                48.669756778410935
            ],
            [
                -123.40742443519126,
                48.66974440525651
            ],
            [
                -123.40742415721493,
                48.669739667671
            ],
            [
                -123.40741732078959,
                48.66976023359104
            ],
            [
                -123.4074317845151,
                48.6697475439595
            ],
            [
                -123.40741925472835,
                48.66974562954609
            ],
            [
                -123.4074177307105,
                48.66974234709236
            ],
            [
                -123.40742189679993,
                48.66976763150532
            ],
            [
                -123.40742451150328,
                48.669744253821975
            ],
            [
                -123.40743557551333,
                48.669741353330814
            ],
            [
                -123.40744678839712,
                48.669735790521244
            ],
            [
                -123.40742992785344,
                48.66975989754909
            ],
            [
                -123.40741872047067,
                48.66977369937246
            ],
            [
                -123.40743501180661,
                48.66976941218412
            ],
            [
                -123.4074447831424,
                48.669748426173136
            ],
            [
                -123.40743851391872,
                48.66975907094299
            ],
            [
                -123.40743780564226,
                48.66976272865541
            ],
            [
                -123.40743399956527,
                48.669776665117105
            ],
            [
                -123.40744070781065,
                48.66976966525598
            ],
            [
                -123.40742981787098,
                48.66976245611384
            ],
            [
                -123.40742696038781,
                48.66975822076042
            ],
            [
                -123.40744047002254,
                48.66976012153889
            ],
            [
                -123.40741919962333,
                48.66975999774794
            ],
            [
                -123.40742877614369,
                48.66975994109238
            ],
            [
                -123.40744067792234,
                48.66976124699126
            ],
            [
                -123.40742999666082,
                48.66976994771011
            ],
            [
                -123.40743022810528,
                48.6697699926115
            ],
            [
                -123.4074496782494,
                48.66976982903305
            ],
            [
                -123.40744000659303,
                48.66975998974982
            ],
            [
                -123.40743989666974,
                48.66974990182871
            ],
            [
                -123.40743995628945,
                48.6697600848278
            ],
            [
                -123.40743932136726,
                48.6697600030059
            ],
            [
                -123.40743014761729,
                48.66974957750231
            ],
            [
                -123.4074294495476,
                48.66974941580987
            ],
            [
                -123.40742832604194,
                48.669750087098706
            ],
            [
                -123.40743114730158,
                48.66975124788156
            ],
            [
                -123.40741838744538,
                48.66975003927652
            ],
            [
                -123.40742105239583,
                48.66974897974354
            ],
            [
                -123.40743055644133,
                48.66975201162205
            ],
            [
                -123.40742770645072,
                48.669744716278935
            ],
            [
                -123.40742962948501,
                48.669750161865295
            ],
            [
                -123.40742310030875,
                48.669748169158254
            ],
            [
                -123.40742823681106,
                48.669742391102425
            ],
            [
                -123.40742715925897,
                48.66976292259467
            ],
            [
                -123.40742020711583,
                48.66975663088971
            ],
            [
                -123.4074185959247,
                48.66975982894229
            ],
            [
                -123.40741631613666,
                48.6697543640077
            ],
            [
                -123.40741827901226,
                48.6697459598807
            ],
            [
                -123.4074257050345,
                48.669776155305414
            ],
            [
                -123.40740955904724,
                48.66976082543552
            ],
            [
                -123.40741960276995,
                48.669755968212215
            ],
            [
                -123.40741924205193,
                48.66974517143506
            ],
            [
                -123.40743356837474,
                48.66974216798231
            ],
            [
                -123.40744596630425,
                48.66972793856413
            ],
            [
                -123.40743575164969,
                48.66974614413679
            ],
            [
                -123.40744428091031,
                48.669738387389735
            ],
            [
                -123.40743409298597,
                48.66974111447185
            ],
            [
                -123.4074286019646,
                48.66974980815887
            ],
            [
                -123.4074179916081,
                48.66974903393581
            ],
            [
                -123.40742981690265,
                48.66974083607224
            ],
            [
                -123.4074275347679,
                48.66974981504032
            ],
            [
                -123.40743094724074,
                48.66975224378934
            ],
            [
                -123.40742752429469,
                48.66976024728942
            ],
            [
                -123.40742809066826,
                48.6697600047014
            ],
            [
                -123.40743010252872,
                48.669759816863746
            ],
            [
                -123.40743968821779,
                48.66975034138419
            ],
            [
                -123.4074306834121,
                48.66975042935502
            ],
            [
                -123.40744058555791,
                48.66975010483712
            ],
            [
                -123.40743,
                48.66976
            ]
        ]
    },
    "properties": {
        "trajectory_id": 6456,
        "object_id": 368115910,
        "label": "PLEASURE CRAFT"
    }
}