{
    "type": "Feature",
    "geometry": {
        "type": "LineString",
        "coordinates": [
            [
                -122.39353,
                47.62809
            ],
            [
                -122.39348991544698,
                47.62808004884541
            ],
            [
                -122.39351136814768,
                47.62804805695133
            ],
            [
                -122.3935329193772,
                47.628079280660444
            ],
            [
                -122.39356181959948,
                47.62806979946439
            ],
            [
                -122.39356145020248,
                47.62806427199872
            ],
            [
                -122.39352977985351,
                47.628080748449385
            ],
            [
                -122.3935199757641,
                47.628069319700366
            ],
            [
                -122.39356358433155,
                47.62810295655982
            ],
            [
                -122.39355912228284,
                47.62806997388813
            ],
            [
                -122.39356163182634,
                47.62811445656562
            ],
            [
                -122.39356379239861,
                47.628096756309006
            ],
            [
                -122.39352904013656,
                47.62810758406575
            ],
            [
                -122.39352550584462,
                47.62807705301653
            ],
            [
                -122.39352254339022,
                47.628108101162525
            ],
            [
                -122.39355259150778,
                47.62807433613752
            ],
            [
                -122.39352017957671,
                47.62808190387907
            ],
            [
                -122.39362513930037,
                47.62803531743286
            ],
            [
                -122.39356682595664,
                47.62808369156328
            ],
            [
                -122.3935875071712,
                47.628066740740735
            ],
            [
                -122.39352648481272,
                47.62809096540785
            ],
            [
                -122.39356799347937,
                47.6280805975498
            ],
            [
                -122.39352233358025,
                47.62807545729743
            ],
            [
                -122.39356454535526,
                47.62806692550705
            ],
            [
                -122.39353161453445,
                47.628095587805
            ],
            [
                -122.3935115674006,
                47.62807667086382
            ],
            [
                -122.39356674015204,
                47.628080081340926
            ],
            [
                -122.39356294014297,
                47.62808057152481
            ],
            [
                -122.39350774725214,
                47.628091609112815
            ],
            [
                -122.39352800523343,
                47.628122354478414
            ],
            [
                -122.39352019054174,
                47.62810244703823
            ],
            [
                -122.39352108522563,
                47.628099248079835
            ],
            [
                -122.3935198795822,
                47.62808320849022
            ],
            [
                -122.39352927920717,
                47.628110861021355
            ],
            [
                -122.39352880285423,
                47.62810013446081
            ],
            [
                -122.3935201792732,
                47.62810995902378
            ],
            [
                -122.39353003265977,
                47.628099855330575
            ],
            [
                -122.39353016528737,
                47.628100059319856
            ],
            [
                -122.39352007665232,
                47.62807952344485
            ],
            [
                -122.3935580665686,
                47.628049777971256
            ],
            [
                -122.3934885369613,
                47.628068439381586
            ],
            [
                -122.39351957095542,
                47.628092387118194
            ],
            [
                -122.39351743627059,
                47.62805897206949
            ],
            [
                -122.39351897392453,
                47.62810101062564
            ],
            [
                -122.39352467573366,
                47.628086932714204
            ],
            [
                -122.3935127864512,
                47.62809873614155
            ],
            [
                -122.39352852677419,
                47.628099840065666
            ],
            [
                -122.39353000858368,
                47.628090023464566
            ],
            [
                -122.3935590776664,
                47.6281101859995
            ],
            [
                -122.39353009168295,
                47.62808978981239
            ],
            [
                -122.39353007788317,
                47.628090210062005
            ],
            [
                -122.39352588512504,
                47.62808914302523
            ],
            [
                -122.39356039106994,
                47.62809666259476
            ],
            [
                -122.39355274469834,
                47.6280950748928
            ],
            [
                -122.39355763554882,
                47.62809363415367
            ],
            [
                -122.39352613003517,
                47.628114227651146
            ],
            [
                -122.3935370099268,
                47.6281134054441
            ],
            [
                -122.39353118871232,
                47.62808472104758
            ],
            [
                -122.3935490061891,
                47.6280953214273
            ],
            [
                -122.39356583487782,
                47.628084056022594
            ],
            [
                -122.39352785500849,
                47.62810585348555
            ],
            [
                -122.3935253933658,
                47.62807020078239
            ],
            [
                -122.3935462166161,
                47.62808362250031
            ],
            [
                -122.39351187518814,
                47.62808119079655
            ],
            [
                -122.39351796983125,
                47.62809309779223
            ],
            [
                -122.39353210740383,
                47.628071733894515
            ],
            [
                -122.39351441898283,
                47.6280737421375
            ],
            [
                -122.39348773901153,
                47.628053142136324
            ],
            [
                -122.39352049833069,
                47.62810635706247
            ],
            [
                -122.39354847224152,
                47.62811008638391
            ],
            [
                -122.39354189813531,
                47.62812134540507
            ],
            [
                -122.39354347402524,
                47.62811401090916
            ],
            [
                -122.3935619286288,
                47.62813716316787
            ],
            [
                -122.39355992388691,
                47.62809949980702
            ],
            [
                -122.3935276374486,
                47.628119958710236
            ],
            [
                -122.393566608836,
                47.62812931177985
            ],
            [
                -122.39355731798767,
                47.62811461930413
            ],
            [
                -122.39356283287196,
                47.62811696343821
            ],
            [
                -122.39355742463114,
                47.62812372208096
            ],
            [
                -122.39360107719457,
                47.62807769957618
            ],
            [
                -122.39356000687582,
                47.62810085484222
            ],
            [
                -122.39355894346586,
                47.628110432945455
            ],
            [
                -122.39355993487004,
                47.628079992332516
            ],
            [
                -122.39355993574596,
                47.628089978291854
            ],
            [
                -122.39352957943474,
                47.62807986013192
            ],
            [
                -122.39356008559858,
                47.62809068602324
            ],
            [
                -122.39357020456332,
                47.62810070464511
            ],
            [
                -122.3935724933282,
                47.628080205671125
            ],
            [
                -122.3935297237619,
                47.6280800174767
            ],
            [
                -122.39355922333806,
                47.62810319694133
            ],
            [
                -122.3935676530121,
                47.628082166152005
            ],
            [
                -122.3935249261542,
                47.62809536147964
            ],
            [
                -122.3935297027003,
                47.628114738515734
            ],
            [
                -122.39352168628604,
                47.62812581864339
            ],
            [
                -122.39352459242816,
                47.628116455813704
            ],
            [
                -122.39352032711966,
                47.62809328548561
            ],
            [
                -122.39353206091421,
                47.62809301705882
            ],
            [
                -122.39352619125647,
                47.62807622690616
            ],
            [
                -122.39352140636986,
                47.62810113953269
            ],
            [
                -122.3935063523891,
                47.62809598792012
            ],
            [
                -122.39352722833061,
                47.628086597199555
            ],
            [
                -122.39352090274112,
                47.62809552916958
            ],
            [
                -122.39351488957047,
                47.62808600234809
            ],
            [
                -122.39352030161642,
                47.62808921122636
            ],
            [
                -122.39353188965494,
                47.62808678105547
            ],
            [
                -122.39354098465091,
                47.62809610039137
            ],
            [
                -122.39357070988838,
                47.62808204890674
            ],
            [
                -122.39352815426365,
                47.62808063728986
            ],
            [
                -122.39353112611428,
                47.62808648024953
            ],
            [
                -122.39352946091918,
                47.62809575758315
            ],
            [
                -122.39353076832475,
                47.6280877239753
            ],
            [
                -122.39352882743393,
                47.628088372762704
            ],
            [
                -122.39351311081695,
                47.628097058105254
            ],
            [
                -122.39351924132333,
                47.628090406721086
            ],
            [
                -122.39352617481212,
                47.628091005579265
            ],
            [
                -122.39352847131231,
                47.62807941338223
            ],
            [
                -122.3935295081982,
                47.6280980632574
            ],
            [
                -122.39353128688367,
                47.628120199452205
            ],
            [
                -122.39356026083848,
                47.62812031315299
            ],
            [
                -122.39356,
                47.62809
            ]
        ]
    },
    "properties": {
        "trajectory_id": 6469,
        "object_id": 368122690,
        "label": "PLEASURE CRAFT"
    }
}