{
    "type": "Feature",
    "geometry": {
        "type": "LineString",
        "coordinates": [
            [
                -123.0066,
                49.15524
            ],
            [
                -123.00660692728758,
                49.155230190839205
            ],
            [
                -123.006609999897,
                49.15523348243908
            ],
            [
                -123.00661000001091,
                49.15523876996112
            ],
            [
                -123.00661036427026,
                49.15523588596459
            ],
            [
                -123.00662018584536,
                49.15524000965104
            ],
            [
                -123.00660999987232,
                49.15523999999972
            ],
            [
                -123.00660999990646,
                49.15524000000001
            ],
            [
                -123.00660542222991,
                49.15524
            ],
            [
                -123.00659999955701,
                49.15524000000001
            ],
            [
                -123.00658987427501,
                49.155240000000006
            ],
            [
                -123.0065999974306,
                49.15524000000001
            ],
            [
                -123.00659061596214,
                49.155240000000006
            ],
            [
                -123.00658999675599,
                49.15523999999995
            ],
            [
                -123.00658966093881,
                49.15523999831441
            ],
            [
                -123.00659014961458,
                49.155249773033205
            ],
            [
                -123.00657942483375,
                49.155249998822384
            ],
            [
                -123.00659000028283,
                49.155251054905364
            ],
            [
                -123.00659000002722,
                49.15524999186383
            ],
            [
                -123.00659066144455,
                49.155238138039365
            ],
            [
                -123.00657555112802,
                49.15526179608963
            ],
            [
                -123.00658000047105,
                49.15523957423888
            ],
            [
                -123.00658205888752,
                49.15524004677746
            ],
            [
                -123.00656996487939,
                49.155222350703525
            ],
            [
                -123.00658082250065,
                49.15523091407114
            ],
            [
                -123.00657999607243,
                49.15525168741015
            ],
            [
                -123.00659147199775,
                49.15525048079952
            ],
            [
                -123.00658949067717,
                49.15524000094409
            ],
            [
                -123.00658951329024,
                49.1552400000001
            ],
            [
                -123.00659000008035,
                49.15524000566077
            ],
            [
                -123.00659336933074,
                49.15522991940633
            ],
            [
                -123.00660004887322,
                49.15523000000063
            ],
            [
                -123.00658999486318,
                49.15522991868878
            ],
            [
                -123.0065900000229,
                49.155240109992505
            ],
            [
                -123.00658965515639,
                49.155239987319085
            ],
            [
                -123.00659000145448,
                49.155239942034505
            ],
            [
                -123.00658999999945,
                49.155240000022516
            ],
            [
                -123.0065899999999,
                49.15524000000002
            ],
            [
                -123.00658999709856,
                49.15524000023809
            ],
            [
                -123.00660039496407,
                49.15523037727389
            ],
            [
                -123.00659826816378,
                49.15522782691389
            ],
            [
                -123.00658899499747,
                49.15522977862643
            ],
            [
                -123.00660000204081,
                49.1552398970616
            ],
            [
                -123.006597606345,
                49.15523041307574
            ],
            [
                -123.00659962567445,
                49.15524044969673
            ],
            [
                -123.0065897171054,
                49.15523999833049
            ],
            [
                -123.00658335688999,
                49.15524000000014
            ],
            [
                -123.00658458492123,
                49.15523999999921
            ],
            [
                -123.00657998659595,
                49.15523998629453
            ],
            [
                -123.00657044058028,
                49.15524005732712
            ],
            [
                -123.00656994296516,
                49.15524593732017
            ],
            [
                -123.00656990331166,
                49.15524975390074
            ],
            [
                -123.00656811599688,
                49.15524998858644
            ],
            [
                -123.00658437793157,
                49.15523995206057
            ],
            [
                -123.0065799999899,
                49.155239962853955
            ],
            [
                -123.00658599475761,
                49.15523997035436
            ],
            [
                -123.00658967667526,
                49.15523890037657
            ],
            [
                -123.0065900000229,
                49.15523999998772
            ],
            [
                -123.00659010522625,
                49.15524149962686
            ],
            [
                -123.0065907988153,
                49.155230001262154
            ],
            [
                -123.00657911647575,
                49.15523093907298
            ],
            [
                -123.00658998045043,
                49.15522992850013
            ],
            [
                -123.0065903151019,
                49.155230726019724
            ],
            [
                -123.00659006016257,
                49.1552300054217
            ],
            [
                -123.00659000738291,
                49.155230000000124
            ],
            [
                -123.00660000289055,
                49.15522999999774
            ],
            [
                -123.00660000000045,
                49.15523168833454
            ],
            [
                -123.00659999012028,
                49.15523308832328
            ],
            [
                -123.00658995563387,
                49.15524005047633
            ],
            [
                -123.00659007360731,
                49.15523000114005
            ],
            [
                -123.00660000712502,
                49.15523491937135
            ],
            [
                -123.00659005305657,
                49.15522984189555
            ],
            [
                -123.00660085870834,
                49.15522999997967
            ],
            [
                -123.00659957372336,
                49.15522992397152
            ],
            [
                -123.00661000352892,
                49.15524000353581
            ],
            [
                -123.00660999997999,
                49.155240011663956
            ],
            [
                -123.00661079009328,
                49.155230004169304
            ],
            [
                -123.00659990510903,
                49.15523000003218
            ],
            [
                -123.00660000000683,
                49.15522959952923
            ],
            [
                -123.0066,
                49.15523
            ]
        ]
    },
    "properties": {
        "trajectory_id": 647,
        "object_id": 316005416,
        "label": "TOWING"
    }
}