{
    "type": "Feature",
    "geometry": {
        "type": "LineString",
        "coordinates": [
            [
                -122.60703,
                48.51295
            ],
            [
                -122.6070407480882,
                48.51293970545053
            ],
            [
                -122.60706336185892,
                48.51295709627148
            ],
            [
                -122.60703041467686,
                48.512941571326294
            ],
            [
                -122.60706071821942,
                48.51295066312565
            ],
            [
                -122.60703148040423,
                48.51292750443609
            ],
            [
                -122.6070342178242,
                48.512996860397955
            ],
            [
                -122.60701685029358,
                48.51296126992982
            ],
            [
                -122.6070218833438,
                48.512958338445124
            ],
            [
                -122.60702864119519,
                48.51295642923685
            ],
            [
                -122.60705662878473,
                48.51296139042536
            ],
            [
                -122.60708367855919,
                48.5129556919478
            ],
            [
                -122.60705488099345,
                48.51295533825964
            ],
            [
                -122.60708393442678,
                48.51297289716116
            ],
            [
                -122.60707892945682,
                48.51294646119735
            ],
            [
                -122.60707553528684,
                48.51293195957309
            ],
            [
                -122.60709685688832,
                48.51287086698919
            ],
            [
                -122.60703867124566,
                48.51293934013722
            ],
            [
                -122.60706313050652,
                48.51295637713534
            ],
            [
                -122.60703729782708,
                48.512966723633774
            ],
            [
                -122.60702683046286,
                48.512964312261914
            ],
            [
                -122.60702492885954,
                48.51299848698336
            ],
            [
                -122.60704154893341,
                48.512962517532166
            ],
            [
                -122.60701885245969,
                48.51295254214333
            ],
            [
                -122.60704819789366,
                48.5129786230692
            ],
            [
                -122.60700406334294,
                48.512960643021025
            ],
            [
                -122.60704670301793,
                48.51296125248607
            ],
            [
                -122.60702651925791,
                48.51297386591613
            ],
            [
                -122.60708834624882,
                48.512937240941675
            ],
            [
                -122.60701950550606,
                48.51296201606752
            ],
            [
                -122.6070793127183,
                48.512969085571584
            ],
            [
                -122.60711265932993,
                48.51291148775012
            ],
            [
                -122.60705973736734,
                48.512997737889094
            ],
            [
                -122.60710118904676,
                48.51297019134169
            ],
            [
                -122.60707166808464,
                48.512960536463716
            ],
            [
                -122.60702407640449,
                48.51297702669057
            ],
            [
                -122.60702749292878,
                48.51298674355674
            ],
            [
                -122.60705673960283,
                48.51297706059841
            ],
            [
                -122.60712034691531,
                48.5128842400497
            ],
            [
                -122.60705532771296,
                48.512957937659834
            ],
            [
                -122.6070106192509,
                48.512983508601636
            ],
            [
                -122.60702305084475,
                48.512967400113666
            ],
            [
                -122.60704223384786,
                48.512949396670564
            ],
            [
                -122.60708569241486,
                48.51299981095954
            ],
            [
                -122.60699487668828,
                48.51292289939172
            ],
            [
                -122.60702471456514,
                48.51294107944634
            ],
            [
                -122.60697811800443,
                48.51299441145593
            ],
            [
                -122.60702884451007,
                48.51295963128962
            ],
            [
                -122.60699821821268,
                48.51292471056536
            ],
            [
                -122.60702370486327,
                48.51301058098413
            ],
            [
                -122.60707096039278,
                48.51296991710357
            ],
            [
                -122.60709640451233,
                48.5129423910159
            ],
            [
                -122.60706182193181,
                48.51293833130009
            ],
            [
                -122.60704889658328,
                48.51292773946429
            ],
            [
                -122.60705017688798,
                48.51296682086022
            ],
            [
                -122.60704191724786,
                48.51296519631712
            ],
            [
                -122.60704196496987,
                48.51300969301337
            ],
            [
                -122.60702625602083,
                48.51298433330157
            ],
            [
                -122.60705574150833,
                48.51295645711099
            ],
            [
                -122.60701091565603,
                48.51295932519047
            ],
            [
                -122.60702301535588,
                48.51296064357445
            ],
            [
                -122.6070394346412,
                48.512921959094854
            ],
            [
                -122.60706984554092,
                48.512940116424446
            ],
            [
                -122.60706139846802,
                48.51294002639166
            ],
            [
                -122.60702172423207,
                48.51298171258728
            ],
            [
                -122.60703944690572,
                48.51295153953096
            ],
            [
                -122.6070156416776,
                48.51297701565604
            ],
            [
                -122.60704470230696,
                48.51299726886363
            ],
            [
                -122.60704975224336,
                48.512962117135835
            ],
            [
                -122.6070569219466,
                48.51295144558842
            ],
            [
                -122.60704125072806,
                48.51296405333815
            ],
            [
                -122.60705668297386,
                48.51295653180592
            ],
            [
                -122.60705212927233,
                48.512914464556836
            ],
            [
                -122.6070311711978,
                48.512955494794575
            ],
            [
                -122.6070162722577,
                48.512908850735734
            ],
            [
                -122.60699058775377,
                48.5130512558265
            ],
            [
                -122.60698076414747,
                48.513031469508554
            ],
            [
                -122.60705123859297,
                48.51296831706883
            ],
            [
                -122.60706634063109,
                48.51297996313797
            ],
            [
                -122.6070445124281,
                48.512970702460045
            ],
            [
                -122.60707509636786,
                48.51295428928243
            ],
            [
                -122.60704415786482,
                48.51299686337065
            ],
            [
                -122.6070456139883,
                48.51299104657777
            ],
            [
                -122.60704081855421,
                48.512976947365104
            ],
            [
                -122.60705292127116,
                48.5129600434041
            ],
            [
                -122.60709994565157,
                48.51292766967005
            ],
            [
                -122.6070453674885,
                48.512940277987
            ],
            [
                -122.60708679662066,
                48.51298548575246
            ],
            [
                -122.60702461270058,
                48.51293848280328
            ],
            [
                -122.60708028477268,
                48.51295766354685
            ],
            [
                -122.60708839650715,
                48.512948517581776
            ],
            [
                -122.60705043229942,
                48.51298169872072
            ],
            [
                -122.6070688346012,
                48.51296122331534
            ],
            [
                -122.6071000957553,
                48.51294990426129
            ],
            [
                -122.60707972753991,
                48.51297916557888
            ],
            [
                -122.60708853809241,
                48.5129318140161
            ],
            [
                -122.6070648415119,
                48.51295915906107
            ],
            [
                -122.60704701912904,
                48.513002959585684
            ],
            [
                -122.6070519983822,
                48.512951844180336
            ],
            [
                -122.60704522801717,
                48.51295225819794
            ],
            [
                -122.60706557525958,
                48.51296249537907
            ],
            [
                -122.60705014897819,
                48.51295575180196
            ],
            [
                -122.60706290367011,
                48.5129674202031
            ],
            [
                -122.60704347003511,
                48.51297540134492
            ],
            [
                -122.60704454411731,
                48.51297041830111
            ],
            [
                -122.6061788433298,
                48.51230040572885
            ],
            [
                -122.60982896066207,
                48.52459811658643
            ],
            [
                -122.65840512558265,
                48.53025240780779
            ],
            [
                -122.66026958176022,
                48.5533971245962
            ],
            [
                -122.65589201655969,
                48.576498790320535
            ],
            [
                -122.6358888554176,
                48.5911632565799
            ],
            [
                -122.59311812043369,
                48.57629960673554
            ],
            [
                -122.57138920214885,
                48.53172832329678
            ],
            [
                -122.59446230712155,
                48.51259920599943
            ],
            [
                -122.60699538182496,
                48.51281953746691
            ],
            [
                -122.60706870076237,
                48.5129491536022
            ],
            [
                -122.60705834945432,
                48.51293249873662
            ],
            [
                -122.60709097091659,
                48.51293095481248
            ],
            [
                -122.60703912918312,
                48.51292955291733
            ],
            [
                -122.60707,
                48.51294
            ]
        ]
    },
    "properties": {
        "trajectory_id": 6495,
        "object_id": 368125240,
        "label": "PLEASURE CRAFT"
    }
}