{
    "type": "Feature",
    "geometry": {
        "type": "LineString",
        "coordinates": [
            [
                -122.3809,
                47.65718
            ],
            [
                -122.38088999991945,
                47.65715000007195
            ],
            [
                -122.38088000297628,
                47.657179989446135
            ],
            [
                -122.38088993434039,
                47.65720010083059
            ],
            [
                -122.3808799972773,
                47.657170000459004
            ],
            [
                -122.38089564898698,
                47.657174690887445
            ],
            [
                -122.3808999557809,
                47.657179989993885
            ],
            [
                -122.38087999863251,
                47.657170000085294
            ],
            [
                -122.38088651154331,
                47.65715962771338
            ],
            [
                -122.38088000973573,
                47.65717000438522
            ],
            [
                -122.38085129936509,
                47.65718831350011
            ],
            [
                -122.38089481254693,
                47.657172816053965
            ],
            [
                -122.38087999702434,
                47.65716999859337
            ],
            [
                -122.38088999190667,
                47.65717000228745
            ],
            [
                -122.38089000174115,
                47.6571699983005
            ],
            [
                -122.38090823641491,
                47.65716708791183
            ],
            [
                -122.38089754812403,
                47.657165273357116
            ],
            [
                -122.38088000292333,
                47.65717999836291
            ],
            [
                -122.38088272162273,
                47.65716428965723
            ],
            [
                -122.38086122882541,
                47.657180455550844
            ],
            [
                -122.38091604141704,
                47.6571619108167
            ],
            [
                -122.38087016782079,
                47.65717979359041
            ],
            [
                -122.3808923499507,
                47.65715827130622
            ],
            [
                -122.380890063138,
                47.657160074147136
            ],
            [
                -122.38088998558428,
                47.65717002260571
            ],
            [
                -122.38088000894632,
                47.657180000978926
            ],
            [
                -122.38089999642658,
                47.65717006185004
            ],
            [
                -122.38089001885483,
                47.65717006988413
            ],
            [
                -122.38087094162303,
                47.65716096079504
            ],
            [
                -122.38088997208725,
                47.65717000053822
            ],
            [
                -122.38089123113434,
                47.65716407595437
            ],
            [
                -122.38092003810709,
                47.65716995600843
            ],
            [
                -122.38089003961927,
                47.65717999420581
            ],
            [
                -122.38090006820588,
                47.657169993865764
            ],
            [
                -122.38090681002066,
                47.657169384583376
            ],
            [
                -122.38089532098478,
                47.65715880283033
            ],
            [
                -122.38088999816009,
                47.65716996956226
            ],
            [
                -122.38088999712855,
                47.65717000433099
            ],
            [
                -122.38089002304025,
                47.65717997524812
            ],
            [
                -122.3809000154337,
                47.65717999819516
            ],
            [
                -122.38089987369489,
                47.65716995145859
            ],
            [
                -122.38089000891567,
                47.6571700546237
            ],
            [
                -122.3808699613503,
                47.657189983302615
            ],
            [
                -122.38088232759539,
                47.65718907304854
            ],
            [
                -122.38089007293712,
                47.65715996704588
            ],
            [
                -122.38090210877822,
                47.657193477212765
            ],
            [
                -122.38089999490359,
                47.65716998182231
            ],
            [
                -122.38089004583611,
                47.657169931418935
            ],
            [
                -122.38088998856156,
                47.65717999039393
            ],
            [
                -122.38088063330888,
                47.65718879381461
            ],
            [
                -122.38087999590579,
                47.6571899991397
            ],
            [
                -122.38089999117042,
                47.6571599688558
            ],
            [
                -122.38088929640824,
                47.657179606564654
            ],
            [
                -122.38087816736613,
                47.65718631888932
            ],
            [
                -122.3808800302658,
                47.657189969471844
            ],
            [
                -122.38088001582723,
                47.65716002278129
            ],
            [
                -122.38089001160787,
                47.65718000148311
            ],
            [
                -122.38086086930603,
                47.657169879626956
            ],
            [
                -122.3808899384152,
                47.65718002000877
            ],
            [
                -122.38089008756062,
                47.65716014862407
            ],
            [
                -122.38088924581143,
                47.65718668059325
            ],
            [
                -122.38087995932374,
                47.65718001777668
            ],
            [
                -122.38088976597307,
                47.65715362685919
            ],
            [
                -122.38086998376515,
                47.65717996254455
            ],
            [
                -122.38089005176053,
                47.657159983301085
            ],
            [
                -122.38088866347458,
                47.657159448723654
            ],
            [
                -122.38087281180918,
                47.657173660020085
            ],
            [
                -122.38090000606748,
                47.65716998728088
            ],
            [
                -122.38089999894116,
                47.65716005610422
            ],
            [
                -122.38089704069913,
                47.65716233620769
            ],
            [
                -122.38087796974588,
                47.65716101587594
            ],
            [
                -122.38089003421945,
                47.6571599832052
            ],
            [
                -122.38090997702328,
                47.657170005695065
            ],
            [
                -122.3808730643882,
                47.65718347919798
            ],
            [
                -122.38088996708801,
                47.6571701509586
            ],
            [
                -122.38087988867082,
                47.65715998004798
            ],
            [
                -122.38086003766851,
                47.65717002982991
            ],
            [
                -122.38086998312572,
                47.65717000976413
            ],
            [
                -122.38089998612692,
                47.657160034968484
            ],
            [
                -122.38088371846752,
                47.657191141423844
            ],
            [
                -122.38089001679647,
                47.65717998619452
            ],
            [
                -122.38091000192648,
                47.65717000605306
            ],
            [
                -122.38089998450886,
                47.657169978679136
            ],
            [
                -122.38088108835765,
                47.657163915591134
            ],
            [
                -122.38088995987157,
                47.657160050310615
            ],
            [
                -122.38089998916068,
                47.65717002292646
            ],
            [
                -122.38089006439291,
                47.65715992942276
            ],
            [
                -122.38091000561309,
                47.65718003180263
            ],
            [
                -122.38088003655048,
                47.65716000210682
            ],
            [
                -122.38087998636686,
                47.65716999235125
            ],
            [
                -122.38090002490365,
                47.65716008518534
            ],
            [
                -122.38089999008102,
                47.657170003488645
            ],
            [
                -122.3808900489498,
                47.65716996434651
            ],
            [
                -122.380874234794,
                47.65717581919544
            ],
            [
                -122.38090875327322,
                47.65716579498637
            ],
            [
                -122.38088998095778,
                47.65717001239709
            ],
            [
                -122.38090001108756,
                47.65714999748136
            ],
            [
                -122.38090005251611,
                47.657169994720206
            ],
            [
                -122.38088746827253,
                47.65716500763589
            ],
            [
                -122.38088430904816,
                47.657162836057935
            ],
            [
                -122.38089000276216,
                47.65717999894837
            ],
            [
                -122.38090999479753,
                47.65716999562116
            ],
            [
                -122.38087221549705,
                47.65716688981141
            ],
            [
                -122.38090087708254,
                47.65714977116224
            ],
            [
                -122.38089281780078,
                47.65715657939994
            ],
            [
                -122.38089020390522,
                47.65717990352118
            ],
            [
                -122.38089004017138,
                47.657160000139136
            ],
            [
                -122.38088992995525,
                47.65717001214091
            ],
            [
                -122.38090546382195,
                47.657158801795916
            ],
            [
                -122.3808701125935,
                47.65715992618141
            ],
            [
                -122.38089033347882,
                47.65717431204004
            ],
            [
                -122.3808900116228,
                47.65716999858705
            ],
            [
                -122.38090000569476,
                47.657180069483594
            ],
            [
                -122.38088547626084,
                47.65716488123815
            ],
            [
                -122.38090003782759,
                47.65715006811965
            ],
            [
                -122.38088999237182,
                47.65716995414222
            ],
            [
                -122.38089931893174,
                47.65717809748835
            ],
            [
                -122.38089359277755,
                47.657175724365345
            ],
            [
                -122.38089005257133,
                47.65717998621592
            ],
            [
                -122.3809,
                47.65717
            ]
        ]
    },
    "properties": {
        "trajectory_id": 6530,
        "object_id": 368131020,
        "label": "PLEASURE CRAFT"
    }
}