{
    "type": "Feature",
    "geometry": {
        "type": "LineString",
        "coordinates": [
            [
                -122.34159,
                47.60581
            ],
            [
                -122.34159238080385,
                47.60579978665311
            ],
            [
                -122.34158953050883,
                47.60580930866684
            ],
            [
                -122.34158913661204,
                47.60580943968374
            ],
            [
                -122.34157245563708,
                47.60580689898911
            ],
            [
                -122.34157966063336,
                47.605809929803655
            ],
            [
                -122.34157921278594,
                47.605802967588744
            ],
            [
                -122.34159977653141,
                47.60579009928563
            ],
            [
                -122.34159165648104,
                47.605809243745604
            ],
            [
                -122.34157998030497,
                47.60581008581652
            ],
            [
                -122.34159040901952,
                47.605820221470154
            ],
            [
                -122.3415725871672,
                47.60583154606909
            ],
            [
                -122.34157840741405,
                47.60583500106369
            ],
            [
                -122.34156959261725,
                47.60583275337004
            ],
            [
                -122.34155976339495,
                47.605840019983994
            ],
            [
                -122.34156571731533,
                47.605830371282615
            ],
            [
                -122.34156935420508,
                47.60583000226941
            ],
            [
                -122.34155943516048,
                47.60583020010954
            ],
            [
                -122.34156062808702,
                47.60583952016285
            ],
            [
                -122.34156329778418,
                47.60582797845876
            ],
            [
                -122.34156073041851,
                47.6058114122118
            ],
            [
                -122.34156543323529,
                47.60581967066714
            ],
            [
                -122.34157196358699,
                47.605819514836384
            ],
            [
                -122.34157000385325,
                47.60581029047679
            ],
            [
                -122.34157559681582,
                47.605818365759866
            ],
            [
                -122.34157001234799,
                47.60582000316471
            ],
            [
                -122.34156406521993,
                47.60582108396759
            ],
            [
                -122.34157976531039,
                47.60581816485474
            ],
            [
                -122.34157232002089,
                47.60582024652915
            ],
            [
                -122.34158232746147,
                47.60582763519791
            ],
            [
                -122.34157017050889,
                47.6058207206742
            ],
            [
                -122.34156543691438,
                47.60581911587009
            ],
            [
                -122.34158000581968,
                47.60583003533003
            ],
            [
                -122.34158538332332,
                47.60582624893761
            ],
            [
                -122.34156229051548,
                47.605825298001804
            ],
            [
                -122.3415785079369,
                47.60582848179654
            ],
            [
                -122.34158410842603,
                47.60582164980755
            ],
            [
                -122.34158983169267,
                47.60582001952892
            ],
            [
                -122.34158034193305,
                47.60581507789445
            ],
            [
                -122.34158000385082,
                47.60581067820798
            ],
            [
                -122.34157999927095,
                47.60582181388078
            ],
            [
                -122.34157999509095,
                47.60581689016479
            ],
            [
                -122.34158007926126,
                47.60580939591076
            ],
            [
                -122.3415871265972,
                47.60580988623084
            ],
            [
                -122.34159269613332,
                47.605811927110025
            ],
            [
                -122.34159045624482,
                47.6058129231469
            ],
            [
                -122.34159005405894,
                47.60581050740513
            ],
            [
                -122.34159881988997,
                47.60582009726914
            ],
            [
                -122.34158886543494,
                47.60580828122384
            ],
            [
                -122.34160458538595,
                47.6058042685555
            ],
            [
                -122.34159160595635,
                47.60580658040066
            ],
            [
                -122.34159088259923,
                47.60580039452597
            ],
            [
                -122.34159411673718,
                47.605809218803266
            ],
            [
                -122.34158982073012,
                47.605799787419464
            ],
            [
                -122.34159939144895,
                47.605807769469585
            ],
            [
                -122.3415905868527,
                47.605800716757535
            ],
            [
                -122.34159157294111,
                47.60580682618462
            ],
            [
                -122.34159938955094,
                47.60581002336639
            ],
            [
                -122.34159182639927,
                47.605807924544365
            ],
            [
                -122.34159056413326,
                47.60581044201541
            ],
            [
                -122.34159619492823,
                47.60580028390205
            ],
            [
                -122.3415914675227,
                47.60581260611539
            ],
            [
                -122.3415995237663,
                47.605790174891744
            ],
            [
                -122.34159213819302,
                47.60579554778587
            ],
            [
                -122.34160007860788,
                47.60580007868382
            ],
            [
                -122.34160354922005,
                47.60580552001946
            ],
            [
                -122.3416067004398,
                47.60579840309495
            ],
            [
                -122.34241722622964,
                47.60584856345178
            ],
            [
                -122.34315,
                47.602869999999996
            ],
            [
                -122.34377185717881,
                47.5972609640898
            ],
            [
                -122.34480984559946,
                47.591313961157454
            ],
            [
                -122.34451821549517,
                47.586143761396855
            ],
            [
                -122.34563619564152,
                47.59143896127714
            ],
            [
                -122.35262879066929,
                47.59436998811451
            ],
            [
                -122.35947426114417,
                47.5973327255188
            ],
            [
                -122.36621674560767,
                47.600373872339325
            ],
            [
                -122.37278714962808,
                47.603595752505136
            ],
            [
                -122.37708606763161,
                47.60831912452557
            ],
            [
                -122.38071976967927,
                47.61325942900709
            ],
            [
                -122.38432117877097,
                47.61824020368588
            ],
            [
                -122.38382544715435,
                47.622598289534544
            ],
            [
                -122.37675517120103,
                47.62336053238347
            ],
            [
                -122.37011000500506,
                47.62033620146072
            ],
            [
                -122.36345774133048,
                47.616968350725315
            ],
            [
                -122.3562960615306,
                47.61324470801599
            ],
            [
                -122.34913563289375,
                47.60956342125077
            ],
            [
                -122.34441712047007,
                47.60650146552547
            ],
            [
                -122.34155079279739,
                47.60579881573512
            ],
            [
                -122.3416102395452,
                47.60578945711094
            ],
            [
                -122.34160024960751,
                47.60578866297968
            ],
            [
                -122.3415999889846,
                47.60579080677255
            ],
            [
                -122.34159999346642,
                47.6058126008462
            ],
            [
                -122.34160010210196,
                47.60580121335206
            ],
            [
                -122.3416067681658,
                47.605806932910674
            ],
            [
                -122.34159977260164,
                47.605800405074426
            ],
            [
                -122.34161454168448,
                47.60578978638837
            ],
            [
                -122.3416057864305,
                47.605802037707114
            ],
            [
                -122.34161986828471,
                47.60580052154715
            ],
            [
                -122.34160492342477,
                47.60580008615484
            ],
            [
                -122.34214719594273,
                47.605792258901005
            ],
            [
                -122.34357378793182,
                47.603412702689866
            ],
            [
                -122.34399328974335,
                47.59769419359309
            ],
            [
                -122.34458365939153,
                47.59135322121482
            ],
            [
                -122.3445538517938,
                47.58560748634506
            ],
            [
                -122.34526340444609,
                47.590999035082135
            ],
            [
                -122.35255513636355,
                47.593786226925126
            ],
            [
                -122.35906604331542,
                47.597271873581654
            ],
            [
                -122.3666520737107,
                47.60022358640308
            ],
            [
                -122.37382779146087,
                47.604926637460174
            ],
            [
                -122.3776938090329,
                47.61018600247275
            ],
            [
                -122.38189211986698,
                47.61503779546125
            ],
            [
                -122.38600086617667,
                47.61934805562949
            ],
            [
                -122.38365051443306,
                47.62324057179619
            ],
            [
                -122.37585962589965,
                47.62243038303116
            ],
            [
                -122.36843737885079,
                47.6191262391802
            ],
            [
                -122.363114884893,
                47.61627643690211
            ],
            [
                -122.35763556967527,
                47.613435671642826
            ],
            [
                -122.35026990991571,
                47.60987810527085
            ],
            [
                -122.34482214087706,
                47.60641918552756
            ],
            [
                -122.34159,
                47.60579
            ]
        ]
    },
    "properties": {
        "trajectory_id": 6549,
        "object_id": 368135730,
        "label": "PASSENGER"
    }
}