{
    "type": "Feature",
    "geometry": {
        "type": "LineString",
        "coordinates": [
            [
                -124.35661,
                49.34979
            ],
            [
                -124.35657898850627,
                49.34976255721361
            ],
            [
                -124.35660941340332,
                49.349775493759594
            ],
            [
                -124.35655026279437,
                49.34978892959468
            ],
            [
                -124.35659272640387,
                49.34976341608112
            ],
            [
                -124.35660556260268,
                49.34980523065852
            ],
            [
                -124.3566044942518,
                49.34977119356659
            ],
            [
                -124.35658398784521,
                49.349784749186306
            ],
            [
                -124.3565676131836,
                49.34979912827712
            ],
            [
                -124.35656729059036,
                49.34979338665706
            ],
            [
                -124.35659306273394,
                49.349776673799816
            ],
            [
                -124.35661416986105,
                49.34976139693519
            ],
            [
                -124.35656626259821,
                49.349780234678
            ],
            [
                -124.35656005258076,
                49.349740495444145
            ],
            [
                -124.356568590512,
                49.34980930576146
            ],
            [
                -124.3565861830305,
                49.349745769264246
            ],
            [
                -124.35656997237369,
                49.34980944840783
            ],
            [
                -124.35661993693587,
                49.349769707061895
            ],
            [
                -124.35659005310208,
                49.34979975842217
            ],
            [
                -124.35661073086979,
                49.34979978746907
            ],
            [
                -124.35657724360199,
                49.34978214820766
            ],
            [
                -124.35660989709086,
                49.34979004852372
            ],
            [
                -124.3565798589679,
                49.34977347938755
            ],
            [
                -124.35657619723641,
                49.34975520314583
            ],
            [
                -124.35659701033826,
                49.34979350174754
            ],
            [
                -124.35659654193675,
                49.349805385224585
            ],
            [
                -124.35659492460945,
                49.34977160007736
            ],
            [
                -124.35659258196267,
                49.349778319127374
            ],
            [
                -124.35657371594823,
                49.34981122285882
            ],
            [
                -124.35658248962602,
                49.3497997614425
            ],
            [
                -124.35660610047172,
                49.3497915758896
            ],
            [
                -124.35656978079247,
                49.34980960009206
            ],
            [
                -124.35656296688357,
                49.34980637155972
            ],
            [
                -124.35655071569745,
                49.3497864485737
            ],
            [
                -124.35656996088179,
                49.349790199854695
            ],
            [
                -124.3565612952588,
                49.34979224065276
            ],
            [
                -124.35658073581587,
                49.349788468281275
            ],
            [
                -124.35657595443627,
                49.34977205149251
            ],
            [
                -124.3566106595631,
                49.349799938480814
            ],
            [
                -124.35657065974218,
                49.34979093468205
            ],
            [
                -124.35655813659066,
                49.34980894792193
            ],
            [
                -124.3565693174467,
                49.34978945006875
            ],
            [
                -124.35657110760282,
                49.34979602550077
            ],
            [
                -124.35652892994113,
                49.34978151064754
            ],
            [
                -124.35658499429643,
                49.349792135200666
            ],
            [
                -124.35657797644632,
                49.34979562535208
            ],
            [
                -124.356558979283,
                49.34979302699673
            ],
            [
                -124.35654907471309,
                49.349834849328396
            ],
            [
                -124.35658370993907,
                49.34979703700657
            ],
            [
                -124.35654371946653,
                49.34980833926437
            ],
            [
                -124.35656932244494,
                49.34978232253815
            ],
            [
                -124.35653666241471,
                49.349784292979315
            ],
            [
                -124.35654229064437,
                49.349768340409774
            ],
            [
                -124.3565660499037,
                49.34980963667379
            ],
            [
                -124.3565638774296,
                49.34977659883294
            ],
            [
                -124.35657632631961,
                49.34979045842051
            ],
            [
                -124.3565785062706,
                49.349791817843624
            ],
            [
                -124.35653075195948,
                49.349809955482534
            ],
            [
                -124.35656964549808,
                49.349769783366426
            ],
            [
                -124.35655474895405,
                49.3497700147728
            ],
            [
                -124.35653202151404,
                49.349767519496325
            ],
            [
                -124.35665327839547,
                49.349858198269374
            ],
            [
                -124.35657556946461,
                49.349806453262964
            ],
            [
                -124.35660092009961,
                49.34981999530967
            ],
            [
                -124.35654366475094,
                49.34981175315919
            ],
            [
                -124.35655714975813,
                49.34979763411055
            ],
            [
                -124.35658303587942,
                49.34980882999418
            ],
            [
                -124.35656316858683,
                49.349813780550996
            ],
            [
                -124.35655222357127,
                49.34980306925174
            ],
            [
                -124.35658173019714,
                49.349800305253545
            ],
            [
                -124.35659418139812,
                49.349770841318644
            ],
            [
                -124.35655439196725,
                49.34978380365363
            ],
            [
                -124.35652300781888,
                49.34979411033181
            ],
            [
                -124.35658685904963,
                49.34978568740899
            ],
            [
                -124.35654615365698,
                49.34980075307723
            ],
            [
                -124.35664637985519,
                49.34977597930354
            ],
            [
                -124.35653040835491,
                49.349782706223635
            ],
            [
                -124.35659900163414,
                49.349759723294795
            ],
            [
                -124.35654488695022,
                49.34981267783175
            ],
            [
                -124.3566,
                49.34976
            ]
        ]
    },
    "properties": {
        "trajectory_id": 655,
        "object_id": 316005448,
        "label": "FISHING"
    }
}