{
    "type": "Feature",
    "geometry": {
        "type": "LineString",
        "coordinates": [
            [
                -122.70736,
                48.49281
            ],
            [
                -122.68606608927284,
                48.51017983616799
            ],
            [
                -122.6535027967349,
                48.51517679238913
            ],
            [
                -122.62089119964129,
                48.52117690801551
            ],
            [
                -122.59521626980586,
                48.51318567404354
            ],
            [
                -122.60176772685145,
                48.50325329617063
            ],
            [
                -122.60206960045898,
                48.503906265363
            ],
            [
                -122.60204307121806,
                48.503893203931334
            ],
            [
                -122.60203813827759,
                48.503900202108845
            ],
            [
                -122.60204850037299,
                48.50391544514773
            ],
            [
                -122.60201341283194,
                48.50389964592147
            ],
            [
                -122.60202145431509,
                48.50391663201133
            ],
            [
                -122.60202763821721,
                48.50390054102343
            ],
            [
                -122.60200500327238,
                48.50394729104857
            ],
            [
                -122.60203472826048,
                48.50391668362413
            ],
            [
                -122.60204077779709,
                48.50393058576274
            ],
            [
                -122.60204123561655,
                48.503910785606095
            ],
            [
                -122.60201011626907,
                48.50390067954632
            ],
            [
                -122.60201267040229,
                48.503921624545825
            ],
            [
                -122.60202451498006,
                48.50389838055465
            ],
            [
                -122.60207046471722,
                48.50388706682649
            ],
            [
                -122.60204116987336,
                48.503915634941194
            ],
            [
                -122.60205361559531,
                48.50392592132482
            ],
            [
                -122.60204576123422,
                48.503911686165246
            ],
            [
                -122.60202132780476,
                48.50392172577545
            ],
            [
                -122.6020413925427,
                48.50394096555591
            ],
            [
                -122.60202141295454,
                48.50393970630816
            ],
            [
                -122.60206916211827,
                48.50392275657733
            ],
            [
                -122.6020566738648,
                48.503890676000196
            ],
            [
                -122.6020258581945,
                48.503930640687756
            ],
            [
                -122.60206042155491,
                48.503922722718286
            ],
            [
                -122.60203007339945,
                48.50393052297612
            ],
            [
                -122.60203716253562,
                48.50390208664673
            ],
            [
                -122.60204310275664,
                48.50393531682528
            ],
            [
                -122.60204104682327,
                48.50393120429127
            ],
            [
                -122.60202099389038,
                48.50391324768833
            ],
            [
                -122.60203106598871,
                48.50389466533299
            ],
            [
                -122.60204268067771,
                48.50388882097373
            ],
            [
                -122.60200588881771,
                48.50391912208148
            ],
            [
                -122.602030308373,
                48.50390990479919
            ],
            [
                -122.60207041053812,
                48.503898180339405
            ],
            [
                -122.60205423300529,
                48.50391152096404
            ],
            [
                -122.60202383130733,
                48.503916176695284
            ],
            [
                -122.60201772324959,
                48.50391405819367
            ],
            [
                -122.60201988577352,
                48.50389539610691
            ],
            [
                -122.6020313005706,
                48.50393993723952
            ],
            [
                -122.60202327107082,
                48.503899427632554
            ],
            [
                -122.60202338045688,
                48.503929045981096
            ],
            [
                -122.60200522778769,
                48.50391633276198
            ],
            [
                -122.6020391189437,
                48.50392057439532
            ],
            [
                -122.60204310763658,
                48.50393227120315
            ],
            [
                -122.60197001986464,
                48.503882576395654
            ],
            [
                -122.60201730438322,
                48.503903083687604
            ],
            [
                -122.60204195140668,
                48.50391122065735
            ],
            [
                -122.6020683093887,
                48.503908673133274
            ],
            [
                -122.60200090877889,
                48.503907126906824
            ],
            [
                -122.60203617184688,
                48.50391720933426
            ],
            [
                -122.60200885389129,
                48.50392988469207
            ],
            [
                -122.602016116353,
                48.50391837015438
            ],
            [
                -122.6020218317811,
                48.50391109728288
            ],
            [
                -122.60201609259141,
                48.50392261296811
            ],
            [
                -122.60202014238956,
                48.503929271581455
            ],
            [
                -122.60199513470674,
                48.50392116355767
            ],
            [
                -122.60201106775123,
                48.50390956624651
            ],
            [
                -122.60200061576955,
                48.50394143330001
            ],
            [
                -122.60201566440257,
                48.50390184013965
            ],
            [
                -122.60198826918132,
                48.50390902410353
            ],
            [
                -122.60201352294007,
                48.503933758592765
            ],
            [
                -122.60203030680364,
                48.50392875604236
            ],
            [
                -122.60202816541981,
                48.50392163706851
            ],
            [
                -122.6020589830492,
                48.50392480149104
            ],
            [
                -122.60207682663996,
                48.50395098198764
            ],
            [
                -122.60202902021325,
                48.50390977093646
            ],
            [
                -122.60205360643226,
                48.50388792288167
            ],
            [
                -122.60203308774666,
                48.503910726030604
            ],
            [
                -122.60198941320344,
                48.50393235963576
            ],
            [
                -122.60205441667334,
                48.50390861759051
            ],
            [
                -122.6020641182057,
                48.50389150752321
            ],
            [
                -122.60203465051632,
                48.5039104682129
            ],
            [
                -122.60201918914109,
                48.503899346236324
            ],
            [
                -122.60204923216146,
                48.50393014528025
            ],
            [
                -122.60201707752253,
                48.50391443557329
            ],
            [
                -122.60200986228051,
                48.50389320112346
            ],
            [
                -122.60202200241538,
                48.50391295187398
            ],
            [
                -122.60206041151741,
                48.50392104330633
            ],
            [
                -122.60204829871772,
                48.503916442436484
            ],
            [
                -122.60204971366845,
                48.50392010270491
            ],
            [
                -122.60203558537535,
                48.503909895487766
            ],
            [
                -122.60202680557677,
                48.50391891123204
            ],
            [
                -122.60204864730143,
                48.50389548794615
            ],
            [
                -122.60204936024347,
                48.503901710092414
            ],
            [
                -122.60203000045524,
                48.50391187883531
            ],
            [
                -122.6020194855223,
                48.503907891582536
            ],
            [
                -122.602024461985,
                48.50393157271528
            ],
            [
                -122.60202987422971,
                48.50393822511649
            ],
            [
                -122.60205026826104,
                48.50393653958644
            ],
            [
                -122.6020309159612,
                48.503929565235524
            ],
            [
                -122.60199985486526,
                48.50390752219946
            ],
            [
                -122.60203980163566,
                48.50392944977464
            ],
            [
                -122.60198872448544,
                48.50389497385211
            ],
            [
                -122.60205130315082,
                48.50390241301794
            ],
            [
                -122.60202604634813,
                48.50388785323514
            ],
            [
                -122.60203704898953,
                48.50388458241438
            ],
            [
                -122.60202146372986,
                48.503903730560864
            ],
            [
                -122.6020517368907,
                48.50390903043511
            ],
            [
                -122.60205907662775,
                48.503939742237456
            ],
            [
                -122.60197566173105,
                48.50389192756136
            ],
            [
                -122.60208404549054,
                48.50393994364917
            ],
            [
                -122.60203050269058,
                48.50393041930699
            ],
            [
                -122.60201620220674,
                48.50392131290856
            ],
            [
                -122.60204262376573,
                48.50391674273192
            ],
            [
                -122.60201998940802,
                48.50392914373938
            ],
            [
                -122.60202901617717,
                48.50391635335863
            ],
            [
                -122.60201027075398,
                48.50392042163523
            ],
            [
                -122.60202854641767,
                48.50391514377661
            ],
            [
                -122.60206915409152,
                48.50387977170803
            ],
            [
                -122.6020103856104,
                48.50391331290965
            ],
            [
                -122.60205798843946,
                48.50389786634033
            ],
            [
                -122.60202061573011,
                48.50390718535579
            ],
            [
                -122.60201,
                48.50392
            ]
        ]
    },
    "properties": {
        "trajectory_id": 6555,
        "object_id": 368136480,
        "label": "PLEASURE CRAFT"
    }
}