{
    "type": "Feature",
    "geometry": {
        "type": "LineString",
        "coordinates": [
            [
                -123.16076,
                48.59437
            ],
            [
                -123.16074029677571,
                48.594331372655276
            ],
            [
                -123.16072102445526,
                48.594320790029336
            ],
            [
                -123.16057982479643,
                48.5943609920271
            ],
            [
                -123.16068478660378,
                48.594330527016375
            ],
            [
                -123.1607668184212,
                48.594217073122266
            ],
            [
                -123.16075982463252,
                48.59421997020843
            ],
            [
                -123.16075438181575,
                48.59425164435538
            ],
            [
                -123.16075116782521,
                48.594267759280754
            ],
            [
                -123.16064062437805,
                48.59435970994638
            ],
            [
                -123.1607124300156,
                48.59434017934903
            ],
            [
                -123.1605323130846,
                48.594371478837054
            ],
            [
                -123.1605993443653,
                48.59436086861421
            ],
            [
                -123.16064093692091,
                48.59437066273182
            ],
            [
                -123.16052666238583,
                48.5943728001576
            ],
            [
                -123.16039011373445,
                48.59436001333117
            ],
            [
                -123.16056546527265,
                48.594389180437574
            ],
            [
                -123.16062987820567,
                48.59436998656817
            ],
            [
                -123.16052013862794,
                48.594380383728414
            ],
            [
                -123.16063355753889,
                48.59435729052076
            ],
            [
                -123.16057061455207,
                48.59439218419512
            ],
            [
                -123.1606206034313,
                48.594379840231916
            ],
            [
                -123.16040944216955,
                48.594339530494274
            ],
            [
                -123.16049901055912,
                48.59436081244308
            ],
            [
                -123.16063002045084,
                48.5943500281608
            ],
            [
                -123.16045883633541,
                48.59436003959546
            ],
            [
                -123.16047039948778,
                48.594350154582045
            ],
            [
                -123.16060139329066,
                48.59436170218078
            ],
            [
                -123.16056744590165,
                48.59437475802815
            ],
            [
                -123.16065803485026,
                48.594370135628544
            ],
            [
                -123.16074831540513,
                48.594321024698
            ],
            [
                -123.16054848070993,
                48.59441009282437
            ],
            [
                -123.16053740156619,
                48.59440888864688
            ],
            [
                -123.1607127385711,
                48.59439018432206
            ],
            [
                -123.16067377439514,
                48.5943774253806
            ],
            [
                -123.16057882255524,
                48.59440890370387
            ],
            [
                -123.16068558058242,
                48.59440162182344
            ],
            [
                -123.16071889343297,
                48.59437057027641
            ],
            [
                -123.16059824661862,
                48.59441570614785
            ],
            [
                -123.16054570531887,
                48.5944333260793
            ],
            [
                -123.16066769098235,
                48.59442382651555
            ],
            [
                -123.16072426395614,
                48.59439167226231
            ],
            [
                -123.16074733113793,
                48.59437260957174
            ],
            [
                -123.16073832029406,
                48.59436840849089
            ],
            [
                -123.16068973849613,
                48.594380255276526
            ],
            [
                -123.16080903743669,
                48.59431822681872
            ],
            [
                -123.16070092959956,
                48.5943802306176
            ],
            [
                -123.16064457828897,
                48.59440774784634
            ],
            [
                -123.1606711367632,
                48.59437411021163
            ],
            [
                -123.1606894018821,
                48.59438042303345
            ],
            [
                -123.16074157949012,
                48.59434505952479
            ],
            [
                -123.1607915225194,
                48.59433825105513
            ],
            [
                -123.16068943154681,
                48.594377024941636
            ],
            [
                -123.16080106967044,
                48.59428529026702
            ],
            [
                -123.16081868749731,
                48.594304951719636
            ],
            [
                -123.16086664441619,
                48.59428931884497
            ],
            [
                -123.16087019133217,
                48.59420990776154
            ],
            [
                -123.1609084382994,
                48.59421997567305
            ],
            [
                -123.16084014604948,
                48.59408005135772
            ],
            [
                -123.16087279742902,
                48.59418908719958
            ],
            [
                -123.16066984653554,
                48.5942999916016
            ],
            [
                -123.16078596018353,
                48.594279391514235
            ],
            [
                -123.16072060156577,
                48.59437642785123
            ],
            [
                -123.1607650793247,
                48.59434095046554
            ],
            [
                -123.16074436162779,
                48.59436390392903
            ],
            [
                -123.16062866742033,
                48.59440598436138
            ],
            [
                -123.16052772517374,
                48.59438280453234
            ],
            [
                -123.1604365967045,
                48.59431286196557
            ],
            [
                -123.16067131926317,
                48.594380136749294
            ],
            [
                -123.16066823615589,
                48.59439582492184
            ],
            [
                -123.16056984341799,
                48.59439022709222
            ],
            [
                -123.1606938439255,
                48.59442462020666
            ],
            [
                -123.1608691002972,
                48.594360815721146
            ],
            [
                -123.16075255960382,
                48.59451327854236
            ],
            [
                -123.16075204910832,
                48.59448946093393
            ],
            [
                -123.16077511748081,
                48.59447627901591
            ],
            [
                -123.16069001836684,
                48.59448417839287
            ],
            [
                -123.16078191858222,
                48.594490041368026
            ],
            [
                -123.16073477783853,
                48.59446005648624
            ],
            [
                -123.16056266890486,
                48.594499380715135
            ],
            [
                -123.1607017200884,
                48.59443907014455
            ],
            [
                -123.16079304361105,
                48.59436045005972
            ],
            [
                -123.16066764123889,
                48.59439613957099
            ],
            [
                -123.16052617178659,
                48.59452302242309
            ],
            [
                -123.16056796935959,
                48.59451438520143
            ],
            [
                -123.16059416072999,
                48.594489432351175
            ],
            [
                -123.16064562948858,
                48.59449235205405
            ],
            [
                -123.16058435934538,
                48.59449485610839
            ],
            [
                -123.16327266715707,
                48.59260981302867
            ],
            [
                -123.17372668498984,
                48.59589753172848
            ],
            [
                -123.17080484159612,
                48.61163728787853
            ],
            [
                -123.15769698195413,
                48.62962989133076
            ],
            [
                -123.11975685029984,
                48.626876617029545
            ],
            [
                -123.08521420592237,
                48.62068479663986
            ],
            [
                -123.05446164386937,
                48.60868450729627
            ],
            [
                -123.01998592381338,
                48.600763980510514
            ],
            [
                -122.98941560701462,
                48.59246900997153
            ],
            [
                -122.95281906012161,
                48.593473272115546
            ],
            [
                -122.91413380900914,
                48.588601655911575
            ],
            [
                -122.88123478533953,
                48.5785699843093
            ],
            [
                -122.8549031006996,
                48.56230522248844
            ],
            [
                -122.83179155811845,
                48.54326834684065
            ],
            [
                -122.80334671762613,
                48.528187607531336
            ],
            [
                -122.76483696080882,
                48.52452476773995
            ],
            [
                -122.72832404109775,
                48.518630149052534
            ],
            [
                -122.69423067699485,
                48.52055571676698
            ],
            [
                -122.6624894009233,
                48.520665363174835
            ],
            [
                -122.63625999820034,
                48.52279953786794
            ],
            [
                -122.61228306257752,
                48.525050383141085
            ],
            [
                -122.60219772552136,
                48.524320843462434
            ],
            [
                -122.62170527630407,
                48.52569968098694
            ],
            [
                -122.62997248298879,
                48.52344457551951
            ],
            [
                -122.60476645978082,
                48.524419948149244
            ],
            [
                -122.59653135779571,
                48.51293251247779
            ],
            [
                -122.60669085945042,
                48.512707616948155
            ],
            [
                -122.6085508245028,
                48.51292264501401
            ],
            [
                -122.60855315272572,
                48.51292092066657
            ],
            [
                -122.60852021350594,
                48.512923138642414
            ],
            [
                -122.60856092192732,
                48.51293283560349
            ],
            [
                -122.60854,
                48.51293
            ]
        ]
    },
    "properties": {
        "trajectory_id": 6600,
        "object_id": 368144240,
        "label": "PLEASURE CRAFT"
    }
}