{
    "type": "Feature",
    "geometry": {
        "type": "LineString",
        "coordinates": [
            [
                -124.35651,
                49.34975
            ],
            [
                -124.3565699910114,
                49.34978963971422
            ],
            [
                -124.3565484705059,
                49.349779664658115
            ],
            [
                -124.35659925117818,
                49.34976367331739
            ],
            [
                -124.35660066389133,
                49.34980946160201
            ],
            [
                -124.35657298780092,
                49.34977081391418
            ],
            [
                -124.35650002888173,
                49.34984914711528
            ],
            [
                -124.35660950599562,
                49.3498101844518
            ],
            [
                -124.35657665504812,
                49.34975401494221
            ],
            [
                -124.35658808961952,
                49.349779370996195
            ],
            [
                -124.35651226475491,
                49.34978394808376
            ],
            [
                -124.35661374528215,
                49.34976778241221
            ],
            [
                -124.35661095755609,
                49.34977380941326
            ],
            [
                -124.35658986425295,
                49.34977003302886
            ],
            [
                -124.35655885228412,
                49.3498088841338
            ],
            [
                -124.35658560065198,
                49.34978908992581
            ],
            [
                -124.35662557589681,
                49.34977151718631
            ],
            [
                -124.35661093679462,
                49.349801736081666
            ],
            [
                -124.35658225433042,
                49.34978636152885
            ],
            [
                -124.3566204592664,
                49.349708359391784
            ],
            [
                -124.3565643625404,
                49.34978899641204
            ],
            [
                -124.35661518564784,
                49.34975809763421
            ],
            [
                -124.35656573056367,
                49.34975661966133
            ],
            [
                -124.35658066906926,
                49.34980188266575
            ],
            [
                -124.35657754321326,
                49.34980228218417
            ],
            [
                -124.35655808653141,
                49.349773112907585
            ],
            [
                -124.3565394225323,
                49.349759591907734
            ],
            [
                -124.35657722915033,
                49.349769349210746
            ],
            [
                -124.35658611267196,
                49.34978996321421
            ],
            [
                -124.35656077379325,
                49.34978910615111
            ],
            [
                -124.35664529292045,
                49.34977048547309
            ],
            [
                -124.35656383797743,
                49.34978639167053
            ],
            [
                -124.35659852326151,
                49.3497406279531
            ],
            [
                -124.35649953045993,
                49.349764334659696
            ],
            [
                -124.35654586014894,
                49.34978902481333
            ],
            [
                -124.35661002672805,
                49.34978988775945
            ],
            [
                -124.35660144367219,
                49.349750033334864
            ],
            [
                -124.3565454515451,
                49.349753256853546
            ],
            [
                -124.35653320195217,
                49.34978492307929
            ],
            [
                -124.35656343481206,
                49.34977721827719
            ],
            [
                -124.35658016441168,
                49.34978934998583
            ],
            [
                -124.35655937638194,
                49.349814368296556
            ],
            [
                -124.35658000679317,
                49.349770143476306
            ],
            [
                -124.35655219357545,
                49.34978919822861
            ],
            [
                -124.35655707454453,
                49.34979748580947
            ],
            [
                -124.35655941008334,
                49.34978304942246
            ],
            [
                -124.35651995468682,
                49.349790065651874
            ],
            [
                -124.35659431119798,
                49.34975683767522
            ],
            [
                -124.35656975119002,
                49.34977110646803
            ],
            [
                -124.35658748570233,
                49.34976805989737
            ],
            [
                -124.35660830878882,
                49.34983437928026
            ],
            [
                -124.35656095627833,
                49.34979090491537
            ],
            [
                -124.35656037471546,
                49.349790167273355
            ],
            [
                -124.35658914592844,
                49.34976303599008
            ],
            [
                -124.3565796494783,
                49.349815502154776
            ],
            [
                -124.35658585621363,
                49.34977780145832
            ],
            [
                -124.35659845245084,
                49.349812722117306
            ],
            [
                -124.35655096212881,
                49.349790411941726
            ],
            [
                -124.3565892113173,
                49.34984112913353
            ],
            [
                -124.35654503326288,
                49.34978180221114
            ],
            [
                -124.35660441517835,
                49.34978047390625
            ],
            [
                -124.35653615872472,
                49.34980695443939
            ],
            [
                -124.35653919849506,
                49.34977893075198
            ],
            [
                -124.35652870291545,
                49.34982058598081
            ],
            [
                -124.35655885433229,
                49.34975984182016
            ],
            [
                -124.35654544562529,
                49.349809670444685
            ],
            [
                -124.35655421733767,
                49.34978085012945
            ],
            [
                -124.3565398960919,
                49.34980930447713
            ],
            [
                -124.35656685504162,
                49.34980320689969
            ],
            [
                -124.35655630768858,
                49.34980625647093
            ],
            [
                -124.35655297509422,
                49.34980214826812
            ],
            [
                -124.35653136864441,
                49.34979616434209
            ],
            [
                -124.35654684177514,
                49.34982835751933
            ],
            [
                -124.3565505855552,
                49.349780087814985
            ],
            [
                -124.35655878200447,
                49.34978852652775
            ],
            [
                -124.35656672040635,
                49.34981279827555
            ],
            [
                -124.35656685908003,
                49.34978373208296
            ],
            [
                -124.35657672023083,
                49.34978849798726
            ],
            [
                -124.35655702752769,
                49.34977263873092
            ],
            [
                -124.35655,
                49.34979
            ]
        ]
    },
    "properties": {
        "trajectory_id": 663,
        "object_id": 316005448,
        "label": "FISHING"
    }
}