{
    "type": "Feature",
    "geometry": {
        "type": "LineString",
        "coordinates": [
            [
                -123.05456,
                49.2051
            ],
            [
                -123.05457972643383,
                49.20505078737404
            ],
            [
                -123.05458924708535,
                49.20502338679414
            ],
            [
                -123.05454738794468,
                49.205070244577286
            ],
            [
                -123.0545490613245,
                49.20503705370091
            ],
            [
                -123.05460580264894,
                49.2050248059257
            ],
            [
                -123.0545627151693,
                49.20501508074956
            ],
            [
                -123.05454166948086,
                49.20505233156262
            ],
            [
                -123.05456197326511,
                49.20502745411566
            ],
            [
                -123.05454353270261,
                49.20503094638874
            ],
            [
                -123.0545789347506,
                49.205040058919344
            ],
            [
                -123.05457895742154,
                49.204962783080376
            ],
            [
                -123.05459489483296,
                49.20504617699105
            ],
            [
                -123.05457217386731,
                49.20504901382966
            ],
            [
                -123.05453627254205,
                49.20504617763769
            ],
            [
                -123.05453763064692,
                49.20504929053315
            ],
            [
                -123.05458555616602,
                49.205028543026536
            ],
            [
                -123.05453208486499,
                49.20502499055148
            ],
            [
                -123.05454912381276,
                49.20504056396179
            ],
            [
                -123.05458761233724,
                49.20508373211716
            ],
            [
                -123.05454335153601,
                49.20504709172229
            ],
            [
                -123.05459844110302,
                49.205044888577454
            ],
            [
                -123.05455853879616,
                49.205070063667065
            ],
            [
                -123.0545705842029,
                49.20503937517252
            ],
            [
                -123.05458051500057,
                49.205020519228675
            ],
            [
                -123.05460748889834,
                49.20505168320291
            ],
            [
                -123.05460009551717,
                49.205049088204355
            ],
            [
                -123.05457198113652,
                49.20505066402692
            ],
            [
                -123.05460214014414,
                49.20510894781449
            ],
            [
                -123.05459291988404,
                49.20505873248122
            ],
            [
                -123.05457408078937,
                49.2050561068788
            ],
            [
                -123.05463460079443,
                49.205086584927585
            ],
            [
                -123.05458368587493,
                49.204989781047466
            ],
            [
                -123.05456780884742,
                49.204987147143264
            ],
            [
                -123.05455003232345,
                49.20504009559573
            ],
            [
                -123.05454197140631,
                49.20504593272285
            ],
            [
                -123.0545897703229,
                49.205030130503616
            ],
            [
                -123.0545286364885,
                49.20504486621547
            ],
            [
                -123.05456929961997,
                49.20503141600697
            ],
            [
                -123.05455608956208,
                49.20508001073546
            ],
            [
                -123.05458920272078,
                49.205019810741355
            ],
            [
                -123.05460690077696,
                49.20504363320007
            ],
            [
                -123.0545521855989,
                49.20502676402487
            ],
            [
                -123.05452421750617,
                49.205041286196476
            ],
            [
                -123.05454082243654,
                49.205047935091386
            ],
            [
                -123.05453127251961,
                49.205036761031586
            ],
            [
                -123.05452118208018,
                49.20502345935412
            ],
            [
                -123.05460808371895,
                49.20502919992034
            ],
            [
                -123.0545446389491,
                49.20501402873707
            ],
            [
                -123.0546193047694,
                49.205036334898665
            ],
            [
                -123.05456689133915,
                49.205047940920316
            ],
            [
                -123.05460368034157,
                49.20500863199489
            ],
            [
                -123.05459122645715,
                49.205070061469584
            ],
            [
                -123.0545468913965,
                49.20508287822188
            ],
            [
                -123.0545722997631,
                49.205042610935976
            ],
            [
                -123.05458172465958,
                49.20505970678764
            ],
            [
                -123.05458353487036,
                49.20503587947836
            ],
            [
                -123.05456199987998,
                49.20508076555616
            ],
            [
                -123.05458583945568,
                49.20507147595863
            ],
            [
                -123.05457605486957,
                49.20504942190498
            ],
            [
                -123.05453939821403,
                49.20502389153372
            ],
            [
                -123.05455850117559,
                49.20505739085721
            ],
            [
                -123.05454843988295,
                49.205063074654916
            ],
            [
                -123.05450227205964,
                49.204973448183246
            ],
            [
                -123.05457901162963,
                49.20502667276412
            ],
            [
                -123.0545033038227,
                49.20499727069015
            ],
            [
                -123.05453718934054,
                49.2050286934005
            ],
            [
                -123.05457021626192,
                49.20502976497387
            ],
            [
                -123.05449097830179,
                49.20501966551755
            ],
            [
                -123.05455113691687,
                49.20501853902107
            ],
            [
                -123.05454607778314,
                49.20503955776855
            ],
            [
                -123.05451412677026,
                49.20502003806871
            ],
            [
                -123.05451597689182,
                49.20504531002
            ],
            [
                -123.05452898922245,
                49.20505100768945
            ],
            [
                -123.0545171034106,
                49.20501781309805
            ],
            [
                -123.05453795203232,
                49.20503874484677
            ],
            [
                -123.05454913416504,
                49.205014300995025
            ],
            [
                -123.0545112349389,
                49.20501328172668
            ],
            [
                -123.05455711340245,
                49.205028739387274
            ],
            [
                -123.05457,
                49.20502
            ]
        ]
    },
    "properties": {
        "trajectory_id": 665,
        "object_id": 316005551,
        "label": "TUG"
    }
}