{
    "type": "Feature",
    "geometry": {
        "type": "LineString",
        "coordinates": [
            [
                -122.20788,
                47.60811
            ],
            [
                -122.20788989834926,
                47.60814967547051
            ],
            [
                -122.20787983710024,
                47.608088989593774
            ],
            [
                -122.20792102808265,
                47.60812011335542
            ],
            [
                -122.20794938441772,
                47.60811711866495
            ],
            [
                -122.20790941175055,
                47.60807147564903
            ],
            [
                -122.20789737937713,
                47.60809383942903
            ],
            [
                -122.20789187177128,
                47.60810686232332
            ],
            [
                -122.20790908626817,
                47.60811283839057
            ],
            [
                -122.20790787689916,
                47.60811063778292
            ],
            [
                -122.20786746244599,
                47.60806015732024
            ],
            [
                -122.20791333394658,
                47.60810800045889
            ],
            [
                -122.20791336093647,
                47.60808246162725
            ],
            [
                -122.20792419529813,
                47.6081113193458
            ],
            [
                -122.20791994365986,
                47.60809913119621
            ],
            [
                -122.20792197531563,
                47.608131503601065
            ],
            [
                -122.20789352699046,
                47.60808203591258
            ],
            [
                -122.20791205531168,
                47.60810582198392
            ],
            [
                -122.20787064957896,
                47.60810537295791
            ],
            [
                -122.20786132735734,
                47.608093610377466
            ],
            [
                -122.20793481404803,
                47.60807549480854
            ],
            [
                -122.20790033423955,
                47.60810129614388
            ],
            [
                -122.20788424935176,
                47.60811572131201
            ],
            [
                -122.20788448993953,
                47.60810138184448
            ],
            [
                -122.20789624249242,
                47.60809985999261
            ],
            [
                -122.20792433150223,
                47.608136314864275
            ],
            [
                -122.2079348923849,
                47.60809931205666
            ],
            [
                -122.20790193604667,
                47.608077569507124
            ],
            [
                -122.2078744265433,
                47.608098454325074
            ],
            [
                -122.20791648231535,
                47.608118416232244
            ],
            [
                -122.20786773262834,
                47.60810817453331
            ],
            [
                -122.20789461118787,
                47.60810459164193
            ],
            [
                -122.20787750064527,
                47.60811357316206
            ],
            [
                -122.20790528500868,
                47.60809765521575
            ],
            [
                -122.20786151438605,
                47.6081154004421
            ],
            [
                -122.20788999997355,
                47.608100663327946
            ],
            [
                -122.2078899393619,
                47.608085068848446
            ],
            [
                -122.20793514820565,
                47.608046350994776
            ],
            [
                -122.20788467570522,
                47.60812249099903
            ],
            [
                -122.20787844901453,
                47.608120004212225
            ],
            [
                -122.20796944856271,
                47.608100505822726
            ],
            [
                -122.207873778773,
                47.60809784996377
            ],
            [
                -122.20790580278195,
                47.60814935094063
            ],
            [
                -122.20794925882058,
                47.60812775926352
            ],
            [
                -122.2079059992914,
                47.6081346909666
            ],
            [
                -122.20786865440778,
                47.60811163175238
            ],
            [
                -122.20788784469019,
                47.608114455435306
            ],
            [
                -122.20787789306598,
                47.60809931749418
            ],
            [
                -122.20789805651191,
                47.60812102296876
            ],
            [
                -122.20788663600025,
                47.60812517981712
            ],
            [
                -122.20794067531142,
                47.60810188932503
            ],
            [
                -122.20790328461881,
                47.60813104468378
            ],
            [
                -122.20791735795488,
                47.60811290671184
            ],
            [
                -122.20788310120128,
                47.608106146901044
            ],
            [
                -122.20790752118452,
                47.60809701606266
            ],
            [
                -122.20787034321117,
                47.60808862676267
            ],
            [
                -122.20788797627398,
                47.60809144582255
            ],
            [
                -122.20791043207359,
                47.60806825874083
            ],
            [
                -122.20787016293184,
                47.60811013358902
            ],
            [
                -122.20788009675243,
                47.608090491366035
            ],
            [
                -122.2079199978302,
                47.60809989825882
            ],
            [
                -122.20789092585372,
                47.60811990030166
            ],
            [
                -122.2078803889284,
                47.608122786329226
            ],
            [
                -122.20784058637243,
                47.60811733489416
            ],
            [
                -122.20789095933068,
                47.6080962626594
            ],
            [
                -122.2079218208995,
                47.60811866834156
            ],
            [
                -122.20788729653202,
                47.60814178113236
            ],
            [
                -122.20786982068637,
                47.608108868263265
            ],
            [
                -122.207905427877,
                47.60810296221754
            ],
            [
                -122.20788530611958,
                47.60810988164966
            ],
            [
                -122.20788085776618,
                47.608098694949085
            ],
            [
                -122.20785223812936,
                47.608099132612374
            ],
            [
                -122.20789357219154,
                47.608114668264434
            ],
            [
                -122.20789181112568,
                47.60812218252078
            ],
            [
                -122.20792811739435,
                47.60805203959127
            ],
            [
                -122.20790356770136,
                47.608103152670594
            ],
            [
                -122.2078965165958,
                47.60812396028928
            ],
            [
                -122.20790599339979,
                47.60810532164362
            ],
            [
                -122.20789932510858,
                47.60812436900462
            ],
            [
                -122.20787432968163,
                47.608118612456956
            ],
            [
                -122.2078702921933,
                47.60812294843129
            ],
            [
                -122.20793671563176,
                47.608110366048386
            ],
            [
                -122.20796247787415,
                47.608113431524494
            ],
            [
                -122.20785716574063,
                47.60812656318025
            ],
            [
                -122.20783499667365,
                47.60812185509121
            ],
            [
                -122.20788304073,
                47.608113698446466
            ],
            [
                -122.20790044167114,
                47.6080856350775
            ],
            [
                -122.20791666397635,
                47.608114228329285
            ],
            [
                -122.20790492360773,
                47.60809990562726
            ],
            [
                -122.20785464248448,
                47.60806426014153
            ],
            [
                -122.20784930409894,
                47.60808772921533
            ],
            [
                -122.20787927305675,
                47.608075900403286
            ],
            [
                -122.20789803077055,
                47.60809287542253
            ],
            [
                -122.2079190814734,
                47.60807010015836
            ],
            [
                -122.20791502274989,
                47.608125285788816
            ],
            [
                -122.20787457095189,
                47.608110868189414
            ],
            [
                -122.2078858737685,
                47.60810902803342
            ],
            [
                -122.20792748849608,
                47.608061903572306
            ],
            [
                -122.20789942786215,
                47.60812283617649
            ],
            [
                -122.20787252787223,
                47.60809870272075
            ],
            [
                -122.20787136115852,
                47.608140557979844
            ],
            [
                -122.20788996386506,
                47.60808015832889
            ],
            [
                -122.20786821640498,
                47.608072419042244
            ],
            [
                -122.20787449213162,
                47.60805037743044
            ],
            [
                -122.20791291063496,
                47.608099977695005
            ],
            [
                -122.20793918107476,
                47.60809312092785
            ],
            [
                -122.20790096709449,
                47.60813977402602
            ],
            [
                -122.20793328506075,
                47.60813084400686
            ],
            [
                -122.20791080858521,
                47.60811366392203
            ],
            [
                -122.2079186874018,
                47.60807145196894
            ],
            [
                -122.20791326225954,
                47.608081811006755
            ],
            [
                -122.20791372075408,
                47.608079483332126
            ],
            [
                -122.20789500832124,
                47.60811028430296
            ],
            [
                -122.20787507020978,
                47.6081364669009
            ],
            [
                -122.20791232720909,
                47.60805891549709
            ],
            [
                -122.20787903713818,
                47.60806054206221
            ],
            [
                -122.20782880781478,
                47.6081085120729
            ],
            [
                -122.20791034383757,
                47.60810875511207
            ],
            [
                -122.20788968266505,
                47.60814082750881
            ],
            [
                -122.20789,
                47.60812
            ]
        ]
    },
    "properties": {
        "trajectory_id": 6655,
        "object_id": 368154560,
        "label": "PLEASURE CRAFT"
    }
}