{
    "type": "Feature",
    "geometry": {
        "type": "LineString",
        "coordinates": [
            [
                -122.20789,
                47.60811
            ],
            [
                -122.20791011337835,
                47.608119940290834
            ],
            [
                -122.2078803378877,
                47.60809095729722
            ],
            [
                -122.20790819448803,
                47.6081012604365
            ],
            [
                -122.20790879414518,
                47.60810850748241
            ],
            [
                -122.20794992841121,
                47.608079591135585
            ],
            [
                -122.20791079932964,
                47.60811098256813
            ],
            [
                -122.2079134560186,
                47.60808319906922
            ],
            [
                -122.2078950235817,
                47.60807900877238
            ],
            [
                -122.20788735301743,
                47.60808835963289
            ],
            [
                -122.20790655420565,
                47.60810867079121
            ],
            [
                -122.20787832674,
                47.608117287141
            ],
            [
                -122.20791449077875,
                47.608085394230294
            ],
            [
                -122.207889338297,
                47.60808868836768
            ],
            [
                -122.20792037673598,
                47.608141928316286
            ],
            [
                -122.20791332122438,
                47.6081124575911
            ],
            [
                -122.20788058548379,
                47.60811839061687
            ],
            [
                -122.20789626080716,
                47.60814288065416
            ],
            [
                -122.20789403154843,
                47.60815068834064
            ],
            [
                -122.20790676464391,
                47.60811162533059
            ],
            [
                -122.20788775162808,
                47.608113680859546
            ],
            [
                -122.2078968164762,
                47.608111528011364
            ],
            [
                -122.20789078131126,
                47.60812181947321
            ],
            [
                -122.20788269400623,
                47.60810078870004
            ],
            [
                -122.2079116596552,
                47.608077242782
            ],
            [
                -122.2079532002993,
                47.60809255168359
            ],
            [
                -122.20791965950637,
                47.60811786152259
            ],
            [
                -122.20785317094621,
                47.608087655592314
            ],
            [
                -122.20788293510158,
                47.6081087682789
            ],
            [
                -122.20784925462284,
                47.608119112500134
            ],
            [
                -122.20790683666421,
                47.608122580448615
            ],
            [
                -122.20788727989871,
                47.60811948908124
            ],
            [
                -122.20790515250971,
                47.608119469560776
            ],
            [
                -122.20792881721657,
                47.60812948193063
            ],
            [
                -122.20783729169405,
                47.60809573963299
            ],
            [
                -122.2078869490026,
                47.608121989579715
            ],
            [
                -122.20787693066158,
                47.60811816567424
            ],
            [
                -122.20790510632919,
                47.60811492460772
            ],
            [
                -122.20788096745017,
                47.608093953105275
            ],
            [
                -122.20791055853759,
                47.608115295476196
            ],
            [
                -122.20791580725752,
                47.60807091749939
            ],
            [
                -122.20788818528372,
                47.608132307675845
            ],
            [
                -122.20786898438283,
                47.60811192937578
            ],
            [
                -122.20793385004843,
                47.60814655824502
            ],
            [
                -122.20788708394505,
                47.60813328758444
            ],
            [
                -122.20795171870401,
                47.60811074478372
            ],
            [
                -122.20789310563727,
                47.60808247517019
            ],
            [
                -122.20790842873272,
                47.60805163532308
            ],
            [
                -122.2079073377639,
                47.60808859385074
            ],
            [
                -122.20794975813213,
                47.60806256719671
            ],
            [
                -122.20791989183539,
                47.60813524217662
            ],
            [
                -122.20789250388906,
                47.60808232712735
            ],
            [
                -122.2078972523414,
                47.60808010925674
            ],
            [
                -122.2078877750665,
                47.60808056521735
            ],
            [
                -122.2079134163308,
                47.60810831199472
            ],
            [
                -122.20789371158584,
                47.608114950541946
            ],
            [
                -122.20793477099255,
                47.60808067580421
            ],
            [
                -122.20788968557711,
                47.60809083134907
            ],
            [
                -122.20789002068962,
                47.608089715541574
            ],
            [
                -122.20788995960329,
                47.6080599910583
            ],
            [
                -122.20782987629093,
                47.60814006617408
            ],
            [
                -122.20786876071514,
                47.60810112871183
            ],
            [
                -122.20791039117947,
                47.608119365195385
            ],
            [
                -122.2078818549801,
                47.60812113561116
            ],
            [
                -122.20785417412935,
                47.60810310615367
            ],
            [
                -122.20795115786356,
                47.60807187569279
            ],
            [
                -122.20786623847086,
                47.60815253335813
            ],
            [
                -122.20788266008184,
                47.60813187871338
            ],
            [
                -122.2078699790051,
                47.608162171472884
            ],
            [
                -122.20785925245659,
                47.608117859229594
            ],
            [
                -122.20787397338687,
                47.608090569252155
            ],
            [
                -122.20788143503114,
                47.60810942852511
            ],
            [
                -122.20794299392217,
                47.60814023128104
            ],
            [
                -122.20786913134152,
                47.60818973207958
            ],
            [
                -122.20790947089823,
                47.608102794075336
            ],
            [
                -122.20796498452853,
                47.608117725411894
            ],
            [
                -122.20789249632107,
                47.60820181983508
            ],
            [
                -122.20796027245613,
                47.608110816388646
            ],
            [
                -122.20790684407912,
                47.608100564994
            ],
            [
                -122.20794689618263,
                47.60814848716111
            ],
            [
                -122.20787135109224,
                47.60809888137666
            ],
            [
                -122.20790009479107,
                47.60807546434547
            ],
            [
                -122.20791025009159,
                47.60812024774121
            ],
            [
                -122.20788590437114,
                47.60809833196392
            ],
            [
                -122.20789807103534,
                47.60809218172519
            ],
            [
                -122.20794500291822,
                47.60812390730662
            ],
            [
                -122.20788864058689,
                47.608084948980085
            ],
            [
                -122.20794292726306,
                47.60811454008628
            ],
            [
                -122.20789674393933,
                47.608112859601384
            ],
            [
                -122.20788766183776,
                47.608071914763336
            ],
            [
                -122.20788796583011,
                47.608039877470446
            ],
            [
                -122.20790135196435,
                47.60809794791287
            ],
            [
                -122.20794747830087,
                47.60800648124493
            ],
            [
                -122.2079857593723,
                47.60801730610566
            ],
            [
                -122.20788823792876,
                47.60810190434236
            ],
            [
                -122.20787618550253,
                47.6081354914614
            ],
            [
                -122.20787748279474,
                47.60810246347397
            ],
            [
                -122.20789393087233,
                47.608070090036485
            ],
            [
                -122.20789431088824,
                47.60810430044167
            ],
            [
                -122.20788199600413,
                47.608078554989824
            ],
            [
                -122.20787766011898,
                47.60810769864826
            ],
            [
                -122.20789939217437,
                47.60810436632952
            ],
            [
                -122.2078584951123,
                47.60810173787932
            ],
            [
                -122.20781519372647,
                47.608123290857485
            ],
            [
                -122.2079026890394,
                47.60806503431078
            ],
            [
                -122.20788570380424,
                47.608081050275715
            ],
            [
                -122.20790486980877,
                47.60813333620375
            ],
            [
                -122.20796214264277,
                47.60810173823786
            ],
            [
                -122.20789243893636,
                47.60808219148555
            ],
            [
                -122.207900786199,
                47.60808060806215
            ],
            [
                -122.20787675094228,
                47.6081057275524
            ],
            [
                -122.20786343264902,
                47.6080771532178
            ],
            [
                -122.20791685670889,
                47.60809928614631
            ],
            [
                -122.20787713993082,
                47.608092350358646
            ],
            [
                -122.20789058488937,
                47.60808336849088
            ],
            [
                -122.20786892670972,
                47.60810149546841
            ],
            [
                -122.20792183526268,
                47.60813048472153
            ],
            [
                -122.20788119050371,
                47.60815926157446
            ],
            [
                -122.20791990783884,
                47.60810982383879
            ],
            [
                -122.20789,
                47.60809
            ]
        ]
    },
    "properties": {
        "trajectory_id": 6656,
        "object_id": 368154560,
        "label": "PLEASURE CRAFT"
    }
}