{
    "type": "Feature",
    "geometry": {
        "type": "LineString",
        "coordinates": [
            [
                -122.33942,
                47.64585
            ],
            [
                -122.33942652848575,
                47.64584744138123
            ],
            [
                -122.33935995637975,
                47.6458010085092
            ],
            [
                -122.33937743629517,
                47.6458280878708
            ],
            [
                -122.3394077325337,
                47.645878643067306
            ],
            [
                -122.33942837774207,
                47.64587582764008
            ],
            [
                -122.33944299170764,
                47.6458761535952
            ],
            [
                -122.33941700448885,
                47.64585605721241
            ],
            [
                -122.3394230089643,
                47.64585131985844
            ],
            [
                -122.33942533572475,
                47.64587973942952
            ],
            [
                -122.33955284727756,
                47.645874559061426
            ],
            [
                -122.3393529959085,
                47.645812494378674
            ],
            [
                -122.3393592835018,
                47.64585680785855
            ],
            [
                -122.3394202732205,
                47.64586054002973
            ],
            [
                -122.33938949760872,
                47.64586790145745
            ],
            [
                -122.33939334006536,
                47.64583824425076
            ],
            [
                -122.3394232174063,
                47.64590878780633
            ],
            [
                -122.33944761388156,
                47.64586949093115
            ],
            [
                -122.33937285718353,
                47.64589096056565
            ],
            [
                -122.33940236786006,
                47.64586076529128
            ],
            [
                -122.33935739040473,
                47.645873326782095
            ],
            [
                -122.3394047916161,
                47.645854499656664
            ],
            [
                -122.33941099033461,
                47.64584376168661
            ],
            [
                -122.33944992977875,
                47.64586977625712
            ],
            [
                -122.3393793027023,
                47.64584886811035
            ],
            [
                -122.3393980947719,
                47.64590071003084
            ],
            [
                -122.33933143377033,
                47.64579790591196
            ],
            [
                -122.33943137827114,
                47.64587112455526
            ],
            [
                -122.33940508212378,
                47.645852390171456
            ],
            [
                -122.33942142601963,
                47.645879622268076
            ],
            [
                -122.33939799721009,
                47.645844427215735
            ],
            [
                -122.33939977237164,
                47.64584753845984
            ],
            [
                -122.33939634851043,
                47.6458537499994
            ],
            [
                -122.33941159917757,
                47.6458697632013
            ],
            [
                -122.33943035221624,
                47.64580354725514
            ],
            [
                -122.33938000144506,
                47.64589003161516
            ],
            [
                -122.33937210248482,
                47.64584939265939
            ],
            [
                -122.33938833291168,
                47.645830260179515
            ],
            [
                -122.33944289622909,
                47.64589265160284
            ],
            [
                -122.33942415355321,
                47.645823197885655
            ],
            [
                -122.33939837725733,
                47.645920869067616
            ],
            [
                -122.33943192732048,
                47.64587560350802
            ],
            [
                -122.33944813190236,
                47.645856924764004
            ],
            [
                -122.33942962586397,
                47.64585071541522
            ],
            [
                -122.33940195542358,
                47.6458471227875
            ],
            [
                -122.33939857104696,
                47.64583950328704
            ],
            [
                -122.33943122668262,
                47.645830371188936
            ],
            [
                -122.33942614068502,
                47.64587702755908
            ],
            [
                -122.33942022507436,
                47.645860142358075
            ],
            [
                -122.33944451383492,
                47.645892928167655
            ],
            [
                -122.33935308951781,
                47.64584764191599
            ],
            [
                -122.33943377688064,
                47.645858795389174
            ],
            [
                -122.33943454411354,
                47.645862647131764
            ],
            [
                -122.33941181287479,
                47.64589997222127
            ],
            [
                -122.3393195026779,
                47.64591990065332
            ],
            [
                -122.33935547692008,
                47.64587628849988
            ],
            [
                -122.33937545565287,
                47.64585825056561
            ],
            [
                -122.33945157007267,
                47.64585355647225
            ],
            [
                -122.33938746548938,
                47.64584003801527
            ],
            [
                -122.3394220553301,
                47.645864792710256
            ],
            [
                -122.33940878970992,
                47.645829562753
            ],
            [
                -122.33937721748458,
                47.645844826654816
            ],
            [
                -122.33948089896892,
                47.64587932791086
            ],
            [
                -122.33941211252106,
                47.64586673368955
            ],
            [
                -122.33934014308525,
                47.64584069846532
            ],
            [
                -122.33936181145248,
                47.64584729431285
            ],
            [
                -122.33942699934774,
                47.64586348931113
            ],
            [
                -122.33942334420531,
                47.64587832539478
            ],
            [
                -122.33937872039049,
                47.645879689340795
            ],
            [
                -122.33938431339332,
                47.64585136502928
            ],
            [
                -122.33937635618975,
                47.645851822408574
            ],
            [
                -122.33940193182676,
                47.64586450163451
            ],
            [
                -122.33936086546,
                47.64577875286247
            ],
            [
                -122.33942891743257,
                47.64587895130761
            ],
            [
                -122.33946772623553,
                47.64585521003399
            ],
            [
                -122.33933604082004,
                47.645849501827804
            ],
            [
                -122.33946578076518,
                47.64588311497266
            ],
            [
                -122.33945685253266,
                47.64588259824889
            ],
            [
                -122.33941291804616,
                47.6458529942311
            ],
            [
                -122.33936490781855,
                47.64584696849024
            ],
            [
                -122.33940942193205,
                47.64591111574716
            ],
            [
                -122.33934566405055,
                47.64585799972129
            ],
            [
                -122.33943369169499,
                47.64584193458573
            ],
            [
                -122.33938964744365,
                47.64582239036283
            ],
            [
                -122.33937817639485,
                47.64579242072739
            ],
            [
                -122.33938132953747,
                47.645827317087935
            ],
            [
                -122.33946011468213,
                47.64582000903348
            ],
            [
                -122.33933212550976,
                47.64584002366321
            ],
            [
                -122.33939688354509,
                47.64586184358547
            ],
            [
                -122.33933376027551,
                47.64583824499676
            ],
            [
                -122.33938698108018,
                47.64584035919716
            ],
            [
                -122.33938146643817,
                47.64585060883879
            ],
            [
                -122.33937381177033,
                47.645860290342696
            ],
            [
                -122.33938013789599,
                47.64585915536915
            ],
            [
                -122.33945769441807,
                47.64571159356875
            ],
            [
                -122.33943613609094,
                47.64584872237789
            ],
            [
                -122.339372395511,
                47.64589013924633
            ],
            [
                -122.33941970404575,
                47.64588224018843
            ],
            [
                -122.33942382671016,
                47.64580657885924
            ],
            [
                -122.33942013096929,
                47.645819907451106
            ],
            [
                -122.33938991922096,
                47.64579013784848
            ],
            [
                -122.33936536818818,
                47.64582271294353
            ],
            [
                -122.33942102682617,
                47.64581851379708
            ],
            [
                -122.3393876342623,
                47.645874174809094
            ],
            [
                -122.33939967215885,
                47.64585790062483
            ],
            [
                -122.33942768992408,
                47.64583965862365
            ],
            [
                -122.33945334504202,
                47.64582827467022
            ],
            [
                -122.33943632699028,
                47.645827214438945
            ],
            [
                -122.33938077723353,
                47.645814093599995
            ],
            [
                -122.33944202496137,
                47.64582446175287
            ],
            [
                -122.3393837732975,
                47.64579872647152
            ],
            [
                -122.33942783598489,
                47.64582995714057
            ],
            [
                -122.3394063777302,
                47.64587305302787
            ],
            [
                -122.33935510219473,
                47.64585575781311
            ],
            [
                -122.33942700861255,
                47.6458520056141
            ],
            [
                -122.33943351043905,
                47.64585978138737
            ],
            [
                -122.3394113014953,
                47.645840504490664
            ],
            [
                -122.33936884311285,
                47.645829984377784
            ],
            [
                -122.33940113510276,
                47.645851677829945
            ],
            [
                -122.33939,
                47.64583
            ]
        ]
    },
    "properties": {
        "trajectory_id": 6692,
        "object_id": 368158000,
        "label": "FISHING"
    }
}