{
    "type": "Feature",
    "geometry": {
        "type": "LineString",
        "coordinates": [
            [
                -122.22147,
                48.00299
            ],
            [
                -122.22144540193581,
                48.002995031995326
            ],
            [
                -122.2214599576634,
                48.003010281974376
            ],
            [
                -122.22144952295338,
                48.00300984668832
            ],
            [
                -122.22145050386314,
                48.00299014547275
            ],
            [
                -122.22146034974882,
                48.00298942757137
            ],
            [
                -122.22147380571836,
                48.00300696946114
            ],
            [
                -122.22144900956756,
                48.00299848970937
            ],
            [
                -122.22143877853716,
                48.003010814954585
            ],
            [
                -122.22148121573855,
                48.00299993101523
            ],
            [
                -122.22145917370327,
                48.00299001957739
            ],
            [
                -122.221455948943,
                48.00300662447395
            ],
            [
                -122.22144438144247,
                48.00301378149332
            ],
            [
                -122.22145854574966,
                48.0030159679387
            ],
            [
                -122.22143897396509,
                48.00299888266924
            ],
            [
                -122.22145921113786,
                48.00300605439015
            ],
            [
                -122.22143512989254,
                48.003034441443724
            ],
            [
                -122.22146882411214,
                48.00299876344276
            ],
            [
                -122.2214430520427,
                48.00299661290036
            ],
            [
                -122.22146018750414,
                48.00299852845149
            ],
            [
                -122.22146748527415,
                48.00300810262818
            ],
            [
                -122.22145091020096,
                48.00298781162482
            ],
            [
                -122.22146044727158,
                48.00299045460953
            ],
            [
                -122.22148152117666,
                48.00300866102953
            ],
            [
                -122.22147001723317,
                48.002990238304136
            ],
            [
                -122.22146023542899,
                48.002999827165866
            ],
            [
                -122.22146996126108,
                48.00300981002916
            ],
            [
                -122.22147978501755,
                48.00298966339561
            ],
            [
                -122.22144989247737,
                48.003010596262776
            ],
            [
                -122.22145401853547,
                48.0029944094908
            ],
            [
                -122.22146864906301,
                48.002989087037676
            ],
            [
                -122.22147064372633,
                48.00300079632644
            ],
            [
                -122.22146962846026,
                48.003001666979934
            ],
            [
                -122.22146314326923,
                48.00300123946791
            ],
            [
                -122.22148839711242,
                48.00297881106649
            ],
            [
                -122.22144445348256,
                48.00301476126819
            ],
            [
                -122.22147016627552,
                48.00301096488734
            ],
            [
                -122.22147945298983,
                48.002989848587845
            ],
            [
                -122.22145683018944,
                48.00301433567017
            ],
            [
                -122.22146984100628,
                48.002992271440824
            ],
            [
                -122.22146122798657,
                48.00299999092659
            ],
            [
                -122.22147699264971,
                48.00300455688641
            ],
            [
                -122.2214727398312,
                48.003008171986636
            ],
            [
                -122.22145319804517,
                48.00300866377486
            ],
            [
                -122.22147166362427,
                48.00301109593637
            ],
            [
                -122.22146422812956,
                48.003010554370924
            ],
            [
                -122.22146205745524,
                48.00299823478285
            ],
            [
                -122.22145069086643,
                48.002994980971025
            ],
            [
                -122.2214504311157,
                48.00299118285459
            ],
            [
                -122.22145329696846,
                48.003007559253305
            ],
            [
                -122.22146231164544,
                48.00300515612763
            ],
            [
                -122.22147026049097,
                48.00299899834851
            ],
            [
                -122.22149682219442,
                48.00298395060579
            ],
            [
                -122.22145555702154,
                48.002990382551054
            ],
            [
                -122.22148794298008,
                48.00301539401932
            ],
            [
                -122.22147377916698,
                48.002990160734555
            ],
            [
                -122.22144885017164,
                48.00300899097509
            ],
            [
                -122.22148520401645,
                48.00298226390303
            ],
            [
                -122.22145683985838,
                48.003020460346576
            ],
            [
                -122.22144306588895,
                48.00300981935733
            ],
            [
                -122.22149175201733,
                48.00299768749817
            ],
            [
                -122.22143286590308,
                48.003010887783276
            ],
            [
                -122.22146122027333,
                48.003008645155084
            ],
            [
                -122.22145022261893,
                48.003008014440645
            ],
            [
                -122.22146107960009,
                48.00300938938548
            ],
            [
                -122.22145269139449,
                48.003026530409464
            ],
            [
                -122.22144301171596,
                48.00299030318859
            ],
            [
                -122.22144105690424,
                48.0030067181787
            ],
            [
                -122.22144012035812,
                48.00300079730259
            ],
            [
                -122.2214698473818,
                48.00302014159823
            ],
            [
                -122.22149010257938,
                48.003009862488355
            ],
            [
                -122.22146942688696,
                48.00302057213636
            ],
            [
                -122.22145049989842,
                48.00301129536874
            ],
            [
                -122.22144722143548,
                48.00301355803162
            ],
            [
                -122.22147145518733,
                48.00298958229978
            ],
            [
                -122.22144585234668,
                48.002981681515074
            ],
            [
                -122.22146420139937,
                48.003007705471745
            ],
            [
                -122.22147138181424,
                48.00298359607099
            ],
            [
                -122.22146901050404,
                48.0029915831249
            ],
            [
                -122.22145814914899,
                48.00300091281756
            ],
            [
                -122.22147010996466,
                48.00301054125024
            ],
            [
                -122.22146121589788,
                48.00299342895085
            ],
            [
                -122.22145732867047,
                48.002990157776765
            ],
            [
                -122.22145195789547,
                48.00300798107939
            ],
            [
                -122.22147663874699,
                48.003007591314194
            ],
            [
                -122.22149219893147,
                48.00298481102118
            ],
            [
                -122.2214619774297,
                48.00298889321166
            ],
            [
                -122.22146600538137,
                48.003014249055006
            ],
            [
                -122.22146301631759,
                48.002997535852145
            ],
            [
                -122.22145791223821,
                48.00299636984172
            ],
            [
                -122.22146952319217,
                48.00300928406903
            ],
            [
                -122.22146478105913,
                48.00300595879856
            ],
            [
                -122.22145881806998,
                48.002991693097584
            ],
            [
                -122.2214361758353,
                48.00300295235459
            ],
            [
                -122.221470534778,
                48.002987183840865
            ],
            [
                -122.221474722633,
                48.00298954244652
            ],
            [
                -122.22145913511758,
                48.00300355303165
            ],
            [
                -122.22146446079743,
                48.0030047569358
            ],
            [
                -122.22146107777682,
                48.00299460668642
            ],
            [
                -122.22145808078756,
                48.002996895195665
            ],
            [
                -122.221438836293,
                48.0030093547894
            ],
            [
                -122.22145534313873,
                48.00299880447977
            ],
            [
                -122.22145821804432,
                48.00298835460114
            ],
            [
                -122.22148790539775,
                48.00297994781016
            ],
            [
                -122.22145566743636,
                48.00300487178707
            ],
            [
                -122.22145166675577,
                48.003000317626224
            ],
            [
                -122.22145982296023,
                48.00299810687795
            ],
            [
                -122.22146535938752,
                48.002990502253
            ],
            [
                -122.22144743585824,
                48.002999356826955
            ],
            [
                -122.22145912786583,
                48.002990274874215
            ],
            [
                -122.2214274633491,
                48.003007918206684
            ],
            [
                -122.22144686259456,
                48.00301158754035
            ],
            [
                -122.22147927509744,
                48.002990500240095
            ],
            [
                -122.22145762999494,
                48.003000401140824
            ],
            [
                -122.2214714882778,
                48.00299956322717
            ],
            [
                -122.22147167403338,
                48.00299160971888
            ],
            [
                -122.22146873798981,
                48.00301034705028
            ],
            [
                -122.22144989210871,
                48.00300025889975
            ],
            [
                -122.22148000352199,
                48.002999452498834
            ],
            [
                -122.22145,
                48.003
            ]
        ]
    },
    "properties": {
        "trajectory_id": 6766,
        "object_id": 368169620,
        "label": "PLEASURE CRAFT"
    }
}