{
    "type": "Feature",
    "geometry": {
        "type": "LineString",
        "coordinates": [
            [
                -122.21683,
                47.99798
            ],
            [
                -122.21683000000223,
                47.997925384793135
            ],
            [
                -122.21682999999288,
                47.99792989713201
            ],
            [
                -122.21682999982629,
                47.9979404780137
            ],
            [
                -122.21682994998892,
                47.99795147543157
            ],
            [
                -122.21682713493581,
                47.99794830907726
            ],
            [
                -122.21683877626586,
                47.99797490568633
            ],
            [
                -122.2168428531223,
                47.997977880548966
            ],
            [
                -122.21678711397418,
                47.99799632685509
            ],
            [
                -122.21679629153607,
                47.997968125126924
            ],
            [
                -122.2168225936753,
                47.998002988044846
            ],
            [
                -122.21682991314215,
                47.99800990826608
            ],
            [
                -122.21682973944958,
                47.99800889496764
            ],
            [
                -122.21682323275695,
                47.99801179739106
            ],
            [
                -122.21679516927574,
                47.99800394533706
            ],
            [
                -122.21679440551878,
                47.9979999534769
            ],
            [
                -122.21681926557598,
                47.9980000444962
            ],
            [
                -122.21681998804621,
                47.997999997222955
            ],
            [
                -122.21682013768135,
                47.99800014294824
            ],
            [
                -122.2168104572749,
                47.99799037556533
            ],
            [
                -122.21681003327957,
                47.99799888228073
            ],
            [
                -122.21681530455743,
                47.99799652607106
            ],
            [
                -122.21681703107937,
                47.997995671539975
            ],
            [
                -122.21683235462554,
                47.997992000945914
            ],
            [
                -122.21678695159356,
                47.99798991475409
            ],
            [
                -122.2168102881694,
                47.99799979186412
            ],
            [
                -122.21684918719394,
                47.99799036163725
            ],
            [
                -122.21683125054207,
                47.99799675565553
            ],
            [
                -122.2168299962492,
                47.9980000131918
            ],
            [
                -122.21682999105334,
                47.998000031465594
            ],
            [
                -122.21683000033099,
                47.997999998839084
            ],
            [
                -122.21683000010725,
                47.99799999963412
            ],
            [
                -122.2168299999962,
                47.998000000001625
            ],
            [
                -122.21682999836084,
                47.998000000384714
            ],
            [
                -122.21683000602339,
                47.99799999858733
            ],
            [
                -122.21683144132528,
                47.99799966196708
            ],
            [
                -122.21683187496942,
                47.99800281401603
            ],
            [
                -122.21683596055298,
                47.99800714447773
            ],
            [
                -122.21685869433472,
                47.99801286567822
            ],
            [
                -122.21684981236568,
                47.99802066115649
            ],
            [
                -122.21685441474568,
                47.99801612626151
            ],
            [
                -122.2168077393485,
                47.99805030401518
            ],
            [
                -122.21682689025555,
                47.99801288948537
            ],
            [
                -122.21682989735743,
                47.99802028217627
            ],
            [
                -122.21683083900265,
                47.9980197590039
            ],
            [
                -122.2168422561158,
                47.99800904255148
            ],
            [
                -122.21682804546941,
                47.998011360686085
            ],
            [
                -122.21683475341908,
                47.99799416250104
            ],
            [
                -122.2168099434587,
                47.99799995543569
            ],
            [
                -122.21682065294185,
                47.99799999243967
            ],
            [
                -122.21682021700376,
                47.99800000329495
            ],
            [
                -122.21681423525833,
                47.99799990305038
            ],
            [
                -122.21684850728741,
                47.99798978522122
            ],
            [
                -122.21685000116756,
                47.99798999944214
            ],
            [
                -122.21685020137369,
                47.99799000894323
            ],
            [
                -122.21682728696372,
                47.997989907066874
            ],
            [
                -122.21685068529068,
                47.998011025371895
            ],
            [
                -122.21685665222006,
                47.99801133453746
            ],
            [
                -122.2168601918291,
                47.99800999937506
            ],
            [
                -122.21681309436089,
                47.99800727162498
            ],
            [
                -122.21683006094958,
                47.99800004177076
            ],
            [
                -122.21682039795208,
                47.998000457055724
            ],
            [
                -122.21683030470734,
                47.997999937118095
            ],
            [
                -122.21684028205324,
                47.99798938532928
            ],
            [
                -122.21684002921744,
                47.99798996247492
            ],
            [
                -122.2168334506088,
                47.99799448829049
            ],
            [
                -122.21682599933962,
                47.99797720555307
            ],
            [
                -122.21681002263222,
                47.997987475491655
            ],
            [
                -122.21680715669312,
                47.997985869145964
            ],
            [
                -122.21679199463581,
                47.99800558432476
            ],
            [
                -122.21681132049585,
                47.99801517715523
            ],
            [
                -122.21682146165756,
                47.99799983324438
            ],
            [
                -122.21682374669359,
                47.99799035410656
            ],
            [
                -122.21681753197329,
                47.9980073388739
            ],
            [
                -122.21680997489908,
                47.99803007054749
            ],
            [
                -122.21680981819978,
                47.99803003791965
            ],
            [
                -122.21681017250947,
                47.99803000011536
            ],
            [
                -122.21679870943366,
                47.99803001590178
            ],
            [
                -122.21680349134732,
                47.99802447168497
            ],
            [
                -122.21679999118712,
                47.99801999358815
            ],
            [
                -122.21679966148153,
                47.998020677350645
            ],
            [
                -122.21682258101664,
                47.99797485723613
            ],
            [
                -122.2168200381486,
                47.99797989117222
            ],
            [
                -122.21683212673994,
                47.99800392801684
            ],
            [
                -122.21683127346303,
                47.99802005312509
            ],
            [
                -122.21682951248621,
                47.99802049186998
            ],
            [
                -122.21683737862327,
                47.99800821375876
            ],
            [
                -122.21682997612737,
                47.997999960786764
            ],
            [
                -122.2168346430774,
                47.99799536698902
            ],
            [
                -122.21683999770119,
                47.99798999994628
            ],
            [
                -122.21685560867914,
                47.997987452558085
            ],
            [
                -122.21683981005135,
                47.99800012869688
            ],
            [
                -122.21688089361047,
                47.99801014803933
            ],
            [
                -122.2168589449268,
                47.99801988437668
            ],
            [
                -122.21686104531584,
                47.997999860944454
            ],
            [
                -122.21685055568972,
                47.99801025157685
            ],
            [
                -122.2168273180225,
                47.99799945576397
            ],
            [
                -122.21683334164038,
                47.997998160340124
            ],
            [
                -122.21680833410207,
                47.99797864608667
            ],
            [
                -122.21679365647407,
                47.99798806390437
            ],
            [
                -122.21680781537728,
                47.998000203801745
            ],
            [
                -122.21681186481482,
                47.9979918122588
            ],
            [
                -122.21679856445044,
                47.9980015646442
            ],
            [
                -122.21679941435353,
                47.998000537281825
            ],
            [
                -122.2168009455393,
                47.997999994867584
            ],
            [
                -122.21683552989137,
                47.99800000199709
            ],
            [
                -122.21682890997833,
                47.99799996753489
            ],
            [
                -122.21683930243782,
                47.99800007734767
            ],
            [
                -122.21684109077526,
                47.998003322495244
            ],
            [
                -122.21682288997881,
                47.99799217240485
            ],
            [
                -122.2168241419878,
                47.99798557466205
            ],
            [
                -122.21681860061271,
                47.99799636276867
            ],
            [
                -122.2168206302958,
                47.99800033629113
            ],
            [
                -122.21680784107515,
                47.99799005488499
            ],
            [
                -122.21680062511125,
                47.997990026860634
            ],
            [
                -122.21680868662193,
                47.99799001145105
            ],
            [
                -122.21681752587946,
                47.99798928530677
            ],
            [
                -122.21681576930462,
                47.99798661946839
            ],
            [
                -122.21683964266035,
                47.99800962515542
            ],
            [
                -122.21684,
                47.99801
            ]
        ]
    },
    "properties": {
        "trajectory_id": 6777,
        "object_id": 368172620,
        "label": "PLEASURE CRAFT"
    }
}