{
    "type": "Feature",
    "geometry": {
        "type": "LineString",
        "coordinates": [
            [
                -122.60642,
                48.51418
            ],
            [
                -122.6064198157607,
                48.514199722488875
            ],
            [
                -122.60639042730938,
                48.51416973522937
            ],
            [
                -122.6064199700411,
                48.51417904753694
            ],
            [
                -122.60640143661298,
                48.51417911259711
            ],
            [
                -122.60637804386222,
                48.51418096216016
            ],
            [
                -122.60642593222859,
                48.5141796591845
            ],
            [
                -122.6063959139572,
                48.514173126886924
            ],
            [
                -122.60640058072022,
                48.51417074317148
            ],
            [
                -122.60639199425769,
                48.51417831447194
            ],
            [
                -122.60639641050565,
                48.51417080448963
            ],
            [
                -122.60639022029503,
                48.51418578990143
            ],
            [
                -122.60640314450814,
                48.51416889192123
            ],
            [
                -122.60640475756975,
                48.514152691552106
            ],
            [
                -122.60640546652698,
                48.514170947807294
            ],
            [
                -122.60639937452383,
                48.51418214371784
            ],
            [
                -122.60639574097847,
                48.51418346063471
            ],
            [
                -122.60638791579383,
                48.51419748557507
            ],
            [
                -122.60638137897843,
                48.51415981788356
            ],
            [
                -122.6064031444178,
                48.51416717893705
            ],
            [
                -122.60639366241956,
                48.514169971045966
            ],
            [
                -122.60641561549357,
                48.51416562967813
            ],
            [
                -122.60640883177902,
                48.51415605410034
            ],
            [
                -122.6064044906051,
                48.5141634425903
            ],
            [
                -122.60640120461758,
                48.514144517056025
            ],
            [
                -122.60639248283725,
                48.51414637446247
            ],
            [
                -122.60639164355612,
                48.51415671777742
            ],
            [
                -122.60642127060002,
                48.514174110165904
            ],
            [
                -122.60641708208637,
                48.51417603508356
            ],
            [
                -122.60642663857661,
                48.51418903640042
            ],
            [
                -122.60641968854041,
                48.514209854503974
            ],
            [
                -122.60643278105431,
                48.5141957604458
            ],
            [
                -122.60641277857249,
                48.514235843230296
            ],
            [
                -122.60641957439324,
                48.514192327423494
            ],
            [
                -122.60639582602579,
                48.51416971804994
            ],
            [
                -122.60641014250308,
                48.51415929494849
            ],
            [
                -122.6064076273984,
                48.51415974556788
            ],
            [
                -122.60637974050631,
                48.51416862617432
            ],
            [
                -122.60640000908472,
                48.51416943398725
            ],
            [
                -122.60641005752726,
                48.51418007125763
            ],
            [
                -122.60639984324949,
                48.51416748959199
            ],
            [
                -122.6064000204773,
                48.51416021635997
            ],
            [
                -122.60638061324063,
                48.51416097454996
            ],
            [
                -122.60640078195095,
                48.514170326201565
            ],
            [
                -122.60638008724398,
                48.51416939133992
            ],
            [
                -122.60638870167735,
                48.51416943355834
            ],
            [
                -122.60640255686496,
                48.514151260909145
            ],
            [
                -122.6064003670519,
                48.514151000240844
            ],
            [
                -122.60639785812538,
                48.51414842277201
            ],
            [
                -122.60638775188761,
                48.51415115513018
            ],
            [
                -122.6063842294061,
                48.51415699895732
            ],
            [
                -122.60640825432733,
                48.51415335650664
            ],
            [
                -122.60638597686629,
                48.514157777775644
            ],
            [
                -122.60638974907025,
                48.514164760304126
            ],
            [
                -122.60639419806618,
                48.51416416523313
            ],
            [
                -122.60637913963629,
                48.514192720410335
            ],
            [
                -122.60636814360389,
                48.514185773152725
            ],
            [
                -122.60637193332052,
                48.51417396550471
            ],
            [
                -122.60636840812504,
                48.514183281147865
            ],
            [
                -122.60638481861643,
                48.514186344814156
            ],
            [
                -122.60635572439368,
                48.51417084621156
            ],
            [
                -122.60640678084825,
                48.51417214736668
            ],
            [
                -122.60639874057469,
                48.514164714666144
            ],
            [
                -122.60636455025302,
                48.514183612956636
            ],
            [
                -122.6063733154846,
                48.51417439251128
            ],
            [
                -122.6063832556948,
                48.51415069142909
            ],
            [
                -122.60636443869052,
                48.51414453264818
            ],
            [
                -122.60637186868288,
                48.51418462342135
            ],
            [
                -122.60639328756541,
                48.514187429057515
            ],
            [
                -122.60635717311881,
                48.514168571068794
            ],
            [
                -122.6063642041992,
                48.51418990632355
            ],
            [
                -122.60638370391423,
                48.51415279827646
            ],
            [
                -122.60638426100319,
                48.51417945924537
            ],
            [
                -122.60636069518871,
                48.51414370588783
            ],
            [
                -122.60642144472304,
                48.51415038583632
            ],
            [
                -122.60638010831512,
                48.51414013924325
            ],
            [
                -122.6064088941629,
                48.5141816423089
            ],
            [
                -122.60642043977526,
                48.51415908891107
            ],
            [
                -122.60641943602383,
                48.514160398715056
            ],
            [
                -122.60642998115208,
                48.514150103738736
            ],
            [
                -122.606399886483,
                48.51416009642973
            ],
            [
                -122.6063798831749,
                48.5141700004325
            ],
            [
                -122.60638846508101,
                48.5141794997548
            ],
            [
                -122.6063803912392,
                48.514169104796366
            ],
            [
                -122.606385671419,
                48.51418519489221
            ],
            [
                -122.60639260781262,
                48.51418234378913
            ],
            [
                -122.60638361780137,
                48.514190822959165
            ],
            [
                -122.60639940456878,
                48.51418757517675
            ],
            [
                -122.60640954022655,
                48.514181572555614
            ],
            [
                -122.60640517857557,
                48.51421587871485
            ],
            [
                -122.606386617403,
                48.5141886902822
            ],
            [
                -122.60639763291228,
                48.51418901896979
            ],
            [
                -122.60639539013508,
                48.51418125507785
            ],
            [
                -122.60638283805892,
                48.514172182362486
            ],
            [
                -122.60638184310694,
                48.51418611627497
            ],
            [
                -122.60636473032673,
                48.514189121151745
            ],
            [
                -122.60635585871404,
                48.51418768787783
            ],
            [
                -122.60636304503886,
                48.51418669011204
            ],
            [
                -122.60634859080484,
                48.51417542747107
            ],
            [
                -122.60634450899931,
                48.51416481997176
            ],
            [
                -122.60634116276881,
                48.51414422068589
            ],
            [
                -122.60637274134669,
                48.51414843798241
            ],
            [
                -122.60637435223967,
                48.514150948510604
            ],
            [
                -122.60633551481106,
                48.514154029956245
            ],
            [
                -122.60636508122545,
                48.51415408958983
            ],
            [
                -122.60636951470715,
                48.51416366903616
            ],
            [
                -122.60637725938318,
                48.5141902892196
            ],
            [
                -122.60639047561546,
                48.514179849788206
            ],
            [
                -122.60635704040926,
                48.51418934712331
            ],
            [
                -122.6063741643672,
                48.51419012722656
            ],
            [
                -122.60638134961097,
                48.514188887306325
            ],
            [
                -122.60638644513172,
                48.51419141770922
            ],
            [
                -122.60640222623412,
                48.51417942331908
            ],
            [
                -122.606398485638,
                48.51416835470064
            ],
            [
                -122.60639798993,
                48.51419090629038
            ],
            [
                -122.60641068684888,
                48.514191058766755
            ],
            [
                -122.60641911075857,
                48.5141781632581
            ],
            [
                -122.60639914967497,
                48.51418906477365
            ],
            [
                -122.6064094216835,
                48.51417029010688
            ],
            [
                -122.60644,
                48.51418
            ]
        ]
    },
    "properties": {
        "trajectory_id": 6811,
        "object_id": 368180010,
        "label": "PLEASURE CRAFT"
    }
}