{
    "type": "Feature",
    "geometry": {
        "type": "LineString",
        "coordinates": [
            [
                -122.39473,
                47.62932
            ],
            [
                -122.394728689236,
                47.629319659533394
            ],
            [
                -122.39471894261561,
                47.62933463337049
            ],
            [
                -122.39476347605095,
                47.62932759803168
            ],
            [
                -122.39473730103403,
                47.629342670185835
            ],
            [
                -122.39470599065989,
                47.62932067106655
            ],
            [
                -122.39473646210241,
                47.62932641167061
            ],
            [
                -122.39473208810968,
                47.62930738504512
            ],
            [
                -122.3947290954658,
                47.62934056452819
            ],
            [
                -122.39473299312233,
                47.6293390343773
            ],
            [
                -122.39470856937292,
                47.62931069168393
            ],
            [
                -122.39477778306312,
                47.62933922966053
            ],
            [
                -122.39476431243453,
                47.6293358398608
            ],
            [
                -122.3947394958251,
                47.629338836249154
            ],
            [
                -122.39477430515348,
                47.62931806761235
            ],
            [
                -122.39478485916716,
                47.6293520081591
            ],
            [
                -122.39472507499855,
                47.62931117721485
            ],
            [
                -122.39470592583498,
                47.62933363643314
            ],
            [
                -122.39474082271511,
                47.62933479521046
            ],
            [
                -122.3947714760681,
                47.62934427185373
            ],
            [
                -122.39477977381749,
                47.6293155458605
            ],
            [
                -122.39477763022569,
                47.62934712833637
            ],
            [
                -122.39475792507464,
                47.629332093010504
            ],
            [
                -122.39477194719606,
                47.62932614893949
            ],
            [
                -122.3947838020879,
                47.62931757126566
            ],
            [
                -122.39478930702434,
                47.62931303437344
            ],
            [
                -122.39480399657089,
                47.629337181228074
            ],
            [
                -122.39478260623632,
                47.62932930881889
            ],
            [
                -122.39477389142137,
                47.62932935465223
            ],
            [
                -122.39478981912714,
                47.62933096836521
            ],
            [
                -122.3947594394566,
                47.62933742660944
            ],
            [
                -122.39479289157602,
                47.62933888224397
            ],
            [
                -122.39476382985147,
                47.62934476402428
            ],
            [
                -122.39478074277642,
                47.62931111179883
            ],
            [
                -122.39478201838521,
                47.62933677344908
            ],
            [
                -122.39475055867838,
                47.62932880414129
            ],
            [
                -122.3947655654649,
                47.629347703255426
            ],
            [
                -122.39475543968472,
                47.629317598489116
            ],
            [
                -122.39475809789253,
                47.62933667915314
            ],
            [
                -122.39475985413499,
                47.62933997589973
            ],
            [
                -122.39476615897075,
                47.62934888709363
            ],
            [
                -122.39477116160712,
                47.629311396049594
            ],
            [
                -122.39476260003441,
                47.62932108837411
            ],
            [
                -122.39476141282685,
                47.629330053785445
            ],
            [
                -122.39473013906374,
                47.62929265948232
            ],
            [
                -122.39476980834915,
                47.62932939875835
            ],
            [
                -122.39475093800627,
                47.62931911942843
            ],
            [
                -122.39475367544284,
                47.62930885907689
            ],
            [
                -122.39476995311315,
                47.62932006464245
            ],
            [
                -122.39473099071058,
                47.629310070249815
            ],
            [
                -122.39475217813947,
                47.62931385038181
            ],
            [
                -122.39475410661055,
                47.62932488050253
            ],
            [
                -122.39476961935686,
                47.62929992972176
            ],
            [
                -122.39475440084863,
                47.62932735782178
            ],
            [
                -122.39472092345416,
                47.629309536743776
            ],
            [
                -122.3947309555749,
                47.62931370396311
            ],
            [
                -122.39473681703846,
                47.6293428420444
            ],
            [
                -122.39471803043226,
                47.62930707341544
            ],
            [
                -122.39472477119573,
                47.62931637783532
            ],
            [
                -122.39471380856475,
                47.62932805279542
            ],
            [
                -122.39477190792796,
                47.629372027125505
            ],
            [
                -122.39472098192545,
                47.6293290268282
            ],
            [
                -122.3947397241569,
                47.629345876158744
            ],
            [
                -122.39472794554322,
                47.629349674756895
            ],
            [
                -122.39472722086681,
                47.62934219919655
            ],
            [
                -122.39474691003015,
                47.6293327652243
            ],
            [
                -122.39474653926453,
                47.62932232775012
            ],
            [
                -122.39477521478483,
                47.629336041571946
            ],
            [
                -122.39475348505282,
                47.62932077910971
            ],
            [
                -122.39471827161903,
                47.62932739205573
            ],
            [
                -122.39473340607171,
                47.629339967624794
            ],
            [
                -122.39472808391885,
                47.629330564788575
            ],
            [
                -122.39477056601008,
                47.62933105127024
            ],
            [
                -122.3947609162247,
                47.629314730364285
            ],
            [
                -122.39474899321452,
                47.629318783563825
            ],
            [
                -122.3947639682863,
                47.62929943929544
            ],
            [
                -122.39474670160381,
                47.62933279691897
            ],
            [
                -122.39475163266894,
                47.62931030339727
            ],
            [
                -122.3947333098741,
                47.629313937685666
            ],
            [
                -122.39475730056647,
                47.62931407955307
            ],
            [
                -122.39475930874679,
                47.62931997677408
            ],
            [
                -122.39472832558732,
                47.62931963445221
            ],
            [
                -122.39474757788057,
                47.62930950211817
            ],
            [
                -122.3947514313571,
                47.62930949285659
            ],
            [
                -122.39474813801321,
                47.62933054581781
            ],
            [
                -122.39478061974289,
                47.629290518061985
            ],
            [
                -122.39474850809762,
                47.62932055595683
            ],
            [
                -122.39472966696479,
                47.62934051026133
            ],
            [
                -122.39477798830825,
                47.62934045913278
            ],
            [
                -122.39476582441833,
                47.629337978259116
            ],
            [
                -122.39475544459196,
                47.62933147372344
            ],
            [
                -122.39476127537125,
                47.62931506104678
            ],
            [
                -122.39471054159324,
                47.62930714227298
            ],
            [
                -122.39471007641184,
                47.629338732868185
            ],
            [
                -122.39472474758561,
                47.62933418102743
            ],
            [
                -122.3946851115384,
                47.62934430459381
            ],
            [
                -122.39470971884168,
                47.62933206349076
            ],
            [
                -122.3947269367932,
                47.62931562096961
            ],
            [
                -122.39478173274753,
                47.62930055750098
            ],
            [
                -122.39478450410317,
                47.62929616844457
            ],
            [
                -122.3947198698751,
                47.629290198302286
            ],
            [
                -122.39473847162816,
                47.62929899434989
            ],
            [
                -122.3947625970261,
                47.62930632775895
            ],
            [
                -122.39470804120823,
                47.62932736686838
            ],
            [
                -122.39477003640755,
                47.629300683001716
            ],
            [
                -122.39474504020657,
                47.62931551176134
            ],
            [
                -122.39473938813752,
                47.62930788445637
            ],
            [
                -122.39472411321988,
                47.62930324493283
            ],
            [
                -122.39474537203168,
                47.62932762367164
            ],
            [
                -122.39473759793678,
                47.6293274847291
            ],
            [
                -122.39472754946935,
                47.62933740521827
            ],
            [
                -122.39476389600512,
                47.62931987777172
            ],
            [
                -122.39475146414887,
                47.62933315976495
            ],
            [
                -122.39475175796186,
                47.62932023831788
            ],
            [
                -122.39473410806255,
                47.62931629333261
            ],
            [
                -122.3947368957325,
                47.62932828637456
            ],
            [
                -122.39470945260788,
                47.62931741313789
            ],
            [
                -122.39475919580423,
                47.62933970320117
            ],
            [
                -122.39471308288803,
                47.629330383718
            ],
            [
                -122.39474,
                47.62933
            ]
        ]
    },
    "properties": {
        "trajectory_id": 6814,
        "object_id": 368180070,
        "label": "PLEASURE CRAFT"
    }
}