{
    "type": "Feature",
    "geometry": {
        "type": "LineString",
        "coordinates": [
            [
                -122.4076,
                47.67778
            ],
            [
                -122.40760000133388,
                47.677780000800546
            ],
            [
                -122.40760058155298,
                47.67778034903175
            ],
            [
                -122.40759970612557,
                47.67776978412366
            ],
            [
                -122.40759725131174,
                47.67779144355932
            ],
            [
                -122.40760016298829,
                47.67779256694785
            ],
            [
                -122.407600003762,
                47.67777994813397
            ],
            [
                -122.40760068587687,
                47.677780479596976
            ],
            [
                -122.40761922744086,
                47.67777970115697
            ],
            [
                -122.40761999594986,
                47.67777999843332
            ],
            [
                -122.40761999997619,
                47.6777799999908
            ],
            [
                -122.40762000000036,
                47.677780000000155
            ],
            [
                -122.40762000000176,
                47.67778
            ],
            [
                -122.40761999992839,
                47.67777999999991
            ],
            [
                -122.40761998459901,
                47.677779999982896
            ],
            [
                -122.4076163634605,
                47.677779996591156
            ],
            [
                -122.4076109481546,
                47.67777924210621
            ],
            [
                -122.40758873279313,
                47.677803989509925
            ],
            [
                -122.40759996200264,
                47.67780997909871
            ],
            [
                -122.40759999981456,
                47.67781000024494
            ],
            [
                -122.40759999999908,
                47.67781007577916
            ],
            [
                -122.40760000001586,
                47.67779902026969
            ],
            [
                -122.40760000318507,
                47.67779999344598
            ],
            [
                -122.40760058653012,
                47.67779970462917
            ],
            [
                -122.40761876386438,
                47.677790223299546
            ],
            [
                -122.40759055658961,
                47.677790001051605
            ],
            [
                -122.40759000259055,
                47.6777900000049
            ],
            [
                -122.40759000001194,
                47.67779000000002
            ],
            [
                -122.40759000000006,
                47.67779
            ],
            [
                -122.40759000000017,
                47.67779000000001
            ],
            [
                -122.40759000002781,
                47.67779
            ],
            [
                -122.40759001453826,
                47.67778999999999
            ],
            [
                -122.40758968723671,
                47.67779000000001
            ],
            [
                -122.40759996580917,
                47.67779
            ],
            [
                -122.40759999990219,
                47.67779
            ],
            [
                -122.40760000000147,
                47.67778999999999
            ],
            [
                -122.40760000000002,
                47.67779
            ],
            [
                -122.40759999999999,
                47.677789999999995
            ],
            [
                -122.40759999999996,
                47.67778999999999
            ],
            [
                -122.40759999999997,
                47.677789999999995
            ],
            [
                -122.40760000000006,
                47.677790000000016
            ],
            [
                -122.4076,
                47.67778999999999
            ],
            [
                -122.40760000000002,
                47.67779
            ],
            [
                -122.40760000000131,
                47.67778999999998
            ],
            [
                -122.40760000037756,
                47.67779
            ],
            [
                -122.40760008787643,
                47.67779
            ],
            [
                -122.40760979426771,
                47.67778999999999
            ],
            [
                -122.40760999882717,
                47.677789999999995
            ],
            [
                -122.40760999998912,
                47.67779000000003
            ],
            [
                -122.40761000000164,
                47.677789999998495
            ],
            [
                -122.40761000043223,
                47.67778999956986
            ],
            [
                -122.40760997659453,
                47.67779002329342
            ],
            [
                -122.40761574342122,
                47.67778428407879
            ],
            [
                -122.40758912814178,
                47.67781232656161
            ],
            [
                -122.40760007374516,
                47.677779836348414
            ],
            [
                -122.40760000040385,
                47.67776880807598
            ],
            [
                -122.40760000007863,
                47.677769994481835
            ],
            [
                -122.40760001608106,
                47.67777003213866
            ],
            [
                -122.40760436056864,
                47.67777872244481
            ],
            [
                -122.40761005853696,
                47.677790046068566
            ],
            [
                -122.40761000030068,
                47.67780098023138
            ],
            [
                -122.40761000000136,
                47.67780000489817
            ],
            [
                -122.40761000000816,
                47.6777999999163
            ],
            [
                -122.40761000143947,
                47.67779999999956
            ],
            [
                -122.40761026850936,
                47.677799999992885
            ],
            [
                -122.407619813275,
                47.6777999985884
            ],
            [
                -122.4076197260032,
                47.67779972694489
            ],
            [
                -122.40761018070266,
                47.67779018088915
            ],
            [
                -122.40761000804098,
                47.67778999741527
            ],
            [
                -122.40761213609393,
                47.677789999986544
            ],
            [
                -122.4075899413271,
                47.67779000000595
            ],
            [
                -122.40759824259781,
                47.677790001095154
            ],
            [
                -122.40759996706792,
                47.67778994703517
            ],
            [
                -122.40761024960004,
                47.677800249518185
            ],
            [
                -122.4076100128669,
                47.677800012858796
            ],
            [
                -122.40760999994146,
                47.677799999985254
            ],
            [
                -122.40760999221582,
                47.67779999999993
            ],
            [
                -122.4076103411212,
                47.6778
            ],
            [
                -122.40759999371289,
                47.677800000000005
            ],
            [
                -122.40760000000289,
                47.6778
            ],
            [
                -122.4076,
                47.6778
            ],
            [
                -122.40760000000006,
                47.6778
            ],
            [
                -122.40760000001401,
                47.677800000000005
            ],
            [
                -122.40760000386035,
                47.6778
            ],
            [
                -122.40759964205195,
                47.6778
            ],
            [
                -122.40761005661626,
                47.67779999999998
            ],
            [
                -122.40761000032195,
                47.67780000000002
            ],
            [
                -122.40761000000171,
                47.67780000000086
            ],
            [
                -122.40761000000005,
                47.67780000018372
            ],
            [
                -122.40761000000515,
                47.67780003998886
            ],
            [
                -122.40761000117382,
                47.67778889294973
            ],
            [
                -122.40761024575895,
                47.67778999406599
            ],
            [
                -122.40760010012337,
                47.67779000009509
            ],
            [
                -122.40760000057159,
                47.67779000000054
            ],
            [
                -122.40760000000259,
                47.677789999999796
            ],
            [
                -122.40759999998339,
                47.67778999998309
            ],
            [
                -122.4075999991665,
                47.677789999166485
            ],
            [
                -122.40760004821101,
                47.677790048210994
            ],
            [
                -122.40760877834755,
                47.67779877834752
            ],
            [
                -122.40760999640729,
                47.67779999640729
            ],
            [
                -122.40760999998115,
                47.67779999998102
            ],
            [
                -122.40761000000751,
                47.6777999999847
            ],
            [
                -122.40761000150852,
                47.677799996983076
            ],
            [
                -122.40761031248014,
                47.67779937506157
            ],
            [
                -122.40761978963789,
                47.67778042458271
            ],
            [
                -122.40762033441472,
                47.677780861294266
            ],
            [
                -122.40761895027292,
                47.677790455312646
            ],
            [
                -122.40761171905795,
                47.67778921988835
            ],
            [
                -122.40760998952524,
                47.677789996049825
            ],
            [
                -122.40760206137061,
                47.6777899999825
            ],
            [
                -122.40760000976303,
                47.677789999999895
            ],
            [
                -122.40760000004427,
                47.67778999999767
            ],
            [
                -122.40760000000019,
                47.677789999602915
            ],
            [
                -122.40760000000004,
                47.67778992039337
            ],
            [
                -122.40760000000002,
                47.677780322011536
            ],
            [
                -122.40759999999999,
                47.677789102913316
            ],
            [
                -122.4076,
                47.67778999678711
            ],
            [
                -122.40759999999997,
                47.67778990910613
            ],
            [
                -122.40760000000002,
                47.67778001128674
            ],
            [
                -122.4076,
                47.67778
            ]
        ]
    },
    "properties": {
        "trajectory_id": 6944,
        "object_id": 368205740,
        "label": "PLEASURE CRAFT"
    }
}