{
    "type": "Feature",
    "geometry": {
        "type": "LineString",
        "coordinates": [
            [
                -122.4076,
                47.67778
            ],
            [
                -122.40759999999999,
                47.67777981088341
            ],
            [
                -122.40759999999993,
                47.67777990380053
            ],
            [
                -122.40759999999894,
                47.67777999987144
            ],
            [
                -122.40759999974253,
                47.67777999984992
            ],
            [
                -122.40760001663818,
                47.67778000962479
            ],
            [
                -122.40760431563902,
                47.677782506825935
            ],
            [
                -122.40759409424685,
                47.67777310906611
            ],
            [
                -122.40759967239035,
                47.67779768168852
            ],
            [
                -122.40759066990776,
                47.67779021750152
            ],
            [
                -122.40761285386061,
                47.67780142999506
            ],
            [
                -122.40761000913122,
                47.67780000457541
            ],
            [
                -122.40761000011497,
                47.67780000005761
            ],
            [
                -122.40760999999877,
                47.67779999999962
            ],
            [
                -122.40760999990067,
                47.677800000000005
            ],
            [
                -122.40760997911005,
                47.67779999999999
            ],
            [
                -122.40760410050622,
                47.67779999999999
            ],
            [
                -122.40760001510777,
                47.67779999999887
            ],
            [
                -122.40760000007275,
                47.67779999977863
            ],
            [
                -122.40760000000687,
                47.677799959947976
            ],
            [
                -122.40760000120204,
                47.67778464981251
            ],
            [
                -122.4075998784514,
                47.6777800216246
            ],
            [
                -122.40760804976563,
                47.67777195145556
            ],
            [
                -122.40760993086292,
                47.67777006918325
            ],
            [
                -122.40760999972629,
                47.67777000027391
            ],
            [
                -122.40760999999907,
                47.67777000000096
            ],
            [
                -122.40761,
                47.67777000000001
            ],
            [
                -122.40760999999999,
                47.67777
            ],
            [
                -122.40761000000002,
                47.67777
            ],
            [
                -122.40761,
                47.67776999999999
            ],
            [
                -122.40761000000003,
                47.67777
            ],
            [
                -122.40761,
                47.67777000000001
            ],
            [
                -122.40761,
                47.67777
            ],
            [
                -122.40760999999998,
                47.677769999999995
            ],
            [
                -122.40760999999999,
                47.67776999999999
            ],
            [
                -122.40761,
                47.67777000000001
            ],
            [
                -122.40761,
                47.67777
            ],
            [
                -122.40760999999999,
                47.677769999999995
            ],
            [
                -122.40761000000002,
                47.67777000000001
            ],
            [
                -122.40760999999998,
                47.67777
            ],
            [
                -122.40761,
                47.677769999999995
            ],
            [
                -122.40761,
                47.67777000000002
            ],
            [
                -122.40761000000002,
                47.67777000000001
            ],
            [
                -122.40761000000003,
                47.67777000000001
            ],
            [
                -122.40761,
                47.67777
            ],
            [
                -122.40761,
                47.67777000000001
            ],
            [
                -122.40761,
                47.67777
            ],
            [
                -122.40760999999998,
                47.677769999999995
            ],
            [
                -122.40761000000003,
                47.67777000000002
            ],
            [
                -122.40761,
                47.677769999999995
            ],
            [
                -122.40761000000002,
                47.67777
            ],
            [
                -122.40761,
                47.67777
            ],
            [
                -122.40761000000352,
                47.677769999999995
            ],
            [
                -122.40760999992412,
                47.67777
            ],
            [
                -122.40761000317967,
                47.67777000000001
            ],
            [
                -122.40761071563378,
                47.677769999999995
            ],
            [
                -122.40759998856205,
                47.67777000000116
            ],
            [
                -122.4076001136275,
                47.67777000021496
            ],
            [
                -122.4076100536,
                47.677769992796556
            ],
            [
                -122.40761000070775,
                47.67778006339616
            ],
            [
                -122.40761000000434,
                47.677780000386626
            ],
            [
                -122.40760999999985,
                47.67777999998611
            ],
            [
                -122.40761,
                47.677779999999906
            ],
            [
                -122.40761,
                47.677779999999984
            ],
            [
                -122.40761,
                47.67778000000001
            ],
            [
                -122.40761,
                47.677780000000006
            ],
            [
                -122.40761,
                47.67777999999999
            ],
            [
                -122.40760999999999,
                47.67778
            ],
            [
                -122.40761000000408,
                47.677780000000006
            ],
            [
                -122.40761000023167,
                47.67778
            ],
            [
                -122.40761004640409,
                47.67777999999989
            ],
            [
                -122.40759499120969,
                47.67777999997722
            ],
            [
                -122.40759001389382,
                47.677779995621904
            ],
            [
                -122.40759000006798,
                47.67777908011691
            ],
            [
                -122.40759000000038,
                47.677790070697135
            ],
            [
                -122.40758999999997,
                47.6777897372337
            ],
            [
                -122.40758999999996,
                47.677780242308465
            ],
            [
                -122.40759000000001,
                47.67778000110351
            ],
            [
                -122.40759000000001,
                47.67778000000536
            ],
            [
                -122.40759000000025,
                47.677780000010664
            ],
            [
                -122.4075899999917,
                47.67777999968774
            ],
            [
                -122.40759000052448,
                47.677780019752305
            ],
            [
                -122.40759008513075,
                47.67778831181875
            ],
            [
                -122.40760013753321,
                47.6777899404729
            ],
            [
                -122.40759999758406,
                47.6777798885332
            ],
            [
                -122.40759991380546,
                47.67778016319329
            ],
            [
                -122.40762060113919,
                47.677789945795965
            ],
            [
                -122.4076198063079,
                47.67778999852328
            ],
            [
                -122.4076199519981,
                47.67779004758917
            ],
            [
                -122.40760997125052,
                47.67780002872397
            ],
            [
                -122.40760981788927,
                47.67780017064911
            ],
            [
                -122.40760007430477,
                47.6777897411133
            ],
            [
                -122.40760000094998,
                47.67780095745032
            ],
            [
                -122.40760000003678,
                47.677789957734824
            ],
            [
                -122.40760000737548,
                47.67778999975336
            ],
            [
                -122.40760218486703,
                47.67778999999842
            ],
            [
                -122.40759947002847,
                47.677789999999995
            ],
            [
                -122.40760762462392,
                47.6777899999997
            ],
            [
                -122.40760002035267,
                47.677789999937545
            ],
            [
                -122.40760000011015,
                47.67778998581332
            ],
            [
                -122.40760000000057,
                47.677786473983495
            ],
            [
                -122.40760000000002,
                47.67778004263075
            ],
            [
                -122.4076,
                47.67778000171214
            ],
            [
                -122.4076,
                47.677779999980494
            ],
            [
                -122.4076,
                47.6777799999999
            ],
            [
                -122.40759999999999,
                47.67777999999999
            ],
            [
                -122.40760000000168,
                47.677779999999885
            ],
            [
                -122.40760000033154,
                47.677779999976444
            ],
            [
                -122.40759997983511,
                47.67778000143188
            ],
            [
                -122.40759322562576,
                47.67778028624907
            ],
            [
                -122.40759036574164,
                47.677789822746185
            ],
            [
                -122.40758651038705,
                47.677786754305544
            ],
            [
                -122.40759002862303,
                47.67778000340665
            ],
            [
                -122.40759804017095,
                47.67778783098769
            ],
            [
                -122.40760002279137,
                47.67777969070091
            ],
            [
                -122.40759999956582,
                47.67778000595208
            ],
            [
                -122.40760000000402,
                47.67777999748037
            ],
            [
                -122.4076,
                47.67777977861378
            ],
            [
                -122.4076,
                47.677789978528864
            ],
            [
                -122.4076,
                47.6778
            ]
        ]
    },
    "properties": {
        "trajectory_id": 6947,
        "object_id": 368205740,
        "label": "PLEASURE CRAFT"
    }
}