{
    "type": "Feature",
    "geometry": {
        "type": "LineString",
        "coordinates": [
            [
                -122.39059,
                47.62894
            ],
            [
                -122.39059877542485,
                47.62897834010615
            ],
            [
                -122.3905698192376,
                47.628959942279316
            ],
            [
                -122.39057313452552,
                47.628941436529054
            ],
            [
                -122.39060015498154,
                47.62892011353317
            ],
            [
                -122.39060590436056,
                47.62893969318069
            ],
            [
                -122.39054719475563,
                47.6289522588154
            ],
            [
                -122.39059797849343,
                47.62894084935127
            ],
            [
                -122.39058393776695,
                47.628954915919614
            ],
            [
                -122.39056040476193,
                47.62896388673108
            ],
            [
                -122.39057630841258,
                47.62895584692978
            ],
            [
                -122.39059030202193,
                47.62897307217072
            ],
            [
                -122.39060127412975,
                47.628988192730425
            ],
            [
                -122.39054655675399,
                47.628940155780526
            ],
            [
                -122.39056980680274,
                47.62898745345439
            ],
            [
                -122.3905598784912,
                47.6289552169031
            ],
            [
                -122.39055926129784,
                47.62898167295995
            ],
            [
                -122.39062261744742,
                47.62898200551274
            ],
            [
                -122.39058460478833,
                47.62896839401931
            ],
            [
                -122.3905841427188,
                47.628963368934514
            ],
            [
                -122.39058915639556,
                47.62896005999974
            ],
            [
                -122.39057657117333,
                47.62897010043652
            ],
            [
                -122.3905825311561,
                47.62896385971995
            ],
            [
                -122.39060347514307,
                47.62894282174574
            ],
            [
                -122.39059171493963,
                47.62895996217677
            ],
            [
                -122.39057017648801,
                47.628963500393
            ],
            [
                -122.39059709129995,
                47.62896550891912
            ],
            [
                -122.39059848232661,
                47.62897937100818
            ],
            [
                -122.39061027450852,
                47.6289799162802
            ],
            [
                -122.39060959129527,
                47.62898001737541
            ],
            [
                -122.3906147404723,
                47.62897473014894
            ],
            [
                -122.39064005801963,
                47.62896005612905
            ],
            [
                -122.39063004344035,
                47.628959905410916
            ],
            [
                -122.39062043161286,
                47.628959845694624
            ],
            [
                -122.3905928748527,
                47.6289700307502
            ],
            [
                -122.3905965572899,
                47.62895400967326
            ],
            [
                -122.39062478618337,
                47.628966782752535
            ],
            [
                -122.39060487501551,
                47.62899682684628
            ],
            [
                -122.39059236544719,
                47.628979664717725
            ],
            [
                -122.39061025035002,
                47.62900196845155
            ],
            [
                -122.39059140156938,
                47.628994323772964
            ],
            [
                -122.3906414122342,
                47.62901436211598
            ],
            [
                -122.39062557753063,
                47.62901083447412
            ],
            [
                -122.3905808056033,
                47.628991561300474
            ],
            [
                -122.39058125353942,
                47.628980554041014
            ],
            [
                -122.39058139375489,
                47.628974623065126
            ],
            [
                -122.39068107730056,
                47.62897184241311
            ],
            [
                -122.390595464642,
                47.6289599697381
            ],
            [
                -122.39056540399228,
                47.62896793797403
            ],
            [
                -122.39059979851702,
                47.62895677632702
            ],
            [
                -122.39064687986587,
                47.628974236234114
            ],
            [
                -122.39064132615826,
                47.62895389874865
            ],
            [
                -122.3906313607686,
                47.6289502447638
            ],
            [
                -122.39062029874916,
                47.62895950307
            ],
            [
                -122.39067191179305,
                47.62894837974243
            ],
            [
                -122.39058593741818,
                47.62899399838843
            ],
            [
                -122.39057194173577,
                47.629000504143676
            ],
            [
                -122.39057398704021,
                47.62898029494812
            ],
            [
                -122.39058969281925,
                47.62896096540032
            ],
            [
                -122.39057970955388,
                47.628990165924606
            ],
            [
                -122.39058034992084,
                47.62898041869482
            ],
            [
                -122.39059092655928,
                47.62898085097209
            ],
            [
                -122.39057907874026,
                47.62897074133951
            ],
            [
                -122.39056239495623,
                47.62898948141259
            ],
            [
                -122.3905467883448,
                47.628985440427435
            ],
            [
                -122.39060810974964,
                47.62897839213663
            ],
            [
                -122.3905898005824,
                47.62899090925876
            ],
            [
                -122.39057917375477,
                47.628959842147445
            ],
            [
                -122.39059120291626,
                47.62898233375986
            ],
            [
                -122.39058763914834,
                47.62896809413049
            ],
            [
                -122.39058126756917,
                47.62897721782551
            ],
            [
                -122.39058236292395,
                47.62897911317238
            ],
            [
                -122.39057549788032,
                47.62896586357528
            ],
            [
                -122.39056140093263,
                47.628970794649554
            ],
            [
                -122.39059512854263,
                47.62897054614328
            ],
            [
                -122.39058358697523,
                47.62897521954095
            ],
            [
                -122.39058608605583,
                47.62898443294051
            ],
            [
                -122.39058185496505,
                47.62897745689548
            ],
            [
                -122.39058418885689,
                47.62897494297685
            ],
            [
                -122.39057261315448,
                47.62895490345007
            ],
            [
                -122.3905938415448,
                47.62894988033611
            ],
            [
                -122.39059311586107,
                47.628962665485005
            ],
            [
                -122.3906084374301,
                47.628954972213975
            ],
            [
                -122.39060583673833,
                47.62895370688264
            ],
            [
                -122.390590006663,
                47.62897004784883
            ],
            [
                -122.3906065182148,
                47.62894937942582
            ],
            [
                -122.39063296476543,
                47.62893159221329
            ],
            [
                -122.39064585552094,
                47.62893799561709
            ],
            [
                -122.39062866645422,
                47.628935074944316
            ],
            [
                -122.39057239088334,
                47.62893970564591
            ],
            [
                -122.39064002060614,
                47.62899997619345
            ],
            [
                -122.39066915244068,
                47.62900962271562
            ],
            [
                -122.39068080811246,
                47.628949899398464
            ],
            [
                -122.39055368175175,
                47.62896896227456
            ],
            [
                -122.39066061977395,
                47.62895308485857
            ],
            [
                -122.39065525868268,
                47.62898096907709
            ],
            [
                -122.39059006939024,
                47.62897564583811
            ],
            [
                -122.39060505368622,
                47.62895874209473
            ],
            [
                -122.39060398394707,
                47.62896797808455
            ],
            [
                -122.3905923266173,
                47.62896043693313
            ],
            [
                -122.39058488920541,
                47.62896232216658
            ],
            [
                -122.390601781915,
                47.628970070160904
            ],
            [
                -122.39057682263996,
                47.628955435692404
            ],
            [
                -122.39059245405707,
                47.62892856535118
            ],
            [
                -122.39060736290185,
                47.62896271418279
            ],
            [
                -122.39058395962175,
                47.62894881249674
            ],
            [
                -122.39059844311187,
                47.62898247772434
            ],
            [
                -122.3905935114534,
                47.62894574096945
            ],
            [
                -122.39055843678094,
                47.628936020177484
            ],
            [
                -122.39058397085978,
                47.628951252730104
            ],
            [
                -122.39056610176975,
                47.62895471555402
            ],
            [
                -122.3905487307782,
                47.62895703908797
            ],
            [
                -122.39056894192342,
                47.628946414987816
            ],
            [
                -122.39058441414507,
                47.62898249564185
            ],
            [
                -122.39058038734903,
                47.62897941096585
            ],
            [
                -122.39056519128384,
                47.62894634161474
            ],
            [
                -122.39058251944,
                47.628964926571705
            ],
            [
                -122.390597595847,
                47.628959856677355
            ],
            [
                -122.39058696396086,
                47.628979613634066
            ],
            [
                -122.39059,
                47.62895
            ]
        ]
    },
    "properties": {
        "trajectory_id": 6956,
        "object_id": 368207840,
        "label": "PLEASURE CRAFT"
    }
}