{
    "type": "Feature",
    "geometry": {
        "type": "LineString",
        "coordinates": [
            [
                -122.589,
                47.33669
            ],
            [
                -122.58899999999998,
                47.33669
            ],
            [
                -122.58899999999996,
                47.336690000000004
            ],
            [
                -122.58899999999048,
                47.3366900000061
            ],
            [
                -122.58899999765387,
                47.336690001508714
            ],
            [
                -122.58899905585751,
                47.33669060716006
            ],
            [
                -122.58903175703591,
                47.33666853177333
            ],
            [
                -122.58899094342874,
                47.33666022381859
            ],
            [
                -122.58898998316172,
                47.33666000234587
            ],
            [
                -122.58898999803738,
                47.33666150406467
            ],
            [
                -122.58899013839535,
                47.33667982933865
            ],
            [
                -122.58895695610495,
                47.33667999909986
            ],
            [
                -122.5889599837854,
                47.33667999999521
            ],
            [
                -122.58895999991535,
                47.33667999999997
            ],
            [
                -122.58896000000144,
                47.336679999999994
            ],
            [
                -122.58895999999993,
                47.336680000000015
            ],
            [
                -122.58895999999997,
                47.33668000000002
            ],
            [
                -122.58895999999949,
                47.336680000004336
            ],
            [
                -122.5889600000323,
                47.336679999730286
            ],
            [
                -122.58896000845586,
                47.33667992943592
            ],
            [
                -122.5889599778143,
                47.336684543475315
            ],
            [
                -122.58903881924566,
                47.336670504601116
            ],
            [
                -122.58902280660014,
                47.336670002450724
            ],
            [
                -122.58901005024872,
                47.33667000001186
            ],
            [
                -122.58901000029081,
                47.336669999980586
            ],
            [
                -122.58901000183101,
                47.33666999909213
            ],
            [
                -122.58901013719331,
                47.33666993137868
            ],
            [
                -122.58898421956158,
                47.33668288160254
            ],
            [
                -122.58899036382493,
                47.336679865393435
            ],
            [
                -122.58900353956005,
                47.33668325760966
            ],
            [
                -122.5890233357847,
                47.33669702006682
            ],
            [
                -122.58900997618085,
                47.33671002282316
            ],
            [
                -122.58900999985838,
                47.336710000135355
            ],
            [
                -122.58901000001647,
                47.33670999998752
            ],
            [
                -122.58900999998272,
                47.33671000031785
            ],
            [
                -122.58900999956215,
                47.33671000802664
            ],
            [
                -122.58900995677459,
                47.33671079238363
            ],
            [
                -122.58899896936711,
                47.336669294661135
            ],
            [
                -122.58900000041059,
                47.33667000028111
            ],
            [
                -122.58900000000084,
                47.33667000000869
            ],
            [
                -122.58900000000003,
                47.3366700002495
            ],
            [
                -122.58900000001118,
                47.33667024017891
            ],
            [
                -122.58899999816866,
                47.336731122206594
            ],
            [
                -122.58900009411977,
                47.336729963027054
            ],
            [
                -122.58895553694168,
                47.33664568503886
            ],
            [
                -122.58896005879882,
                47.33666008195235
            ],
            [
                -122.58895939631043,
                47.33666004099002
            ],
            [
                -122.58900061025948,
                47.336700039609724
            ],
            [
                -122.58899797246762,
                47.33667040695914
            ],
            [
                -122.58900996129827,
                47.33667000163059
            ],
            [
                -122.5890100845005,
                47.33666987925042
            ],
            [
                -122.58900429862956,
                47.33667816146441
            ],
            [
                -122.58900011740518,
                47.33671203519441
            ],
            [
                -122.58899998486288,
                47.336709900460896
            ],
            [
                -122.58899629462535,
                47.33668310344491
            ],
            [
                -122.58895376633318,
                47.33673901832349
            ],
            [
                -122.58896003813518,
                47.33671986960696
            ],
            [
                -122.5889572548698,
                47.33672548997455
            ],
            [
                -122.58899021627474,
                47.336659565744746
            ],
            [
                -122.58898992968562,
                47.336659783265674
            ],
            [
                -122.58900098407945,
                47.336692903599456
            ],
            [
                -122.58899966160186,
                47.33667356187109
            ],
            [
                -122.58898911263488,
                47.33670866118058
            ],
            [
                -122.58899001769505,
                47.33669982718425
            ],
            [
                -122.58898999696525,
                47.33670002020051
            ],
            [
                -122.58899033527022,
                47.336697744571495
            ],
            [
                -122.58899582455291,
                47.33666596899559
            ],
            [
                -122.58896166623285,
                47.33668253286727
            ],
            [
                -122.58894485325595,
                47.33664169792126
            ],
            [
                -122.58899928359989,
                47.33672885450678
            ],
            [
                -122.58899997939172,
                47.33672992510189
            ],
            [
                -122.5889916709795,
                47.33669676012192
            ],
            [
                -122.58898979196555,
                47.336700335304315
            ],
            [
                -122.58898998618953,
                47.336700022259365
            ],
            [
                -122.58899000002167,
                47.33669999996502
            ],
            [
                -122.5889900000012,
                47.33669999999806
            ],
            [
                -122.58898999999997,
                47.33669999999997
            ],
            [
                -122.58899000000002,
                47.33670000000001
            ],
            [
                -122.58898999999991,
                47.336700000000036
            ],
            [
                -122.58898999999437,
                47.336700000001116
            ],
            [
                -122.58899000412215,
                47.33669999917557
            ],
            [
                -122.58899170207542,
                47.33669965958492
            ],
            [
                -122.58903996019258,
                47.33669000796148
            ],
            [
                -122.58903999972377,
                47.336690000055256
            ],
            [
                -122.58904000002023,
                47.33668999999544
            ],
            [
                -122.58903999998154,
                47.33668999999226
            ],
            [
                -122.58903999588208,
                47.33668999827791
            ],
            [
                -122.58904182858895,
                47.336690764707825
            ],
            [
                -122.58896249299833,
                47.33664576438182
            ],
            [
                -122.58899980127126,
                47.33666004893485
            ],
            [
                -122.58899999809788,
                47.33666000046837
            ],
            [
                -122.58900000001928,
                47.336659999995256
            ],
            [
                -122.58900000000011,
                47.33665999999997
            ],
            [
                -122.58900000000003,
                47.33666
            ],
            [
                -122.58900000000001,
                47.33666000000001
            ],
            [
                -122.58899999999997,
                47.33665999999999
            ],
            [
                -122.58900000000001,
                47.33666000000001
            ],
            [
                -122.58899999999998,
                47.33666
            ],
            [
                -122.589,
                47.33666
            ],
            [
                -122.589,
                47.33666
            ],
            [
                -122.589,
                47.33666
            ],
            [
                -122.58899999999998,
                47.33666
            ],
            [
                -122.58900000000001,
                47.33666
            ],
            [
                -122.589,
                47.336659999999995
            ],
            [
                -122.58899999999998,
                47.33666000000001
            ],
            [
                -122.58899999999997,
                47.336659999999995
            ],
            [
                -122.589,
                47.33666000000001
            ],
            [
                -122.58899999999998,
                47.33666
            ],
            [
                -122.58899999999998,
                47.33666
            ],
            [
                -122.58900000000001,
                47.336660000000016
            ],
            [
                -122.589,
                47.33666
            ],
            [
                -122.58899999999997,
                47.336659999999995
            ],
            [
                -122.58899999999998,
                47.336659999999995
            ],
            [
                -122.58899999999998,
                47.33666
            ],
            [
                -122.58899999999998,
                47.336659999999995
            ],
            [
                -122.58900000000001,
                47.33666000000001
            ],
            [
                -122.589,
                47.33666
            ],
            [
                -122.58899999999997,
                47.33665999999999
            ],
            [
                -122.58899999999998,
                47.336659999999995
            ],
            [
                -122.589,
                47.33666
            ]
        ]
    },
    "properties": {
        "trajectory_id": 7021,
        "object_id": 368220020,
        "label": "PLEASURE CRAFT"
    }
}