{
    "type": "Feature",
    "geometry": {
        "type": "LineString",
        "coordinates": [
            [
                -123.28963,
                49.10862
            ],
            [
                -123.27419869973433,
                49.115012675657354
            ],
            [
                -123.25930352354132,
                49.1212604796534
            ],
            [
                -123.24540421362681,
                49.127541911956584
            ],
            [
                -123.22932804542238,
                49.13035650015512
            ],
            [
                -123.2138213979057,
                49.12755857140369
            ],
            [
                -123.20030488969687,
                49.12225880441202
            ],
            [
                -123.18689924889881,
                49.117396341156095
            ],
            [
                -123.17290669497747,
                49.112692208165306
            ],
            [
                -123.15803192546403,
                49.109316712193056
            ],
            [
                -123.14293563832787,
                49.1095486369842
            ],
            [
                -123.1271372796294,
                49.109359558088194
            ],
            [
                -123.11185213162437,
                49.1125319894926
            ],
            [
                -123.09794422659408,
                49.116827203435115
            ],
            [
                -123.08514564298723,
                49.120378871401684
            ],
            [
                -123.07258287923109,
                49.12475910891964
            ],
            [
                -123.05936150448622,
                49.13080536785588
            ],
            [
                -123.05082183016349,
                49.13637846015027
            ],
            [
                -123.04593066958284,
                49.13947302958908
            ],
            [
                -123.04496879306117,
                49.139490831204746
            ],
            [
                -123.0449115482747,
                49.13961587397644
            ],
            [
                -123.04279492297592,
                49.1414416420485
            ],
            [
                -123.01447923660578,
                49.15177729108155
            ],
            [
                -122.98029849266464,
                49.15677249091365
            ],
            [
                -122.94587180678838,
                49.159519543315426
            ],
            [
                -122.92473343097832,
                49.17717066700486
            ],
            [
                -122.91776519041105,
                49.19657781047804
            ],
            [
                -122.95522178685718,
                49.19269631788945
            ],
            [
                -122.9861007929374,
                49.18174049307767
            ],
            [
                -123.01425993610553,
                49.19665462910875
            ],
            [
                -123.04584451855429,
                49.20378433729072
            ],
            [
                -123.08034025695842,
                49.20083399854278
            ],
            [
                -123.10103716866728,
                49.19837942510481
            ],
            [
                -123.10156914463668,
                49.19840027664113
            ],
            [
                -123.10155930128133,
                49.19839940240124
            ],
            [
                -123.10156999350892,
                49.19839998331574
            ],
            [
                -123.10158045510168,
                49.19840074401983
            ],
            [
                -123.10156142480002,
                49.198388511873475
            ],
            [
                -123.10157958617133,
                49.198389841833354
            ],
            [
                -123.10156913244276,
                49.198394961906054
            ],
            [
                -123.10155958194413,
                49.19838964137439
            ],
            [
                -123.10157256111299,
                49.19840317609486
            ],
            [
                -123.10157967634416,
                49.19839255916271
            ],
            [
                -123.10156437282085,
                49.19837067585732
            ],
            [
                -123.10158005770542,
                49.19839902619548
            ],
            [
                -123.10157948554063,
                49.19839017338213
            ],
            [
                -123.10158107215203,
                49.198400091723876
            ],
            [
                -123.1015747671153,
                49.19840545820438
            ],
            [
                -123.10157906129633,
                49.19840087034211
            ],
            [
                -123.1015798221942,
                49.198408648612784
            ],
            [
                -123.1015768357895,
                49.198397997590504
            ],
            [
                -123.10157948473633,
                49.19838901303247
            ],
            [
                -123.1015699060436,
                49.19838997171484
            ],
            [
                -123.10158401039394,
                49.19839320288272
            ],
            [
                -123.10157927650523,
                49.198399174727946
            ],
            [
                -123.10157993156514,
                49.1983997723643
            ],
            [
                -123.10159308584171,
                49.19840659943553
            ],
            [
                -123.10157873479747,
                49.19840113071281
            ],
            [
                -123.10157997254711,
                49.19839998193155
            ],
            [
                -123.10159888432368,
                49.19841785453731
            ],
            [
                -123.10157973484968,
                49.19841968656018
            ],
            [
                -123.10157786022512,
                49.19842153865865
            ],
            [
                -123.10157893599259,
                49.198409714215536
            ],
            [
                -123.10158982407255,
                49.19839999575979
            ],
            [
                -123.1015796368188,
                49.19841735090844
            ],
            [
                -123.10157280525291,
                49.198410605475715
            ],
            [
                -123.10159530837652,
                49.198406655688935
            ],
            [
                -123.10159093449668,
                49.198410205943084
            ],
            [
                -123.1015797146118,
                49.19841058316596
            ],
            [
                -123.10156893467014,
                49.198408202190905
            ],
            [
                -123.10157992666424,
                49.198408857563344
            ],
            [
                -123.10156929870107,
                49.1984102989441
            ],
            [
                -123.10156917958332,
                49.19842082791604
            ],
            [
                -123.10158047883286,
                49.19842003488913
            ],
            [
                -123.10157010959725,
                49.19840959587169
            ],
            [
                -123.10157662670905,
                49.19840121441381
            ],
            [
                -123.10157018462414,
                49.19840023677241
            ],
            [
                -123.10156886884414,
                49.198410087383635
            ],
            [
                -123.10157031172723,
                49.198410005198376
            ],
            [
                -123.10158,
                49.1984
            ]
        ]
    },
    "properties": {
        "trajectory_id": 705,
        "object_id": 316005616,
        "label": "TUG"
    }
}