{
    "type": "Feature",
    "geometry": {
        "type": "LineString",
        "coordinates": [
            [
                -122.53257,
                47.69769
            ],
            [
                -122.53253997903255,
                47.69768993765831
            ],
            [
                -122.53254977653833,
                47.69768997720215
            ],
            [
                -122.5325387996743,
                47.697690870085005
            ],
            [
                -122.5325299679938,
                47.697679174344664
            ],
            [
                -122.53253044309571,
                47.69768328115952
            ],
            [
                -122.53249393594122,
                47.697672591568676
            ],
            [
                -122.53252007093816,
                47.69770633489414
            ],
            [
                -122.53256099542472,
                47.6977266680414
            ],
            [
                -122.53254624308498,
                47.697707701419574
            ],
            [
                -122.53254901351957,
                47.69765971166912
            ],
            [
                -122.53253052369301,
                47.697652735462285
            ],
            [
                -122.53252696202509,
                47.697660140556906
            ],
            [
                -122.53257336756947,
                47.69768186066604
            ],
            [
                -122.53258464221193,
                47.69767698399458
            ],
            [
                -122.53260194594375,
                47.69764845997671
            ],
            [
                -122.53257913514062,
                47.69764083246676
            ],
            [
                -122.532558671638,
                47.697677911577756
            ],
            [
                -122.53255283779441,
                47.697654603881816
            ],
            [
                -122.53256471967407,
                47.697647531476186
            ],
            [
                -122.53256147276078,
                47.69768479517226
            ],
            [
                -122.53255491969455,
                47.69767668738898
            ],
            [
                -122.53256029384531,
                47.69767159485282
            ],
            [
                -122.53257011400483,
                47.69765991393789
            ],
            [
                -122.53253980763931,
                47.697669595090666
            ],
            [
                -122.53256980449918,
                47.697709947105906
            ],
            [
                -122.53257026425925,
                47.69770987453422
            ],
            [
                -122.53253989433031,
                47.69767995087423
            ],
            [
                -122.53257745801896,
                47.69767489318111
            ],
            [
                -122.53253510106485,
                47.697682526392505
            ],
            [
                -122.53252061347145,
                47.697691889386505
            ],
            [
                -122.53251284690839,
                47.69769813256857
            ],
            [
                -122.5325210799515,
                47.697702196591855
            ],
            [
                -122.53252387783488,
                47.697690768552434
            ],
            [
                -122.53254923552679,
                47.69767997812435
            ],
            [
                -122.53255158523444,
                47.69767858816306
            ],
            [
                -122.53254620834132,
                47.697685272913596
            ],
            [
                -122.53255462187549,
                47.6976802696291
            ],
            [
                -122.53254959234833,
                47.697680136068655
            ],
            [
                -122.53254892509693,
                47.69767570463922
            ],
            [
                -122.53256271862928,
                47.69769550059136
            ],
            [
                -122.5325709926861,
                47.69770868724089
            ],
            [
                -122.53253848018669,
                47.697685553632404
            ],
            [
                -122.53253927148813,
                47.697689099567725
            ],
            [
                -122.53253978672335,
                47.69773044673458
            ],
            [
                -122.53257051068574,
                47.69771239353566
            ],
            [
                -122.532540260706,
                47.69769092587995
            ],
            [
                -122.53255002898236,
                47.697680936621246
            ],
            [
                -122.53252445098177,
                47.697701283538684
            ],
            [
                -122.53252474354619,
                47.697697355531986
            ],
            [
                -122.53256658641786,
                47.69768903259191
            ],
            [
                -122.5325526395325,
                47.697692176851646
            ],
            [
                -122.53251160050431,
                47.697685353061814
            ],
            [
                -122.5325240827109,
                47.69768969449458
            ],
            [
                -122.53253008976804,
                47.697713493191905
            ],
            [
                -122.53254119814078,
                47.69768423003418
            ],
            [
                -122.53255111772515,
                47.69768937815967
            ],
            [
                -122.53254218490856,
                47.697675049128904
            ],
            [
                -122.53255017466961,
                47.697671461533055
            ],
            [
                -122.53253451336398,
                47.69768846220467
            ],
            [
                -122.53256919579829,
                47.697678277861314
            ],
            [
                -122.53255823570545,
                47.69768736219718
            ],
            [
                -122.5325208887287,
                47.6976688523572
            ],
            [
                -122.53250224530302,
                47.69765871483486
            ],
            [
                -122.53254724090088,
                47.69768953776779
            ],
            [
                -122.53255980299066,
                47.69767950720304
            ],
            [
                -122.53254898115904,
                47.69769360110883
            ],
            [
                -122.53255093549552,
                47.6976714411261
            ],
            [
                -122.53253967149641,
                47.69764973094022
            ],
            [
                -122.53255011782133,
                47.69767982332468
            ],
            [
                -122.5325669306225,
                47.69768819789113
            ],
            [
                -122.5325199548451,
                47.697679960584416
            ],
            [
                -122.53248170942955,
                47.69769538394446
            ],
            [
                -122.5325487073178,
                47.69769001815236
            ],
            [
                -122.53256220388174,
                47.69768501322974
            ],
            [
                -122.5325601232577,
                47.69767995735958
            ],
            [
                -122.53255915580421,
                47.6976919368998
            ],
            [
                -122.53251885668719,
                47.69768020204002
            ],
            [
                -122.53256237203996,
                47.697658312537584
            ],
            [
                -122.53255677182057,
                47.69767833089084
            ],
            [
                -122.53255227266727,
                47.69766473678035
            ],
            [
                -122.532568752133,
                47.69768365164901
            ],
            [
                -122.53254605652278,
                47.69766633310012
            ],
            [
                -122.53261225818565,
                47.697655738711646
            ],
            [
                -122.53252809155815,
                47.69767946836651
            ],
            [
                -122.53253721181792,
                47.69768800610729
            ],
            [
                -122.53255245413794,
                47.69769227509745
            ],
            [
                -122.53256237497959,
                47.697696913900174
            ],
            [
                -122.53253769380007,
                47.69769177188856
            ],
            [
                -122.53255914087906,
                47.69771235048059
            ],
            [
                -122.53253662431527,
                47.69769268753057
            ],
            [
                -122.53254023806406,
                47.69769804569747
            ],
            [
                -122.53253394615315,
                47.69768458936635
            ],
            [
                -122.5325443646396,
                47.69769027492854
            ],
            [
                -122.53254801205912,
                47.69767016098111
            ],
            [
                -122.53254797458304,
                47.69766947597725
            ],
            [
                -122.53255077811703,
                47.69766929851016
            ],
            [
                -122.53320722922707,
                47.69722924944784
            ],
            [
                -122.52952633955579,
                47.7006849745649
            ],
            [
                -122.48521130371631,
                47.70367842578911
            ],
            [
                -122.41377857009047,
                47.67676860833427
            ],
            [
                -122.39946982000264,
                47.66599766713939
            ],
            [
                -122.39685556712855,
                47.66538243574702
            ],
            [
                -122.38296728127564,
                47.66166169747121
            ],
            [
                -122.35749170182318,
                47.651114896471455
            ],
            [
                -122.34559713080641,
                47.64534933066671
            ],
            [
                -122.32991045124525,
                47.64622616356557
            ],
            [
                -122.31148217147081,
                47.64490068230463
            ],
            [
                -122.31069198420779,
                47.64524580602138
            ],
            [
                -122.31066938402658,
                47.64526941368158
            ],
            [
                -122.31068946125829,
                47.6452527589315
            ],
            [
                -122.3106993080421,
                47.64525862763548
            ],
            [
                -122.31068890441536,
                47.645255678871074
            ],
            [
                -122.3106994833496,
                47.64525881977004
            ],
            [
                -122.31072349744564,
                47.64526044455201
            ],
            [
                -122.31073025507804,
                47.64526999872127
            ],
            [
                -122.31072811488966,
                47.6452702036368
            ],
            [
                -122.3106876844154,
                47.645281190803644
            ],
            [
                -122.31070006646519,
                47.645249975235046
            ],
            [
                -122.31069,
                47.64529
            ]
        ]
    },
    "properties": {
        "trajectory_id": 7054,
        "object_id": 368222780,
        "label": "PLEASURE CRAFT"
    }
}