{
    "type": "Feature",
    "geometry": {
        "type": "LineString",
        "coordinates": [
            [
                -122.33547,
                47.62746
            ],
            [
                -122.3354400627662,
                47.62746030616454
            ],
            [
                -122.33542007366628,
                47.62746997534257
            ],
            [
                -122.33544001333709,
                47.627460007675964
            ],
            [
                -122.33545853869941,
                47.627460132237594
            ],
            [
                -122.33547006396894,
                47.627480634568634
            ],
            [
                -122.33548296395881,
                47.62744548450274
            ],
            [
                -122.33545592992174,
                47.627493669387206
            ],
            [
                -122.33546193398358,
                47.62747640760436
            ],
            [
                -122.3354627706119,
                47.62744790588705
            ],
            [
                -122.33545953101593,
                47.62745940721198
            ],
            [
                -122.33545682939344,
                47.62744148197187
            ],
            [
                -122.33544181369666,
                47.62744001015844
            ],
            [
                -122.33548804141472,
                47.62744593552996
            ],
            [
                -122.33545519090954,
                47.627442011931464
            ],
            [
                -122.3354771626879,
                47.62742727579807
            ],
            [
                -122.33546303618306,
                47.62743427752165
            ],
            [
                -122.33544377556635,
                47.62744630048282
            ],
            [
                -122.33545194655846,
                47.62743904949281
            ],
            [
                -122.3354996263252,
                47.62744213503246
            ],
            [
                -122.33550320626209,
                47.62743619394733
            ],
            [
                -122.33546475149399,
                47.62744684510705
            ],
            [
                -122.33550701080921,
                47.62745878740334
            ],
            [
                -122.33547271922458,
                47.627443978737176
            ],
            [
                -122.33548049398686,
                47.627444469911914
            ],
            [
                -122.33547566548782,
                47.62746009606532
            ],
            [
                -122.33544885695642,
                47.62745009398034
            ],
            [
                -122.33547923935173,
                47.62746293264683
            ],
            [
                -122.33543858455972,
                47.62746366059096
            ],
            [
                -122.33545382219005,
                47.62743719031207
            ],
            [
                -122.33544878362854,
                47.62744960499132
            ],
            [
                -122.33545747716337,
                47.62743930474012
            ],
            [
                -122.33546175218922,
                47.62745483684265
            ],
            [
                -122.33545328954722,
                47.627439554921516
            ],
            [
                -122.3354411491592,
                47.62745574553608
            ],
            [
                -122.33543236317061,
                47.62745179070861
            ],
            [
                -122.33545500914192,
                47.62745458889925
            ],
            [
                -122.33546882529411,
                47.62744351956333
            ],
            [
                -122.33545957301159,
                47.627445428727
            ],
            [
                -122.3354491941344,
                47.62745689565981
            ],
            [
                -122.33546025246416,
                47.627460208568024
            ],
            [
                -122.33544737153298,
                47.6274715444326
            ],
            [
                -122.33543649549337,
                47.627458682097554
            ],
            [
                -122.33545912918044,
                47.62748077596093
            ],
            [
                -122.33545403927224,
                47.62748577107661
            ],
            [
                -122.33543844641895,
                47.627472308835806
            ],
            [
                -122.33543730495715,
                47.627461073988364
            ],
            [
                -122.33545716063186,
                47.62746857411711
            ],
            [
                -122.33546393530459,
                47.627477524393825
            ],
            [
                -122.33546633423238,
                47.62744976805435
            ],
            [
                -122.33546027681402,
                47.62744827005867
            ],
            [
                -122.33545371742937,
                47.62746171279799
            ],
            [
                -122.33546824206837,
                47.62746831537282
            ],
            [
                -122.33544824938693,
                47.627448842361396
            ],
            [
                -122.33543889934603,
                47.627448867259005
            ],
            [
                -122.33543775825801,
                47.62745899777216
            ],
            [
                -122.3354587449867,
                47.62743811464269
            ],
            [
                -122.3354506732259,
                47.62743984198252
            ],
            [
                -122.33545865203044,
                47.62745966811472
            ],
            [
                -122.33543004269328,
                47.62744009704894
            ],
            [
                -122.33546055083059,
                47.627449881716615
            ],
            [
                -122.33543679952746,
                47.62745687949621
            ],
            [
                -122.33547228296702,
                47.627450614428845
            ],
            [
                -122.33548576162201,
                47.62744189285471
            ],
            [
                -122.33546868907918,
                47.62743999769456
            ],
            [
                -122.33546098005507,
                47.62743984479281
            ],
            [
                -122.33543898701689,
                47.627441689619275
            ],
            [
                -122.33543887025239,
                47.62745088254713
            ],
            [
                -122.33546898154584,
                47.62745048330646
            ],
            [
                -122.33546778101437,
                47.627450839126425
            ],
            [
                -122.3354502087986,
                47.62745000492552
            ],
            [
                -122.33547018283566,
                47.627450092783796
            ],
            [
                -122.33545066440931,
                47.62745211046417
            ],
            [
                -122.33543980890228,
                47.62747309935901
            ],
            [
                -122.33545799491749,
                47.627448797761396
            ],
            [
                -122.33543278731985,
                47.627439717494575
            ],
            [
                -122.33544561677814,
                47.62743906340062
            ],
            [
                -122.33545087756958,
                47.62743247239555
            ],
            [
                -122.3354395773606,
                47.62745404255022
            ],
            [
                -122.33546645693397,
                47.62744342648924
            ],
            [
                -122.33545373096564,
                47.62745858344995
            ],
            [
                -122.33546417622466,
                47.627445789184286
            ],
            [
                -122.33545747268411,
                47.627461198654345
            ],
            [
                -122.33544625613987,
                47.627445482032705
            ],
            [
                -122.33544880628216,
                47.62745617358921
            ],
            [
                -122.33545197261037,
                47.62744701176154
            ],
            [
                -122.33547350258178,
                47.62745144545732
            ],
            [
                -122.33546902460921,
                47.62745964093609
            ],
            [
                -122.33546188367042,
                47.62747947417792
            ],
            [
                -122.33545979265246,
                47.6274246341228
            ],
            [
                -122.33542659736919,
                47.62745592621448
            ],
            [
                -122.33543428817002,
                47.627449961940705
            ],
            [
                -122.33546124954516,
                47.62743383851547
            ],
            [
                -122.3354326427679,
                47.62745518720584
            ],
            [
                -122.33545279520972,
                47.627455543570875
            ],
            [
                -122.33546911753373,
                47.62743077614307
            ],
            [
                -122.33546146294519,
                47.627461419202405
            ],
            [
                -122.33543332666099,
                47.62745952377928
            ],
            [
                -122.33546073332066,
                47.627442451892996
            ],
            [
                -122.33547610690603,
                47.627457756476794
            ],
            [
                -122.3354763891731,
                47.62742263180532
            ],
            [
                -122.33546886858302,
                47.627459381486084
            ],
            [
                -122.3354576375251,
                47.62746538263532
            ],
            [
                -122.33549044279405,
                47.62745013493165
            ],
            [
                -122.33546675817948,
                47.62745688047894
            ],
            [
                -122.33547848607304,
                47.627441968298896
            ],
            [
                -122.33547145274866,
                47.62745339100119
            ],
            [
                -122.33547271392088,
                47.62744241964863
            ],
            [
                -122.33546731683253,
                47.627459027036785
            ],
            [
                -122.3354712784244,
                47.6274342933531
            ],
            [
                -122.33546297382676,
                47.62744032521787
            ],
            [
                -122.33546038203284,
                47.6274506786289
            ],
            [
                -122.33546964632178,
                47.62745102947013
            ],
            [
                -122.33547956910415,
                47.62745957878394
            ],
            [
                -122.3354712856361,
                47.62746171376049
            ],
            [
                -122.33545960769227,
                47.627451338666546
            ],
            [
                -122.33547015402365,
                47.62744930917495
            ],
            [
                -122.33546061855716,
                47.62745005769433
            ],
            [
                -122.33549001092004,
                47.62743986716052
            ],
            [
                -122.33551,
                47.62746
            ]
        ]
    },
    "properties": {
        "trajectory_id": 7072,
        "object_id": 368224370,
        "label": "PLEASURE CRAFT"
    }
}