{
    "type": "Feature",
    "geometry": {
        "type": "LineString",
        "coordinates": [
            [
                -122.31845,
                47.65347
            ],
            [
                -122.31839955409309,
                47.65345996011764
            ],
            [
                -122.31838373097355,
                47.653417671324924
            ],
            [
                -122.31829308890649,
                47.65341917197209
            ],
            [
                -122.31830366983353,
                47.6535598645825
            ],
            [
                -122.31820085493715,
                47.6534478313474
            ],
            [
                -122.3183118359073,
                47.65346277883068
            ],
            [
                -122.31832331891458,
                47.65343085198607
            ],
            [
                -122.31822139724306,
                47.653443822707786
            ],
            [
                -122.31830238218525,
                47.653445296672956
            ],
            [
                -122.31831312615732,
                47.65341436318632
            ],
            [
                -122.31839321816358,
                47.65339483746464
            ],
            [
                -122.31829723670252,
                47.653418277250275
            ],
            [
                -122.31820866848528,
                47.653450429210665
            ],
            [
                -122.3184715534491,
                47.65350047147098
            ],
            [
                -122.31829763063793,
                47.65343481524857
            ],
            [
                -122.31835117874002,
                47.65356186761088
            ],
            [
                -122.31835967252775,
                47.65348907431194
            ],
            [
                -122.31830817851404,
                47.653527147642286
            ],
            [
                -122.3183978071606,
                47.65340702937022
            ],
            [
                -122.31830782818479,
                47.653483929412985
            ],
            [
                -122.31836145613912,
                47.65352514680095
            ],
            [
                -122.3183077811532,
                47.65346666664288
            ],
            [
                -122.31829465900708,
                47.65345086270493
            ],
            [
                -122.31822808742749,
                47.65348167459761
            ],
            [
                -122.31823947376701,
                47.65343858508387
            ],
            [
                -122.3183367225831,
                47.653399087947726
            ],
            [
                -122.31835050367481,
                47.65343953704423
            ],
            [
                -122.318408496351,
                47.65338060972981
            ],
            [
                -122.3183022513539,
                47.653397539009504
            ],
            [
                -122.31837710251547,
                47.65342920675156
            ],
            [
                -122.31830883257174,
                47.65344858292717
            ],
            [
                -122.31825039127392,
                47.65342081092964
            ],
            [
                -122.31822089484429,
                47.653450230548366
            ],
            [
                -122.31832044668985,
                47.653458980225736
            ],
            [
                -122.31829265688658,
                47.65345021653018
            ],
            [
                -122.31832410892264,
                47.65348180425741
            ],
            [
                -122.31842886799765,
                47.65343035361925
            ],
            [
                -122.31834760467409,
                47.653489807096015
            ],
            [
                -122.31839838515425,
                47.653451298139515
            ],
            [
                -122.31832303717565,
                47.65346347391903
            ],
            [
                -122.31837850026173,
                47.653489661189184
            ],
            [
                -122.31822730664985,
                47.65339902694311
            ],
            [
                -122.31831106775817,
                47.6534702389884
            ],
            [
                -122.3182464073033,
                47.653397257460554
            ],
            [
                -122.31839644822729,
                47.6535091048432
            ],
            [
                -122.31825881045287,
                47.65339923640646
            ],
            [
                -122.31829141369775,
                47.65339692711485
            ],
            [
                -122.31824479238927,
                47.65333764926531
            ],
            [
                -122.31803016678519,
                47.65336927755511
            ],
            [
                -122.31817835894418,
                47.65341060897208
            ],
            [
                -122.31825662424446,
                47.65328291093157
            ],
            [
                -122.31839481897968,
                47.65339575508908
            ],
            [
                -122.318428245939,
                47.65345394381511
            ],
            [
                -122.3183116830733,
                47.653483379490886
            ],
            [
                -122.3183003130821,
                47.65352187678248
            ],
            [
                -122.31835180520065,
                47.65352300548044
            ],
            [
                -122.31829485342507,
                47.65342403202155
            ],
            [
                -122.31839940035412,
                47.6534854161643
            ],
            [
                -122.3183809243368,
                47.65352694706213
            ],
            [
                -122.31819870194632,
                47.65332920789238
            ],
            [
                -122.31834178723462,
                47.65344711685539
            ],
            [
                -122.31819351015528,
                47.65341429609174
            ],
            [
                -122.31830447622505,
                47.65347817169555
            ],
            [
                -122.3183380164424,
                47.653476909388615
            ],
            [
                -122.31834557487927,
                47.653448683467104
            ],
            [
                -122.31834012406075,
                47.6534541644986
            ],
            [
                -122.31831937691646,
                47.653386135431184
            ],
            [
                -122.31837700708874,
                47.65338663385696
            ],
            [
                -122.3183893679124,
                47.65345172512376
            ],
            [
                -122.3183561926479,
                47.653485715884905
            ],
            [
                -122.3183251959204,
                47.65345316953322
            ],
            [
                -122.31838345922482,
                47.65349315202711
            ],
            [
                -122.31826140587012,
                47.65354911873961
            ],
            [
                -122.31838673161927,
                47.653429101335036
            ],
            [
                -122.31834901662583,
                47.65338191020185
            ],
            [
                -122.31836016251123,
                47.653470049081285
            ],
            [
                -122.31819040553205,
                47.65343032442646
            ],
            [
                -122.31830152077201,
                47.65342864977597
            ],
            [
                -122.31825728315992,
                47.653443503117785
            ],
            [
                -122.31826661065921,
                47.6533304888713
            ],
            [
                -122.31835591180372,
                47.6533711292559
            ],
            [
                -122.31827513822736,
                47.653390343957454
            ],
            [
                -122.31825331008804,
                47.65343951820204
            ],
            [
                -122.31832092393881,
                47.65332073504088
            ],
            [
                -122.31810010600404,
                47.65339760014958
            ],
            [
                -122.31825989381967,
                47.65338025741326
            ],
            [
                -122.31831932943975,
                47.65342167723778
            ],
            [
                -122.31823058011625,
                47.65340069355787
            ],
            [
                -122.31818227140383,
                47.65341314998705
            ],
            [
                -122.31828937671325,
                47.65341808160759
            ],
            [
                -122.31828798103945,
                47.653410518784966
            ],
            [
                -122.31829698958356,
                47.65348665959205
            ],
            [
                -122.31831723947522,
                47.65344689956987
            ],
            [
                -122.31834627275781,
                47.65347983146369
            ],
            [
                -122.31832190141954,
                47.65352533582956
            ],
            [
                -122.31828939522032,
                47.65348241329891
            ],
            [
                -122.31834671722403,
                47.65351270169613
            ],
            [
                -122.31821450266958,
                47.65346086082057
            ],
            [
                -122.31818939490029,
                47.65342877779086
            ],
            [
                -122.31827291393498,
                47.65338675264065
            ],
            [
                -122.31834190110156,
                47.65340632287472
            ],
            [
                -122.31830376885702,
                47.653390300582565
            ],
            [
                -122.31826948139789,
                47.65344027048101
            ],
            [
                -122.31836512954563,
                47.65349169689441
            ],
            [
                -122.31836008657046,
                47.65343047993259
            ],
            [
                -122.31830563262571,
                47.65346780613081
            ],
            [
                -122.31827426190476,
                47.653463837306674
            ],
            [
                -122.31827740262956,
                47.65342560415289
            ],
            [
                -122.31838197104457,
                47.653448898587186
            ],
            [
                -122.31824940435494,
                47.6534445171336
            ],
            [
                -122.31822281717596,
                47.65350713276867
            ],
            [
                -122.31823936111164,
                47.65338596000801
            ],
            [
                -122.3183470925732,
                47.6535005112929
            ],
            [
                -122.31833913383991,
                47.65348666654156
            ],
            [
                -122.31835895533028,
                47.653509844981016
            ],
            [
                -122.31844644243508,
                47.653572384490474
            ],
            [
                -122.31836884671168,
                47.65349348678894
            ],
            [
                -122.3183009261916,
                47.65352024610618
            ],
            [
                -122.31828,
                47.65347
            ]
        ]
    },
    "properties": {
        "trajectory_id": 7093,
        "object_id": 368231020,
        "label": "PLEASURE CRAFT"
    }
}