{
    "type": "Feature",
    "geometry": {
        "type": "LineString",
        "coordinates": [
            [
                -122.87981,
                49.29247
            ],
            [
                -122.87983899580145,
                49.292549570292564
            ],
            [
                -122.87992927107524,
                49.29267099053635
            ],
            [
                -122.87977018330628,
                49.29253009188129
            ],
            [
                -122.87980471527811,
                49.29249496308813
            ],
            [
                -122.87985530300665,
                49.292507159351885
            ],
            [
                -122.88015502988449,
                49.292444086072535
            ],
            [
                -122.8797950984234,
                49.29240956784646
            ],
            [
                -122.87983727145114,
                49.29254209177982
            ],
            [
                -122.87988884186497,
                49.2925771864977
            ],
            [
                -122.87992791257015,
                49.292552953751716
            ],
            [
                -122.87979646604111,
                49.29254641715385
            ],
            [
                -122.87976913689586,
                49.29255309172488
            ],
            [
                -122.87984556341402,
                49.29254420978446
            ],
            [
                -122.87987412737161,
                49.29257274269994
            ],
            [
                -122.87976889818822,
                49.292591617151636
            ],
            [
                -122.87984982402395,
                49.292513961873695
            ],
            [
                -122.8797533608933,
                49.29260503094153
            ],
            [
                -122.87965500640382,
                49.29234238125134
            ],
            [
                -122.87974763506718,
                49.29265733976646
            ],
            [
                -122.87982804307792,
                49.29261809325586
            ],
            [
                -122.87984807549408,
                49.29253910749587
            ],
            [
                -122.87989164765146,
                49.292496835873244
            ],
            [
                -122.87987988461944,
                49.29252465479325
            ],
            [
                -122.87991841837176,
                49.29251152613807
            ],
            [
                -122.87978795670436,
                49.29256103935363
            ],
            [
                -122.87975840217526,
                49.29257875865766
            ],
            [
                -122.87972044010709,
                49.29255439485237
            ],
            [
                -122.87984642648307,
                49.29262729688412
            ],
            [
                -122.87978551425138,
                49.292576882276045
            ],
            [
                -122.87982041517802,
                49.292607650283486
            ],
            [
                -122.87995494119119,
                49.29256836380243
            ],
            [
                -122.87978315554045,
                49.29252887653248
            ],
            [
                -122.8798292574152,
                49.292516495733906
            ],
            [
                -122.8798748514024,
                49.29258515346362
            ],
            [
                -122.8798468916712,
                49.29250410933649
            ],
            [
                -122.87979285247512,
                49.292437957383044
            ],
            [
                -122.87978713491918,
                49.29256832197932
            ],
            [
                -122.87984780885898,
                49.29254267525811
            ],
            [
                -122.8797021283796,
                49.29257331682899
            ],
            [
                -122.8797962529687,
                49.29260931241005
            ],
            [
                -122.87973371820429,
                49.2925600602649
            ],
            [
                -122.87976265614492,
                49.292547751259754
            ],
            [
                -122.87975732481355,
                49.292477525458075
            ],
            [
                -122.87949265832209,
                49.29228073399887
            ],
            [
                -122.87955370055039,
                49.29221806061565
            ],
            [
                -122.87951354217128,
                49.292702173128724
            ],
            [
                -122.87971165256869,
                49.292522257378955
            ],
            [
                -122.87996829305465,
                49.29260613515201
            ],
            [
                -122.87986068225803,
                49.292596367755884
            ],
            [
                -122.87979966039859,
                49.292576241955246
            ],
            [
                -122.8798951480777,
                49.292519744734854
            ],
            [
                -122.87981659547478,
                49.292459312965036
            ],
            [
                -122.8797403195043,
                49.29261256500337
            ],
            [
                -122.87991301265126,
                49.29249381085462
            ],
            [
                -122.87969027458722,
                49.292501119316114
            ],
            [
                -122.87957016738959,
                49.29255165561514
            ],
            [
                -122.88008901248209,
                49.292551874702966
            ],
            [
                -122.87979915218598,
                49.29257436375603
            ],
            [
                -122.8797300657413,
                49.29236535563796
            ],
            [
                -122.87984727143726,
                49.29253901769956
            ],
            [
                -122.87978557767923,
                49.2925724169292
            ],
            [
                -122.87980000994995,
                49.292610480036814
            ],
            [
                -122.87989773947852,
                49.29260769884936
            ],
            [
                -122.87981753047603,
                49.29250904287617
            ],
            [
                -122.87980498236973,
                49.2925464012185
            ],
            [
                -122.8797330797709,
                49.292472524540976
            ],
            [
                -122.87972680583185,
                49.29256633969156
            ],
            [
                -122.87981383022807,
                49.29254987599274
            ],
            [
                -122.87976051154901,
                49.29261168123548
            ],
            [
                -122.87986867509208,
                49.29256929999621
            ],
            [
                -122.87974202058743,
                49.29253456894684
            ],
            [
                -122.8797474629756,
                49.29255642145228
            ],
            [
                -122.87987769260278,
                49.292489560630514
            ],
            [
                -122.87989040809802,
                49.29260118695828
            ],
            [
                -122.87975674455075,
                49.29251145099557
            ],
            [
                -122.87972351390142,
                49.292527164428925
            ],
            [
                -122.87982283622468,
                49.292628973352414
            ],
            [
                -122.87970951474514,
                49.29266717603858
            ],
            [
                -122.8798468708382,
                49.2925703598369
            ],
            [
                -122.87989074312544,
                49.29246192905737
            ],
            [
                -122.87972292010512,
                49.29255818658315
            ],
            [
                -122.87980092454491,
                49.292559268271425
            ],
            [
                -122.87966120573759,
                49.29259050242124
            ],
            [
                -122.87988702276269,
                49.292520978652654
            ],
            [
                -122.87987583958606,
                49.29249318501517
            ],
            [
                -122.87985232219977,
                49.2925374389974
            ],
            [
                -122.87979334088133,
                49.29249698693931
            ],
            [
                -122.87977242322901,
                49.29260560601452
            ],
            [
                -122.87977970618633,
                49.292549662102246
            ],
            [
                -122.8797210352932,
                49.29237897250252
            ],
            [
                -122.87986916100837,
                49.29272281749781
            ],
            [
                -122.87975824414798,
                49.29253308699171
            ],
            [
                -122.8798094146802,
                49.29263541327603
            ],
            [
                -122.87978418319558,
                49.29258487226927
            ],
            [
                -122.87979253384223,
                49.29258265858737
            ],
            [
                -122.87982330147172,
                49.29257608751392
            ],
            [
                -122.87992700238958,
                49.29245392253827
            ],
            [
                -122.87980442448429,
                49.29252772266966
            ],
            [
                -122.87963195333525,
                49.292557202958804
            ],
            [
                -122.8797564538377,
                49.29261627527479
            ],
            [
                -122.87994964213533,
                49.2925288950819
            ],
            [
                -122.87986091209541,
                49.29250860080593
            ],
            [
                -122.87973282491528,
                49.292609127058945
            ],
            [
                -122.87982770100906,
                49.29254499244396
            ],
            [
                -122.87985736291398,
                49.29255683401521
            ],
            [
                -122.8798415100557,
                49.29258402770115
            ],
            [
                -122.87979370123301,
                49.29256143766519
            ],
            [
                -122.87977436083966,
                49.29256248190092
            ],
            [
                -122.87985015736913,
                49.29250918173905
            ],
            [
                -122.87992322019281,
                49.29258859683312
            ],
            [
                -122.87976433679476,
                49.292551530932876
            ],
            [
                -122.87967324023974,
                49.29249779890644
            ],
            [
                -122.87978536268803,
                49.29256654780389
            ],
            [
                -122.87984747286828,
                49.29249179001279
            ],
            [
                -122.87979848674203,
                49.29248927887772
            ],
            [
                -122.87998369312122,
                49.29259076398026
            ],
            [
                -122.87986930681232,
                49.29250539086989
            ],
            [
                -122.8798843297257,
                49.29255222937521
            ],
            [
                -122.87987,
                49.29248
            ]
        ]
    },
    "properties": {
        "trajectory_id": 7128,
        "object_id": 368234360,
        "label": "PLEASURE CRAFT"
    }
}