{
    "type": "Feature",
    "geometry": {
        "type": "LineString",
        "coordinates": [
            [
                -122.8798,
                49.29254
            ],
            [
                -122.87989031264458,
                49.292330677342555
            ],
            [
                -122.8798870862466,
                49.292491500558974
            ],
            [
                -122.87982738669149,
                49.29254172217826
            ],
            [
                -122.87989056393477,
                49.2925695315143
            ],
            [
                -122.87980791151469,
                49.29252928926681
            ],
            [
                -122.87997715877196,
                49.29259950175444
            ],
            [
                -122.87992229644084,
                49.29261153175749
            ],
            [
                -122.87987832850183,
                49.29255155582515
            ],
            [
                -122.8797903567833,
                49.292498743114415
            ],
            [
                -122.87978519731132,
                49.292407050261616
            ],
            [
                -122.87989751209203,
                49.29254332678367
            ],
            [
                -122.87987263941399,
                49.29253506603265
            ],
            [
                -122.87980120056972,
                49.2925567641169
            ],
            [
                -122.8797841378291,
                49.29256797126465
            ],
            [
                -122.87980890041067,
                49.29256468914596
            ],
            [
                -122.8797564755837,
                49.292564183715314
            ],
            [
                -122.87997466991266,
                49.29265025044336
            ],
            [
                -122.8798401220092,
                49.292597079104176
            ],
            [
                -122.87983883560709,
                49.29259523432325
            ],
            [
                -122.87983905215887,
                49.29258738302639
            ],
            [
                -122.87992933490685,
                49.29247599211227
            ],
            [
                -122.87993206652507,
                49.292553974270135
            ],
            [
                -122.87973831304771,
                49.29254337739729
            ],
            [
                -122.87974525388911,
                49.292542011039465
            ],
            [
                -122.87980320189293,
                49.29258121296465
            ],
            [
                -122.87968200558528,
                49.29252391472364
            ],
            [
                -122.8797521146449,
                49.29253088752993
            ],
            [
                -122.87991806397926,
                49.29267125607593
            ],
            [
                -122.88009249242522,
                49.29276599889918
            ],
            [
                -122.87983005176682,
                49.29257116405538
            ],
            [
                -122.87986081437604,
                49.292558176940666
            ],
            [
                -122.8799170425397,
                49.29247416005944
            ],
            [
                -122.87988480368783,
                49.29251524424977
            ],
            [
                -122.87977738866812,
                49.29264705462902
            ],
            [
                -122.87975891426346,
                49.29267663290483
            ],
            [
                -122.8798412150379,
                49.29257592117122
            ],
            [
                -122.8797250195079,
                49.29247001279096
            ],
            [
                -122.879798849456,
                49.29254488913117
            ],
            [
                -122.87987564872967,
                49.29258957940634
            ],
            [
                -122.87976975754066,
                49.292493331112325
            ],
            [
                -122.87978220936859,
                49.292539290320306
            ],
            [
                -122.87993396258587,
                49.29257088758087
            ],
            [
                -122.87984039872222,
                49.292625613573165
            ],
            [
                -122.87980834180766,
                49.29267704759495
            ],
            [
                -122.87956947514547,
                49.292581031292926
            ],
            [
                -122.87981027123898,
                49.29259016899939
            ],
            [
                -122.87981799496434,
                49.2926127308903
            ],
            [
                -122.87988778733707,
                49.292558841450074
            ],
            [
                -122.87976821338577,
                49.29249871723274
            ],
            [
                -122.87983672180944,
                49.29249391974368
            ],
            [
                -122.87983901984357,
                49.29253949161993
            ],
            [
                -122.8798797981972,
                49.292600431515204
            ],
            [
                -122.8799328715821,
                49.292481763858305
            ],
            [
                -122.87994127946426,
                49.292613115992076
            ],
            [
                -122.87981370208013,
                49.29274313761381
            ],
            [
                -122.87987418835223,
                49.29262716808247
            ],
            [
                -122.8798275913958,
                49.29257907057795
            ],
            [
                -122.87985500560994,
                49.29281152495678
            ],
            [
                -122.87986645457876,
                49.29248304359273
            ],
            [
                -122.87964559781068,
                49.29343428851864
            ],
            [
                -122.87949614402395,
                49.29371228110531
            ],
            [
                -122.87947088060326,
                49.293467380169574
            ],
            [
                -122.879618753416,
                49.29286608993613
            ],
            [
                -122.87980524050664,
                49.292530420182175
            ],
            [
                -122.87969385239448,
                49.29255324941764
            ],
            [
                -122.87978792360256,
                49.292582954929244
            ],
            [
                -122.87974631100235,
                49.2925509304166
            ],
            [
                -122.87985647661625,
                49.29264331079949
            ],
            [
                -122.87987932245169,
                49.29254635140468
            ],
            [
                -122.87974316094696,
                49.292479891490935
            ],
            [
                -122.8797482639493,
                49.2925100477175
            ],
            [
                -122.8798202013263,
                49.292558145555226
            ],
            [
                -122.8797212725601,
                49.29249807588335
            ],
            [
                -122.87978846480196,
                49.29267512809528
            ],
            [
                -122.8798207149918,
                49.29266880225878
            ],
            [
                -122.87968833426378,
                49.29261705495962
            ],
            [
                -122.87981522440914,
                49.29254877514952
            ],
            [
                -122.87988317865502,
                49.2925391699981
            ],
            [
                -122.8798646207483,
                49.29245999930467
            ],
            [
                -122.87974844212818,
                49.29253115067801
            ],
            [
                -122.87980905236354,
                49.29253718328181
            ],
            [
                -122.87985216246906,
                49.29248479374487
            ],
            [
                -122.87986080284395,
                49.29255457155518
            ],
            [
                -122.87972444478619,
                49.292513754168
            ],
            [
                -122.87970055450502,
                49.29250975171717
            ],
            [
                -122.87970705575924,
                49.292473893962146
            ],
            [
                -122.87983146355336,
                49.29247243892992
            ],
            [
                -122.87968441663193,
                49.292483794676016
            ],
            [
                -122.87973091937135,
                49.29258577730441
            ],
            [
                -122.87964949657686,
                49.292667620121925
            ],
            [
                -122.87979505438386,
                49.29262622108212
            ],
            [
                -122.87988690562374,
                49.29253963581433
            ],
            [
                -122.87987123144072,
                49.292611014051246
            ],
            [
                -122.87987156330479,
                49.29255258221218
            ],
            [
                -122.87979424222623,
                49.29244832886276
            ],
            [
                -122.87971736023849,
                49.292554931011914
            ],
            [
                -122.87954912829447,
                49.2927206423329
            ],
            [
                -122.87986986758078,
                49.292436620668795
            ],
            [
                -122.879850047339,
                49.29248205506101
            ],
            [
                -122.87985214108814,
                49.29251964048561
            ],
            [
                -122.87978750623498,
                49.29257841395719
            ],
            [
                -122.87971396262301,
                49.29262450412084
            ],
            [
                -122.87984822108457,
                49.29259002610065
            ],
            [
                -122.87984963618477,
                49.29256959168154
            ],
            [
                -122.87979066262047,
                49.29249864452832
            ],
            [
                -122.879800068229,
                49.29255011332829
            ],
            [
                -122.87984020600133,
                49.292511356169435
            ],
            [
                -122.87986956094234,
                49.29258970353029
            ],
            [
                -122.87988797915882,
                49.29254341255226
            ],
            [
                -122.87971920042224,
                49.29258878880715
            ],
            [
                -122.87976672641292,
                49.2925404952807
            ],
            [
                -122.87986921348215,
                49.292549618063696
            ],
            [
                -122.87989815709577,
                49.292677765787346
            ],
            [
                -122.87993678185866,
                49.2925405521219
            ],
            [
                -122.87986946800088,
                49.29248770854074
            ],
            [
                -122.87974970863935,
                49.29250948295557
            ],
            [
                -122.87983813839278,
                49.29256773944678
            ],
            [
                -122.87981692569325,
                49.29258759325709
            ],
            [
                -122.87977,
                49.29261
            ]
        ]
    },
    "properties": {
        "trajectory_id": 7133,
        "object_id": 368234360,
        "label": "PLEASURE CRAFT"
    }
}