{
    "type": "Feature",
    "geometry": {
        "type": "LineString",
        "coordinates": [
            [
                -122.59999,
                48.49661
            ],
            [
                -122.59999981930852,
                48.49659014230284
            ],
            [
                -122.60000063041807,
                48.49659918194261
            ],
            [
                -122.5999912574891,
                48.49661929820256
            ],
            [
                -122.5999993607512,
                48.496611120715976
            ],
            [
                -122.60000005233533,
                48.49660748717197
            ],
            [
                -122.60000970230017,
                48.49660196328161
            ],
            [
                -122.60001693202742,
                48.49660861692199
            ],
            [
                -122.6000162637726,
                48.496587963655614
            ],
            [
                -122.59999201614215,
                48.4966192654941
            ],
            [
                -122.59997971008795,
                48.49658986503698
            ],
            [
                -122.59999224279478,
                48.49660935667376
            ],
            [
                -122.59997234811591,
                48.49659947615753
            ],
            [
                -122.60001005752093,
                48.49662710431078
            ],
            [
                -122.59998702115321,
                48.49662505405088
            ],
            [
                -122.59998925144089,
                48.496626326159095
            ],
            [
                -122.59998816155012,
                48.49663769956385
            ],
            [
                -122.59999236863818,
                48.496649294370116
            ],
            [
                -122.59999402066208,
                48.49662833756302
            ],
            [
                -122.59998368173447,
                48.49659887359972
            ],
            [
                -122.60000478939696,
                48.49660880935912
            ],
            [
                -122.60000026864807,
                48.49660509301683
            ],
            [
                -122.60000723658827,
                48.49658352061046
            ],
            [
                -122.60001478880832,
                48.49660560917465
            ],
            [
                -122.60000293105523,
                48.49660419163923
            ],
            [
                -122.5999954157818,
                48.49661511716505
            ],
            [
                -122.59999174115843,
                48.49659934299755
            ],
            [
                -122.60000018700356,
                48.49660208877818
            ],
            [
                -122.59999200470507,
                48.496603310163344
            ],
            [
                -122.5999989810769,
                48.49660704062684
            ],
            [
                -122.60001104666784,
                48.496614532892835
            ],
            [
                -122.6000114692044,
                48.49661108182398
            ],
            [
                -122.60000975655939,
                48.4966011419911
            ],
            [
                -122.59999965408164,
                48.496588119222835
            ],
            [
                -122.60001220253189,
                48.496603332247986
            ],
            [
                -122.60000773356583,
                48.49659946000095
            ],
            [
                -122.60001037710582,
                48.496621203864315
            ],
            [
                -122.60000045137653,
                48.49660007639183
            ],
            [
                -122.60000009925415,
                48.49660999758365
            ],
            [
                -122.59999997899351,
                48.49662009387321
            ],
            [
                -122.60000001674906,
                48.4966100009616
            ],
            [
                -122.60000018777937,
                48.496600057932156
            ],
            [
                -122.60000098293,
                48.49662050428846
            ],
            [
                -122.60000209135927,
                48.49662569967355
            ],
            [
                -122.5999949839896,
                48.496624005612425
            ],
            [
                -122.60000039694573,
                48.49661989665672
            ],
            [
                -122.5999978797659,
                48.496608723378195
            ],
            [
                -122.60000019016738,
                48.496610971539226
            ],
            [
                -122.60001890280606,
                48.496603057683046
            ],
            [
                -122.60001022782447,
                48.496600261813256
            ],
            [
                -122.60000757489733,
                48.496613883100316
            ],
            [
                -122.599986076385,
                48.496614968653304
            ],
            [
                -122.60001312487937,
                48.496582590087414
            ],
            [
                -122.59999151482612,
                48.49659328473118
            ],
            [
                -122.59999640695807,
                48.496622321027374
            ],
            [
                -122.59999493859317,
                48.49659841919873
            ],
            [
                -122.59998937870012,
                48.49658987087934
            ],
            [
                -122.59998546598626,
                48.49660468867992
            ],
            [
                -122.59998047272815,
                48.496583345162925
            ],
            [
                -122.59998654397822,
                48.496591141801396
            ],
            [
                -122.60000000134416,
                48.496601993207626
            ],
            [
                -122.5999920182285,
                48.49657791576616
            ],
            [
                -122.59997850376222,
                48.4965591123422
            ],
            [
                -122.59998136308499,
                48.49656977066392
            ],
            [
                -122.60001086119733,
                48.49659931356835
            ],
            [
                -122.60000042873037,
                48.49659896221675
            ],
            [
                -122.59999105707664,
                48.496598104020514
            ],
            [
                -122.59999140726008,
                48.49661343661798
            ],
            [
                -122.60000021137361,
                48.49662083926954
            ],
            [
                -122.60000460233849,
                48.49662023844187
            ],
            [
                -122.60000851077396,
                48.49660961219819
            ],
            [
                -122.59999865071315,
                48.49661853558687
            ],
            [
                -122.59998931135101,
                48.49660983016677
            ],
            [
                -122.6000054014446,
                48.49661042575116
            ],
            [
                -122.60002777218335,
                48.496629103761585
            ],
            [
                -122.59999151858459,
                48.49662880967992
            ],
            [
                -122.60000088299171,
                48.49662067989301
            ],
            [
                -122.60000043302,
                48.49659077687733
            ],
            [
                -122.60001030231638,
                48.49658866448507
            ],
            [
                -122.60002006320126,
                48.496599829590906
            ],
            [
                -122.60002007302806,
                48.49659980286973
            ],
            [
                -122.60003000070466,
                48.496639999452775
            ],
            [
                -122.60002054023664,
                48.49662079687907
            ],
            [
                -122.60001954209663,
                48.496610000949815
            ],
            [
                -122.60003967599923,
                48.49664053916444
            ],
            [
                -122.60002034106371,
                48.496631227118684
            ],
            [
                -122.60004039156762,
                48.4966199053761
            ],
            [
                -122.60000908853596,
                48.4966213971938
            ],
            [
                -122.60002086498365,
                48.496608733561835
            ],
            [
                -122.6000203933027,
                48.496586773024745
            ],
            [
                -122.6000319059937,
                48.496596709397245
            ],
            [
                -122.60001915033023,
                48.49661082406558
            ],
            [
                -122.60002968959868,
                48.496610560151794
            ],
            [
                -122.60002968238373,
                48.49659383816454
            ],
            [
                -122.60004055915451,
                48.49658949584046
            ],
            [
                -122.60002552057435,
                48.496598883512135
            ],
            [
                -122.60002679300159,
                48.49659780600882
            ],
            [
                -122.60001455753566,
                48.49660406593137
            ],
            [
                -122.60000779160559,
                48.49661557414101
            ],
            [
                -122.6000061168972,
                48.49661048501559
            ],
            [
                -122.60000519235582,
                48.49658705370321
            ],
            [
                -122.60002656889729,
                48.49661208282835
            ],
            [
                -122.6000022319915,
                48.4966055449008
            ],
            [
                -122.60001330684669,
                48.49663147241814
            ],
            [
                -122.60001077565275,
                48.496621872991525
            ],
            [
                -122.60002361944865,
                48.49662066497694
            ],
            [
                -122.60003175400155,
                48.49659904319808
            ],
            [
                -122.60002294064802,
                48.496599878751205
            ],
            [
                -122.60003003995071,
                48.49658169414203
            ],
            [
                -122.60003103306765,
                48.496602972884645
            ],
            [
                -122.60002134306723,
                48.496608536732495
            ],
            [
                -122.60001823764068,
                48.49658645342063
            ],
            [
                -122.60000995756671,
                48.49660153098559
            ],
            [
                -122.60001003792412,
                48.49661032288213
            ],
            [
                -122.59999030280429,
                48.496620729722665
            ],
            [
                -122.60002071934841,
                48.4966108777819
            ],
            [
                -122.59999018876888,
                48.49659014935255
            ],
            [
                -122.60002048202807,
                48.49659962173071
            ],
            [
                -122.59999975113416,
                48.49660994761392
            ],
            [
                -122.59998,
                48.4966
            ]
        ]
    },
    "properties": {
        "trajectory_id": 7187,
        "object_id": 368240710,
        "label": "PLEASURE CRAFT"
    }
}