{
    "type": "Feature",
    "geometry": {
        "type": "LineString",
        "coordinates": [
            [
                -123.16732,
                48.57111
            ],
            [
                -123.16733327718774,
                48.571135182184676
            ],
            [
                -123.1673025640379,
                48.571244222158526
            ],
            [
                -123.16735544486718,
                48.57110262273276
            ],
            [
                -123.16737037609951,
                48.5710794804476
            ],
            [
                -123.16731003662488,
                48.5710806092662
            ],
            [
                -123.16744827269117,
                48.571190160111755
            ],
            [
                -123.16749310385686,
                48.5712055411356
            ],
            [
                -123.16738760883685,
                48.571115235313044
            ],
            [
                -123.16732993312644,
                48.571082707603765
            ],
            [
                -123.16735714890774,
                48.57104330962911
            ],
            [
                -123.16732945880784,
                48.571048261560236
            ],
            [
                -123.16730808264094,
                48.57106540037901
            ],
            [
                -123.16737616227893,
                48.57103137103443
            ],
            [
                -123.1673696223163,
                48.57102948574209
            ],
            [
                -123.16737010951076,
                48.57097985603034
            ],
            [
                -123.16742943191322,
                48.57111890848249
            ],
            [
                -123.167363802912,
                48.5710575766242
            ],
            [
                -123.16744687151444,
                48.57107265724473
            ],
            [
                -123.16737376946787,
                48.571035372512895
            ],
            [
                -123.16740842099543,
                48.57113461760375
            ],
            [
                -123.16741503157044,
                48.571080933168105
            ],
            [
                -123.1674085010307,
                48.57109109202992
            ],
            [
                -123.16732880742947,
                48.571038373332485
            ],
            [
                -123.16737293803882,
                48.571118213552424
            ],
            [
                -123.16733531714509,
                48.5710994161861
            ],
            [
                -123.16734170186899,
                48.57111893426142
            ],
            [
                -123.1673873413076,
                48.57111378589756
            ],
            [
                -123.16734150558736,
                48.57112363280827
            ],
            [
                -123.16734025419744,
                48.57109050415412
            ],
            [
                -123.16737842256084,
                48.5710938806637
            ],
            [
                -123.16733172247149,
                48.57106783664254
            ],
            [
                -123.16737640402887,
                48.571079035294055
            ],
            [
                -123.1673451020004,
                48.57109975756295
            ],
            [
                -123.16729052389536,
                48.57103021502175
            ],
            [
                -123.16737513335013,
                48.57107907672214
            ],
            [
                -123.16741398568765,
                48.571068272034424
            ],
            [
                -123.16731224122638,
                48.57106038350964
            ],
            [
                -123.16725898416497,
                48.571037582462836
            ],
            [
                -123.16736103291014,
                48.57114134193981
            ],
            [
                -123.16733248641327,
                48.57109502154499
            ],
            [
                -123.16737355134565,
                48.57112779689353
            ],
            [
                -123.16727106988192,
                48.571076545561375
            ],
            [
                -123.16728976495695,
                48.57107744903548
            ],
            [
                -123.16732277995817,
                48.57103939197218
            ],
            [
                -123.16732755019001,
                48.57106108190199
            ],
            [
                -123.16735044273194,
                48.57110042674435
            ],
            [
                -123.1673103547084,
                48.57108978037114
            ],
            [
                -123.16727657335207,
                48.57112134667571
            ],
            [
                -123.16726752682536,
                48.57113976138789
            ],
            [
                -123.16735112077579,
                48.57109391826016
            ],
            [
                -123.16734477073754,
                48.57112292066453
            ],
            [
                -123.16738124361142,
                48.57110772714116
            ],
            [
                -123.1673214658294,
                48.571117933860656
            ],
            [
                -123.167272468616,
                48.57105635649885
            ],
            [
                -123.16730823110348,
                48.57105867593236
            ],
            [
                -123.1673319100102,
                48.57113474433894
            ],
            [
                -123.16732193127568,
                48.57107223058477
            ],
            [
                -123.16736898627072,
                48.57112550631655
            ],
            [
                -123.1673595772294,
                48.571079957446024
            ],
            [
                -123.16731908236552,
                48.57110191658394
            ],
            [
                -123.16744592706132,
                48.57133157430213
            ],
            [
                -123.16746547706184,
                48.571338031989384
            ],
            [
                -123.16742446055923,
                48.57122184068545
            ],
            [
                -123.16738078894804,
                48.571100330833715
            ],
            [
                -123.16738630513255,
                48.57115609359204
            ],
            [
                -123.16735023245847,
                48.57106547736628
            ],
            [
                -123.16727748800838,
                48.57104781693066
            ],
            [
                -123.16733885781501,
                48.57116001389225
            ],
            [
                -123.16724718558156,
                48.57100854795005
            ],
            [
                -123.16730930824347,
                48.571104302179315
            ],
            [
                -123.16730919506838,
                48.57105085707587
            ],
            [
                -123.16729245674335,
                48.571062591439606
            ],
            [
                -123.16739022056748,
                48.571019987716
            ],
            [
                -123.16733706898181,
                48.57108060846495
            ],
            [
                -123.16743042696211,
                48.57111585958808
            ],
            [
                -123.16732390322106,
                48.57107213885234
            ],
            [
                -123.16733177732566,
                48.57108644121665
            ],
            [
                -123.16731555268657,
                48.571105338417226
            ],
            [
                -123.16731354920553,
                48.57106875390147
            ],
            [
                -123.16736837270912,
                48.571059367221324
            ],
            [
                -123.16734325669466,
                48.57111737045416
            ],
            [
                -123.16735803322264,
                48.571088635808124
            ],
            [
                -123.16726524196147,
                48.57106694432888
            ],
            [
                -123.16731766599912,
                48.57107779595572
            ],
            [
                -123.16733158701248,
                48.57109307154961
            ],
            [
                -123.16730471596429,
                48.57109199378173
            ],
            [
                -123.16731987435728,
                48.57105861158141
            ],
            [
                -123.16727383118483,
                48.57115776837909
            ],
            [
                -123.16733411404212,
                48.571098616002644
            ],
            [
                -123.16729310263318,
                48.57100790234161
            ],
            [
                -123.16737599569524,
                48.57111035929402
            ],
            [
                -123.16738972501653,
                48.571128134151245
            ],
            [
                -123.16726049231892,
                48.57104580301692
            ],
            [
                -123.16732749248382,
                48.57108850315723
            ],
            [
                -123.1673129878352,
                48.57108396748153
            ],
            [
                -123.1673380071679,
                48.57110968898047
            ],
            [
                -123.16730784376891,
                48.57114288246775
            ],
            [
                -123.16737174384622,
                48.571112182100656
            ],
            [
                -123.16739420297507,
                48.57113055133184
            ],
            [
                -123.16739315029022,
                48.57107538963448
            ],
            [
                -123.16735453892099,
                48.57111525339655
            ],
            [
                -123.16733319424856,
                48.57107199576701
            ],
            [
                -123.16738082600463,
                48.57106047620685
            ],
            [
                -123.16739560766577,
                48.57109719212101
            ],
            [
                -123.16735924186558,
                48.571062930929266
            ],
            [
                -123.16734717258663,
                48.57109168595844
            ],
            [
                -123.16722068874009,
                48.571115092678966
            ],
            [
                -123.16732950855283,
                48.571103496245705
            ],
            [
                -123.16740463999378,
                48.57112240744963
            ],
            [
                -123.16736464785387,
                48.57109941730582
            ],
            [
                -123.16738415066786,
                48.57113619236303
            ],
            [
                -123.16734143563014,
                48.57111886257255
            ],
            [
                -123.1673422577554,
                48.57104762432849
            ],
            [
                -123.16729383573094,
                48.571096763541306
            ],
            [
                -123.16728007711339,
                48.57099059983245
            ],
            [
                -123.16733097414716,
                48.57108866546586
            ],
            [
                -123.16729360651276,
                48.57104379545376
            ],
            [
                -123.16738612314079,
                48.57114390828654
            ],
            [
                -123.16731,
                48.57112
            ]
        ]
    },
    "properties": {
        "trajectory_id": 7211,
        "object_id": 368243510,
        "label": "PLEASURE CRAFT"
    }
}