{
    "type": "Feature",
    "geometry": {
        "type": "LineString",
        "coordinates": [
            [
                -123.3942,
                48.65382
            ],
            [
                -123.39419999972645,
                48.653820027656224
            ],
            [
                -123.39420002524292,
                48.65389042322881
            ],
            [
                -123.39424047163266,
                48.65387986325905
            ],
            [
                -123.3942381912204,
                48.653876146693456
            ],
            [
                -123.39424727245215,
                48.65389103122944
            ],
            [
                -123.39419335114903,
                48.653809989865515
            ],
            [
                -123.39419992865734,
                48.6538200798459
            ],
            [
                -123.39417674357185,
                48.653836619429995
            ],
            [
                -123.39420096179543,
                48.65378851973999
            ],
            [
                -123.39420135619498,
                48.65378970897237
            ],
            [
                -123.39424966909067,
                48.6537799464575
            ],
            [
                -123.39424664358825,
                48.653766387529075
            ],
            [
                -123.39419997632963,
                48.653790301679045
            ],
            [
                -123.39427753305363,
                48.65378944389981
            ],
            [
                -123.39416678743983,
                48.65385240248622
            ],
            [
                -123.3941711303053,
                48.65384818403522
            ],
            [
                -123.39416970489552,
                48.65384758070471
            ],
            [
                -123.39417159071154,
                48.65385955319463
            ],
            [
                -123.39418009413058,
                48.65374887548575
            ],
            [
                -123.39419024877795,
                48.653780350718066
            ],
            [
                -123.39422366877635,
                48.653796981501245
            ],
            [
                -123.39422759742789,
                48.653805868514546
            ],
            [
                -123.39423022556858,
                48.653820294078564
            ],
            [
                -123.39421210749761,
                48.65380783501645
            ],
            [
                -123.3942001156509,
                48.65380007427407
            ],
            [
                -123.3941999765595,
                48.653799984944925
            ],
            [
                -123.39419999699585,
                48.653799998065345
            ],
            [
                -123.39419999980043,
                48.65379999979857
            ],
            [
                -123.39420000000905,
                48.65380000031873
            ],
            [
                -123.39419999999984,
                48.653799981331176
            ],
            [
                -123.39420000000001,
                48.65380036689598
            ],
            [
                -123.3941999999999,
                48.65381765979019
            ],
            [
                -123.39420000000158,
                48.653820024220195
            ],
            [
                -123.39420000008141,
                48.65381985510103
            ],
            [
                -123.3942000014161,
                48.653811029913065
            ],
            [
                -123.39419997394333,
                48.65380996750595
            ],
            [
                -123.39420302500389,
                48.653812333416866
            ],
            [
                -123.39424029477429,
                48.653802407801514
            ],
            [
                -123.39423269151787,
                48.65381876628661
            ],
            [
                -123.39416800345776,
                48.65381177877165
            ],
            [
                -123.39421788506942,
                48.65387111110258
            ],
            [
                -123.39420793723906,
                48.653854132276955
            ],
            [
                -123.39420312917775,
                48.653842222744004
            ],
            [
                -123.3941973221914,
                48.65384088103106
            ],
            [
                -123.39422769784558,
                48.65383164400131
            ],
            [
                -123.39422997166497,
                48.65381982472929
            ],
            [
                -123.39423000250956,
                48.653820014920996
            ],
            [
                -123.39422999308431,
                48.65381999797997
            ],
            [
                -123.39423001502009,
                48.653820003526825
            ],
            [
                -123.39422946357011,
                48.65381987430665
            ],
            [
                -123.39415153529292,
                48.653826506351336
            ],
            [
                -123.39427085363005,
                48.65382918578962
            ],
            [
                -123.39423969276183,
                48.65380984282751
            ],
            [
                -123.39423664952682,
                48.65378340117378
            ],
            [
                -123.39425653124647,
                48.65385884950317
            ],
            [
                -123.39421541943919,
                48.65374970244397
            ],
            [
                -123.39419143641454,
                48.653835444484386
            ],
            [
                -123.3941900513085,
                48.653840015950095
            ],
            [
                -123.39412023220589,
                48.65379014034808
            ],
            [
                -123.39410996133368,
                48.6538701548973
            ],
            [
                -123.39419043032129,
                48.65385981555044
            ],
            [
                -123.39419008682924,
                48.653860012227625
            ],
            [
                -123.39420002309814,
                48.653860179176725
            ],
            [
                -123.39422139954111,
                48.65381354003821
            ],
            [
                -123.39412010108411,
                48.653860530223426
            ],
            [
                -123.39396054522497,
                48.65395872859942
            ],
            [
                -123.39429607796221,
                48.65374552271848
            ],
            [
                -123.39425106265574,
                48.65376939177611
            ],
            [
                -123.39425002443734,
                48.65376998100189
            ],
            [
                -123.39425067071326,
                48.653769334497575
            ],
            [
                -123.39424852123051,
                48.653771505216966
            ],
            [
                -123.39424267254303,
                48.653780177672374
            ],
            [
                -123.39422292893506,
                48.65377300051294
            ],
            [
                -123.39431153933923,
                48.65381028699428
            ],
            [
                -123.39427204209242,
                48.65380051260295
            ],
            [
                -123.39426991099911,
                48.65380000129712
            ],
            [
                -123.39425428214322,
                48.65380118033139
            ],
            [
                -123.39416395170261,
                48.653831730956085
            ],
            [
                -123.39418157939058,
                48.65377614761271
            ],
            [
                -123.3942549922007,
                48.653809793562466
            ],
            [
                -123.39422982203635,
                48.65379045426716
            ],
            [
                -123.39423003679278,
                48.6538016133049
            ],
            [
                -123.39423831125796,
                48.65380216163633
            ],
            [
                -123.39423988954725,
                48.65380051753035
            ],
            [
                -123.39423999365958,
                48.653802623765046
            ],
            [
                -123.39423988314488,
                48.653780439485786
            ],
            [
                -123.39421401545775,
                48.65376845099472
            ],
            [
                -123.39420077541824,
                48.65380226244677
            ],
            [
                -123.39418151873318,
                48.653799972545386
            ],
            [
                -123.3941798509659,
                48.65379999488005
            ],
            [
                -123.39415689267578,
                48.65380029184699
            ],
            [
                -123.39420106896678,
                48.65379267644739
            ],
            [
                -123.39423917118596,
                48.65378784115427
            ],
            [
                -123.39419265665214,
                48.653783179632995
            ],
            [
                -123.39422062872355,
                48.65381562902106
            ],
            [
                -123.39412920987347,
                48.65380193240336
            ],
            [
                -123.39418144354957,
                48.653819884769106
            ],
            [
                -123.3942646536879,
                48.65379022665787
            ],
            [
                -123.3941498873668,
                48.65381543335558
            ],
            [
                -123.39419327582553,
                48.653792474269665
            ],
            [
                -123.39425748001366,
                48.65379139445075
            ],
            [
                -123.39427321533276,
                48.65380945854023
            ],
            [
                -123.39424819002772,
                48.65381103421945
            ],
            [
                -123.39425364627859,
                48.65380113066108
            ],
            [
                -123.39424710619501,
                48.653800510604185
            ],
            [
                -123.394249512078,
                48.65380939371891
            ],
            [
                -123.39425292294703,
                48.653811389801746
            ],
            [
                -123.39422966385257,
                48.65379892563795
            ],
            [
                -123.39424036254564,
                48.65381001225666
            ],
            [
                -123.39423584615791,
                48.65380179963367
            ],
            [
                -123.39423045453414,
                48.653790921369506
            ],
            [
                -123.3942300015753,
                48.6537900032017
            ],
            [
                -123.3942299999987,
                48.65379000017401
            ],
            [
                -123.39423000361151,
                48.65378999879371
            ],
            [
                -123.3942328377565,
                48.653789054080946
            ],
            [
                -123.39419988523423,
                48.65380003825525
            ],
            [
                -123.39420000108802,
                48.65379999963732
            ],
            [
                -123.3942000000389,
                48.653799999987044
            ],
            [
                -123.3942,
                48.6538
            ]
        ]
    },
    "properties": {
        "trajectory_id": 7215,
        "object_id": 368244070,
        "label": "PLEASURE CRAFT"
    }
}