{
    "type": "Feature",
    "geometry": {
        "type": "LineString",
        "coordinates": [
            [
                -122.91119,
                49.19967
            ],
            [
                -122.9111601528854,
                49.1996874804458
            ],
            [
                -122.91119411799241,
                49.19966721399261
            ],
            [
                -122.9111839204357,
                49.19963957645744
            ],
            [
                -122.91122376970301,
                49.199700418022154
            ],
            [
                -122.91120277868374,
                49.1997116502654
            ],
            [
                -122.91119417592401,
                49.19965138577912
            ],
            [
                -122.9111618953477,
                49.1996410084352
            ],
            [
                -122.91121652182355,
                49.19967976273909
            ],
            [
                -122.91116518179483,
                49.19964379192575
            ],
            [
                -122.91115735608305,
                49.19965794008854
            ],
            [
                -122.91116402195053,
                49.199680910836456
            ],
            [
                -122.91117918792648,
                49.19968246969965
            ],
            [
                -122.91115267599068,
                49.199641528230785
            ],
            [
                -122.91117557973853,
                49.19969422286516
            ],
            [
                -122.91117261473882,
                49.19960485968257
            ],
            [
                -122.91116476951586,
                49.19965621566853
            ],
            [
                -122.91117884980909,
                49.19967171193882
            ],
            [
                -122.91119924090677,
                49.19966524923383
            ],
            [
                -122.91116364858703,
                49.19965512974385
            ],
            [
                -122.91117881317794,
                49.199652149894575
            ],
            [
                -122.9111760583655,
                49.199621520988465
            ],
            [
                -122.91118924246115,
                49.199629479551604
            ],
            [
                -122.91119936990593,
                49.19960985600041
            ],
            [
                -122.91118659324258,
                49.19963112778809
            ],
            [
                -122.91116668756766,
                49.199668001874265
            ],
            [
                -122.91123727595647,
                49.19965623479858
            ],
            [
                -122.91114463917087,
                49.19963198757671
            ],
            [
                -122.91118985405598,
                49.199670764415956
            ],
            [
                -122.91116704882698,
                49.19965523837743
            ],
            [
                -122.9111517137906,
                49.199686824209024
            ],
            [
                -122.91116552363071,
                49.19965421769225
            ],
            [
                -122.91113996178099,
                49.19967997408844
            ],
            [
                -122.91116722210634,
                49.199656209597606
            ],
            [
                -122.91118255442115,
                49.19965390798352
            ],
            [
                -122.91112245691484,
                49.19963360476439
            ],
            [
                -122.91116953567143,
                49.199650243210066
            ],
            [
                -122.91113306974154,
                49.199643132790634
            ],
            [
                -122.91113659456283,
                49.199667586838665
            ],
            [
                -122.91114602392958,
                49.19963286690751
            ],
            [
                -122.91113514978042,
                49.1996614840249
            ],
            [
                -122.91118548104504,
                49.199676855097714
            ],
            [
                -122.91115272610794,
                49.1996807278085
            ],
            [
                -122.91120525780892,
                49.19964864120518
            ],
            [
                -122.91114650968481,
                49.19969000234913
            ],
            [
                -122.91116054653203,
                49.199667009890064
            ],
            [
                -122.91115875838224,
                49.199668739551235
            ],
            [
                -122.9111560049786,
                49.19966658781877
            ],
            [
                -122.91118036987514,
                49.199624646884935
            ],
            [
                -122.911159002819,
                49.19963994685012
            ],
            [
                -122.91115445768973,
                49.199653926889475
            ],
            [
                -122.91118552253441,
                49.19969718621932
            ],
            [
                -122.9111409418322,
                49.199672414763285
            ],
            [
                -122.91118997473953,
                49.19967777754211
            ],
            [
                -122.91116798216153,
                49.19971168993885
            ],
            [
                -122.91114675321697,
                49.19964276100911
            ],
            [
                -122.911164034005,
                49.1996352194231
            ],
            [
                -122.91118815627246,
                49.19965871808367
            ],
            [
                -122.91113195528241,
                49.19964082002461
            ],
            [
                -122.91117515502619,
                49.19966646952803
            ],
            [
                -122.91117554974696,
                49.19965045734904
            ],
            [
                -122.91115634438663,
                49.19961082094087
            ],
            [
                -122.91112329059176,
                49.199645924587124
            ],
            [
                -122.91116110543544,
                49.199661888869706
            ],
            [
                -122.91114024544385,
                49.19962791633716
            ],
            [
                -122.9112319681437,
                49.199659099173694
            ],
            [
                -122.91118812449228,
                49.19966087862435
            ],
            [
                -122.91119986311011,
                49.19963084173632
            ],
            [
                -122.91122108294347,
                49.19965944286465
            ],
            [
                -122.9111215197895,
                49.19966295271739
            ],
            [
                -122.91121194251274,
                49.19962821606974
            ],
            [
                -122.91116815002866,
                49.19967531253391
            ],
            [
                -122.91121577081165,
                49.19968482323325
            ],
            [
                -122.91114444889361,
                49.199675557053375
            ],
            [
                -122.91121862820174,
                49.19963009937484
            ],
            [
                -122.911178639346,
                49.199614068683
            ],
            [
                -122.9111577948257,
                49.199664044860974
            ],
            [
                -122.91118500931915,
                49.199649658454746
            ],
            [
                -122.91119378910902,
                49.199683752443235
            ],
            [
                -122.91118,
                49.19964
            ]
        ]
    },
    "properties": {
        "trajectory_id": 725,
        "object_id": 316005623,
        "label": "TOWING"
    }
}