{
    "type": "Feature",
    "geometry": {
        "type": "LineString",
        "coordinates": [
            [
                -122.32971,
                47.40128
            ],
            [
                -122.3297100000075,
                47.40127999999813
            ],
            [
                -122.32971000282285,
                47.4012799992943
            ],
            [
                -122.3297108308831,
                47.40127979228437
            ],
            [
                -122.32966972771881,
                47.40129006942734
            ],
            [
                -122.32971456525576,
                47.40127920622569
            ],
            [
                -122.32972000126554,
                47.401279995349434
            ],
            [
                -122.32972000258651,
                47.40128000255542
            ],
            [
                -122.3297205935988,
                47.401280593598635
            ],
            [
                -122.32970992325119,
                47.40126992325278
            ],
            [
                -122.32970999925102,
                47.40126999959527
            ],
            [
                -122.32970992808592,
                47.4012700000189
            ],
            [
                -122.32971730494107,
                47.40127000438886
            ],
            [
                -122.32968793856426,
                47.401270908802985
            ],
            [
                -122.32968998937282,
                47.40125890349529
            ],
            [
                -122.32969003571999,
                47.40127013578946
            ],
            [
                -122.32968504717128,
                47.40125687116233
            ],
            [
                -122.32971040842601,
                47.401279839289245
            ],
            [
                -122.32971976996399,
                47.40127023202493
            ],
            [
                -122.3297196292696,
                47.40127052198692
            ],
            [
                -122.32977607171766,
                47.40119215105905
            ],
            [
                -122.32968629713056,
                47.40133758227421
            ],
            [
                -122.32966898059576,
                47.401245607781
            ],
            [
                -122.32964533467208,
                47.40123958628936
            ],
            [
                -122.32972384319021,
                47.40126127328864
            ],
            [
                -122.32972042505459,
                47.40120506274211
            ],
            [
                -122.32969421827461,
                47.40128592908563
            ],
            [
                -122.32972224359449,
                47.40125870366602
            ],
            [
                -122.3296699635751,
                47.40129002178164
            ],
            [
                -122.3296699798464,
                47.401289985100924
            ],
            [
                -122.32971011556265,
                47.40124968585529
            ],
            [
                -122.32971000205723,
                47.40124999452344
            ],
            [
                -122.32971000001469,
                47.40125004061785
            ],
            [
                -122.32970999934643,
                47.40125985585618
            ],
            [
                -122.32970981098752,
                47.401259987007045
            ],
            [
                -122.32968306762072,
                47.40125732893042
            ],
            [
                -122.3297104527512,
                47.401290271288325
            ],
            [
                -122.32971000215353,
                47.40129000152369
            ],
            [
                -122.32970991198142,
                47.40129000000801
            ],
            [
                -122.32973215684463,
                47.401289999932914
            ],
            [
                -122.32973001117809,
                47.401289986078076
            ],
            [
                -122.32973000006102,
                47.401286457423176
            ],
            [
                -122.32972999981631,
                47.4012756547455
            ],
            [
                -122.32972996551207,
                47.4012700539421
            ],
            [
                -122.32972072210482,
                47.40127953208774
            ],
            [
                -122.32968781777124,
                47.401290125944705
            ],
            [
                -122.32967010711407,
                47.40128998010677
            ],
            [
                -122.32968197863933,
                47.40128401084306
            ],
            [
                -122.32968996704567,
                47.40128001687991
            ],
            [
                -122.32968999984065,
                47.401280079669164
            ],
            [
                -122.32968999999574,
                47.40126931008266
            ],
            [
                -122.32968999933111,
                47.40126999683764
            ],
            [
                -122.32969006212168,
                47.40127000005168
            ],
            [
                -122.32970630709721,
                47.40126999999315
            ],
            [
                -122.32970998638206,
                47.40126999878489
            ],
            [
                -122.3297101362729,
                47.40126979345673
            ],
            [
                -122.32970354067646,
                47.40124598141429
            ],
            [
                -122.32967067797019,
                47.40120943141644
            ],
            [
                -122.32972803133421,
                47.40121249091435
            ],
            [
                -122.32971017165988,
                47.4012199061842
            ],
            [
                -122.32970985451229,
                47.40122996268062
            ],
            [
                -122.3296684350221,
                47.4012501980155
            ],
            [
                -122.32965000868118,
                47.401240014031565
            ],
            [
                -122.3296499709136,
                47.4012399855289
            ],
            [
                -122.32967148146159,
                47.401250745259425
            ],
            [
                -122.3296734093438,
                47.40125286198791
            ],
            [
                -122.32970825665694,
                47.40125045279171
            ],
            [
                -122.3297209673215,
                47.40124992179376
            ],
            [
                -122.32972005056367,
                47.401272045522695
            ],
            [
                -122.32970903471235,
                47.40127961933269
            ],
            [
                -122.32968765212854,
                47.40130001615458
            ],
            [
                -122.32969003871418,
                47.401289834894406
            ],
            [
                -122.32969000267019,
                47.40128999916214
            ],
            [
                -122.32969050246548,
                47.40128999999578
            ],
            [
                -122.3297094931067,
                47.401289999999456
            ],
            [
                -122.32972054901617,
                47.40128999989374
            ],
            [
                -122.32971905258717,
                47.40128997911055
            ],
            [
                -122.32972096890005,
                47.401285876346
            ],
            [
                -122.32972074899078,
                47.40131942184105
            ],
            [
                -122.32971992756491,
                47.40131999787782
            ],
            [
                -122.32973075530936,
                47.401320132108815
            ],
            [
                -122.32972068381149,
                47.40129123144808
            ],
            [
                -122.32972078828546,
                47.40128998584727
            ],
            [
                -122.3297099660218,
                47.4012816883132
            ],
            [
                -122.32970954106702,
                47.401273608999915
            ],
            [
                -122.32967309266495,
                47.40126139081786
            ],
            [
                -122.32970970362271,
                47.40123005479974
            ],
            [
                -122.32973027914356,
                47.40126042181546
            ],
            [
                -122.32972993822483,
                47.40126006443476
            ],
            [
                -122.32972004530123,
                47.401269981713206
            ],
            [
                -122.32973010983228,
                47.40126996552632
            ],
            [
                -122.32970889654058,
                47.40128986697834
            ],
            [
                -122.32968976844269,
                47.40129917972633
            ],
            [
                -122.32968999655738,
                47.401290009420265
            ],
            [
                -122.32968943558308,
                47.401289666227356
            ],
            [
                -122.32972034472608,
                47.401298563159926
            ],
            [
                -122.32968800620246,
                47.401268192796564
            ],
            [
                -122.3297230245584,
                47.40126998975744
            ],
            [
                -122.3297200165184,
                47.40126999988846
            ],
            [
                -122.32972003822316,
                47.40126998826937
            ],
            [
                -122.32972825761836,
                47.401267460184314
            ],
            [
                -122.32968816064547,
                47.40129060141181
            ],
            [
                -122.3297199955156,
                47.40129103527596
            ],
            [
                -122.32970466403364,
                47.40125790869166
            ],
            [
                -122.32965028071538,
                47.40125998945289
            ],
            [
                -122.329669472681,
                47.40125999994871
            ],
            [
                -122.32966999745236,
                47.40126000039428
            ],
            [
                -122.32966999998789,
                47.40126007716336
            ],
            [
                -122.32967000001545,
                47.401249204580736
            ],
            [
                -122.32967000298493,
                47.40124999773788
            ],
            [
                -122.32967056178303,
                47.40125027946497
            ],
            [
                -122.32969021662137,
                47.40125984402027
            ],
            [
                -122.32970973387876,
                47.40126000320926
            ],
            [
                -122.32970999647826,
                47.401260701265805
            ],
            [
                -122.32970959191422,
                47.40128972624582
            ],
            [
                -122.32969051687381,
                47.401290690145466
            ],
            [
                -122.32970989531206,
                47.40127984944558
            ],
            [
                -122.32971005614182,
                47.401270066204276
            ],
            [
                -122.3296900380385,
                47.40131865500436
            ],
            [
                -122.32972,
                47.40128
            ]
        ]
    },
    "properties": {
        "trajectory_id": 7250,
        "object_id": 368249010,
        "label": "PLEASURE CRAFT"
    }
}