{
    "type": "Feature",
    "geometry": {
        "type": "LineString",
        "coordinates": [
            [
                -122.33041,
                47.40011
            ],
            [
                -122.33054817000965,
                47.39994335348156
            ],
            [
                -122.33024195247465,
                47.400300698875036
            ],
            [
                -122.33040595419654,
                47.400064052717966
            ],
            [
                -122.33042223419862,
                47.40001832339351
            ],
            [
                -122.33052785119563,
                47.400111426108914
            ],
            [
                -122.33041032385621,
                47.400152320515325
            ],
            [
                -122.33044939764,
                47.40016180689989
            ],
            [
                -122.33047689370393,
                47.40009737051627
            ],
            [
                -122.33050067698586,
                47.40005881849455
            ],
            [
                -122.33049122021905,
                47.400063358129685
            ],
            [
                -122.33039962350817,
                47.39997272796971
            ],
            [
                -122.3302495565205,
                47.40001343336361
            ],
            [
                -122.33049957317948,
                47.400093063725684
            ],
            [
                -122.33046881523812,
                47.40012183912574
            ],
            [
                -122.33054915266679,
                47.400130273966155
            ],
            [
                -122.3303895266317,
                47.400116786398264
            ],
            [
                -122.33043372558949,
                47.400101562318795
            ],
            [
                -122.33047970429648,
                47.40014355646473
            ],
            [
                -122.33051701798706,
                47.40016167798678
            ],
            [
                -122.33047477227973,
                47.40014619363655
            ],
            [
                -122.33051015964186,
                47.40011696031847
            ],
            [
                -122.3304296198714,
                47.40018650093029
            ],
            [
                -122.33039949553702,
                47.4000702521003
            ],
            [
                -122.33030829301899,
                47.40009793177142
            ],
            [
                -122.33034411619502,
                47.40008255681752
            ],
            [
                -122.3304079357456,
                47.400055948720606
            ],
            [
                -122.33043124479629,
                47.40002129208733
            ],
            [
                -122.33042061468227,
                47.400026084873645
            ],
            [
                -122.33035676419746,
                47.40011340861718
            ],
            [
                -122.33034762262051,
                47.40010610011391
            ],
            [
                -122.33048466434764,
                47.400037618507554
            ],
            [
                -122.33050545565963,
                47.40007057215838
            ],
            [
                -122.330464579325,
                47.40011714702565
            ],
            [
                -122.33033784592753,
                47.40007044807334
            ],
            [
                -122.33033414372316,
                47.40007001582816
            ],
            [
                -122.33052423868496,
                47.400141764489476
            ],
            [
                -122.33036124631387,
                47.400087529727394
            ],
            [
                -122.33037496910322,
                47.40009557260161
            ],
            [
                -122.33047137830054,
                47.4000908376888
            ],
            [
                -122.33045122222872,
                47.400043556614115
            ],
            [
                -122.33049272707626,
                47.40013741423571
            ],
            [
                -122.33028651861866,
                47.40007593087025
            ],
            [
                -122.33040330272289,
                47.400086254107705
            ],
            [
                -122.33035976284725,
                47.400134319147384
            ],
            [
                -122.3304716418597,
                47.40010441204304
            ],
            [
                -122.33041722219852,
                47.4000660294064
            ],
            [
                -122.33028769535645,
                47.400072442613364
            ],
            [
                -122.33041159842983,
                47.40007653273433
            ],
            [
                -122.33045311163984,
                47.400039014882964
            ],
            [
                -122.33030055020451,
                47.40007692749029
            ],
            [
                -122.33037445182279,
                47.40020659472405
            ],
            [
                -122.3305360746524,
                47.39998441462607
            ],
            [
                -122.33042591689767,
                47.40021109042795
            ],
            [
                -122.33042412366517,
                47.40013081108151
            ],
            [
                -122.33038159209964,
                47.40010785477278
            ],
            [
                -122.33051820095145,
                47.40009078406072
            ],
            [
                -122.33025822991445,
                47.40015462432893
            ],
            [
                -122.33037890038091,
                47.400176729445036
            ],
            [
                -122.33047842958305,
                47.40017182449023
            ],
            [
                -122.33026564704286,
                47.40019975293191
            ],
            [
                -122.33083581173196,
                47.399602316896804
            ],
            [
                -122.33043950527768,
                47.40015840961634
            ],
            [
                -122.33046962695437,
                47.40012800585597
            ],
            [
                -122.33045982193835,
                47.400077419752016
            ],
            [
                -122.33046222597066,
                47.40008830959992
            ],
            [
                -122.33056989114343,
                47.40006791499978
            ],
            [
                -122.33042272814002,
                47.40014210990219
            ],
            [
                -122.33046349765586,
                47.40012124795952
            ],
            [
                -122.33049202791166,
                47.40011075614514
            ],
            [
                -122.33067907395427,
                47.40007966745266
            ],
            [
                -122.33033279418052,
                47.40009643253333
            ],
            [
                -122.33048423386211,
                47.400109801567886
            ],
            [
                -122.33036722959325,
                47.4001409007205
            ],
            [
                -122.33049107112168,
                47.40013903130985
            ],
            [
                -122.33049647154726,
                47.400155531418314
            ],
            [
                -122.33030927378361,
                47.40014284355448
            ],
            [
                -122.33021946611473,
                47.40024933766744
            ],
            [
                -122.33042234930919,
                47.400140468954646
            ],
            [
                -122.33046469044774,
                47.40004978516088
            ],
            [
                -122.3304557437755,
                47.400156137805546
            ],
            [
                -122.33052010116722,
                47.4002123185933
            ],
            [
                -122.33041286865628,
                47.40009922096827
            ],
            [
                -122.3303497719355,
                47.40013143858095
            ],
            [
                -122.33039206955426,
                47.40011889197842
            ],
            [
                -122.33043890520953,
                47.40005950366982
            ],
            [
                -122.33033741444858,
                47.39998339060701
            ],
            [
                -122.33042200023296,
                47.400260494085494
            ],
            [
                -122.33040639802437,
                47.4001471528235
            ],
            [
                -122.33039639624843,
                47.40012133768161
            ],
            [
                -122.33041003132955,
                47.400119858017
            ],
            [
                -122.33042066679542,
                47.40017645211579
            ],
            [
                -122.33038327667748,
                47.400181649814165
            ],
            [
                -122.33034335544484,
                47.40009456335564
            ],
            [
                -122.33046077251232,
                47.4001900727188
            ],
            [
                -122.33040071192377,
                47.40012733964926
            ],
            [
                -122.33032610031808,
                47.40017474321575
            ],
            [
                -122.3303358119386,
                47.400081191465915
            ],
            [
                -122.33031106701644,
                47.400112299515754
            ],
            [
                -122.33048179206286,
                47.40012467925578
            ],
            [
                -122.33063842724948,
                47.400044238727745
            ],
            [
                -122.33065147041872,
                47.400264784625584
            ],
            [
                -122.33036150779918,
                47.40012452007833
            ],
            [
                -122.33032071697959,
                47.40013819887905
            ],
            [
                -122.33044891304002,
                47.40002968787512
            ],
            [
                -122.3300991421921,
                47.400129113154726
            ],
            [
                -122.33031788664123,
                47.40007935888864
            ],
            [
                -122.33050475157604,
                47.39998854349573
            ],
            [
                -122.33051990430019,
                47.40008826086291
            ],
            [
                -122.33055016465077,
                47.4000301506753
            ],
            [
                -122.33041301084427,
                47.400171067497624
            ],
            [
                -122.33053430832155,
                47.40023761210646
            ],
            [
                -122.33037139513647,
                47.400099422247806
            ],
            [
                -122.33029273694594,
                47.40014350331571
            ],
            [
                -122.33048718996969,
                47.40017583081212
            ],
            [
                -122.33049844000983,
                47.40010972616276
            ],
            [
                -122.33051844824178,
                47.40012309190504
            ],
            [
                -122.33036902115413,
                47.40018309781536
            ],
            [
                -122.33041067665557,
                47.40005869592363
            ],
            [
                -122.33033,
                47.4001
            ]
        ]
    },
    "properties": {
        "trajectory_id": 7270,
        "object_id": 368252620,
        "label": "PLEASURE CRAFT"
    }
}