{
    "type": "Feature",
    "geometry": {
        "type": "LineString",
        "coordinates": [
            [
                -122.3824,
                47.65691
            ],
            [
                -122.3823792102284,
                47.656892513764504
            ],
            [
                -122.38235860468261,
                47.65693210386325
            ],
            [
                -122.38235985838844,
                47.65686911863665
            ],
            [
                -122.38240352571182,
                47.65693025222608
            ],
            [
                -122.38240477103363,
                47.6568919142825
            ],
            [
                -122.38235600262925,
                47.656926749345175
            ],
            [
                -122.38234453485275,
                47.656926477049076
            ],
            [
                -122.38236942514537,
                47.656903992702354
            ],
            [
                -122.38237132109776,
                47.65688725632999
            ],
            [
                -122.38235641859843,
                47.65686718396593
            ],
            [
                -122.38236213241265,
                47.65691539170274
            ],
            [
                -122.38235569234553,
                47.656890590945046
            ],
            [
                -122.38237180546389,
                47.65690419451564
            ],
            [
                -122.38236372763211,
                47.65689486651873
            ],
            [
                -122.38239347658167,
                47.65691102977996
            ],
            [
                -122.38239405045827,
                47.65689096809783
            ],
            [
                -122.38237474241843,
                47.6568942238205
            ],
            [
                -122.38238673063974,
                47.656894456226944
            ],
            [
                -122.38237532810365,
                47.65689565543969
            ],
            [
                -122.38235864585276,
                47.65693303320121
            ],
            [
                -122.38239087217467,
                47.65690174758801
            ],
            [
                -122.38238439742513,
                47.65686365629753
            ],
            [
                -122.3823864173075,
                47.65687838201866
            ],
            [
                -122.38237455465124,
                47.65688698840271
            ],
            [
                -122.38237052816667,
                47.656896396520224
            ],
            [
                -122.38237578626953,
                47.65690477690139
            ],
            [
                -122.38240268267533,
                47.656912128043636
            ],
            [
                -122.38238146644831,
                47.65692642962578
            ],
            [
                -122.38236518416227,
                47.65688720608188
            ],
            [
                -122.38235758846497,
                47.65689234794957
            ],
            [
                -122.38235591705437,
                47.65690377397945
            ],
            [
                -122.38237102824056,
                47.65691707906384
            ],
            [
                -122.38240219098614,
                47.656893399441486
            ],
            [
                -122.38237558028422,
                47.656902839016
            ],
            [
                -122.38237937249664,
                47.65689055256076
            ],
            [
                -122.38236149550995,
                47.656909225725
            ],
            [
                -122.38235082151365,
                47.65688153864191
            ],
            [
                -122.38237032160052,
                47.656908729154495
            ],
            [
                -122.38237035534866,
                47.65691015362475
            ],
            [
                -122.38243017506603,
                47.65694038731804
            ],
            [
                -122.38236890630063,
                47.656855534627795
            ],
            [
                -122.38236933061484,
                47.6568900071805
            ],
            [
                -122.38237986110627,
                47.656930571815614
            ],
            [
                -122.38236861209522,
                47.65690687899079
            ],
            [
                -122.38234888854197,
                47.65692816190209
            ],
            [
                -122.38240009529025,
                47.65689242734027
            ],
            [
                -122.38237664469692,
                47.65688072637861
            ],
            [
                -122.38237122100729,
                47.6568994258946
            ],
            [
                -122.38234390353331,
                47.656882869325294
            ],
            [
                -122.38236819786118,
                47.656877976891906
            ],
            [
                -122.38238315546974,
                47.656915537828326
            ],
            [
                -122.38234532394605,
                47.65688359222965
            ],
            [
                -122.38234688993045,
                47.65690891817608
            ],
            [
                -122.38236534221285,
                47.6568903348109
            ],
            [
                -122.38237137157559,
                47.65688996136557
            ],
            [
                -122.3823032647748,
                47.6568883013178
            ],
            [
                -122.38236417031797,
                47.65691299331021
            ],
            [
                -122.38236986249204,
                47.65686282320655
            ],
            [
                -122.38235395112991,
                47.65687522105313
            ],
            [
                -122.38238246897265,
                47.65688605970003
            ],
            [
                -122.38236097369534,
                47.65691008328873
            ],
            [
                -122.3823816606296,
                47.656900085194025
            ],
            [
                -122.38232741406422,
                47.6569083006395
            ],
            [
                -122.38236790734757,
                47.65689687261897
            ],
            [
                -122.38236284370804,
                47.65687815722876
            ],
            [
                -122.38235089550044,
                47.656912255397685
            ],
            [
                -122.38234902494028,
                47.65690092943267
            ],
            [
                -122.38235201732884,
                47.65689914266917
            ],
            [
                -122.38238633443021,
                47.65690845777817
            ],
            [
                -122.38235676583253,
                47.65688928826097
            ],
            [
                -122.38236013705153,
                47.65689613056873
            ],
            [
                -122.38238749463498,
                47.65691546629324
            ],
            [
                -122.3823477364762,
                47.65689888269248
            ],
            [
                -122.382356955111,
                47.65690950951854
            ],
            [
                -122.38238098346426,
                47.656890057895254
            ],
            [
                -122.38236214311388,
                47.656928009926595
            ],
            [
                -122.38241913560705,
                47.65690901303891
            ],
            [
                -122.38239012928548,
                47.65691198182874
            ],
            [
                -122.3823898071795,
                47.65687979722287
            ],
            [
                -122.3824099696197,
                47.65694997909336
            ],
            [
                -122.38243977772333,
                47.65689136768777
            ],
            [
                -122.38239015992045,
                47.656909386014924
            ],
            [
                -122.3823812510447,
                47.65691133069471
            ],
            [
                -122.38240893907917,
                47.65690992460728
            ],
            [
                -122.38237871855695,
                47.656880680696254
            ],
            [
                -122.3823696273389,
                47.656890850612385
            ],
            [
                -122.3824144833344,
                47.656882456841885
            ],
            [
                -122.38235138707151,
                47.656891163725575
            ],
            [
                -122.38236827681573,
                47.65691005388854
            ],
            [
                -122.38234025420942,
                47.65691921777146
            ],
            [
                -122.38236375683874,
                47.65688095192951
            ],
            [
                -122.38238321537874,
                47.65686401586053
            ],
            [
                -122.38239146199773,
                47.65686400438879
            ],
            [
                -122.38236094691305,
                47.656876528579105
            ],
            [
                -122.38236695695853,
                47.656913370041444
            ],
            [
                -122.38238918054485,
                47.656885716861076
            ],
            [
                -122.38237231764317,
                47.656913749709375
            ],
            [
                -122.38235901349842,
                47.65688120646921
            ],
            [
                -122.38235505171312,
                47.65689264405846
            ],
            [
                -122.38239298415981,
                47.65687438236427
            ],
            [
                -122.38236231768978,
                47.656894074852524
            ],
            [
                -122.38239450666765,
                47.656894023989516
            ],
            [
                -122.38238181132002,
                47.65686083732363
            ],
            [
                -122.38234106245582,
                47.656907045972005
            ],
            [
                -122.38238489150862,
                47.656894648572134
            ],
            [
                -122.38238031515907,
                47.65692554497156
            ],
            [
                -122.3823503948135,
                47.65689193899032
            ],
            [
                -122.38233177074521,
                47.65690380459732
            ],
            [
                -122.38234309748185,
                47.65691566822093
            ],
            [
                -122.38235155135463,
                47.65694337592512
            ],
            [
                -122.38236823985244,
                47.65688818221518
            ],
            [
                -122.38236511624599,
                47.656902679604876
            ],
            [
                -122.38237246559183,
                47.65689964476049
            ],
            [
                -122.38236095733973,
                47.6569033818563
            ],
            [
                -122.38237076873038,
                47.65687907298593
            ],
            [
                -122.38237093099586,
                47.65689957155854
            ],
            [
                -122.38236959170436,
                47.65689040317959
            ],
            [
                -122.38233935867272,
                47.6568601739608
            ],
            [
                -122.38238,
                47.65689
            ]
        ]
    },
    "properties": {
        "trajectory_id": 7319,
        "object_id": 368259990,
        "label": "FISHING"
    }
}