{
    "type": "Feature",
    "geometry": {
        "type": "LineString",
        "coordinates": [
            [
                -122.38237,
                47.65691
            ],
            [
                -122.38237968570733,
                47.656879739335125
            ],
            [
                -122.38235889117666,
                47.65688931499526
            ],
            [
                -122.38237941372861,
                47.65691022490129
            ],
            [
                -122.38239899046977,
                47.65687174202646
            ],
            [
                -122.38237977632929,
                47.656881851487455
            ],
            [
                -122.38232721971778,
                47.6569037059886
            ],
            [
                -122.38236097954629,
                47.65692002272702
            ],
            [
                -122.38239033767499,
                47.65689425879985
            ],
            [
                -122.38235591499584,
                47.65685071687043
            ],
            [
                -122.38234291794728,
                47.65690113667392
            ],
            [
                -122.38236341417156,
                47.65690328537091
            ],
            [
                -122.38234861110361,
                47.656884151891674
            ],
            [
                -122.38234506455399,
                47.65691027889697
            ],
            [
                -122.38236387414481,
                47.65690811551432
            ],
            [
                -122.38242320186674,
                47.65689749098998
            ],
            [
                -122.38237655660892,
                47.656893715683466
            ],
            [
                -122.3823495255912,
                47.656903682508045
            ],
            [
                -122.3823698888276,
                47.65688358727783
            ],
            [
                -122.38235127869237,
                47.656902555339904
            ],
            [
                -122.38237821399821,
                47.656900945592994
            ],
            [
                -122.38237205000463,
                47.65688286205767
            ],
            [
                -122.38240537672665,
                47.65687970208777
            ],
            [
                -122.3823616882688,
                47.65688419886148
            ],
            [
                -122.38241208205694,
                47.65689722341445
            ],
            [
                -122.38235434806388,
                47.65689495969264
            ],
            [
                -122.38238344395072,
                47.65689956725744
            ],
            [
                -122.3823728506638,
                47.65692929690004
            ],
            [
                -122.38239765606053,
                47.65690142225584
            ],
            [
                -122.38237002564594,
                47.65689774755786
            ],
            [
                -122.3823849332932,
                47.65689319261925
            ],
            [
                -122.38237051369765,
                47.65692784290222
            ],
            [
                -122.38236935465008,
                47.6569099210227
            ],
            [
                -122.38238794060221,
                47.65689156007951
            ],
            [
                -122.38242746324995,
                47.65687745914329
            ],
            [
                -122.38238275837874,
                47.65690167490542
            ],
            [
                -122.38237126944456,
                47.65690023679108
            ],
            [
                -122.38246220836353,
                47.656849254232384
            ],
            [
                -122.38239060189103,
                47.6569099705593
            ],
            [
                -122.38240018545656,
                47.6569096488139
            ],
            [
                -122.38240999544647,
                47.65693999451739
            ],
            [
                -122.38235999348508,
                47.65691982246667
            ],
            [
                -122.38236952320008,
                47.656930105274945
            ],
            [
                -122.382377968482,
                47.65691204310893
            ],
            [
                -122.38238863205552,
                47.65691133883032
            ],
            [
                -122.3823735562616,
                47.656921254447646
            ],
            [
                -122.38238150889023,
                47.65689593853302
            ],
            [
                -122.38234553480076,
                47.65688010530031
            ],
            [
                -122.38234452187169,
                47.65689856832595
            ],
            [
                -122.38234835007542,
                47.65688214292052
            ],
            [
                -122.38234079480087,
                47.65691501459434
            ],
            [
                -122.38233202702425,
                47.656887554649764
            ],
            [
                -122.38228847238508,
                47.65692261550773
            ],
            [
                -122.38236015964583,
                47.65691040654859
            ],
            [
                -122.3823387332369,
                47.65691509765984
            ],
            [
                -122.38237831995995,
                47.656906116330234
            ],
            [
                -122.3823626348646,
                47.656881161975896
            ],
            [
                -122.38234790135179,
                47.656907552071615
            ],
            [
                -122.38235950280088,
                47.656892539104334
            ],
            [
                -122.38237343770876,
                47.656879057259154
            ],
            [
                -122.38236445185257,
                47.65691472267121
            ],
            [
                -122.38233660497517,
                47.65691143706334
            ],
            [
                -122.38233130014774,
                47.656912602628594
            ],
            [
                -122.38233296701078,
                47.656926664695504
            ],
            [
                -122.38238778928525,
                47.656894731755905
            ],
            [
                -122.38235440786343,
                47.65688948702197
            ],
            [
                -122.38234072576768,
                47.65690455823036
            ],
            [
                -122.38236837245978,
                47.65692392445902
            ],
            [
                -122.38234134586173,
                47.65694095131612
            ],
            [
                -122.38234702356431,
                47.656907849058605
            ],
            [
                -122.38235629931012,
                47.65690607244016
            ],
            [
                -122.38236867170511,
                47.656904278244454
            ],
            [
                -122.38233317712525,
                47.656907772320096
            ],
            [
                -122.38235777393837,
                47.65686981019335
            ],
            [
                -122.38239865535165,
                47.65689190314661
            ],
            [
                -122.3823684222072,
                47.656919571877296
            ],
            [
                -122.38241450475559,
                47.65691086707116
            ],
            [
                -122.38239030375,
                47.65689900554441
            ],
            [
                -122.38237880554917,
                47.65690244484164
            ],
            [
                -122.3824096261198,
                47.65690047957145
            ],
            [
                -122.38238054264022,
                47.65689032898984
            ],
            [
                -122.38236072683486,
                47.656909583275166
            ],
            [
                -122.38238620144627,
                47.65691034238072
            ],
            [
                -122.38238184361774,
                47.656908345519135
            ],
            [
                -122.38235605232063,
                47.65689914392488
            ],
            [
                -122.38238651798426,
                47.65690684828521
            ],
            [
                -122.38235788011097,
                47.6568684759841
            ],
            [
                -122.38231823713134,
                47.65687980201075
            ],
            [
                -122.38235727964445,
                47.65689845304568
            ],
            [
                -122.38232172285386,
                47.65692771946343
            ],
            [
                -122.38236674898104,
                47.65691308439395
            ],
            [
                -122.38235133202576,
                47.65689593588918
            ],
            [
                -122.38238249730054,
                47.65689993980119
            ],
            [
                -122.3823509507858,
                47.65691936694292
            ],
            [
                -122.38234761430365,
                47.65693932850283
            ],
            [
                -122.38231919112467,
                47.656937692352294
            ],
            [
                -122.3823957221858,
                47.656928252315375
            ],
            [
                -122.3823568752611,
                47.656914958357696
            ],
            [
                -122.38232482316904,
                47.65691741652506
            ],
            [
                -122.38238462260713,
                47.65691741778288
            ],
            [
                -122.3825116532913,
                47.656768154465546
            ],
            [
                -122.38247943324355,
                47.65677986447051
            ],
            [
                -122.38236382708999,
                47.656886144723494
            ],
            [
                -122.38232876815971,
                47.65690548759067
            ],
            [
                -122.38238487467258,
                47.65688087920921
            ],
            [
                -122.382394234374,
                47.6568676098157
            ],
            [
                -122.3823699664498,
                47.656886723917
            ],
            [
                -122.38237247192559,
                47.65688683863845
            ],
            [
                -122.38237398949452,
                47.656893983423814
            ],
            [
                -122.38238727761393,
                47.656923454921134
            ],
            [
                -122.38234877003327,
                47.65689255599753
            ],
            [
                -122.38236605478791,
                47.65692357889085
            ],
            [
                -122.38234217239108,
                47.656901501564434
            ],
            [
                -122.382348116331,
                47.65691972728131
            ],
            [
                -122.38236923097233,
                47.65690135596638
            ],
            [
                -122.38237078071928,
                47.656923204286784
            ],
            [
                -122.38236227949818,
                47.6568753012651
            ],
            [
                -122.3823706177244,
                47.65687098401756
            ],
            [
                -122.38239974244426,
                47.656860264854444
            ],
            [
                -122.38239,
                47.65691
            ]
        ]
    },
    "properties": {
        "trajectory_id": 7321,
        "object_id": 368259990,
        "label": "FISHING"
    }
}