{
    "type": "Feature",
    "geometry": {
        "type": "LineString",
        "coordinates": [
            [
                -123.0607,
                49.29034
            ],
            [
                -123.06078234306578,
                49.290319932765534
            ],
            [
                -123.06075598951968,
                49.29030105618297
            ],
            [
                -123.06076978947836,
                49.290292235700406
            ],
            [
                -123.06079564097689,
                49.290337525861034
            ],
            [
                -123.06076990031909,
                49.29033014827699
            ],
            [
                -123.06075020452079,
                49.29034140356369
            ],
            [
                -123.06077166986582,
                49.290326631960205
            ],
            [
                -123.06074952990483,
                49.290313575214284
            ],
            [
                -123.06080959295674,
                49.29031996900224
            ],
            [
                -123.06078081506918,
                49.29033039256379
            ],
            [
                -123.06076270677178,
                49.290304177384776
            ],
            [
                -123.06074536658684,
                49.290332194009196
            ],
            [
                -123.06077693310323,
                49.290322529881465
            ],
            [
                -123.06078889197167,
                49.290300662836174
            ],
            [
                -123.06076478458951,
                49.29030436475115
            ],
            [
                -123.06077322548138,
                49.29030494206689
            ],
            [
                -123.06075177945998,
                49.29033370355446
            ],
            [
                -123.0608109011579,
                49.290340695461914
            ],
            [
                -123.06074888318285,
                49.29027979481941
            ],
            [
                -123.06073914740365,
                49.290304173123815
            ],
            [
                -123.06080451143183,
                49.290295553093394
            ],
            [
                -123.06076796488013,
                49.290301440641024
            ],
            [
                -123.06077385146915,
                49.290288045706795
            ],
            [
                -123.06077577990163,
                49.290308233327636
            ],
            [
                -123.06077162597146,
                49.29034324980784
            ],
            [
                -123.06077955018752,
                49.29029185213354
            ],
            [
                -123.06077058619414,
                49.29031963062101
            ],
            [
                -123.06081788728173,
                49.29031520948302
            ],
            [
                -123.06080505730299,
                49.290338747291536
            ],
            [
                -123.06077520425812,
                49.29029462560375
            ],
            [
                -123.06079959593455,
                49.290329166013215
            ],
            [
                -123.06078259627085,
                49.29030004638436
            ],
            [
                -123.06078866299994,
                49.2903187325693
            ],
            [
                -123.06082146370643,
                49.29031124359069
            ],
            [
                -123.06079186147232,
                49.29029799156574
            ],
            [
                -123.06081057292394,
                49.29033085761621
            ],
            [
                -123.06080707030671,
                49.29031433289021
            ],
            [
                -123.06080197389531,
                49.29028044875081
            ],
            [
                -123.06078311709106,
                49.29033172008795
            ],
            [
                -123.0607855482739,
                49.290309107407374
            ],
            [
                -123.06080955052398,
                49.290304679415215
            ],
            [
                -123.0607772418726,
                49.29028002345952
            ],
            [
                -123.06078419913656,
                49.290314157357294
            ],
            [
                -123.0607898045822,
                49.29030236631903
            ],
            [
                -123.06079178060018,
                49.290319796603434
            ],
            [
                -123.0608101161813,
                49.290317999839935
            ],
            [
                -123.0607642617127,
                49.29032829227437
            ],
            [
                -123.06075266857002,
                49.29031413898809
            ],
            [
                -123.0607560214806,
                49.29029696947895
            ],
            [
                -123.06077434944055,
                49.29028238496624
            ],
            [
                -123.06076744385817,
                49.290311855045445
            ],
            [
                -123.06079087750007,
                49.29028155199737
            ],
            [
                -123.06074101644234,
                49.29030113806357
            ],
            [
                -123.06080058938562,
                49.29029541423718
            ],
            [
                -123.06075304972101,
                49.29031220552483
            ],
            [
                -123.06083464969706,
                49.290315467343035
            ],
            [
                -123.06077934872799,
                49.29032630790531
            ],
            [
                -123.06074335105357,
                49.290340252108315
            ],
            [
                -123.060775140858,
                49.290284728950276
            ],
            [
                -123.06077198893281,
                49.29029518878235
            ],
            [
                -123.06078697053024,
                49.29029939552921
            ],
            [
                -123.06076566447382,
                49.290297458300195
            ],
            [
                -123.0607753476467,
                49.29029155516677
            ],
            [
                -123.0607323296515,
                49.29029921817385
            ],
            [
                -123.06079682088593,
                49.290326519696656
            ],
            [
                -123.06076610065207,
                49.290299152949615
            ],
            [
                -123.06078247169015,
                49.29028187129241
            ],
            [
                -123.06076843177827,
                49.29026947242806
            ],
            [
                -123.06077158767653,
                49.290299432012645
            ],
            [
                -123.06080601974429,
                49.2903216096404
            ],
            [
                -123.0608132757554,
                49.29031392102471
            ],
            [
                -123.0607997296772,
                49.29028013084742
            ],
            [
                -123.0607733959718,
                49.29030705167898
            ],
            [
                -123.06078701491936,
                49.29029207698202
            ],
            [
                -123.06073978208754,
                49.290285232241814
            ],
            [
                -123.06079366879459,
                49.290278475472185
            ],
            [
                -123.06077231599618,
                49.290280768586
            ],
            [
                -123.06078294032633,
                49.2902865533021
            ],
            [
                -123.0608,
                49.29034
            ]
        ]
    },
    "properties": {
        "trajectory_id": 734,
        "object_id": 316005626,
        "label": "TUG"
    }
}