{
    "type": "Feature",
    "geometry": {
        "type": "LineString",
        "coordinates": [
            [
                -122.39004,
                47.80888
            ],
            [
                -122.39004889602344,
                47.80886904647313
            ],
            [
                -122.39003112697662,
                47.80885723764882
            ],
            [
                -122.39001860022465,
                47.80881969759597
            ],
            [
                -122.38995945740889,
                47.80881046864888
            ],
            [
                -122.38990748901156,
                47.80882470821974
            ],
            [
                -122.38997390601683,
                47.80882463426898
            ],
            [
                -122.38996482615067,
                47.808795341696225
            ],
            [
                -122.38991043424335,
                47.80875837535004
            ],
            [
                -122.38990078460901,
                47.808787371393805
            ],
            [
                -122.38993084351141,
                47.808764809026606
            ],
            [
                -122.39002681111046,
                47.80875982078402
            ],
            [
                -122.3899455656091,
                47.808818713747655
            ],
            [
                -122.38987948640927,
                47.80877937331565
            ],
            [
                -122.3899500636781,
                47.808743022175676
            ],
            [
                -122.39000225578116,
                47.80879530864921
            ],
            [
                -122.39003307555109,
                47.8088236781794
            ],
            [
                -122.39001823558455,
                47.808812559458985
            ],
            [
                -122.39004311193392,
                47.80878464577359
            ],
            [
                -122.39002622408391,
                47.808794933436495
            ],
            [
                -122.39002374325891,
                47.80880934687778
            ],
            [
                -122.38997182289584,
                47.808802631117494
            ],
            [
                -122.38999867015825,
                47.80882065258696
            ],
            [
                -122.38999902967504,
                47.808800662665426
            ],
            [
                -122.38996830435373,
                47.80880172786027
            ],
            [
                -122.38998518476441,
                47.80881781216382
            ],
            [
                -122.39000926542764,
                47.80881678538086
            ],
            [
                -122.38994581811563,
                47.80881284970624
            ],
            [
                -122.38992889039336,
                47.80882984844065
            ],
            [
                -122.3899808956966,
                47.808857025782245
            ],
            [
                -122.39002031740624,
                47.808844532692895
            ],
            [
                -122.38994080946819,
                47.80882984005865
            ],
            [
                -122.38991355096499,
                47.808819514392226
            ],
            [
                -122.38998044018825,
                47.80883001106156
            ],
            [
                -122.38993016895526,
                47.80883011113705
            ],
            [
                -122.38996919642635,
                47.80884009824449
            ],
            [
                -122.3899715561766,
                47.8088302573748
            ],
            [
                -122.38996023831535,
                47.808810309005594
            ],
            [
                -122.38994991993599,
                47.80883986790781
            ],
            [
                -122.38996061360444,
                47.80885946950532
            ],
            [
                -122.38998544655774,
                47.808806589283094
            ],
            [
                -122.38999971720409,
                47.80883907059196
            ],
            [
                -122.38995491414781,
                47.80885145972021
            ],
            [
                -122.38998348783767,
                47.808839857755444
            ],
            [
                -122.38998030453143,
                47.80881738779125
            ],
            [
                -122.38990032750135,
                47.808807804984795
            ],
            [
                -122.39002161825887,
                47.80888324761244
            ],
            [
                -122.39000184512076,
                47.80887016883497
            ],
            [
                -122.38993424364851,
                47.808854890791494
            ],
            [
                -122.38995228201422,
                47.80886122792121
            ],
            [
                -122.38995402165062,
                47.80883918040855
            ],
            [
                -122.38993569667804,
                47.808849754520324
            ],
            [
                -122.38996740461725,
                47.80886662059387
            ],
            [
                -122.38996401654383,
                47.80887665368234
            ],
            [
                -122.38996212244408,
                47.808882214811035
            ],
            [
                -122.38993839835607,
                47.808854646172975
            ],
            [
                -122.38997478041414,
                47.808866525872645
            ],
            [
                -122.39000058670422,
                47.80886872187401
            ],
            [
                -122.39001419065582,
                47.80880461029484
            ],
            [
                -122.3899458420504,
                47.808833704098426
            ],
            [
                -122.3899615413111,
                47.808727571470726
            ],
            [
                -122.39003783942402,
                47.80865826298555
            ],
            [
                -122.39011803766749,
                47.808651567352555
            ],
            [
                -122.39012135209995,
                47.8087063033167
            ],
            [
                -122.38998149352588,
                47.80881688615517
            ],
            [
                -122.39003816975553,
                47.80877873914291
            ],
            [
                -122.39002001261927,
                47.808769958640234
            ],
            [
                -122.38998940354352,
                47.80881940543297
            ],
            [
                -122.39000963519197,
                47.80883156696984
            ],
            [
                -122.3899800018104,
                47.808790246095064
            ],
            [
                -122.38999551686909,
                47.80880179692849
            ],
            [
                -122.39000898936848,
                47.80877959790659
            ],
            [
                -122.3900077209995,
                47.80876939251352
            ],
            [
                -122.39006792610932,
                47.80877552008864
            ],
            [
                -122.39002580121783,
                47.80881106403326
            ],
            [
                -122.39000751005679,
                47.8087921554877
            ],
            [
                -122.39001999051206,
                47.80882225130818
            ],
            [
                -122.39002771821956,
                47.8087761076445
            ],
            [
                -122.39001995874412,
                47.80879579858971
            ],
            [
                -122.38997701325547,
                47.80886753686557
            ],
            [
                -122.38997164947224,
                47.80883499605711
            ],
            [
                -122.38995252193594,
                47.80882892799865
            ],
            [
                -122.3900026581936,
                47.80879459090233
            ],
            [
                -122.39000042361295,
                47.80880638557265
            ],
            [
                -122.38994781181756,
                47.80880956838331
            ],
            [
                -122.3899676024802,
                47.80883078312751
            ],
            [
                -122.38995911289969,
                47.808844022119196
            ],
            [
                -122.39000174713001,
                47.80882787484359
            ],
            [
                -122.39000849945167,
                47.80884582340956
            ],
            [
                -122.39003085191919,
                47.80882031417799
            ],
            [
                -122.39000330982682,
                47.80882305318238
            ],
            [
                -122.39001334013149,
                47.80886586789411
            ],
            [
                -122.39003493396022,
                47.80879578071169
            ],
            [
                -122.39001441925232,
                47.80875848902492
            ],
            [
                -122.38996957706937,
                47.80886549128797
            ],
            [
                -122.39000155535068,
                47.80885447375339
            ],
            [
                -122.39001923560447,
                47.808820032954756
            ],
            [
                -122.39000979852018,
                47.80879841086619
            ],
            [
                -122.38999982082785,
                47.80881841509509
            ],
            [
                -122.38997193888179,
                47.80880395763514
            ],
            [
                -122.3900083196924,
                47.80883113973756
            ],
            [
                -122.39001613238541,
                47.80879446672781
            ],
            [
                -122.38999653225979,
                47.808813892345285
            ],
            [
                -122.38998099221153,
                47.808830649382834
            ],
            [
                -122.38999811900923,
                47.80883024313971
            ],
            [
                -122.38997981837217,
                47.80884102610496
            ],
            [
                -122.39001777016155,
                47.808859867298295
            ],
            [
                -122.39002651679914,
                47.808850225576094
            ],
            [
                -122.38998408341874,
                47.808838407863796
            ],
            [
                -122.38994754884642,
                47.80886299592077
            ],
            [
                -122.38989997288593,
                47.808863451555645
            ],
            [
                -122.38995173914914,
                47.808853670932145
            ],
            [
                -122.3899545123565,
                47.80884022857949
            ],
            [
                -122.38999476974517,
                47.808837257449085
            ],
            [
                -122.39002148912874,
                47.8088341123632
            ],
            [
                -122.39001149888003,
                47.80880097386564
            ],
            [
                -122.39001985330124,
                47.808818024986515
            ],
            [
                -122.38999935496486,
                47.80881960087744
            ],
            [
                -122.3900226345843,
                47.80883020255645
            ],
            [
                -122.38997,
                47.80886
            ]
        ]
    },
    "properties": {
        "trajectory_id": 7350,
        "object_id": 368263570,
        "label": "PLEASURE CRAFT"
    }
}