{
    "type": "Feature",
    "geometry": {
        "type": "LineString",
        "coordinates": [
            [
                -122.60399,
                48.5032
            ],
            [
                -122.60399061888008,
                48.5031996467188
            ],
            [
                -122.60398084518255,
                48.50320059468514
            ],
            [
                -122.603981173516,
                48.50323002274758
            ],
            [
                -122.60397927600276,
                48.503221355187875
            ],
            [
                -122.60399270506791,
                48.503229855136816
            ],
            [
                -122.60399023975832,
                48.50322768017843
            ],
            [
                -122.60399953317491,
                48.50323906645462
            ],
            [
                -122.6039917160168,
                48.50321848492204
            ],
            [
                -122.60398538991802,
                48.503222416739455
            ],
            [
                -122.60398349558714,
                48.50321971247588
            ],
            [
                -122.6040268922826,
                48.50324107860249
            ],
            [
                -122.60402150314702,
                48.503241431082955
            ],
            [
                -122.60399284684941,
                48.50324762808416
            ],
            [
                -122.60400439859956,
                48.503244755562974
            ],
            [
                -122.60398984479781,
                48.50325440127154
            ],
            [
                -122.60395319202071,
                48.503262224578975
            ],
            [
                -122.6039508521365,
                48.50325483693603
            ],
            [
                -122.60397264958702,
                48.50324673324973
            ],
            [
                -122.60396903469855,
                48.50321274869279
            ],
            [
                -122.60399376519064,
                48.50322477646398
            ],
            [
                -122.60397521256756,
                48.50322335410523
            ],
            [
                -122.60400115709722,
                48.50321043458341
            ],
            [
                -122.60401272669228,
                48.5032102389987
            ],
            [
                -122.60399002378823,
                48.50319474696932
            ],
            [
                -122.60402548735522,
                48.503221880958115
            ],
            [
                -122.60400924694542,
                48.503220174004106
            ],
            [
                -122.60402286259789,
                48.50321614687227
            ],
            [
                -122.60401993921515,
                48.503224424064534
            ],
            [
                -122.6040302140563,
                48.50324883207102
            ],
            [
                -122.6040588946035,
                48.5032501018064
            ],
            [
                -122.60404717230216,
                48.503265342452096
            ],
            [
                -122.6040212443699,
                48.50323179762576
            ],
            [
                -122.6040104249442,
                48.50323029494868
            ],
            [
                -122.60399016782199,
                48.503221501605694
            ],
            [
                -122.60398928524545,
                48.50321937453822
            ],
            [
                -122.6040107146126,
                48.50323972362855
            ],
            [
                -122.604000104145,
                48.50322046917186
            ],
            [
                -122.60401013474666,
                48.50321988480207
            ],
            [
                -122.60398995709238,
                48.50321005419044
            ],
            [
                -122.6039203693922,
                48.503200641824336
            ],
            [
                -122.60391993521817,
                48.503169537821684
            ],
            [
                -122.60394188490001,
                48.50318001961542
            ],
            [
                -122.60398677845356,
                48.50319162124977
            ],
            [
                -122.60398224052022,
                48.50319357105972
            ],
            [
                -122.60396754556339,
                48.50320966204315
            ],
            [
                -122.60394997331461,
                48.50320897375433
            ],
            [
                -122.60399078490872,
                48.50321155370027
            ],
            [
                -122.60398091086977,
                48.50321820041891
            ],
            [
                -122.60398210027464,
                48.50323103949737
            ],
            [
                -122.60398280322197,
                48.50322004489475
            ],
            [
                -122.60399788352906,
                48.50323157902392
            ],
            [
                -122.60401757657814,
                48.50321508292878
            ],
            [
                -122.60401912893724,
                48.503251216465856
            ],
            [
                -122.60404453877186,
                48.503207777419284
            ],
            [
                -122.60398414217232,
                48.50325766333376
            ],
            [
                -122.60397340380715,
                48.50327658594156
            ],
            [
                -122.60396881904356,
                48.5032588835487
            ],
            [
                -122.60396594444212,
                48.50325974313638
            ],
            [
                -122.60397900931724,
                48.50325063607308
            ],
            [
                -122.60399875209818,
                48.50324412710837
            ],
            [
                -122.6039730323544,
                48.5032299722008
            ],
            [
                -122.60397733111921,
                48.50323652000353
            ],
            [
                -122.60398252164025,
                48.503220800650354
            ],
            [
                -122.60397824068463,
                48.50322893476628
            ],
            [
                -122.60397000556948,
                48.50319527439512
            ],
            [
                -122.60397524638027,
                48.503225122809425
            ],
            [
                -122.60400105684403,
                48.50322704320159
            ],
            [
                -122.60398917511006,
                48.50321979251976
            ],
            [
                -122.60399264229878,
                48.503220276463395
            ],
            [
                -122.60397335158014,
                48.503200027516776
            ],
            [
                -122.60396171922335,
                48.503200289737705
            ],
            [
                -122.60397031738896,
                48.50322078109001
            ],
            [
                -122.60398188566906,
                48.503206873425405
            ],
            [
                -122.60397889660669,
                48.503199783774576
            ],
            [
                -122.60398014375525,
                48.503199494801876
            ],
            [
                -122.60399007714278,
                48.5032200551745
            ],
            [
                -122.6039899731539,
                48.503220024183435
            ],
            [
                -122.60399987749943,
                48.50320976904886
            ],
            [
                -122.60400998491559,
                48.50322000113725
            ],
            [
                -122.60399995257403,
                48.50321999952688
            ],
            [
                -122.60397017556576,
                48.50321983939746
            ],
            [
                -122.60400051491106,
                48.503230189339085
            ],
            [
                -122.60399099797385,
                48.503219291631815
            ],
            [
                -122.60399314078948,
                48.50321983929471
            ],
            [
                -122.60399824451667,
                48.503219967906645
            ],
            [
                -122.60399577629028,
                48.503229310736934
            ],
            [
                -122.6040004600567,
                48.50322896199318
            ],
            [
                -122.60396688311525,
                48.50322957554279
            ],
            [
                -122.60397676288706,
                48.50323996302904
            ],
            [
                -122.60398360014592,
                48.50321926256864
            ],
            [
                -122.60399490214522,
                48.50322947184745
            ],
            [
                -122.60398947625426,
                48.50323034210716
            ],
            [
                -122.60397020628457,
                48.50323000158069
            ],
            [
                -122.60397087629327,
                48.503229982153684
            ],
            [
                -122.60398701733084,
                48.503229005843615
            ],
            [
                -122.60396805230816,
                48.50323022613283
            ],
            [
                -122.60397513955817,
                48.503224906688
            ],
            [
                -122.60396956047417,
                48.50322164013742
            ],
            [
                -122.60399106696026,
                48.503189888601554
            ],
            [
                -122.60400984118812,
                48.503145202980825
            ],
            [
                -122.6039690956242,
                48.503157017719374
            ],
            [
                -122.6039652314635,
                48.50320814177692
            ],
            [
                -122.60397940530211,
                48.50320731776266
            ],
            [
                -122.60397896383566,
                48.503220461731594
            ],
            [
                -122.60398463580415,
                48.50321784224182
            ],
            [
                -122.60398388143247,
                48.50321165939504
            ],
            [
                -122.60398024518149,
                48.503220059681944
            ],
            [
                -122.60397999649784,
                48.50321999916007
            ],
            [
                -122.6039800012866,
                48.503220002601104
            ],
            [
                -122.6039802462834,
                48.50322049238627
            ],
            [
                -122.60398990888663,
                48.503239785369
            ],
            [
                -122.60399858392097,
                48.5032399978183
            ],
            [
                -122.60399999951477,
                48.503239828089306
            ],
            [
                -122.60400423646328,
                48.503226501749346
            ],
            [
                -122.60401000826815,
                48.503220000428264
            ],
            [
                -122.60401444147915,
                48.5032267859725
            ],
            [
                -122.6040199723314,
                48.503220014042824
            ],
            [
                -122.60399998619951,
                48.503230012501575
            ],
            [
                -122.60396,
                48.50325
            ]
        ]
    },
    "properties": {
        "trajectory_id": 7361,
        "object_id": 368265290,
        "label": "PLEASURE CRAFT"
    }
}