{
    "type": "Feature",
    "geometry": {
        "type": "LineString",
        "coordinates": [
            [
                -122.39035,
                47.62813
            ],
            [
                -122.39035006255673,
                47.62812995440884
            ],
            [
                -122.39033675345075,
                47.62813965404378
            ],
            [
                -122.39040075967019,
                47.62810065153892
            ],
            [
                -122.39033956998922,
                47.628130199713354
            ],
            [
                -122.39036112474207,
                47.62813992440353
            ],
            [
                -122.39036003533685,
                47.628139997623286
            ],
            [
                -122.39036000260215,
                47.628139999772735
            ],
            [
                -122.3903600335985,
                47.62813999996286
            ],
            [
                -122.39036060739015,
                47.62813999924808
            ],
            [
                -122.39037004584276,
                47.628140029226756
            ],
            [
                -122.39038071158271,
                47.62815071825084
            ],
            [
                -122.39038023663073,
                47.62815031640224
            ],
            [
                -122.39040537436377,
                47.628171513531115
            ],
            [
                -122.39043935267219,
                47.62815070241917
            ],
            [
                -122.39043950733348,
                47.62815002125987
            ],
            [
                -122.39036720961495,
                47.628149999586995
            ],
            [
                -122.39037004668563,
                47.62814999998991
            ],
            [
                -122.39036999781023,
                47.62815000069197
            ],
            [
                -122.39036998102888,
                47.6281500135125
            ],
            [
                -122.39037113860432,
                47.62814918671192
            ],
            [
                -122.39040051055106,
                47.62812820674928
            ],
            [
                -122.39044073052821,
                47.6280994781941
            ],
            [
                -122.39043999369312,
                47.628100004504894
            ],
            [
                -122.39043999992738,
                47.62810000005187
            ],
            [
                -122.3904400000023,
                47.62809999999834
            ],
            [
                -122.39043999999936,
                47.628100000000565
            ],
            [
                -122.39043999999646,
                47.62810000000406
            ],
            [
                -122.3904400001903,
                47.62809999978251
            ],
            [
                -122.39044000203889,
                47.62809999766949
            ],
            [
                -122.39043986278237,
                47.62810015684485
            ],
            [
                -122.39043809450772,
                47.62810217804867
            ],
            [
                -122.39036303818425,
                47.62818793981866
            ],
            [
                -122.39036703640754,
                47.62818486220244
            ],
            [
                -122.39042107784998,
                47.62809805171264
            ],
            [
                -122.39035120533188,
                47.62816912028758
            ],
            [
                -122.3903586895227,
                47.6281136040859
            ],
            [
                -122.39028293068272,
                47.62813918476726
            ],
            [
                -122.39027293170746,
                47.628135809145114
            ],
            [
                -122.39038183814301,
                47.628201100830864
            ],
            [
                -122.39037991911158,
                47.628200224791705
            ],
            [
                -122.39038102036116,
                47.628204395508924
            ],
            [
                -122.39035618472876,
                47.62810879452685
            ],
            [
                -122.39038379098847,
                47.628170732306494
            ],
            [
                -122.3903925184295,
                47.62812623284662
            ],
            [
                -122.3903632665795,
                47.628109946845264
            ],
            [
                -122.39036994277981,
                47.62810999954829
            ],
            [
                -122.3903700008157,
                47.62811000000642
            ],
            [
                -122.39036999931,
                47.62810999999123
            ],
            [
                -122.39036999365089,
                47.62810999993448
            ],
            [
                -122.39036990145982,
                47.62810999898423
            ],
            [
                -122.39036876903796,
                47.62810998731125
            ],
            [
                -122.39034736621333,
                47.628109804790945
            ],
            [
                -122.39036013929402,
                47.628122920658264
            ],
            [
                -122.39038901149002,
                47.62813010208262
            ],
            [
                -122.3903899712868,
                47.62810950046526
            ],
            [
                -122.39038977542945,
                47.628110028721814
            ],
            [
                -122.3903995566148,
                47.62809804289827
            ],
            [
                -122.39040490694934,
                47.62810569862506
            ],
            [
                -122.3904100527453,
                47.62813024648127
            ],
            [
                -122.39040999901552,
                47.62812999592184
            ],
            [
                -122.39041000643493,
                47.628129996883786
            ],
            [
                -122.39041012824921,
                47.62812993589644
            ],
            [
                -122.39041037085934,
                47.62812981457559
            ],
            [
                -122.39039899462615,
                47.628135502686845
            ],
            [
                -122.39039000697849,
                47.62813999651074
            ],
            [
                -122.39039000250214,
                47.62813999874893
            ],
            [
                -122.39038999998728,
                47.62814000000635
            ],
            [
                -122.39038999999697,
                47.62814000000105
            ],
            [
                -122.39038999999647,
                47.6281399999947
            ],
            [
                -122.39039000002133,
                47.62814000003513
            ],
            [
                -122.39039000283478,
                47.62814000466642
            ],
            [
                -122.39039003380366,
                47.62814005564517
            ],
            [
                -122.3903895826749,
                47.62813931302879
            ],
            [
                -122.39034063286421,
                47.62805361933567
            ],
            [
                -122.39034004230068,
                47.6280509938488
            ],
            [
                -122.39033961430913,
                47.628048200717075
            ],
            [
                -122.39034418626605,
                47.628068838713624
            ],
            [
                -122.39035879020837,
                47.6281345576614
            ],
            [
                -122.39035993076706,
                47.62813970752599
            ],
            [
                -122.39035998072974,
                47.62814039966333
            ],
            [
                -122.3903600032719,
                47.62813876269958
            ],
            [
                -122.39036002535286,
                47.62812489516598
            ],
            [
                -122.39035714087268,
                47.628179901794745
            ],
            [
                -122.39034978472704,
                47.62816006530522
            ],
            [
                -122.39036077722407,
                47.628160008448084
            ],
            [
                -122.39036003920627,
                47.62816000040428
            ],
            [
                -122.39035999866516,
                47.628160001152466
            ],
            [
                -122.39036000746962,
                47.628159983067974
            ],
            [
                -122.39036045794592,
                47.62815896076394
            ],
            [
                -122.39037887185692,
                47.62813250725167
            ],
            [
                -122.39043211294201,
                47.62817307159918
            ],
            [
                -122.39042955701228,
                47.62816935602557
            ],
            [
                -122.3904299735455,
                47.62816996154296
            ],
            [
                -122.39042999854901,
                47.6281699978913
            ],
            [
                -122.39043000009221,
                47.62817000009476
            ],
            [
                -122.39043000064933,
                47.62817000048811
            ],
            [
                -122.39043007289506,
                47.628170054671315
            ],
            [
                -122.39040901455559,
                47.62815426091669
            ],
            [
                -122.39039026409273,
                47.62814019806956
            ],
            [
                -122.39039001724916,
                47.62814001293687
            ],
            [
                -122.39039000128484,
                47.62814000096364
            ],
            [
                -122.39039000009704,
                47.628140000072804
            ],
            [
                -122.39039000000494,
                47.62814000000371
            ],
            [
                -122.39038999999991,
                47.62813999999994
            ],
            [
                -122.39039000000001,
                47.62814
            ],
            [
                -122.39039000000001,
                47.62814
            ],
            [
                -122.39038999999998,
                47.628139999999995
            ],
            [
                -122.39039,
                47.62814
            ],
            [
                -122.39038999999997,
                47.62814
            ],
            [
                -122.39039000000001,
                47.62814000000001
            ],
            [
                -122.39039,
                47.62814
            ],
            [
                -122.39039000000001,
                47.628139999999995
            ],
            [
                -122.39038999999998,
                47.628139999999995
            ],
            [
                -122.39039000000002,
                47.628140000000016
            ],
            [
                -122.39038999999995,
                47.62813999999999
            ],
            [
                -122.39038999999998,
                47.62814
            ],
            [
                -122.39038999999997,
                47.628139999999995
            ],
            [
                -122.39038999999998,
                47.628140000000016
            ],
            [
                -122.39039,
                47.62814
            ]
        ]
    },
    "properties": {
        "trajectory_id": 7364,
        "object_id": 368265640,
        "label": "PLEASURE CRAFT"
    }
}