{
    "type": "Feature",
    "geometry": {
        "type": "LineString",
        "coordinates": [
            [
                -122.7792,
                48.10688
            ],
            [
                -122.77919976423344,
                48.10688003627769
            ],
            [
                -122.77906252717752,
                48.10690114903797
            ],
            [
                -122.77920198862903,
                48.106879521654264
            ],
            [
                -122.77913173908136,
                48.10689953577292
            ],
            [
                -122.77913322254145,
                48.106906622659764
            ],
            [
                -122.77910944892743,
                48.10684860551216
            ],
            [
                -122.77910988438363,
                48.106850034955315
            ],
            [
                -122.77910620371462,
                48.10684934440221
            ],
            [
                -122.7792313190556,
                48.10686929504581
            ],
            [
                -122.7791894790379,
                48.10685987437253
            ],
            [
                -122.77918483285471,
                48.10685556807792
            ],
            [
                -122.77924856298857,
                48.10685947192592
            ],
            [
                -122.77919139335974,
                48.106838022235564
            ],
            [
                -122.77916978649779,
                48.106829919207314
            ],
            [
                -122.77916994067873,
                48.10682983201323
            ],
            [
                -122.77918718200627,
                48.106885161147545
            ],
            [
                -122.77917606164478,
                48.10695048237532
            ],
            [
                -122.77920036924054,
                48.10684645817537
            ],
            [
                -122.77920429842193,
                48.10690062578807
            ],
            [
                -122.77921110123309,
                48.10687993418483
            ],
            [
                -122.77920799631498,
                48.10687974228358
            ],
            [
                -122.77914616203634,
                48.10687633717945
            ],
            [
                -122.7791032845196,
                48.106904040614985
            ],
            [
                -122.77916887632698,
                48.10692105837606
            ],
            [
                -122.77920303943245,
                48.10699932194542
            ],
            [
                -122.77916996652233,
                48.10686975639541
            ],
            [
                -122.7791704263864,
                48.10686928532503
            ],
            [
                -122.77916908531809,
                48.10682243075548
            ],
            [
                -122.7792102864901,
                48.10688015800828
            ],
            [
                -122.77917010708684,
                48.10684009304276
            ],
            [
                -122.77913650606996,
                48.106839406888184
            ],
            [
                -122.77913115636471,
                48.1068400040025
            ],
            [
                -122.7791782596822,
                48.10683573933159
            ],
            [
                -122.77913043105683,
                48.10687975822737
            ],
            [
                -122.77914265383433,
                48.10687311379552
            ],
            [
                -122.77917116837905,
                48.10683903411585
            ],
            [
                -122.77919916297692,
                48.10693041901986
            ],
            [
                -122.7791880057516,
                48.10688507177848
            ],
            [
                -122.77918988065473,
                48.106889705069406
            ],
            [
                -122.77918999964547,
                48.10688999899456
            ],
            [
                -122.7791899979911,
                48.10688996855494
            ],
            [
                -122.77919006188311,
                48.106890969432264
            ],
            [
                -122.77919049070306,
                48.10690531611834
            ],
            [
                -122.77917748863402,
                48.10691790441484
            ],
            [
                -122.77919132298744,
                48.106879278334546
            ],
            [
                -122.77914823355462,
                48.10683808691721
            ],
            [
                -122.77915000624127,
                48.10683999240757
            ],
            [
                -122.77915253933524,
                48.106839921968394
            ],
            [
                -122.77917970506535,
                48.10685088184914
            ],
            [
                -122.77918749759307,
                48.10697907122867
            ],
            [
                -122.77918022031497,
                48.10693400237455
            ],
            [
                -122.77916934328977,
                48.106870155228776
            ],
            [
                -122.7792564036513,
                48.106796158889
            ],
            [
                -122.77919020006709,
                48.106800054186465
            ],
            [
                -122.77918999722245,
                48.10679999924768
            ],
            [
                -122.77919000003655,
                48.10680000001191
            ],
            [
                -122.77918999999333,
                48.10680000003233
            ],
            [
                -122.77918999932871,
                48.106800002682775
            ],
            [
                -122.77918999554564,
                48.106800017801206
            ],
            [
                -122.77916982950481,
                48.106880684445755
            ],
            [
                -122.77917055934377,
                48.10687947686807
            ],
            [
                -122.77921604160129,
                48.10679183959864
            ],
            [
                -122.77928158680744,
                48.10679952974074
            ],
            [
                -122.77927419573808,
                48.10680419969468
            ],
            [
                -122.77916975533215,
                48.10687996618117
            ],
            [
                -122.77916342213298,
                48.10692037589814
            ],
            [
                -122.77920754630586,
                48.10687137641372
            ],
            [
                -122.77920000565555,
                48.10686004576345
            ],
            [
                -122.77919832791534,
                48.106862320543456
            ],
            [
                -122.77917610757798,
                48.10689064430677
            ],
            [
                -122.77918995615585,
                48.10687006476475
            ],
            [
                -122.77919000075092,
                48.10686999888615
            ],
            [
                -122.77919000028103,
                48.106869999867264
            ],
            [
                -122.77919005433505,
                48.10686997197096
            ],
            [
                -122.77916962465491,
                48.10687912317847
            ],
            [
                -122.77914999840183,
                48.10687019916125
            ],
            [
                -122.77916310546507,
                48.106879215523634
            ],
            [
                -122.77922613523165,
                48.1068254617305
            ],
            [
                -122.77924504696843,
                48.106893840123085
            ],
            [
                -122.77921039621884,
                48.10688024188239
            ],
            [
                -122.7792099838135,
                48.106880007353425
            ],
            [
                -122.77920799239104,
                48.10688200975028
            ],
            [
                -122.77923088836927,
                48.106860071402224
            ],
            [
                -122.77919751534908,
                48.10684481169384
            ],
            [
                -122.77920050293412,
                48.10682784645266
            ],
            [
                -122.77920001584013,
                48.10682993217309
            ],
            [
                -122.77920000005876,
                48.106829999748356
            ],
            [
                -122.77920000000016,
                48.10682999999935
            ],
            [
                -122.77919999999999,
                48.106829999999995
            ],
            [
                -122.7792,
                48.10683000000001
            ],
            [
                -122.77919999999925,
                48.10682999999792
            ],
            [
                -122.77919999975502,
                48.10682999933372
            ],
            [
                -122.77919993583208,
                48.10682982547932
            ],
            [
                -122.77922854266973,
                48.10692056407432
            ],
            [
                -122.77920006134272,
                48.10687011959497
            ],
            [
                -122.77920000034608,
                48.10686999157482
            ],
            [
                -122.7792000000019,
                48.1068677752283
            ],
            [
                -122.7792,
                48.10686002075482
            ],
            [
                -122.77919999999999,
                48.10686000110992
            ],
            [
                -122.77919999999997,
                48.106860000005724
            ],
            [
                -122.77920000000002,
                48.106860000000545
            ],
            [
                -122.7792,
                48.10685999999999
            ],
            [
                -122.77919999999999,
                48.106859999999976
            ],
            [
                -122.7792,
                48.106860000000005
            ],
            [
                -122.77919999999999,
                48.10686
            ],
            [
                -122.77920000000002,
                48.106860000000005
            ],
            [
                -122.7792,
                48.10686
            ],
            [
                -122.77919999999999,
                48.106860000000005
            ],
            [
                -122.77919999999723,
                48.10686000000275
            ],
            [
                -122.77919999946708,
                48.106860000532905
            ],
            [
                -122.7791999014944,
                48.10686009850566
            ],
            [
                -122.77918980894155,
                48.106870191058434
            ],
            [
                -122.77919002287571,
                48.10686997712426
            ],
            [
                -122.77918999996197,
                48.10687000003805
            ],
            [
                -122.77918999999986,
                48.106870000000164
            ],
            [
                -122.77918999999997,
                48.106869999999994
            ],
            [
                -122.77919,
                48.106869999999994
            ],
            [
                -122.77918999999997,
                48.106869999999994
            ],
            [
                -122.77919,
                48.10687
            ]
        ]
    },
    "properties": {
        "trajectory_id": 7387,
        "object_id": 368269430,
        "label": "PLEASURE CRAFT"
    }
}