{
    "type": "Feature",
    "geometry": {
        "type": "LineString",
        "coordinates": [
            [
                -122.38968,
                47.62872
            ],
            [
                -122.38968997501549,
                47.62865017505212
            ],
            [
                -122.38969000840805,
                47.62865002078236
            ],
            [
                -122.38969214973677,
                47.628654432353706
            ],
            [
                -122.38972994442503,
                47.628593111219764
            ],
            [
                -122.38972604090633,
                47.628606889697195
            ],
            [
                -122.38969127639616,
                47.62866924087909
            ],
            [
                -122.38968362599981,
                47.628685739642016
            ],
            [
                -122.38972262777543,
                47.62868177390124
            ],
            [
                -122.38972199912877,
                47.62867405547709
            ],
            [
                -122.3897299809946,
                47.628650057303076
            ],
            [
                -122.38972999989792,
                47.628650000307836
            ],
            [
                -122.38973000000779,
                47.628649999999475
            ],
            [
                -122.38973000205266,
                47.628649999508106
            ],
            [
                -122.38973042533625,
                47.62864989807179
            ],
            [
                -122.38970689118318,
                47.628675891086225
            ],
            [
                -122.3897701337458,
                47.62868152728309
            ],
            [
                -122.38975713136298,
                47.62863228022972
            ],
            [
                -122.3896335343307,
                47.62871882709685
            ],
            [
                -122.3896323810596,
                47.62871946887966
            ],
            [
                -122.38971761885065,
                47.62870052915323
            ],
            [
                -122.38971998940397,
                47.62870000629293
            ],
            [
                -122.38972030119965,
                47.62870070371768
            ],
            [
                -122.38971084002043,
                47.62864838190649
            ],
            [
                -122.38973414444455,
                47.6286851396071
            ],
            [
                -122.38968661133947,
                47.62862444552942
            ],
            [
                -122.38972018483095,
                47.6286802698225
            ],
            [
                -122.38972538691516,
                47.62868156180345
            ],
            [
                -122.38972917070465,
                47.628682198725485
            ],
            [
                -122.38973558114172,
                47.62864815654355
            ],
            [
                -122.38969054575931,
                47.628697427318855
            ],
            [
                -122.3896808087033,
                47.62870205336322
            ],
            [
                -122.38966953254103,
                47.628645128894185
            ],
            [
                -122.38969065758413,
                47.628699801709686
            ],
            [
                -122.38968997145234,
                47.628700017065924
            ],
            [
                -122.38968669397035,
                47.62870242103193
            ],
            [
                -122.38968912880259,
                47.62864948660909
            ],
            [
                -122.38971799198721,
                47.628741119249575
            ],
            [
                -122.38972097846808,
                47.628740327008686
            ],
            [
                -122.38967964644117,
                47.62874045861459
            ],
            [
                -122.38972024980076,
                47.62870968662184
            ],
            [
                -122.38967855794435,
                47.628691717711995
            ],
            [
                -122.38967001395467,
                47.628700012155285
            ],
            [
                -122.38967496343562,
                47.62870217785759
            ],
            [
                -122.38967119831501,
                47.628641392103184
            ],
            [
                -122.38968032691555,
                47.62876702717188
            ],
            [
                -122.38964306536373,
                47.62869687428699
            ],
            [
                -122.3897216597162,
                47.628731732636496
            ],
            [
                -122.3896705366463,
                47.62867980635846
            ],
            [
                -122.38976790368739,
                47.628689310979304
            ],
            [
                -122.38974340964933,
                47.62871372211947
            ],
            [
                -122.38971966719336,
                47.62870147030664
            ],
            [
                -122.38966907978023,
                47.62866097888024
            ],
            [
                -122.3896900108418,
                47.62866991214028
            ],
            [
                -122.38971913138997,
                47.628679709879066
            ],
            [
                -122.38971999896663,
                47.628679974739626
            ],
            [
                -122.38972072002304,
                47.62867509892271
            ],
            [
                -122.38974915951597,
                47.628661970665355
            ],
            [
                -122.38974999554279,
                47.6286600104508
            ],
            [
                -122.38974999997741,
                47.628660000052456
            ],
            [
                -122.38974999994706,
                47.62866000001954
            ],
            [
                -122.38974998991709,
                47.62866000367426
            ],
            [
                -122.38974792615498,
                47.62866075571802
            ],
            [
                -122.38966296620542,
                47.62869391449034
            ],
            [
                -122.38964120815156,
                47.628748065061664
            ],
            [
                -122.38973081282971,
                47.62865926395493
            ],
            [
                -122.38968712916207,
                47.628692152598035
            ],
            [
                -122.38968998910109,
                47.628690014688246
            ],
            [
                -122.38969135617555,
                47.6286913566775
            ],
            [
                -122.38972444374647,
                47.6287244437854
            ],
            [
                -122.3896903407597,
                47.628690338374795
            ],
            [
                -122.38968908428285,
                47.62868867145835
            ],
            [
                -122.38967557017354,
                47.62869018574112
            ],
            [
                -122.38969209316238,
                47.62864577410315
            ],
            [
                -122.38975422540466,
                47.62863741173551
            ],
            [
                -122.38972081346981,
                47.62868005468063
            ],
            [
                -122.38974964075092,
                47.62869985493013
            ],
            [
                -122.38974975327454,
                47.62869991640829
            ],
            [
                -122.38972017727525,
                47.628689922157044
            ],
            [
                -122.38974998028306,
                47.628670013260866
            ],
            [
                -122.38974999734702,
                47.62866999709223
            ],
            [
                -122.38976027696638,
                47.62868027676912
            ],
            [
                -122.38976002332907,
                47.62867995881521
            ],
            [
                -122.3897255520563,
                47.628722110764365
            ],
            [
                -122.38969006274334,
                47.628719999059726
            ],
            [
                -122.38969632988605,
                47.62871640099032
            ],
            [
                -122.38968666521728,
                47.62868303905711
            ],
            [
                -122.38972991240121,
                47.628639238637504
            ],
            [
                -122.38972987952891,
                47.628660161723694
            ],
            [
                -122.389739550374,
                47.62864898976301
            ],
            [
                -122.38968999270271,
                47.628672103113914
            ],
            [
                -122.38972120387017,
                47.62866753592381
            ],
            [
                -122.38975023289967,
                47.628710289367376
            ],
            [
                -122.38975000124964,
                47.62871000155368
            ],
            [
                -122.38974999975753,
                47.628709999925356
            ],
            [
                -122.38974994977934,
                47.62870998328216
            ],
            [
                -122.3897376577992,
                47.62870589040077
            ],
            [
                -122.38972006116757,
                47.62870091191357
            ],
            [
                -122.38972000032477,
                47.62868992446296
            ],
            [
                -122.38972000000159,
                47.628689999631746
            ],
            [
                -122.38972,
                47.62868999999816
            ],
            [
                -122.38972000000001,
                47.628690000000006
            ],
            [
                -122.38972000000001,
                47.62869
            ],
            [
                -122.38971999999998,
                47.62868999999999
            ],
            [
                -122.38972000000001,
                47.62869
            ],
            [
                -122.38972,
                47.62868999999999
            ],
            [
                -122.38971999999997,
                47.628689999999985
            ],
            [
                -122.38971999999998,
                47.62868999999999
            ],
            [
                -122.38972,
                47.628690000000006
            ],
            [
                -122.38972000000001,
                47.628690000000006
            ],
            [
                -122.38971999999998,
                47.62869
            ],
            [
                -122.38972,
                47.62869
            ],
            [
                -122.38972000000001,
                47.62868999999999
            ],
            [
                -122.38972000000001,
                47.62868999999999
            ],
            [
                -122.38972,
                47.62869
            ],
            [
                -122.38972000000004,
                47.628690000000006
            ],
            [
                -122.38972000000204,
                47.628690000000006
            ],
            [
                -122.38972000021765,
                47.62868999999999
            ],
            [
                -122.38972002799646,
                47.62869
            ],
            [
                -122.38969,
                47.62869
            ]
        ]
    },
    "properties": {
        "trajectory_id": 7393,
        "object_id": 368269470,
        "label": "PLEASURE CRAFT"
    }
}