{
    "type": "Feature",
    "geometry": {
        "type": "LineString",
        "coordinates": [
            [
                -122.60376,
                48.50231
            ],
            [
                -122.60375999772369,
                48.502310000758825
            ],
            [
                -122.60375729973151,
                48.50231090013928
            ],
            [
                -122.60364015155217,
                48.50234996090729
            ],
            [
                -122.6036893486085,
                48.502339676842034
            ],
            [
                -122.60371006190272,
                48.50238013079943
            ],
            [
                -122.6037100093501,
                48.50237997309832
            ],
            [
                -122.60371211415085,
                48.5023734927131
            ],
            [
                -122.60370987967435,
                48.502340227061254
            ],
            [
                -122.6037094418291,
                48.5023402771058
            ],
            [
                -122.60373079507599,
                48.50232891773406
            ],
            [
                -122.60370988940066,
                48.50236016358412
            ],
            [
                -122.6037114554401,
                48.50235702970378
            ],
            [
                -122.60375294603453,
                48.50232126078932
            ],
            [
                -122.60374994731457,
                48.50228782996841
            ],
            [
                -122.60374997944413,
                48.50234034330146
            ],
            [
                -122.60374530802882,
                48.502340001848424
            ],
            [
                -122.60375197627246,
                48.502340000034735
            ],
            [
                -122.6037315212044,
                48.50234000503329
            ],
            [
                -122.60368065849356,
                48.50234101820158
            ],
            [
                -122.60370112173284,
                48.5023893081071
            ],
            [
                -122.6036784549846,
                48.502402358029336
            ],
            [
                -122.60380142061128,
                48.50227857274638
            ],
            [
                -122.60375474846774,
                48.50232245243425
            ],
            [
                -122.60368013072757,
                48.50237981332065
            ],
            [
                -122.60368000056451,
                48.50237999844522
            ],
            [
                -122.60367997884806,
                48.502379881900104
            ],
            [
                -122.60367481376323,
                48.50234973979892
            ],
            [
                -122.60364085338621,
                48.50233930636681
            ],
            [
                -122.60364001941039,
                48.5023400004341
            ],
            [
                -122.60364301095083,
                48.502340813037804
            ],
            [
                -122.6037491432582,
                48.50236818564385
            ],
            [
                -122.60372959682216,
                48.502380171685594
            ],
            [
                -122.60373000655328,
                48.502380000464925
            ],
            [
                -122.60373077920717,
                48.50238030575297
            ],
            [
                -122.60362411100128,
                48.5023364971089
            ],
            [
                -122.6037276883295,
                48.50233998265538
            ],
            [
                -122.6037299879046,
                48.50234000027863
            ],
            [
                -122.60372985773705,
                48.502340071102495
            ],
            [
                -122.60375369392155,
                48.502328153037354
            ],
            [
                -122.60372990261854,
                48.50234004835612
            ],
            [
                -122.60372994538713,
                48.50233991031993
            ],
            [
                -122.60373165157455,
                48.50234630184772
            ],
            [
                -122.60370193155926,
                48.50238511927743
            ],
            [
                -122.60371192626364,
                48.50231011594569
            ],
            [
                -122.60368992495296,
                48.50231810920566
            ],
            [
                -122.60368999964479,
                48.50234007064718
            ],
            [
                -122.60369000060318,
                48.502340000335614
            ],
            [
                -122.60369011442015,
                48.50234000001251
            ],
            [
                -122.60374936626427,
                48.5023400019117
            ],
            [
                -122.60375050718173,
                48.50234035494046
            ],
            [
                -122.6037123350554,
                48.502370130975144
            ],
            [
                -122.60371001020785,
                48.5023700014426
            ],
            [
                -122.60370999962062,
                48.50237015426797
            ],
            [
                -122.60370992369138,
                48.5023799477015
            ],
            [
                -122.60373040138627,
                48.50237999972584
            ],
            [
                -122.60372990460736,
                48.50238000001945
            ],
            [
                -122.6037703320452,
                48.502380002683196
            ],
            [
                -122.60377081325873,
                48.502380270815124
            ],
            [
                -122.60370999171921,
                48.502359997239054
            ],
            [
                -122.60371000002142,
                48.50236000000714
            ],
            [
                -122.6037099999986,
                48.50235999999897
            ],
            [
                -122.60371,
                48.50235999980751
            ],
            [
                -122.60371000000148,
                48.502359945434975
            ],
            [
                -122.6037100004088,
                48.50234047265534
            ],
            [
                -122.60371009220903,
                48.50239921394574
            ],
            [
                -122.60372971670878,
                48.502399995566705
            ],
            [
                -122.60372999857313,
                48.50240000013015
            ],
            [
                -122.60373007525276,
                48.50240003363785
            ],
            [
                -122.60368546231393,
                48.502376814290294
            ],
            [
                -122.60369005516951,
                48.50235998574329
            ],
            [
                -122.60369000052621,
                48.502359999893464
            ],
            [
                -122.60369004780895,
                48.50235999390553
            ],
            [
                -122.60370110926199,
                48.50235855564087
            ],
            [
                -122.60371732557883,
                48.50233998828035
            ],
            [
                -122.60366385429779,
                48.50236203926402
            ],
            [
                -122.60366994911362,
                48.50236001690245
            ],
            [
                -122.60366632004511,
                48.502361224512796
            ],
            [
                -122.60372910290873,
                48.50233985059613
            ],
            [
                -122.60375015579181,
                48.50233999922036
            ],
            [
                -122.60375001566874,
                48.5023400000045
            ],
            [
                -122.6037534182403,
                48.50234000172162
            ],
            [
                -122.60374889979899,
                48.50234035369093
            ],
            [
                -122.60375816830627,
                48.502358882470816
            ],
            [
                -122.60376101694231,
                48.50237333550575
            ],
            [
                -122.60375029910216,
                48.502370692190816
            ],
            [
                -122.60375027276602,
                48.50235034633933
            ],
            [
                -122.60370630132392,
                48.50232884946859
            ],
            [
                -122.60372916075961,
                48.502379871833845
            ],
            [
                -122.60377696144359,
                48.50234164224958
            ],
            [
                -122.60370862403406,
                48.50236226208073
            ],
            [
                -122.60376094924592,
                48.5023446811277
            ],
            [
                -122.60374164140342,
                48.50234082324094
            ],
            [
                -122.60375104256462,
                48.50232862209256
            ],
            [
                -122.6036757701812,
                48.50237205644284
            ],
            [
                -122.60366905524567,
                48.502400024327535
            ],
            [
                -122.60369163660422,
                48.50234737637011
            ],
            [
                -122.60368806884104,
                48.50236085698473
            ],
            [
                -122.60368058256759,
                48.50234835345947
            ],
            [
                -122.60371835601329,
                48.50234295013267
            ],
            [
                -122.60366861852867,
                48.50238005266092
            ],
            [
                -122.6036503299433,
                48.50233127987699
            ],
            [
                -122.60371980392377,
                48.502362145621355
            ],
            [
                -122.60372991889956,
                48.502373421727164
            ],
            [
                -122.60371464936483,
                48.50232942066557
            ],
            [
                -122.60375280815337,
                48.50237263394696
            ],
            [
                -122.60374630267339,
                48.502324540658755
            ],
            [
                -122.60372334760002,
                48.50236535584278
            ],
            [
                -122.60368574335462,
                48.50234030036632
            ],
            [
                -122.60374607468955,
                48.502358245217316
            ],
            [
                -122.60369754389211,
                48.50235059260165
            ],
            [
                -122.6037071300146,
                48.5023797416908
            ],
            [
                -122.60371243490235,
                48.502359048396976
            ],
            [
                -122.60372989161347,
                48.5023393112665
            ],
            [
                -122.60372870552116,
                48.502291415476165
            ],
            [
                -122.60375985058425,
                48.502319698951155
            ],
            [
                -122.6037506331257,
                48.50237939957397
            ],
            [
                -122.60370991713256,
                48.50235068126363
            ],
            [
                -122.60375028263034,
                48.50235975956949
            ],
            [
                -122.60369,
                48.50232
            ]
        ]
    },
    "properties": {
        "trajectory_id": 7454,
        "object_id": 368282480,
        "label": "PLEASURE CRAFT"
    }
}