{
    "type": "Feature",
    "geometry": {
        "type": "LineString",
        "coordinates": [
            [
                -122.23811,
                47.69886
            ],
            [
                -122.23802988476422,
                47.69886969079552
            ],
            [
                -122.23805481683785,
                47.698859935059254
            ],
            [
                -122.23805029841613,
                47.698890432816015
            ],
            [
                -122.2381293199733,
                47.69889067756252
            ],
            [
                -122.23804892541739,
                47.6989305321283
            ],
            [
                -122.23811055108021,
                47.698899706321804
            ],
            [
                -122.23812048684164,
                47.69888605404337
            ],
            [
                -122.23805917654444,
                47.69887912221407
            ],
            [
                -122.23803416898346,
                47.69890089704316
            ],
            [
                -122.23803686081187,
                47.69890092170492
            ],
            [
                -122.23816868627262,
                47.69892340206515
            ],
            [
                -122.2380307488455,
                47.69893095193498
            ],
            [
                -122.23814700113346,
                47.698893970216965
            ],
            [
                -122.23812333671528,
                47.6989642613873
            ],
            [
                -122.23816971278528,
                47.6989202938454
            ],
            [
                -122.23819330453158,
                47.69892962443503
            ],
            [
                -122.23810344173305,
                47.69890453648474
            ],
            [
                -122.23810010853683,
                47.69889490782724
            ],
            [
                -122.23800983011752,
                47.69888704459454
            ],
            [
                -122.23803023498888,
                47.69888949873783
            ],
            [
                -122.2380596095677,
                47.698852953480824
            ],
            [
                -122.23810658592687,
                47.698848672219754
            ],
            [
                -122.23814226221245,
                47.698969486068926
            ],
            [
                -122.23816471639933,
                47.69883965106228
            ],
            [
                -122.23825039537438,
                47.69893032703531
            ],
            [
                -122.23825885140919,
                47.69893206633072
            ],
            [
                -122.23805469286657,
                47.6988964664041
            ],
            [
                -122.23798058455938,
                47.69887284725042
            ],
            [
                -122.2380580111358,
                47.69890057594945
            ],
            [
                -122.23816900215344,
                47.69893988149862
            ],
            [
                -122.23802146841908,
                47.69899153888137
            ],
            [
                -122.23800641792701,
                47.6989495936744
            ],
            [
                -122.23812851464164,
                47.69893041237501
            ],
            [
                -122.23799750771904,
                47.69896055080987
            ],
            [
                -122.23804035940273,
                47.69895800073518
            ],
            [
                -122.23808028956005,
                47.69891483693811
            ],
            [
                -122.2380726248875,
                47.69892123748744
            ],
            [
                -122.23799941896199,
                47.6989374775518
            ],
            [
                -122.23800085178944,
                47.6989398206418
            ],
            [
                -122.23799585803533,
                47.6989405442672
            ],
            [
                -122.23807892841,
                47.69888934023531
            ],
            [
                -122.23804783272763,
                47.69889000313926
            ],
            [
                -122.23805002989229,
                47.69888999995678
            ],
            [
                -122.23805000018032,
                47.698890000013854
            ],
            [
                -122.23805000003931,
                47.69889000057045
            ],
            [
                -122.23805000012632,
                47.698889987942025
            ],
            [
                -122.23804999276098,
                47.69889069043863
            ],
            [
                -122.2380510486096,
                47.69896028693517
            ],
            [
                -122.23809919039036,
                47.69884718317424
            ],
            [
                -122.23811986872599,
                47.69886004720032
            ],
            [
                -122.2381285859428,
                47.69885756227007
            ],
            [
                -122.23800999129985,
                47.6990072993712
            ],
            [
                -122.23799693813828,
                47.6988501610059
            ],
            [
                -122.23812757028605,
                47.6988459334601
            ],
            [
                -122.23818976912202,
                47.698839988231725
            ],
            [
                -122.23812275176492,
                47.69882077064788
            ],
            [
                -122.2381220846798,
                47.69881809432826
            ],
            [
                -122.2379897803962,
                47.6988606483809
            ],
            [
                -122.23802899761296,
                47.698840139046226
            ],
            [
                -122.23803000742785,
                47.698840000436185
            ],
            [
                -122.2380635544144,
                47.69884532922057
            ],
            [
                -122.23811619180233,
                47.69887238744495
            ],
            [
                -122.23813204823398,
                47.698938729853666
            ],
            [
                -122.2381724079687,
                47.698872401691574
            ],
            [
                -122.23803047572113,
                47.69890177325696
            ],
            [
                -122.23803994364408,
                47.69887814493985
            ],
            [
                -122.23804183137814,
                47.69896932118865
            ],
            [
                -122.23807876865023,
                47.69909141057905
            ],
            [
                -122.23798174774188,
                47.69909121149214
            ],
            [
                -122.23812362152505,
                47.69904149436706
            ],
            [
                -122.23814994505493,
                47.69904993936264
            ],
            [
                -122.23814885840187,
                47.699039441473865
            ],
            [
                -122.23805248678794,
                47.698960579813686
            ],
            [
                -122.23805996522304,
                47.69892038129262
            ],
            [
                -122.23804006908003,
                47.69888993543894
            ],
            [
                -122.23802166252085,
                47.6989485391819
            ],
            [
                -122.23811648674004,
                47.69888596327891
            ],
            [
                -122.23821969632324,
                47.698827212773466
            ],
            [
                -122.23813128373028,
                47.69888906214808
            ],
            [
                -122.23817473383637,
                47.6988166998243
            ],
            [
                -122.2381370302486,
                47.69883439278368
            ],
            [
                -122.23808225626007,
                47.69890675712659
            ],
            [
                -122.23808063156272,
                47.698908262019344
            ],
            [
                -122.23810764204906,
                47.69883130968705
            ],
            [
                -122.23819111535529,
                47.69893471661143
            ],
            [
                -122.2381341173359,
                47.698850627722756
            ],
            [
                -122.23812559186285,
                47.69885127237276
            ],
            [
                -122.23811993545354,
                47.698910675769476
            ],
            [
                -122.23812006871944,
                47.69891026521521
            ],
            [
                -122.23813085250576,
                47.698954449525466
            ],
            [
                -122.23802778875313,
                47.698973350649304
            ],
            [
                -122.23808986437821,
                47.69902078587038
            ],
            [
                -122.23800664377514,
                47.69903433811572
            ],
            [
                -122.23810573684894,
                47.699023693752046
            ],
            [
                -122.23812058130312,
                47.698933465001
            ],
            [
                -122.2381199092651,
                47.698929918594466
            ],
            [
                -122.23814735210864,
                47.69897973063901
            ],
            [
                -122.23809098781896,
                47.69881875260791
            ],
            [
                -122.23811245734487,
                47.698818206325406
            ],
            [
                -122.2379176535882,
                47.698954646196185
            ],
            [
                -122.23790928399991,
                47.69895988291629
            ],
            [
                -122.23780639156412,
                47.69899407455722
            ],
            [
                -122.23816204219455,
                47.698886330241706
            ],
            [
                -122.23814959471117,
                47.69889034756652
            ],
            [
                -122.23816121578659,
                47.69887396140366
            ],
            [
                -122.2380713276424,
                47.69899819822033
            ],
            [
                -122.23802516937884,
                47.69896668192292
            ],
            [
                -122.23802994728955,
                47.6989699566748
            ],
            [
                -122.23802326080606,
                47.698960375094565
            ],
            [
                -122.23796068691257,
                47.698870981380395
            ],
            [
                -122.23796000372157,
                47.69887000531534
            ],
            [
                -122.2379599999056,
                47.69886999995172
            ],
            [
                -122.23796000422185,
                47.69886999842959
            ],
            [
                -122.23796041700388,
                47.69886984473723
            ],
            [
                -122.23803030779459,
                47.6988796925317
            ],
            [
                -122.2380400321073,
                47.69889003543849
            ],
            [
                -122.23804422553823,
                47.69888439306812
            ],
            [
                -122.23812559769493,
                47.69886540416009
            ],
            [
                -122.23811,
                47.69886
            ]
        ]
    },
    "properties": {
        "trajectory_id": 7492,
        "object_id": 368287550,
        "label": "PLEASURE CRAFT"
    }
}