{
    "type": "Feature",
    "geometry": {
        "type": "LineString",
        "coordinates": [
            [
                -122.38998,
                47.62829
            ],
            [
                -122.39003196088652,
                47.62835894056183
            ],
            [
                -122.39004284413721,
                47.62841666491897
            ],
            [
                -122.39003103691472,
                47.62827944800003
            ],
            [
                -122.39002036791972,
                47.628264157950085
            ],
            [
                -122.3900677235246,
                47.62843670070851
            ],
            [
                -122.39013160701587,
                47.62842050156972
            ],
            [
                -122.39003240916013,
                47.62834583062433
            ],
            [
                -122.39005453592117,
                47.628335730822904
            ],
            [
                -122.39001290746914,
                47.62833369448998
            ],
            [
                -122.39007186099255,
                47.628395781774344
            ],
            [
                -122.39004401097971,
                47.6283959991796
            ],
            [
                -122.39006636407328,
                47.62839620326847
            ],
            [
                -122.3900596771506,
                47.62836741424495
            ],
            [
                -122.38997738969852,
                47.628488517706806
            ],
            [
                -122.39002693705227,
                47.62844365569236
            ],
            [
                -122.39031888585691,
                47.628513049009044
            ],
            [
                -122.38954456476502,
                47.628162021398786
            ],
            [
                -122.3897851117559,
                47.628290662638655
            ],
            [
                -122.38983767335476,
                47.62834227460521
            ],
            [
                -122.3902442625044,
                47.628468777655726
            ],
            [
                -122.38994544306857,
                47.6283772171473
            ],
            [
                -122.39005558009785,
                47.6283698669154
            ],
            [
                -122.3901049308037,
                47.6283727103725
            ],
            [
                -122.39008324768542,
                47.628388068212764
            ],
            [
                -122.39006793186606,
                47.62839956546311
            ],
            [
                -122.39005982363523,
                47.62841132426647
            ],
            [
                -122.39011741578808,
                47.62842902618512
            ],
            [
                -122.39006921514395,
                47.62839026140746
            ],
            [
                -122.3901064882461,
                47.6284351142523
            ],
            [
                -122.38999900425108,
                47.62832616600611
            ],
            [
                -122.39004893353305,
                47.62838059771398
            ],
            [
                -122.39000184563922,
                47.62834780416025
            ],
            [
                -122.39005686270119,
                47.62836046740717
            ],
            [
                -122.39002183837457,
                47.62839047518467
            ],
            [
                -122.39007201895353,
                47.62833183376926
            ],
            [
                -122.3900599706094,
                47.62836645390229
            ],
            [
                -122.38998971808958,
                47.6283683806534
            ],
            [
                -122.39002535820607,
                47.628405464588376
            ],
            [
                -122.39015505080086,
                47.62834999633909
            ],
            [
                -122.39006556466659,
                47.628301352192
            ],
            [
                -122.38984874721388,
                47.628447893713506
            ],
            [
                -122.3901391384838,
                47.62856230502069
            ],
            [
                -122.39007542943344,
                47.62841309524515
            ],
            [
                -122.39004736388796,
                47.628515714633444
            ],
            [
                -122.39006604578304,
                47.62844164521209
            ],
            [
                -122.39001691849607,
                47.6283330394664
            ],
            [
                -122.39003644727909,
                47.62844231156177
            ],
            [
                -122.3899898946191,
                47.62838117610988
            ],
            [
                -122.39004862702426,
                47.62836819357837
            ],
            [
                -122.39000925059524,
                47.62840230535913
            ],
            [
                -122.38998209597865,
                47.62837164016936
            ],
            [
                -122.39002721536116,
                47.62839248058821
            ],
            [
                -122.39001506373914,
                47.62840920727932
            ],
            [
                -122.3900100059611,
                47.62843541334409
            ],
            [
                -122.38997655222647,
                47.62837108642583
            ],
            [
                -122.38998654150771,
                47.628408585027586
            ],
            [
                -122.39004925455244,
                47.6284213843294
            ],
            [
                -122.3900415652499,
                47.62840989780557
            ],
            [
                -122.39010715639917,
                47.62838746034717
            ],
            [
                -122.3900680030124,
                47.62836723064576
            ],
            [
                -122.3900431195653,
                47.62830602571337
            ],
            [
                -122.39006038608561,
                47.62838773622294
            ],
            [
                -122.39006823766468,
                47.62845824787442
            ],
            [
                -122.39001651901735,
                47.62836536536588
            ],
            [
                -122.39001965410185,
                47.62840436889806
            ],
            [
                -122.39007536752045,
                47.62841115432665
            ],
            [
                -122.39008161131879,
                47.628524053433466
            ],
            [
                -122.38996711878158,
                47.62841078747574
            ],
            [
                -122.39002919722981,
                47.62843159870226
            ],
            [
                -122.39001695687429,
                47.628391041005244
            ],
            [
                -122.39005517976064,
                47.628430103058555
            ],
            [
                -122.38998492917923,
                47.62832916717016
            ],
            [
                -122.38998156356013,
                47.62837006510023
            ],
            [
                -122.3899898552514,
                47.62831807608839
            ],
            [
                -122.39015591942429,
                47.628496270256306
            ],
            [
                -122.3899316828634,
                47.62832479304295
            ],
            [
                -122.3906039237626,
                47.628716507762235
            ],
            [
                -122.39180580061975,
                47.62943838143388
            ],
            [
                -122.39178796264972,
                47.62942871060317
            ],
            [
                -122.39156244496158,
                47.629284666507985
            ],
            [
                -122.39042608730259,
                47.62855897555378
            ],
            [
                -122.39010981300868,
                47.62833333276844
            ],
            [
                -122.39002764645879,
                47.62834921497304
            ],
            [
                -122.38998879132865,
                47.62836258224995
            ],
            [
                -122.39005829233186,
                47.62839053326276
            ],
            [
                -122.39012842696513,
                47.62823622901498
            ],
            [
                -122.39006846371814,
                47.628427519813016
            ],
            [
                -122.3899995702969,
                47.62837896837141
            ],
            [
                -122.38999942929598,
                47.62830696008258
            ],
            [
                -122.39019982049629,
                47.628539254904815
            ],
            [
                -122.39012079961455,
                47.6284638809818
            ],
            [
                -122.39001433439427,
                47.628429024901855
            ],
            [
                -122.39004619907938,
                47.62853931462398
            ],
            [
                -122.39000266654264,
                47.62846374064407
            ],
            [
                -122.38994913568845,
                47.628373934203054
            ],
            [
                -122.38995967420959,
                47.62843708362562
            ],
            [
                -122.39022071949628,
                47.62821853942891
            ],
            [
                -122.390037503022,
                47.62836611232328
            ],
            [
                -122.39009657042668,
                47.62840833028512
            ],
            [
                -122.39006720664463,
                47.6283727532811
            ],
            [
                -122.39008664688653,
                47.628452316213554
            ],
            [
                -122.38995807290272,
                47.62836390547771
            ],
            [
                -122.39003227650768,
                47.62834548685567
            ],
            [
                -122.39003342465907,
                47.628274158877176
            ],
            [
                -122.38996824593099,
                47.628313500143804
            ],
            [
                -122.3900095043866,
                47.628419671635214
            ],
            [
                -122.39000313541241,
                47.628384206833466
            ],
            [
                -122.39000709162158,
                47.62839165114907
            ],
            [
                -122.38996980447303,
                47.62835007139231
            ],
            [
                -122.39002190108896,
                47.62834836289568
            ],
            [
                -122.39003367721816,
                47.628406869245
            ],
            [
                -122.3900622913389,
                47.62841161813853
            ],
            [
                -122.39005029108543,
                47.62834816936116
            ],
            [
                -122.39004249641984,
                47.628345367445164
            ],
            [
                -122.38999194766295,
                47.62836984099542
            ],
            [
                -122.39011042255785,
                47.62840885043628
            ],
            [
                -122.38992107259283,
                47.62832973497092
            ],
            [
                -122.39017852181057,
                47.62850000236472
            ],
            [
                -122.3901,
                47.62848
            ]
        ]
    },
    "properties": {
        "trajectory_id": 7508,
        "object_id": 368288670,
        "label": "PLEASURE CRAFT"
    }
}