{
    "type": "Feature",
    "geometry": {
        "type": "LineString",
        "coordinates": [
            [
                -122.38208,
                47.63031
            ],
            [
                -122.38208531185012,
                47.63031574291462
            ],
            [
                -122.38205900526812,
                47.63031241207784
            ],
            [
                -122.38207959883182,
                47.630338822028406
            ],
            [
                -122.38208691030923,
                47.630321061049706
            ],
            [
                -122.38208973756467,
                47.63034081816446
            ],
            [
                -122.382065915137,
                47.63031382103534
            ],
            [
                -122.38207110405749,
                47.630314203118054
            ],
            [
                -122.3820797106191,
                47.630339807843995
            ],
            [
                -122.38207481815918,
                47.63030180553788
            ],
            [
                -122.38209226344689,
                47.63030666960235
            ],
            [
                -122.3820902485356,
                47.630328632117156
            ],
            [
                -122.38207779069901,
                47.63031242641313
            ],
            [
                -122.38209159557381,
                47.630329468244895
            ],
            [
                -122.38208668247574,
                47.6303067021396
            ],
            [
                -122.38205963414933,
                47.63032029203769
            ],
            [
                -122.38207406749035,
                47.630312321004226
            ],
            [
                -122.38206306940796,
                47.63030920301905
            ],
            [
                -122.38207950006681,
                47.63029633388524
            ],
            [
                -122.38205123971807,
                47.63032718433826
            ],
            [
                -122.38206691012333,
                47.63030838467353
            ],
            [
                -122.38208034384009,
                47.63031993323885
            ],
            [
                -122.382085611443,
                47.63031147626509
            ],
            [
                -122.38206220369955,
                47.630316662839874
            ],
            [
                -122.38208005239738,
                47.63031015307763
            ],
            [
                -122.38207809691279,
                47.63032160349297
            ],
            [
                -122.38208041872741,
                47.63032244267433
            ],
            [
                -122.38207446307253,
                47.63030542693596
            ],
            [
                -122.38210283672713,
                47.63032363392723
            ],
            [
                -122.38206521000413,
                47.630336944368906
            ],
            [
                -122.38208130610855,
                47.63033656586447
            ],
            [
                -122.38208175851013,
                47.630309121978556
            ],
            [
                -122.38207052906365,
                47.63030082457547
            ],
            [
                -122.38209723567381,
                47.63031038674966
            ],
            [
                -122.38207937472232,
                47.63032131810107
            ],
            [
                -122.38205595717125,
                47.63032533243079
            ],
            [
                -122.38206105112913,
                47.63032905078668
            ],
            [
                -122.3820882328224,
                47.63030067241196
            ],
            [
                -122.38207965907078,
                47.63030031801914
            ],
            [
                -122.38207926819595,
                47.630330301378685
            ],
            [
                -122.38207979121174,
                47.630309749782164
            ],
            [
                -122.38207609277688,
                47.630304805541364
            ],
            [
                -122.38206555473167,
                47.630304781091766
            ],
            [
                -122.3820766237374,
                47.63032914183055
            ],
            [
                -122.38208862123813,
                47.63030404173823
            ],
            [
                -122.38204314532202,
                47.63026507750523
            ],
            [
                -122.38206139180065,
                47.630296976739466
            ],
            [
                -122.38208910628153,
                47.63032891642189
            ],
            [
                -122.38205470444255,
                47.63029977696946
            ],
            [
                -122.3820999314699,
                47.63032970331009
            ],
            [
                -122.38208585775587,
                47.63031310985952
            ],
            [
                -122.3820588191673,
                47.630320763142684
            ],
            [
                -122.38207636581267,
                47.630317689069344
            ],
            [
                -122.38208900641878,
                47.6303284228697
            ],
            [
                -122.38208373184654,
                47.63028418089332
            ],
            [
                -122.38208127311223,
                47.63032020889579
            ],
            [
                -122.3820860258384,
                47.63032840612478
            ],
            [
                -122.3820577316381,
                47.63031417553335
            ],
            [
                -122.38207920843666,
                47.63031480350254
            ],
            [
                -122.3820798220753,
                47.63031078804715
            ],
            [
                -122.38208696511677,
                47.6303231959239
            ],
            [
                -122.38206319924097,
                47.63033556811722
            ],
            [
                -122.38206277333902,
                47.63033718981249
            ],
            [
                -122.38207943240877,
                47.630341295185985
            ],
            [
                -122.38207820507968,
                47.63030975815779
            ],
            [
                -122.38211937134332,
                47.63032771937344
            ],
            [
                -122.38206069643134,
                47.63033340865956
            ],
            [
                -122.38204726611103,
                47.63029662410589
            ],
            [
                -122.38206018141233,
                47.630300506395834
            ],
            [
                -122.38206786713852,
                47.63033278592798
            ],
            [
                -122.38205928243094,
                47.630340194939244
            ],
            [
                -122.38206313298653,
                47.63031582278727
            ],
            [
                -122.38206792455074,
                47.63031913125513
            ],
            [
                -122.38208001727635,
                47.63031999945687
            ],
            [
                -122.3820918495995,
                47.630327767399095
            ],
            [
                -122.38207977249314,
                47.63032234747942
            ],
            [
                -122.38207772322873,
                47.63030899139333
            ],
            [
                -122.38210528234798,
                47.63032222166274
            ],
            [
                -122.38207046453476,
                47.63030558648496
            ],
            [
                -122.38208883611566,
                47.630310676643006
            ],
            [
                -122.3820856721164,
                47.63029788612243
            ],
            [
                -122.38207361834455,
                47.630329578304355
            ],
            [
                -122.38207929199554,
                47.63032187191908
            ],
            [
                -122.38206916714414,
                47.63031909426445
            ],
            [
                -122.38208394974056,
                47.63030204422109
            ],
            [
                -122.38208003866289,
                47.630329964969796
            ],
            [
                -122.38207815410493,
                47.63032261117512
            ],
            [
                -122.38209676857977,
                47.63035124335557
            ],
            [
                -122.38209637037278,
                47.63033187551997
            ],
            [
                -122.38210079097547,
                47.63034139302403
            ],
            [
                -122.38208997597434,
                47.63031888746996
            ],
            [
                -122.3820512425287,
                47.63032873758997
            ],
            [
                -122.38206972104217,
                47.630349282989826
            ],
            [
                -122.38209646748034,
                47.6303180496072
            ],
            [
                -122.38208334410501,
                47.63034100665513
            ],
            [
                -122.38206073519159,
                47.630330369287414
            ],
            [
                -122.38206812480685,
                47.63031094693642
            ],
            [
                -122.38209726269714,
                47.63030082053106
            ],
            [
                -122.38207592016056,
                47.630311228815806
            ],
            [
                -122.38209000216347,
                47.63031999793045
            ],
            [
                -122.38205946187416,
                47.63029972377009
            ],
            [
                -122.38208759495467,
                47.63032065362026
            ],
            [
                -122.38207527328248,
                47.63030942899909
            ],
            [
                -122.38207499267997,
                47.630332758996495
            ],
            [
                -122.38208347452925,
                47.630315188762324
            ],
            [
                -122.38209159734124,
                47.63033228478993
            ],
            [
                -122.3820690797552,
                47.63031000080508
            ],
            [
                -122.38207731283222,
                47.630307491106855
            ],
            [
                -122.38209974580504,
                47.630309647811174
            ],
            [
                -122.3820899412851,
                47.63031011250148
            ],
            [
                -122.38206946746213,
                47.63031153052773
            ],
            [
                -122.38205675536398,
                47.630335368123205
            ],
            [
                -122.38206882643935,
                47.63035063217971
            ],
            [
                -122.38206899555955,
                47.63033409427569
            ],
            [
                -122.3820795875486,
                47.63032092328125
            ],
            [
                -122.38206270217796,
                47.63033115479721
            ],
            [
                -122.38206026298467,
                47.630327181759334
            ],
            [
                -122.38208185557383,
                47.63033112143658
            ],
            [
                -122.38207147217385,
                47.63032323923487
            ],
            [
                -122.38207,
                47.63034
            ]
        ]
    },
    "properties": {
        "trajectory_id": 7511,
        "object_id": 368293000,
        "label": "FISHING"
    }
}