{
    "type": "Feature",
    "geometry": {
        "type": "LineString",
        "coordinates": [
            [
                -123.0605,
                49.29024
            ],
            [
                -123.06051473940003,
                49.29023607816281
            ],
            [
                -123.06048918283959,
                49.29021541310651
            ],
            [
                -123.06049969546837,
                49.29023810329972
            ],
            [
                -123.06048103368421,
                49.29020711662803
            ],
            [
                -123.060449489854,
                49.29020926540516
            ],
            [
                -123.06048970469084,
                49.29022999403776
            ],
            [
                -123.06047888482735,
                49.29024978495636
            ],
            [
                -123.06050515539972,
                49.29022536362962
            ],
            [
                -123.06050940919351,
                49.290185631172946
            ],
            [
                -123.06050161794478,
                49.29019129714886
            ],
            [
                -123.06050804596485,
                49.29021229213114
            ],
            [
                -123.06047296186769,
                49.29017817604446
            ],
            [
                -123.06048234178466,
                49.29019021623366
            ],
            [
                -123.06049458095178,
                49.29019356012357
            ],
            [
                -123.0605015716203,
                49.29020804127475
            ],
            [
                -123.06047244541608,
                49.29018931651536
            ],
            [
                -123.06052420371317,
                49.29022380296938
            ],
            [
                -123.06050593787751,
                49.2902281746526
            ],
            [
                -123.06049043984862,
                49.29020016841035
            ],
            [
                -123.06049444048332,
                49.2901969383043
            ],
            [
                -123.06048959112083,
                49.29021900704345
            ],
            [
                -123.06052213771684,
                49.290205210638376
            ],
            [
                -123.06047632573333,
                49.29023442160373
            ],
            [
                -123.06052998732501,
                49.29021995939473
            ],
            [
                -123.06052037796638,
                49.29017928552431
            ],
            [
                -123.06051211340791,
                49.290196786413205
            ],
            [
                -123.06050932689088,
                49.29017987573643
            ],
            [
                -123.06052038262357,
                49.29020310073594
            ],
            [
                -123.06053766190534,
                49.29017934716088
            ],
            [
                -123.06052221232933,
                49.290210170686514
            ],
            [
                -123.06054630068031,
                49.29022043577532
            ],
            [
                -123.06055070270196,
                49.29020612909979
            ],
            [
                -123.06050572816575,
                49.2902099395191
            ],
            [
                -123.06051677443101,
                49.290223044436246
            ],
            [
                -123.0605183276123,
                49.290228754211704
            ],
            [
                -123.06050767886424,
                49.290186680526475
            ],
            [
                -123.06049483399863,
                49.2901985747864
            ],
            [
                -123.06054428413759,
                49.29017875883927
            ],
            [
                -123.08711946497297,
                49.29826288566504
            ],
            [
                -123.11535843765361,
                49.30736637474546
            ],
            [
                -123.11789547425887,
                49.308862112138705
            ],
            [
                -123.11765838209256,
                49.308674549593626
            ],
            [
                -123.11768911561049,
                49.30894259510358
            ],
            [
                -123.11891011667764,
                49.30909898111536
            ],
            [
                -123.11940397333467,
                49.30934937527165
            ],
            [
                -123.1186207346447,
                49.30952484840783
            ],
            [
                -123.11564355272908,
                49.30831843259634
            ],
            [
                -123.11187788733496,
                49.30644196218677
            ],
            [
                -123.08157053040091,
                49.29270938508635
            ],
            [
                -123.0611268257599,
                49.29044536327376
            ],
            [
                -123.05483025263214,
                49.30329627523314
            ],
            [
                -123.05472178649559,
                49.30322207150866
            ],
            [
                -123.06378189793377,
                49.30353735249465
            ],
            [
                -123.06220482117344,
                49.303441171789025
            ],
            [
                -123.05651938463427,
                49.30353337125278
            ],
            [
                -123.05360677923402,
                49.30370989105341
            ],
            [
                -123.0537351083603,
                49.3034476694229
            ],
            [
                -123.05742237296457,
                49.304534849570125
            ],
            [
                -123.06031371566851,
                49.29905547333485
            ],
            [
                -123.06049275494247,
                49.29018905951545
            ],
            [
                -123.06052026110049,
                49.290217596357195
            ],
            [
                -123.06053077968012,
                49.29020921673524
            ],
            [
                -123.06052008748891,
                49.29019986878969
            ],
            [
                -123.0604878909874,
                49.29018447229776
            ],
            [
                -123.0605085235441,
                49.29019442291728
            ],
            [
                -123.06049123749237,
                49.29018561313489
            ],
            [
                -123.06047934295566,
                49.29019967277392
            ],
            [
                -123.0605022172306,
                49.29020053094178
            ],
            [
                -123.06051796561553,
                49.29017777290687
            ],
            [
                -123.06052481322507,
                49.29020361700633
            ],
            [
                -123.06050316989055,
                49.29021061054081
            ],
            [
                -123.0605090670812,
                49.29019982089397
            ],
            [
                -123.06049756416573,
                49.29019919739372
            ],
            [
                -123.06050300778925,
                49.29021701838646
            ],
            [
                -123.06053194237309,
                49.29020367132389
            ],
            [
                -123.06049255447654,
                49.29019892993374
            ],
            [
                -123.06051116242776,
                49.29019689692691
            ],
            [
                -123.0605195693725,
                49.29023642878774
            ],
            [
                -123.06054,
                49.29023
            ]
        ]
    },
    "properties": {
        "trajectory_id": 757,
        "object_id": 316005649,
        "label": "TUG"
    }
}