{
    "type": "Feature",
    "geometry": {
        "type": "LineString",
        "coordinates": [
            [
                -122.38789,
                47.66624
            ],
            [
                -122.38792944650908,
                47.66617540398095
            ],
            [
                -122.38802434234009,
                47.66628642725032
            ],
            [
                -122.38801707389658,
                47.66617958101308
            ],
            [
                -122.3880021764559,
                47.666170362192005
            ],
            [
                -122.38791376507889,
                47.666201161990465
            ],
            [
                -122.38792687636975,
                47.66625558414624
            ],
            [
                -122.38790090829374,
                47.66628126645102
            ],
            [
                -122.38794677379562,
                47.66619499581282
            ],
            [
                -122.38797187404543,
                47.666211309099545
            ],
            [
                -122.38793172963943,
                47.666240488346816
            ],
            [
                -122.38799534375133,
                47.666210667416536
            ],
            [
                -122.38788930432887,
                47.66623347062163
            ],
            [
                -122.38799097291916,
                47.66624365916791
            ],
            [
                -122.3878930732182,
                47.66621275818594
            ],
            [
                -122.38791276521847,
                47.66627414146784
            ],
            [
                -122.38795146346905,
                47.66623791158879
            ],
            [
                -122.38786675829566,
                47.66616192661729
            ],
            [
                -122.3878893532794,
                47.666236029670905
            ],
            [
                -122.38787901121728,
                47.66613695160606
            ],
            [
                -122.38792337799018,
                47.66624284107901
            ],
            [
                -122.38801502908795,
                47.666291427771434
            ],
            [
                -122.38793281949891,
                47.6662833404238
            ],
            [
                -122.38789017495245,
                47.666266400619925
            ],
            [
                -122.3878827537947,
                47.66621939175102
            ],
            [
                -122.38796247487784,
                47.66618185682267
            ],
            [
                -122.38789400587243,
                47.66629181376726
            ],
            [
                -122.38796518044956,
                47.66629104287329
            ],
            [
                -122.38801488331163,
                47.666265015808904
            ],
            [
                -122.38784400288006,
                47.66617003199136
            ],
            [
                -122.38790827040206,
                47.66628532829589
            ],
            [
                -122.38787185016936,
                47.666241383336825
            ],
            [
                -122.38805596634008,
                47.666147617487375
            ],
            [
                -122.38795420248692,
                47.666316561176146
            ],
            [
                -122.38791971472097,
                47.66625062844141
            ],
            [
                -122.38794665606852,
                47.6662514063549
            ],
            [
                -122.38794192187704,
                47.66627560457177
            ],
            [
                -122.38797299660835,
                47.6662657540408
            ],
            [
                -122.38791358636509,
                47.666294022894846
            ],
            [
                -122.38788910210069,
                47.66625764975712
            ],
            [
                -122.38791391473849,
                47.66629853805647
            ],
            [
                -122.38788654043888,
                47.66626494774973
            ],
            [
                -122.38792873732011,
                47.666171010702726
            ],
            [
                -122.38795963792212,
                47.66627905667402
            ],
            [
                -122.38791526333715,
                47.66630755242899
            ],
            [
                -122.38797755192138,
                47.66629998961104
            ],
            [
                -122.3881305825981,
                47.666206532388024
            ],
            [
                -122.38787978310258,
                47.66621352067326
            ],
            [
                -122.38789216263268,
                47.66624815259699
            ],
            [
                -122.38786495994574,
                47.666209671183225
            ],
            [
                -122.38796013418543,
                47.66626125620899
            ],
            [
                -122.38789995568966,
                47.666248390077484
            ],
            [
                -122.38799342806193,
                47.66629478386541
            ],
            [
                -122.38790124402804,
                47.666230371183566
            ],
            [
                -122.38781525575372,
                47.66620434200469
            ],
            [
                -122.38790975522716,
                47.66617992147132
            ],
            [
                -122.38790559312551,
                47.666288056493784
            ],
            [
                -122.3880235540501,
                47.66636413438642
            ],
            [
                -122.38797022468813,
                47.666250976280466
            ],
            [
                -122.38802452034417,
                47.66622522775184
            ],
            [
                -122.38791755392073,
                47.66624606170397
            ],
            [
                -122.38803134031038,
                47.66628332068858
            ],
            [
                -122.38797005492306,
                47.66623573813648
            ],
            [
                -122.38793742335675,
                47.66624860327054
            ],
            [
                -122.38794842499047,
                47.66630173618835
            ],
            [
                -122.38795266601444,
                47.66613831063953
            ],
            [
                -122.38782492388259,
                47.66629467375704
            ],
            [
                -122.38784907894669,
                47.66631474190946
            ],
            [
                -122.38785998130837,
                47.666338466209666
            ],
            [
                -122.38785568030063,
                47.66620393748905
            ],
            [
                -122.38799677426988,
                47.66627071841056
            ],
            [
                -122.38794381843374,
                47.666308482749756
            ],
            [
                -122.387976150024,
                47.66622735710135
            ],
            [
                -122.3878987553926,
                47.666288262980224
            ],
            [
                -122.3879185583113,
                47.66629467029405
            ],
            [
                -122.38800885964756,
                47.666200140422205
            ],
            [
                -122.38791042216775,
                47.6662807449888
            ],
            [
                -122.38793546667644,
                47.66624466710423
            ],
            [
                -122.38793873443113,
                47.666213018453284
            ],
            [
                -122.38787773725392,
                47.66623689217691
            ],
            [
                -122.38782551541159,
                47.66629076127476
            ],
            [
                -122.38790262105664,
                47.66626293076548
            ],
            [
                -122.3880919487037,
                47.666190448510015
            ],
            [
                -122.38779981075339,
                47.66627026426388
            ],
            [
                -122.38788470966847,
                47.66628491852244
            ],
            [
                -122.38781235212178,
                47.666233287554675
            ],
            [
                -122.38790816815336,
                47.66625599454192
            ],
            [
                -122.3878529130135,
                47.66623836296471
            ],
            [
                -122.38784983136786,
                47.66623645789314
            ],
            [
                -122.38790928973552,
                47.6663041128923
            ],
            [
                -122.38793338843628,
                47.66623988299809
            ],
            [
                -122.38778478770776,
                47.66634341255404
            ],
            [
                -122.38798589701032,
                47.666343558836644
            ],
            [
                -122.38797694019404,
                47.66625141466728
            ],
            [
                -122.38804706869576,
                47.666256120160995
            ],
            [
                -122.38791738374464,
                47.66617827074822
            ],
            [
                -122.38783512279574,
                47.66626714332337
            ],
            [
                -122.38785504869752,
                47.666311222395926
            ],
            [
                -122.38803161810026,
                47.66613784928524
            ],
            [
                -122.38793941881484,
                47.66625335034335
            ],
            [
                -122.38788331039473,
                47.666238915785556
            ],
            [
                -122.3879246708483,
                47.666268771209864
            ],
            [
                -122.38779933621716,
                47.6661887025817
            ],
            [
                -122.38782267484953,
                47.66617087506911
            ],
            [
                -122.38782631897608,
                47.66625431543879
            ],
            [
                -122.38794019012107,
                47.666269932069916
            ],
            [
                -122.3878054275057,
                47.66631865923958
            ],
            [
                -122.3878654772647,
                47.66623343717599
            ],
            [
                -122.3878394526532,
                47.66620713592147
            ],
            [
                -122.38793893679916,
                47.6662314637218
            ],
            [
                -122.38787134381107,
                47.66623188046526
            ],
            [
                -122.38789672504399,
                47.6662651765258
            ],
            [
                -122.38802125144558,
                47.66622092805103
            ],
            [
                -122.38782331243038,
                47.66620554453742
            ],
            [
                -122.38796905233608,
                47.66622994983468
            ],
            [
                -122.38800016270454,
                47.66634033122473
            ],
            [
                -122.38803207370512,
                47.6662249983723
            ],
            [
                -122.38800998420659,
                47.66623004978345
            ],
            [
                -122.38797251798955,
                47.666258692023256
            ],
            [
                -122.38798,
                47.66622
            ]
        ]
    },
    "properties": {
        "trajectory_id": 7580,
        "object_id": 368309770,
        "label": "PLEASURE CRAFT"
    }
}