{
    "type": "Feature",
    "geometry": {
        "type": "LineString",
        "coordinates": [
            [
                -122.43315,
                47.2472
            ],
            [
                -122.43315001198638,
                47.247199993959974
            ],
            [
                -122.43312884918693,
                47.24721055380694
            ],
            [
                -122.43310744480387,
                47.24721264885236
            ],
            [
                -122.43318075204205,
                47.24718983484993
            ],
            [
                -122.43313229153571,
                47.24721522457796
            ],
            [
                -122.4331500914815,
                47.24722026237665
            ],
            [
                -122.43315000414842,
                47.247220011897994
            ],
            [
                -122.43315000004054,
                47.247220000116144
            ],
            [
                -122.43314999999974,
                47.24721999999887
            ],
            [
                -122.4331500000287,
                47.24722000000411
            ],
            [
                -122.43314999797454,
                47.24721999970947
            ],
            [
                -122.43315030377649,
                47.247220043572504
            ],
            [
                -122.43314082597027,
                47.24721898007927
            ],
            [
                -122.4331102273761,
                47.24723007117029
            ],
            [
                -122.43311000113086,
                47.247230000353966
            ],
            [
                -122.43311000000561,
                47.247230000001764
            ],
            [
                -122.43311000000003,
                47.24723000000001
            ],
            [
                -122.43310999999997,
                47.247229999999995
            ],
            [
                -122.43311000000037,
                47.247229999999995
            ],
            [
                -122.43311000006572,
                47.247229999999995
            ],
            [
                -122.4331099933219,
                47.24723000000129
            ],
            [
                -122.43311038892516,
                47.247229999924855
            ],
            [
                -122.43311095707165,
                47.2472299998151
            ],
            [
                -122.43311093580026,
                47.247229999819226
            ],
            [
                -122.43310990914405,
                47.24723000001757
            ],
            [
                -122.4331305054553,
                47.247230003528585
            ],
            [
                -122.4331300624615,
                47.24722986519735
            ],
            [
                -122.4331400622026,
                47.24723026042416
            ],
            [
                -122.43315003927869,
                47.247230026997734
            ],
            [
                -122.43313007592678,
                47.24721994176147
            ],
            [
                -122.4331307701847,
                47.24721961565949
            ],
            [
                -122.4331299025748,
                47.24722004861747
            ],
            [
                -122.43313000046616,
                47.24721999976735
            ],
            [
                -122.43312999999107,
                47.24722000000445
            ],
            [
                -122.43312999999996,
                47.24722000000003
            ],
            [
                -122.43313,
                47.24721999999999
            ],
            [
                -122.43313,
                47.24721999999999
            ],
            [
                -122.43313,
                47.247220000000006
            ],
            [
                -122.43312999999996,
                47.24721999999999
            ],
            [
                -122.43313000000002,
                47.247220000000006
            ],
            [
                -122.43313000000002,
                47.247220000000006
            ],
            [
                -122.43313000000002,
                47.24722
            ],
            [
                -122.43313,
                47.24722
            ],
            [
                -122.43312999999999,
                47.24721999999998
            ],
            [
                -122.43312999999999,
                47.24721999999999
            ],
            [
                -122.43312999999982,
                47.247219999999984
            ],
            [
                -122.43313000000654,
                47.24722
            ],
            [
                -122.43312999962647,
                47.247219999999984
            ],
            [
                -122.43313002194068,
                47.24722
            ],
            [
                -122.43313746611211,
                47.247220000000006
            ],
            [
                -122.4331399898797,
                47.24722
            ],
            [
                -122.43313999995401,
                47.24722
            ],
            [
                -122.43313999974036,
                47.24722
            ],
            [
                -122.4331399502631,
                47.24722
            ],
            [
                -122.43315265311202,
                47.24722
            ],
            [
                -122.43314978211617,
                47.24722
            ],
            [
                -122.4331297218485,
                47.247220000000006
            ],
            [
                -122.43314009666936,
                47.247219999999984
            ],
            [
                -122.4331400128031,
                47.247219999999984
            ],
            [
                -122.43314000000424,
                47.24722
            ],
            [
                -122.43314000000005,
                47.24722
            ],
            [
                -122.43313999999998,
                47.24721999999999
            ],
            [
                -122.43313999999998,
                47.24722
            ],
            [
                -122.43314000000002,
                47.24722
            ],
            [
                -122.43313999999722,
                47.247219999999984
            ],
            [
                -122.43313999937673,
                47.247220000000006
            ],
            [
                -122.43313985955157,
                47.247220000000006
            ],
            [
                -122.43312825433763,
                47.24722
            ],
            [
                -122.43313002855568,
                47.24722
            ],
            [
                -122.43313000009333,
                47.24722
            ],
            [
                -122.43313000000043,
                47.24722
            ],
            [
                -122.43313000000003,
                47.24722
            ],
            [
                -122.43312999999999,
                47.24721999999953
            ],
            [
                -122.43312999999999,
                47.24721999990808
            ],
            [
                -122.4331299999966,
                47.247219981551936
            ],
            [
                -122.4331300004456,
                47.247222393492486
            ],
            [
                -122.4331300410486,
                47.24720994232144
            ],
            [
                -122.4331427289011,
                47.24720999971851
            ],
            [
                -122.4331500990487,
                47.247209999909636
            ],
            [
                -122.4331500044645,
                47.24721000562166
            ],
            [
                -122.43315110190301,
                47.247211026766955
            ],
            [
                -122.4331399644511,
                47.247210440965915
            ],
            [
                -122.4331399998712,
                47.24721000159857
            ],
            [
                -122.43314000001992,
                47.24721000001457
            ],
            [
                -122.43314000321216,
                47.247210000901745
            ],
            [
                -122.43314046642492,
                47.24721013093283
            ],
            [
                -122.43314961150524,
                47.247219964435295
            ],
            [
                -122.43314999967596,
                47.24721999997034
            ],
            [
                -122.43314999999822,
                47.24721999999966
            ],
            [
                -122.4331499999999,
                47.24721999968463
            ],
            [
                -122.43314999999998,
                47.24721990779606
            ],
            [
                -122.43315000000001,
                47.247229868287306
            ],
            [
                -122.43315000000001,
                47.24722999920026
            ],
            [
                -122.43314999999997,
                47.24722999999534
            ],
            [
                -122.43315,
                47.24722999999998
            ],
            [
                -122.43315000000001,
                47.247230000000265
            ],
            [
                -122.43314999999998,
                47.24723000005275
            ],
            [
                -122.43315,
                47.24722999655175
            ],
            [
                -122.43315,
                47.247229908426704
            ],
            [
                -122.43314999999996,
                47.24721960971934
            ],
            [
                -122.43315000000003,
                47.24721999794093
            ],
            [
                -122.43315000000358,
                47.247219999991174
            ],
            [
                -122.43315000070491,
                47.24722000031031
            ],
            [
                -122.43315019505067,
                47.24722008587581
            ],
            [
                -122.43313744143846,
                47.24721425796067
            ],
            [
                -122.4331423081137,
                47.24721001726865
            ],
            [
                -122.4331201073374,
                47.247209938271894
            ],
            [
                -122.43313241778738,
                47.247217385439356
            ],
            [
                -122.43312117985697,
                47.247221147151144
            ],
            [
                -122.43312000460556,
                47.247209956178864
            ],
            [
                -122.43312000001981,
                47.24720999979486
            ],
            [
                -122.43311999969822,
                47.247209999553235
            ],
            [
                -122.4331199542222,
                47.2472099323906
            ],
            [
                -122.43310821228788,
                47.247199354088664
            ],
            [
                -122.4331214063365,
                47.24721096004991
            ],
            [
                -122.43311997192092,
                47.24721016273378
            ],
            [
                -122.43312774985924,
                47.247211539301645
            ],
            [
                -122.4331199132277,
                47.247220046084834
            ],
            [
                -122.43314,
                47.24721
            ]
        ]
    },
    "properties": {
        "trajectory_id": 7646,
        "object_id": 368325320,
        "label": "PLEASURE CRAFT"
    }
}