{
    "type": "Feature",
    "geometry": {
        "type": "LineString",
        "coordinates": [
            [
                -122.60315,
                48.49722
            ],
            [
                -122.60302829377984,
                48.497253320995675
            ],
            [
                -122.60308155776772,
                48.497366953763056
            ],
            [
                -122.60311866169066,
                48.49731329533348
            ],
            [
                -122.60312012691587,
                48.49730962565156
            ],
            [
                -122.60311979751961,
                48.49730931564995
            ],
            [
                -122.60309053650204,
                48.497317088882035
            ],
            [
                -122.60308286196738,
                48.497310041762944
            ],
            [
                -122.60303354725966,
                48.49731000023638
            ],
            [
                -122.60300019162739,
                48.49730999997332
            ],
            [
                -122.60300793677767,
                48.497309994204684
            ],
            [
                -122.6029089118629,
                48.49730869671266
            ],
            [
                -122.60303385518536,
                48.497363254820435
            ],
            [
                -122.60316804299748,
                48.49731728740319
            ],
            [
                -122.6032021905093,
                48.49732627434365
            ],
            [
                -122.60320716108743,
                48.49734209187408
            ],
            [
                -122.6030977285946,
                48.49729256139078
            ],
            [
                -122.6031325626528,
                48.497344203289245
            ],
            [
                -122.60313504770731,
                48.497240764890876
            ],
            [
                -122.60305015430275,
                48.49727663892642
            ],
            [
                -122.60300417050814,
                48.497418083750546
            ],
            [
                -122.6031180808513,
                48.497271291526935
            ],
            [
                -122.60307577897089,
                48.49735767282139
            ],
            [
                -122.60303118640014,
                48.497233924862
            ],
            [
                -122.60303046174549,
                48.49722931802763
            ],
            [
                -122.60317658291959,
                48.497168432245964
            ],
            [
                -122.60310583555751,
                48.49725266305917
            ],
            [
                -122.603109783374,
                48.497319828767374
            ],
            [
                -122.603107843356,
                48.49741024068684
            ],
            [
                -122.60302064749125,
                48.49730351666397
            ],
            [
                -122.60305003035623,
                48.497309823638915
            ],
            [
                -122.6030507567632,
                48.497313653527975
            ],
            [
                -122.60310599837747,
                48.497298738070526
            ],
            [
                -122.60311083311085,
                48.49731117571701
            ],
            [
                -122.6030282170971,
                48.49727890771011
            ],
            [
                -122.60302555735088,
                48.49725773857496
            ],
            [
                -122.6030493622803,
                48.49738126282347
            ],
            [
                -122.60314437539792,
                48.49726289253195
            ],
            [
                -122.60312002231795,
                48.497309849135696
            ],
            [
                -122.60305058716119,
                48.49726184416304
            ],
            [
                -122.60315028877265,
                48.497159553325744
            ],
            [
                -122.60308086429941,
                48.49733930495214
            ],
            [
                -122.6030831587703,
                48.497345815415855
            ],
            [
                -122.60302637496913,
                48.497343625850625
            ],
            [
                -122.60303058037212,
                48.49725521055664
            ],
            [
                -122.6031422467341,
                48.49733330455291
            ],
            [
                -122.60315993051387,
                48.49727460010016
            ],
            [
                -122.60307446187063,
                48.49732684373335
            ],
            [
                -122.60328493588297,
                48.49711560930284
            ],
            [
                -122.60316156563883,
                48.49724969359667
            ],
            [
                -122.60312163300938,
                48.49739554133524
            ],
            [
                -122.60311168586918,
                48.49737303497224
            ],
            [
                -122.60305359213764,
                48.49736160207133
            ],
            [
                -122.60296337428571,
                48.49740627555168
            ],
            [
                -122.60295862724308,
                48.49739918061599
            ],
            [
                -122.60317128802377,
                48.4973255092036
            ],
            [
                -122.60326627564602,
                48.49720186559707
            ],
            [
                -122.60303786557593,
                48.49739538054627
            ],
            [
                -122.60301071489937,
                48.49730372506489
            ],
            [
                -122.60301018674075,
                48.49735047509634
            ],
            [
                -122.60306087163899,
                48.497307561777944
            ],
            [
                -122.60303859640577,
                48.49738646781475
            ],
            [
                -122.60310829188062,
                48.4973703077527
            ],
            [
                -122.60311212257503,
                48.49737755881413
            ],
            [
                -122.60308428215171,
                48.49729943855314
            ],
            [
                -122.60301028768401,
                48.49726856740968
            ],
            [
                -122.60299817013443,
                48.49726621152207
            ],
            [
                -122.60307583960062,
                48.49736214768451
            ],
            [
                -122.60309302182633,
                48.49736279200181
            ],
            [
                -122.60300734727927,
                48.497283246873515
            ],
            [
                -122.60308963337414,
                48.49727113020526
            ],
            [
                -122.60309339280978,
                48.49727085405764
            ],
            [
                -122.60310624233264,
                48.497291087610314
            ],
            [
                -122.60308340775043,
                48.497269293710154
            ],
            [
                -122.60309124222695,
                48.49727090825552
            ],
            [
                -122.60309562663912,
                48.4973196926989
            ],
            [
                -122.60309000261857,
                48.49732000125888
            ],
            [
                -122.60308771181818,
                48.49732032465643
            ],
            [
                -122.60319948981945,
                48.497310801284264
            ],
            [
                -122.60309006648025,
                48.497500343197316
            ],
            [
                -122.60304001455765,
                48.49730853967831
            ],
            [
                -122.60303981021386,
                48.49731017567035
            ],
            [
                -122.60295474910724,
                48.49736178557979
            ],
            [
                -122.60312522474901,
                48.49739359355798
            ],
            [
                -122.60312026791318,
                48.49738985806551
            ],
            [
                -122.60316384695258,
                48.49735798110207
            ],
            [
                -122.60312115212096,
                48.4973639715806
            ],
            [
                -122.60311927105833,
                48.49734755781774
            ],
            [
                -122.6030815532726,
                48.49736621030631
            ],
            [
                -122.60308819579159,
                48.49727190333764
            ],
            [
                -122.60300208791506,
                48.49746814618247
            ],
            [
                -122.60300519289379,
                48.497370653227804
            ],
            [
                -122.60313339176705,
                48.49722906586628
            ],
            [
                -122.6031675198707,
                48.49730509383209
            ],
            [
                -122.60315325968726,
                48.49731004424418
            ],
            [
                -122.60311921743926,
                48.49731000016416
            ],
            [
                -122.60308115839312,
                48.497309985918264
            ],
            [
                -122.60308104635098,
                48.49730898062174
            ],
            [
                -122.60308972236737,
                48.49729563224497
            ],
            [
                -122.6030891209955,
                48.497290981592506
            ],
            [
                -122.60306058539935,
                48.49731981634992
            ],
            [
                -122.60301903501934,
                48.497361139785404
            ],
            [
                -122.60299986720497,
                48.4973801314207
            ],
            [
                -122.60299999934983,
                48.49738000064344
            ],
            [
                -122.60299999999673,
                48.4973800000032
            ],
            [
                -122.6029999999819,
                48.49738000001005
            ],
            [
                -122.60299999651203,
                48.497380001937664
            ],
            [
                -122.60299933244785,
                48.497380370847075
            ],
            [
                -122.60309531091568,
                48.49732704665538
            ],
            [
                -122.60308953676353,
                48.4973297328692
            ],
            [
                -122.60310701899643,
                48.497320794105455
            ],
            [
                -122.60308837516877,
                48.497300548330735
            ],
            [
                -122.6030496847912,
                48.49730984631128
            ],
            [
                -122.60298492703137,
                48.49727798082879
            ],
            [
                -122.60299964267983,
                48.49727738685781
            ],
            [
                -122.60299999570435,
                48.497320059122245
            ],
            [
                -122.60299959452759,
                48.49732040799669
            ],
            [
                -122.60299124873609,
                48.49733180259331
            ],
            [
                -122.60308999258343,
                48.497308632467885
            ],
            [
                -122.60315,
                48.49719
            ]
        ]
    },
    "properties": {
        "trajectory_id": 7668,
        "object_id": 368327070,
        "label": "PLEASURE CRAFT"
    }
}