{
    "type": "Feature",
    "geometry": {
        "type": "LineString",
        "coordinates": [
            [
                -122.46373,
                47.39217
            ],
            [
                -122.46373003953103,
                47.392170019765565
            ],
            [
                -122.46371007481993,
                47.39216003740325
            ],
            [
                -122.46370999950655,
                47.39216000026693
            ],
            [
                -122.46370901352404,
                47.39215902635482
            ],
            [
                -122.46372155599241,
                47.39217181801629
            ],
            [
                -122.4637212769703,
                47.39216999575602
            ],
            [
                -122.46372999248797,
                47.39217000902821
            ],
            [
                -122.46372937504758,
                47.39216937458611
            ],
            [
                -122.46371997690237,
                47.39215997689313
            ],
            [
                -122.46372003692562,
                47.392160033074795
            ],
            [
                -122.4637208660422,
                47.392160776103786
            ],
            [
                -122.46372192232714,
                47.39216722862242
            ],
            [
                -122.46374002207747,
                47.39216999573416
            ],
            [
                -122.4637288808134,
                47.39216999757644
            ],
            [
                -122.46372995474206,
                47.392169999901995
            ],
            [
                -122.46372999969107,
                47.39216999999933
            ],
            [
                -122.46373000000251,
                47.39217000000003
            ],
            [
                -122.46373000002154,
                47.39217000001697
            ],
            [
                -122.4637299987312,
                47.39216999900216
            ],
            [
                -122.46372997160275,
                47.39216997766706
            ],
            [
                -122.46372330876602,
                47.392164377944354
            ],
            [
                -122.46373009473503,
                47.392160276674396
            ],
            [
                -122.46372997851147,
                47.39217082793394
            ],
            [
                -122.46372370522931,
                47.392170004231986
            ],
            [
                -122.46372092738866,
                47.39217000125308
            ],
            [
                -122.46371999768508,
                47.392169999996874
            ],
            [
                -122.46372000003949,
                47.39217000000005
            ],
            [
                -122.46372000000018,
                47.39216999999885
            ],
            [
                -122.46371999999998,
                47.39216999951116
            ],
            [
                -122.46372000000001,
                47.39216999405063
            ],
            [
                -122.46372000000002,
                47.39217030701754
            ],
            [
                -122.46372000000035,
                47.39218184055436
            ],
            [
                -122.46371999998904,
                47.3921700886609
            ],
            [
                -122.4637199998275,
                47.39217000336588
            ],
            [
                -122.46372000947271,
                47.392170012473514
            ],
            [
                -122.46372913924485,
                47.392179494025136
            ],
            [
                -122.46374000657474,
                47.392179997101834
            ],
            [
                -122.4637399436731,
                47.39217999998761
            ],
            [
                -122.46372008794879,
                47.392179999999755
            ],
            [
                -122.4637200001836,
                47.39218000000002
            ],
            [
                -122.46372000002204,
                47.39218000000001
            ],
            [
                -122.4637199999992,
                47.39218
            ],
            [
                -122.46371999999997,
                47.392179999999996
            ],
            [
                -122.46371999999997,
                47.39218
            ],
            [
                -122.46371999999998,
                47.392179999999996
            ],
            [
                -122.46372000000001,
                47.39218
            ],
            [
                -122.46372,
                47.392179999999996
            ],
            [
                -122.46372,
                47.392179999999996
            ],
            [
                -122.46371999999998,
                47.392179999999996
            ],
            [
                -122.46371999999997,
                47.39217999999996
            ],
            [
                -122.46371999999998,
                47.392179999999385
            ],
            [
                -122.46371999999998,
                47.392179999887524
            ],
            [
                -122.46372,
                47.39218002658512
            ],
            [
                -122.46372000000001,
                47.392179564377734
            ],
            [
                -122.46372000000001,
                47.392161169262344
            ],
            [
                -122.46371999999806,
                47.392159978870474
            ],
            [
                -122.46372000009951,
                47.39215999518275
            ],
            [
                -122.46372001944144,
                47.392159025272264
            ],
            [
                -122.46372486031993,
                47.39217007020337
            ],
            [
                -122.46373018222917,
                47.39216999664529
            ],
            [
                -122.46373000643484,
                47.39216999989689
            ],
            [
                -122.46373007514947,
                47.39216999999959
            ],
            [
                -122.46372362098188,
                47.39217000000001
            ],
            [
                -122.46371890662516,
                47.39217
            ],
            [
                -122.46373005661181,
                47.39217000000001
            ],
            [
                -122.46372999674114,
                47.392170000000014
            ],
            [
                -122.46373000001304,
                47.39217
            ],
            [
                -122.46373000000006,
                47.39217
            ],
            [
                -122.46373,
                47.39217
            ],
            [
                -122.46373000000027,
                47.39216999999974
            ],
            [
                -122.46372999999929,
                47.39217000000066
            ],
            [
                -122.4637299999227,
                47.392170000066855
            ],
            [
                -122.46372998272282,
                47.3921700149445
            ],
            [
                -122.46372102011655,
                47.39217857799892
            ],
            [
                -122.46370955381612,
                47.39217005144281
            ],
            [
                -122.46372014561335,
                47.392174400404784
            ],
            [
                -122.46372236427042,
                47.39218006735916
            ],
            [
                -122.46371000616641,
                47.3921800000153
            ],
            [
                -122.46371524742598,
                47.3921801676253
            ],
            [
                -122.46372999454147,
                47.392180016424305
            ],
            [
                -122.46373984773253,
                47.39217000197645
            ],
            [
                -122.46373000580951,
                47.39217000002953
            ],
            [
                -122.4637300000598,
                47.392170000000306
            ],
            [
                -122.46373000000035,
                47.392170000000014
            ],
            [
                -122.46372999999997,
                47.39216999999999
            ],
            [
                -122.46373000000001,
                47.39217000000001
            ],
            [
                -122.46373000000004,
                47.39217000000001
            ],
            [
                -122.46372999999998,
                47.39217
            ],
            [
                -122.4637299999997,
                47.3921699999997
            ],
            [
                -122.46372999994088,
                47.39216999994087
            ],
            [
                -122.46372999844024,
                47.39216999844026
            ],
            [
                -122.46372975980361,
                47.392169759803615
            ],
            [
                -122.46373988972913,
                47.39217988972914
            ],
            [
                -122.46373999945426,
                47.39217999945361
            ],
            [
                -122.46373999979754,
                47.392179999926775
            ],
            [
                -122.46374001251996,
                47.39218000508346
            ],
            [
                -122.4637408729613,
                47.392180354456706
            ],
            [
                -122.46372384615552,
                47.39217010156422
            ],
            [
                -122.46374091345942,
                47.39217006873755
            ],
            [
                -122.46372993450049,
                47.39215910712038
            ],
            [
                -122.46372999959803,
                47.392159994520235
            ],
            [
                -122.46372999998198,
                47.39215999975449
            ],
            [
                -122.46372999999961,
                47.3921599999947
            ],
            [
                -122.46373000000001,
                47.392160000000175
            ],
            [
                -122.46372999999998,
                47.392159999999976
            ],
            [
                -122.46373,
                47.39216
            ],
            [
                -122.46372999999996,
                47.39215999999991
            ],
            [
                -122.46373000000251,
                47.392160000005035
            ],
            [
                -122.46373000044878,
                47.39216000089818
            ],
            [
                -122.46373019033045,
                47.39216038094195
            ],
            [
                -122.46373940092158,
                47.39217880483743
            ],
            [
                -122.46373936785018,
                47.392179754057885
            ],
            [
                -122.46371152384376,
                47.39217047189132
            ],
            [
                -122.46372716196453,
                47.39216142527047
            ],
            [
                -122.46373001560491,
                47.392159996731465
            ],
            [
                -122.46373049464195,
                47.3921595054802
            ],
            [
                -122.46372001772278,
                47.392170004722644
            ],
            [
                -122.46373004059721,
                47.39216999987594
            ],
            [
                -122.46373,
                47.39217
            ]
        ]
    },
    "properties": {
        "trajectory_id": 7680,
        "object_id": 368328940,
        "label": "PLEASURE CRAFT"
    }
}