{
    "type": "Feature",
    "geometry": {
        "type": "LineString",
        "coordinates": [
            [
                -122.60264,
                48.49927
            ],
            [
                -122.60264004502008,
                48.499280069252315
            ],
            [
                -122.6026508688591,
                48.49926986802629
            ],
            [
                -122.60266025175588,
                48.49928004872201
            ],
            [
                -122.60264953032437,
                48.49927871896115
            ],
            [
                -122.60266073212264,
                48.49927890315863
            ],
            [
                -122.60265851587809,
                48.499278853276394
            ],
            [
                -122.60265548854606,
                48.49927928745137
            ],
            [
                -122.60265135944341,
                48.499275798359214
            ],
            [
                -122.60264691710486,
                48.49928009342065
            ],
            [
                -122.60265476285586,
                48.49927998896365
            ],
            [
                -122.60266672676713,
                48.49928092886084
            ],
            [
                -122.60266049265427,
                48.49927451523188
            ],
            [
                -122.60266390764428,
                48.49925835726364
            ],
            [
                -122.60266053681644,
                48.499264376621724
            ],
            [
                -122.60264933578532,
                48.49925689463525
            ],
            [
                -122.60265086731933,
                48.49923878890542
            ],
            [
                -122.60266511864377,
                48.49924546223546
            ],
            [
                -122.6026729106712,
                48.49923221243156
            ],
            [
                -122.60267333346775,
                48.49922991086551
            ],
            [
                -122.60265935388213,
                48.499237670941596
            ],
            [
                -122.60265320120529,
                48.49924095519577
            ],
            [
                -122.60266124349752,
                48.49923998545424
            ],
            [
                -122.60264431719897,
                48.49923998020802
            ],
            [
                -122.6026400808826,
                48.49924770873107
            ],
            [
                -122.60265730283608,
                48.49923903995719
            ],
            [
                -122.60264974050386,
                48.49925035046598
            ],
            [
                -122.60263666756707,
                48.49925389043175
            ],
            [
                -122.60265199586699,
                48.49926003166696
            ],
            [
                -122.60267066925056,
                48.499260567064624
            ],
            [
                -122.60267199747277,
                48.499261294735604
            ],
            [
                -122.60265997447553,
                48.4992578326296
            ],
            [
                -122.60265866835735,
                48.49925995365806
            ],
            [
                -122.60267001471249,
                48.49926722410162
            ],
            [
                -122.60265832976401,
                48.49925877673745
            ],
            [
                -122.60265031123869,
                48.49927000643715
            ],
            [
                -122.60264910088186,
                48.499278221340724
            ],
            [
                -122.60265035315976,
                48.49926947894234
            ],
            [
                -122.60265002809402,
                48.499280120954495
            ],
            [
                -122.60265978900732,
                48.49929893190307
            ],
            [
                -122.60264997669483,
                48.49929993629239
            ],
            [
                -122.60265200801152,
                48.499302121945654
            ],
            [
                -122.60265671228929,
                48.4992840379106
            ],
            [
                -122.60265299377691,
                48.49927453670521
            ],
            [
                -122.60263855566741,
                48.49928708759765
            ],
            [
                -122.60264015120131,
                48.49928008753267
            ],
            [
                -122.60263974897322,
                48.49926196376961
            ],
            [
                -122.60265086673212,
                48.49925255448612
            ],
            [
                -122.60265015838975,
                48.499249993991526
            ],
            [
                -122.60263797804697,
                48.49924242605054
            ],
            [
                -122.60264161699646,
                48.49923893742084
            ],
            [
                -122.60265063044892,
                48.49924091676434
            ],
            [
                -122.602663290265,
                48.49923452658303
            ],
            [
                -122.60265902657126,
                48.49923787564544
            ],
            [
                -122.60267745303987,
                48.499229557548574
            ],
            [
                -122.6026657497511,
                48.49922846299546
            ],
            [
                -122.60266494231816,
                48.49923958008075
            ],
            [
                -122.60266458340487,
                48.49926007076288
            ],
            [
                -122.60265813872437,
                48.49925361028833
            ],
            [
                -122.60266597670869,
                48.499267616123724
            ],
            [
                -122.60265433062486,
                48.49927428001003
            ],
            [
                -122.60265366844295,
                48.499286014266694
            ],
            [
                -122.60265166917297,
                48.49928507828438
            ],
            [
                -122.60265627638053,
                48.4992784567076
            ],
            [
                -122.60265038685678,
                48.49927254011946
            ],
            [
                -122.6026677186558,
                48.49927111852914
            ],
            [
                -122.6026495089746,
                48.49926923345794
            ],
            [
                -122.60264816944466,
                48.499269864086614
            ],
            [
                -122.60266046209644,
                48.49926120613174
            ],
            [
                -122.60264788413377,
                48.49926798641558
            ],
            [
                -122.60263867227036,
                48.49925044519251
            ],
            [
                -122.60266097291036,
                48.49925023818682
            ],
            [
                -122.60265317784072,
                48.49926904272234
            ],
            [
                -122.60266061348837,
                48.49925549423909
            ],
            [
                -122.60265935876879,
                48.49926008828198
            ],
            [
                -122.60265051602896,
                48.49925908577629
            ],
            [
                -122.60264986120703,
                48.4992731103879
            ],
            [
                -122.60263786084414,
                48.49926513435246
            ],
            [
                -122.60264615736507,
                48.499259361504365
            ],
            [
                -122.60264423208832,
                48.49925267223169
            ],
            [
                -122.60265034955769,
                48.499252723522275
            ],
            [
                -122.60265883033065,
                48.499261542452615
            ],
            [
                -122.60264777428799,
                48.499260773882206
            ],
            [
                -122.60264731596745,
                48.499275962225965
            ],
            [
                -122.60266166061317,
                48.49926792589008
            ],
            [
                -122.60266970027973,
                48.49926994451157
            ],
            [
                -122.60266633565236,
                48.49926202805175
            ],
            [
                -122.6026701416993,
                48.49927003605005
            ],
            [
                -122.60267958963748,
                48.49927703067898
            ],
            [
                -122.60268023627214,
                48.49927922013203
            ],
            [
                -122.60267520179005,
                48.49928062410265
            ],
            [
                -122.60266185882185,
                48.49929489406844
            ],
            [
                -122.60266158306672,
                48.499279237301565
            ],
            [
                -122.60266251436407,
                48.49929417950588
            ],
            [
                -122.60267009297652,
                48.49928191235826
            ],
            [
                -122.6026815104904,
                48.499278869436225
            ],
            [
                -122.60266745046576,
                48.499282698262995
            ],
            [
                -122.60267988005575,
                48.49927679413525
            ],
            [
                -122.60266966416135,
                48.49924955579593
            ],
            [
                -122.60265930044739,
                48.49924947916483
            ],
            [
                -122.6026708987575,
                48.49926069543944
            ],
            [
                -122.60266958272082,
                48.49925987911722
            ],
            [
                -122.60266998852435,
                48.49925015693603
            ],
            [
                -122.60266982210815,
                48.49924920123585
            ],
            [
                -122.60264808546374,
                48.49924188549283
            ],
            [
                -122.60266410148024,
                48.49924009371452
            ],
            [
                -122.60266703058805,
                48.49923286740838
            ],
            [
                -122.60266066214594,
                48.49924008488737
            ],
            [
                -122.60264627222705,
                48.499239993706865
            ],
            [
                -122.60264667716284,
                48.49923852365611
            ],
            [
                -122.60265022193245,
                48.49924971624868
            ],
            [
                -122.60264006996991,
                48.49924185461572
            ],
            [
                -122.6026350009345,
                48.499254805482174
            ],
            [
                -122.60264734177493,
                48.499259571472074
            ],
            [
                -122.60264692554149,
                48.49926209939534
            ],
            [
                -122.60265019292353,
                48.49926037339584
            ],
            [
                -122.60264750279183,
                48.499269652004884
            ],
            [
                -122.60266015076009,
                48.49927032695191
            ],
            [
                -122.60266007483207,
                48.499280203155195
            ],
            [
                -122.60265,
                48.49928
            ]
        ]
    },
    "properties": {
        "trajectory_id": 7689,
        "object_id": 368329450,
        "label": "PLEASURE CRAFT"
    }
}