{
    "type": "Feature",
    "geometry": {
        "type": "LineString",
        "coordinates": [
            [
                -122.60682,
                48.51367
            ],
            [
                -122.6068392419727,
                48.51366094503069
            ],
            [
                -122.60682325812127,
                48.51369041035844
            ],
            [
                -122.6068204741074,
                48.513679937981685
            ],
            [
                -122.60681664906207,
                48.5137241489997
            ],
            [
                -122.60679876573494,
                48.51375058332383
            ],
            [
                -122.60681003969192,
                48.51369997987644
            ],
            [
                -122.6068264333786,
                48.5136625626061
            ],
            [
                -122.60683993611768,
                48.5136600799578
            ],
            [
                -122.60680892016765,
                48.51367964407629
            ],
            [
                -122.60677013825105,
                48.51367923980363
            ],
            [
                -122.60680942354394,
                48.51369249360329
            ],
            [
                -122.60678039371692,
                48.513699558478265
            ],
            [
                -122.60677148901257,
                48.513717506121864
            ],
            [
                -122.60679573365931,
                48.51368104863382
            ],
            [
                -122.60685092409244,
                48.51360854233253
            ],
            [
                -122.60681950015945,
                48.51369063152787
            ],
            [
                -122.60677922579467,
                48.513730429453496
            ],
            [
                -122.6067740332689,
                48.51370449077477
            ],
            [
                -122.60682617460762,
                48.51369762557971
            ],
            [
                -122.60679909931024,
                48.51369561139099
            ],
            [
                -122.60685162149497,
                48.513651815233956
            ],
            [
                -122.60680940362518,
                48.51368082128456
            ],
            [
                -122.60681359119856,
                48.513686873433564
            ],
            [
                -122.60679846703033,
                48.51367887535121
            ],
            [
                -122.60683022467028,
                48.51368000044833
            ],
            [
                -122.60680916354022,
                48.51367768031858
            ],
            [
                -122.60681525702427,
                48.51368028572066
            ],
            [
                -122.6068201467322,
                48.51367054865434
            ],
            [
                -122.60683126430979,
                48.513673503870336
            ],
            [
                -122.60678667260771,
                48.51365591658992
            ],
            [
                -122.60680634855972,
                48.513669993967405
            ],
            [
                -122.60680608194039,
                48.513682350669306
            ],
            [
                -122.60683029603487,
                48.51366244320525
            ],
            [
                -122.60681789626034,
                48.51367956410577
            ],
            [
                -122.6067993074988,
                48.51371022209047
            ],
            [
                -122.6068194583807,
                48.51370013289484
            ],
            [
                -122.60682232659747,
                48.51369088281656
            ],
            [
                -122.60678981793362,
                48.51367912023437
            ],
            [
                -122.60678996628609,
                48.51369993996049
            ],
            [
                -122.60681004790118,
                48.513699969039
            ],
            [
                -122.60685132512815,
                48.513699679272634
            ],
            [
                -122.60682986044532,
                48.5137098707749
            ],
            [
                -122.60683045523312,
                48.51372967074167
            ],
            [
                -122.6068301506261,
                48.51372987580665
            ],
            [
                -122.60679744703535,
                48.51373606152218
            ],
            [
                -122.60682034915665,
                48.5137085254941
            ],
            [
                -122.60685212663651,
                48.513679713231184
            ],
            [
                -122.60682545922977,
                48.51372345070018
            ],
            [
                -122.60677251192612,
                48.513719896297644
            ],
            [
                -122.60676875411785,
                48.51371345537032
            ],
            [
                -122.60677474924236,
                48.51372565113679
            ],
            [
                -122.60673422638322,
                48.513733746073356
            ],
            [
                -122.6067905277479,
                48.513692117702924
            ],
            [
                -122.60682468283358,
                48.51369991336484
            ],
            [
                -122.60683170264731,
                48.51367290275867
            ],
            [
                -122.60686170578347,
                48.51368093672026
            ],
            [
                -122.60684907916652,
                48.51368450386984
            ],
            [
                -122.60683103013248,
                48.51371598724043
            ],
            [
                -122.60680746212468,
                48.51370506661006
            ],
            [
                -122.60680069926278,
                48.51368109774639
            ],
            [
                -122.60683961037864,
                48.513656235830126
            ],
            [
                -122.60684998058036,
                48.51364000555308
            ],
            [
                -122.60683862803032,
                48.51364001564528
            ],
            [
                -122.60685757406212,
                48.513644629362595
            ],
            [
                -122.60678562551134,
                48.51368441951302
            ],
            [
                -122.60680996056166,
                48.5136501996673
            ],
            [
                -122.60682038185621,
                48.513639417866344
            ],
            [
                -122.60678256742872,
                48.51366692355971
            ],
            [
                -122.60683683086305,
                48.51366039371193
            ],
            [
                -122.60684867762927,
                48.51366570502002
            ],
            [
                -122.6068197503972,
                48.513659422020424
            ],
            [
                -122.60678444209469,
                48.51368043481157
            ],
            [
                -122.60681907387197,
                48.513669813984905
            ],
            [
                -122.60676791345179,
                48.513654249760165
            ],
            [
                -122.60682135838468,
                48.51360029224342
            ],
            [
                -122.6067813720276,
                48.51361903971546
            ],
            [
                -122.606795684295,
                48.51365829181347
            ],
            [
                -122.60677888269227,
                48.51367086995771
            ],
            [
                -122.6067899708512,
                48.513619566556166
            ],
            [
                -122.60678828763238,
                48.51368283642508
            ],
            [
                -122.60679449345223,
                48.51366867500021
            ],
            [
                -122.60678964108382,
                48.5136888459691
            ],
            [
                -122.6068036230893,
                48.513682766951305
            ],
            [
                -122.60679932623788,
                48.513699186967024
            ],
            [
                -122.60677975756771,
                48.513724755041736
            ],
            [
                -122.60685013493976,
                48.5137405767895
            ],
            [
                -122.60682940693461,
                48.51369082107183
            ],
            [
                -122.60680026717648,
                48.513698943825666
            ],
            [
                -122.60681954672023,
                48.513738692303946
            ],
            [
                -122.60682264262918,
                48.51370972899173
            ],
            [
                -122.60682735967669,
                48.51370088237667
            ],
            [
                -122.6068380574642,
                48.51372297522571
            ],
            [
                -122.60682021040324,
                48.513679370671674
            ],
            [
                -122.60678940080541,
                48.51372031323918
            ],
            [
                -122.60675999986384,
                48.51374008105249
            ],
            [
                -122.6067711537499,
                48.513730163189464
            ],
            [
                -122.60680113956118,
                48.51371829374551
            ],
            [
                -122.60682412099526,
                48.513712982869805
            ],
            [
                -122.60682863604941,
                48.51367150064088
            ],
            [
                -122.60682933886854,
                48.51367939701029
            ],
            [
                -122.60682977572958,
                48.513680307502604
            ],
            [
                -122.60683223193473,
                48.51369030562525
            ],
            [
                -122.60684008141186,
                48.51368092404191
            ],
            [
                -122.60685864905449,
                48.51369121435052
            ],
            [
                -122.60686401218513,
                48.51367882527855
            ],
            [
                -122.6068769914425,
                48.513678234571394
            ],
            [
                -122.60684575719426,
                48.51365178887607
            ],
            [
                -122.6068677080986,
                48.51364902607948
            ],
            [
                -122.60685942496943,
                48.51365999106963
            ],
            [
                -122.60684817803998,
                48.51365951865612
            ],
            [
                -122.60686830498197,
                48.51365081191037
            ],
            [
                -122.60683001466236,
                48.513659733077915
            ],
            [
                -122.60683945589756,
                48.513681167003895
            ],
            [
                -122.60683971194968,
                48.5136700034298
            ],
            [
                -122.60682236627184,
                48.51367293518285
            ],
            [
                -122.60683992246226,
                48.51366996258107
            ],
            [
                -122.60683004336911,
                48.513679614484126
            ],
            [
                -122.60681539751185,
                48.513659281923005
            ],
            [
                -122.60682,
                48.51366
            ]
        ]
    },
    "properties": {
        "trajectory_id": 7749,
        "object_id": 368343090,
        "label": "PLEASURE CRAFT"
    }
}