{
    "type": "Feature",
    "geometry": {
        "type": "LineString",
        "coordinates": [
            [
                -122.38871,
                47.62838
            ],
            [
                -122.38872010623099,
                47.628390139279695
            ],
            [
                -122.38872016261284,
                47.62837983985929
            ],
            [
                -122.38870989283924,
                47.62838009233573
            ],
            [
                -122.38869224867192,
                47.62838119117796
            ],
            [
                -122.38868041040497,
                47.62837865136258
            ],
            [
                -122.38868563911662,
                47.62837007105689
            ],
            [
                -122.38868028604087,
                47.62837979640273
            ],
            [
                -122.38870176148596,
                47.62838007688342
            ],
            [
                -122.38868860362925,
                47.62839294890598
            ],
            [
                -122.38869711995702,
                47.62838343505464
            ],
            [
                -122.38870900577012,
                47.628380005472266
            ],
            [
                -122.38869902711563,
                47.62837973444853
            ],
            [
                -122.38869333625854,
                47.62839315337196
            ],
            [
                -122.38870803772885,
                47.62836800459826
            ],
            [
                -122.38871112801462,
                47.628375580215604
            ],
            [
                -122.38869811880868,
                47.62839205188775
            ],
            [
                -122.38869866782848,
                47.62837999557655
            ],
            [
                -122.38870273407039,
                47.62836887973095
            ],
            [
                -122.38870457494221,
                47.62837655793675
            ],
            [
                -122.38870201451098,
                47.62838781714163
            ],
            [
                -122.38869942884716,
                47.62838123741252
            ],
            [
                -122.38870648761844,
                47.628385729323135
            ],
            [
                -122.38870623481813,
                47.62837764088201
            ],
            [
                -122.38869040172061,
                47.62839231893201
            ],
            [
                -122.38868969010274,
                47.62837893198451
            ],
            [
                -122.38870636616515,
                47.628379398937106
            ],
            [
                -122.38870398338223,
                47.62837628016405
            ],
            [
                -122.38868964161988,
                47.62837893175972
            ],
            [
                -122.38870046264567,
                47.62839000997272
            ],
            [
                -122.38869113182805,
                47.62838752464013
            ],
            [
                -122.38870003935597,
                47.62838855371188
            ],
            [
                -122.38869968699721,
                47.62838016923578
            ],
            [
                -122.38868296394168,
                47.62838140597555
            ],
            [
                -122.38869662543172,
                47.62838931273048
            ],
            [
                -122.38871041438013,
                47.62839006295185
            ],
            [
                -122.3887000979635,
                47.62838959871117
            ],
            [
                -122.38868927837078,
                47.62838929930147
            ],
            [
                -122.38868963025894,
                47.62839009437208
            ],
            [
                -122.38870998006622,
                47.62840000010379
            ],
            [
                -122.38871007001401,
                47.62839001608949
            ],
            [
                -122.38871951538744,
                47.628379947338566
            ],
            [
                -122.38867945938365,
                47.628399945829415
            ],
            [
                -122.38869003539362,
                47.628389952224644
            ],
            [
                -122.38869934597318,
                47.62839016730118
            ],
            [
                -122.38869937826011,
                47.6283907655486
            ],
            [
                -122.38868683790011,
                47.6283784422686
            ],
            [
                -122.3886998355357,
                47.62837259660852
            ],
            [
                -122.38869919706,
                47.62838972066703
            ],
            [
                -122.38869171503595,
                47.6283829412218
            ],
            [
                -122.38870920592488,
                47.62838142074159
            ],
            [
                -122.38869185356036,
                47.62838723762302
            ],
            [
                -122.38870370424966,
                47.62837585128773
            ],
            [
                -122.38870069758174,
                47.62839057395813
            ],
            [
                -122.38869257804473,
                47.62838703492002
            ],
            [
                -122.38870644287621,
                47.62838398220918
            ],
            [
                -122.38866573222406,
                47.62837810938603
            ],
            [
                -122.38870584628695,
                47.6283789897967
            ],
            [
                -122.38869654902796,
                47.62840256901475
            ],
            [
                -122.3886770826299,
                47.62837155842362
            ],
            [
                -122.38870527072976,
                47.62837986781773
            ],
            [
                -122.38870559525832,
                47.628389968089614
            ],
            [
                -122.38869907210908,
                47.628392119343
            ],
            [
                -122.38869024300723,
                47.6283922022117
            ],
            [
                -122.38868953803826,
                47.628388333031474
            ],
            [
                -122.38867799945514,
                47.62839299144675
            ],
            [
                -122.38868812222103,
                47.628385819153316
            ],
            [
                -122.3886829393168,
                47.62839046428713
            ],
            [
                -122.38870363795908,
                47.628385604171214
            ],
            [
                -122.38869444926199,
                47.628375387354076
            ],
            [
                -122.38868323888768,
                47.62838203060166
            ],
            [
                -122.38868016466087,
                47.62838129772915
            ],
            [
                -122.38869029956969,
                47.628380537325796
            ],
            [
                -122.38869982534095,
                47.62838957353192
            ],
            [
                -122.38868979224799,
                47.628390390057625
            ],
            [
                -122.38871825932429,
                47.62837916638238
            ],
            [
                -122.38870990257657,
                47.62837999817367
            ],
            [
                -122.38871959322383,
                47.6283799998286
            ],
            [
                -122.38871000994698,
                47.628379992126966
            ],
            [
                -122.3887000010484,
                47.62836997745884
            ],
            [
                -122.38868034323552,
                47.628380071977745
            ],
            [
                -122.38869968988534,
                47.62837963634456
            ],
            [
                -122.38869910385188,
                47.628369066332525
            ],
            [
                -122.38869872085716,
                47.62837972049715
            ],
            [
                -122.38870806825324,
                47.628389459705716
            ],
            [
                -122.3887084344777,
                47.62839176299733
            ],
            [
                -122.388706658565,
                47.62837149584193
            ],
            [
                -122.38869119103053,
                47.6283894545621
            ],
            [
                -122.38869362980525,
                47.62839563184869
            ],
            [
                -122.38870892380646,
                47.628390944709096
            ],
            [
                -122.38867897793313,
                47.628382581375476
            ],
            [
                -122.38869636972778,
                47.62837996672539
            ],
            [
                -122.3887069051906,
                47.62840320017821
            ],
            [
                -122.38870582215954,
                47.62837933693062
            ],
            [
                -122.3886964480294,
                47.628386400451895
            ],
            [
                -122.38870381767578,
                47.62836110727228
            ],
            [
                -122.38869434317411,
                47.62837743361192
            ],
            [
                -122.3887067898684,
                47.628389706190795
            ],
            [
                -122.38871093359916,
                47.62838246056445
            ],
            [
                -122.388696363396,
                47.628379216210575
            ],
            [
                -122.38875070134547,
                47.62838009750718
            ],
            [
                -122.38872108334482,
                47.628372692002245
            ],
            [
                -122.38868860756477,
                47.62837031159545
            ],
            [
                -122.38871192199852,
                47.62837977045538
            ],
            [
                -122.38871892330468,
                47.6283838247496
            ],
            [
                -122.38871087119507,
                47.628362499798946
            ],
            [
                -122.38870383752831,
                47.62839396089122
            ],
            [
                -122.38870783374972,
                47.62838266145205
            ],
            [
                -122.38871211665702,
                47.628379334949
            ],
            [
                -122.3887432460696,
                47.628380298610864
            ],
            [
                -122.38870956986311,
                47.62838994133326
            ],
            [
                -122.38870882412331,
                47.628379226985516
            ],
            [
                -122.38869456884731,
                47.62838852901469
            ],
            [
                -122.38863885512359,
                47.628391523356214
            ],
            [
                -122.38868973858092,
                47.62837997652505
            ],
            [
                -122.38871178936148,
                47.6283710400813
            ],
            [
                -122.38869670455526,
                47.62839522842183
            ],
            [
                -122.38869954970016,
                47.62838064760895
            ],
            [
                -122.38870241494868,
                47.628386737617674
            ],
            [
                -122.38871,
                47.62837
            ]
        ]
    },
    "properties": {
        "trajectory_id": 7757,
        "object_id": 368344240,
        "label": "PLEASURE CRAFT"
    }
}