{
    "type": "Feature",
    "geometry": {
        "type": "LineString",
        "coordinates": [
            [
                -122.38368,
                47.63131
            ],
            [
                -122.3837053232806,
                47.631347627726925
            ],
            [
                -122.38372058828313,
                47.63134155210357
            ],
            [
                -122.38374097198039,
                47.631326533428386
            ],
            [
                -122.38377027224863,
                47.63135470946535
            ],
            [
                -122.38381435633632,
                47.631415320555575
            ],
            [
                -122.38361854834947,
                47.63133283976219
            ],
            [
                -122.38374693464417,
                47.631319698670374
            ],
            [
                -122.38377658930297,
                47.6313243870861
            ],
            [
                -122.38375938187323,
                47.631329803218755
            ],
            [
                -122.38367859896522,
                47.631337774065216
            ],
            [
                -122.38380952610241,
                47.631348937083004
            ],
            [
                -122.38374959206321,
                47.6313715343202
            ],
            [
                -122.38375109846599,
                47.63136336243808
            ],
            [
                -122.38376439060872,
                47.631346558950305
            ],
            [
                -122.38370685553348,
                47.63133691301612
            ],
            [
                -122.38354935004905,
                47.63127490249211
            ],
            [
                -122.3836778212654,
                47.631394805178225
            ],
            [
                -122.38375728857709,
                47.63137784695777
            ],
            [
                -122.38370478562078,
                47.63142892159981
            ],
            [
                -122.3836930920455,
                47.631383799477234
            ],
            [
                -122.38374094359187,
                47.63133771419907
            ],
            [
                -122.38371775686443,
                47.63137806425825
            ],
            [
                -122.3836800980762,
                47.63135557760116
            ],
            [
                -122.38373646680802,
                47.631331111853626
            ],
            [
                -122.38372918602765,
                47.631358567182325
            ],
            [
                -122.38370080832927,
                47.63133945388348
            ],
            [
                -122.38377188798754,
                47.63136994227421
            ],
            [
                -122.38373955688392,
                47.63131470927544
            ],
            [
                -122.38356922647448,
                47.6313603125459
            ],
            [
                -122.38381469449459,
                47.631339001301626
            ],
            [
                -122.38362966421941,
                47.63126722247478
            ],
            [
                -122.38375621454212,
                47.63131020834717
            ],
            [
                -122.38371951193194,
                47.63132146476371
            ],
            [
                -122.38373643331705,
                47.631339352699726
            ],
            [
                -122.38376104518525,
                47.631370225754715
            ],
            [
                -122.38374588420493,
                47.63126732585584
            ],
            [
                -122.38368799603055,
                47.63133746673007
            ],
            [
                -122.38373025800469,
                47.63129809993039
            ],
            [
                -122.38372594964908,
                47.6313119206056
            ],
            [
                -122.38375979063389,
                47.63135140891091
            ],
            [
                -122.38374055961523,
                47.631389795739416
            ],
            [
                -122.38378055810226,
                47.63142636823291
            ],
            [
                -122.38374080840538,
                47.63135583817489
            ],
            [
                -122.38376098961179,
                47.63134005002691
            ],
            [
                -122.38366563891312,
                47.63132850624283
            ],
            [
                -122.38367209260524,
                47.631305146933336
            ],
            [
                -122.38371053290122,
                47.63131005891819
            ],
            [
                -122.3837189913286,
                47.631277431751386
            ],
            [
                -122.38377004581707,
                47.631347062534395
            ],
            [
                -122.38372060845393,
                47.63135269180526
            ],
            [
                -122.38367150341848,
                47.63134872481083
            ],
            [
                -122.38372225439302,
                47.631374590115094
            ],
            [
                -122.38376575911556,
                47.6313708451423
            ],
            [
                -122.38371136081342,
                47.63135710259656
            ],
            [
                -122.38361689668136,
                47.63138759311492
            ],
            [
                -122.38375995016625,
                47.631329936387495
            ],
            [
                -122.38378638733751,
                47.63133341813476
            ],
            [
                -122.38369996381427,
                47.63133974779875
            ],
            [
                -122.38371377410327,
                47.63134312403787
            ],
            [
                -122.38375061139547,
                47.63135052775499
            ],
            [
                -122.38364609172805,
                47.63134724923251
            ],
            [
                -122.3837805852621,
                47.63133956024565
            ],
            [
                -122.38380131059134,
                47.631359704111915
            ],
            [
                -122.3837208900642,
                47.63136959634617
            ],
            [
                -122.38376402883785,
                47.63137345955944
            ],
            [
                -122.38369000741451,
                47.63134079118852
            ],
            [
                -122.38366465907701,
                47.631325859622144
            ],
            [
                -122.38367564308002,
                47.631327120153486
            ],
            [
                -122.38370177206895,
                47.63128360716807
            ],
            [
                -122.38371373794385,
                47.63129351837574
            ],
            [
                -122.38371034261068,
                47.6313372060663
            ],
            [
                -122.38370013816444,
                47.63131965111646
            ],
            [
                -122.38375679246333,
                47.63130774213255
            ],
            [
                -122.3836941461851,
                47.63137186169437
            ],
            [
                -122.38371022611477,
                47.63137616436206
            ],
            [
                -122.3837183506443,
                47.63135928199881
            ],
            [
                -122.3837325489599,
                47.631374663754016
            ],
            [
                -122.38371306939813,
                47.631376745638214
            ],
            [
                -122.38372914200822,
                47.631402095455556
            ],
            [
                -122.38374390931628,
                47.63130368577881
            ],
            [
                -122.38378285450327,
                47.631282117398364
            ],
            [
                -122.3837053736917,
                47.63134909735901
            ],
            [
                -122.38369140803681,
                47.63129592478236
            ],
            [
                -122.38370770632632,
                47.631311449682194
            ],
            [
                -122.38373333738096,
                47.631358679170454
            ],
            [
                -122.38366729552673,
                47.63129863795734
            ],
            [
                -122.38372984089776,
                47.63133115144413
            ],
            [
                -122.38348408083442,
                47.63129592155851
            ],
            [
                -122.38368845076141,
                47.6313060596871
            ],
            [
                -122.3837132438286,
                47.631387299594344
            ],
            [
                -122.38367378917701,
                47.63127778819313
            ],
            [
                -122.38375289202249,
                47.63133893105259
            ],
            [
                -122.38374349760362,
                47.63131372310665
            ],
            [
                -122.3837750241026,
                47.631314457825816
            ],
            [
                -122.3837301154734,
                47.63132100905458
            ],
            [
                -122.38374487572068,
                47.63136958937162
            ],
            [
                -122.38366271007415,
                47.6313333565604
            ],
            [
                -122.3837606869107,
                47.63124988046963
            ],
            [
                -122.38374431842577,
                47.63136859017712
            ],
            [
                -122.38375177498497,
                47.631320598390495
            ],
            [
                -122.38370972931926,
                47.631370619717835
            ],
            [
                -122.38366290904706,
                47.631380244705554
            ],
            [
                -122.38371094697803,
                47.63137963267359
            ],
            [
                -122.38377474834076,
                47.63137390351696
            ],
            [
                -122.38373972911174,
                47.63138881105001
            ],
            [
                -122.38368607806862,
                47.63137274794999
            ],
            [
                -122.38370550006124,
                47.631371031300354
            ],
            [
                -122.3837909500776,
                47.63134784629312
            ],
            [
                -122.38377120406444,
                47.63133936150402
            ],
            [
                -122.38368785206131,
                47.63136376776412
            ],
            [
                -122.38377135462234,
                47.631337103627594
            ],
            [
                -122.38361981279527,
                47.63128000476328
            ],
            [
                -122.38373859550661,
                47.63131150047596
            ],
            [
                -122.3836845103295,
                47.63134364920203
            ],
            [
                -122.383813356616,
                47.63136212681647
            ],
            [
                -122.3837780229846,
                47.63136483122688
            ],
            [
                -122.38371946987361,
                47.63137034723478
            ],
            [
                -122.38375116995795,
                47.63126796260878
            ],
            [
                -122.38372,
                47.6313
            ]
        ]
    },
    "properties": {
        "trajectory_id": 7774,
        "object_id": 368555000,
        "label": "FISHING"
    }
}