{
    "type": "Feature",
    "geometry": {
        "type": "LineString",
        "coordinates": [
            [
                -122.61099,
                48.5217
            ],
            [
                -122.61098026658041,
                48.521680541197355
            ],
            [
                -122.61098085778761,
                48.5216898206786
            ],
            [
                -122.61100085481195,
                48.52166837877505
            ],
            [
                -122.61095797573071,
                48.521677924085004
            ],
            [
                -122.61101086473975,
                48.52167086404538
            ],
            [
                -122.61100199316644,
                48.52167267980057
            ],
            [
                -122.610990192712,
                48.521716117890094
            ],
            [
                -122.61098206384412,
                48.52169220895845
            ],
            [
                -122.61101345135287,
                48.52166017763462
            ],
            [
                -122.61103824764528,
                48.521668739829316
            ],
            [
                -122.61097292646392,
                48.52165092715159
            ],
            [
                -122.61100684064232,
                48.52165675637882
            ],
            [
                -122.61100455120904,
                48.52164655464436
            ],
            [
                -122.611012079338,
                48.521699260931086
            ],
            [
                -122.61103938588683,
                48.5216810913643
            ],
            [
                -122.61100562771027,
                48.52165822376703
            ],
            [
                -122.61102000498435,
                48.52165529941243
            ],
            [
                -122.61103998748078,
                48.52166113532215
            ],
            [
                -122.61097586219351,
                48.52167762447259
            ],
            [
                -122.61094305252301,
                48.5216850629873
            ],
            [
                -122.61097610094338,
                48.52166068259021
            ],
            [
                -122.61099137997003,
                48.52167421950753
            ],
            [
                -122.61096067083487,
                48.521671506284115
            ],
            [
                -122.61098844806928,
                48.52167044397302
            ],
            [
                -122.61097978855238,
                48.521666797535644
            ],
            [
                -122.61098028452705,
                48.52168895279479
            ],
            [
                -122.61100011937395,
                48.521670033696466
            ],
            [
                -122.61102314308563,
                48.52169232001697
            ],
            [
                -122.61101467367837,
                48.52166556769953
            ],
            [
                -122.61100591730946,
                48.52169140500367
            ],
            [
                -122.61100459397146,
                48.52167129824271
            ],
            [
                -122.61099180998572,
                48.52166726456472
            ],
            [
                -122.61107600703416,
                48.521676304332196
            ],
            [
                -122.61103140176151,
                48.521639440437426
            ],
            [
                -122.61101131250328,
                48.52169130181397
            ],
            [
                -122.61102255824684,
                48.52166203479697
            ],
            [
                -122.61106552163113,
                48.52174161494363
            ],
            [
                -122.61099377578998,
                48.52164959306041
            ],
            [
                -122.61098012186869,
                48.52164014820203
            ],
            [
                -122.610979965741,
                48.52165998131475
            ],
            [
                -122.61102600294,
                48.52165110433441
            ],
            [
                -122.61100181475763,
                48.52168935230292
            ],
            [
                -122.61100189845124,
                48.52168099691274
            ],
            [
                -122.61095134294828,
                48.52167206976025
            ],
            [
                -122.61097594739955,
                48.521691037384656
            ],
            [
                -122.61096113991601,
                48.52168016241636
            ],
            [
                -122.61096539845298,
                48.52168031517195
            ],
            [
                -122.61096288259776,
                48.52168082785052
            ],
            [
                -122.61101560485953,
                48.52167352285745
            ],
            [
                -122.61100971094245,
                48.52169171164933
            ],
            [
                -122.61098368290232,
                48.52167946372144
            ],
            [
                -122.61098156951275,
                48.5216801529831
            ],
            [
                -122.61101926424827,
                48.521655956293905
            ],
            [
                -122.61099515698449,
                48.521705452672606
            ],
            [
                -122.61100479748136,
                48.5216668164691
            ],
            [
                -122.61100411502646,
                48.521709268814206
            ],
            [
                -122.61096225160178,
                48.521698725938876
            ],
            [
                -122.61097723811554,
                48.52165439895505
            ],
            [
                -122.61096736982853,
                48.52167672521787
            ],
            [
                -122.61093095464813,
                48.5217230920712
            ],
            [
                -122.61102700677112,
                48.521676927755706
            ],
            [
                -122.61095421339684,
                48.52169456258241
            ],
            [
                -122.61098220275595,
                48.52167320559625
            ],
            [
                -122.61098191804909,
                48.52166398336425
            ],
            [
                -122.61096752267663,
                48.52167043555037
            ],
            [
                -122.61099731097714,
                48.521681032271765
            ],
            [
                -122.61097382417013,
                48.52164211085579
            ],
            [
                -122.6109740591446,
                48.52167305002973
            ],
            [
                -122.61099494811398,
                48.5216842039208
            ],
            [
                -122.61099525319229,
                48.521712062500484
            ],
            [
                -122.61097741662672,
                48.52169301009734
            ],
            [
                -122.61095869646476,
                48.521684662401896
            ],
            [
                -122.61093813795878,
                48.52170394732901
            ],
            [
                -122.61098536799106,
                48.52168866011757
            ],
            [
                -122.61100816134503,
                48.521680175950294
            ],
            [
                -122.61100095217931,
                48.52166945875497
            ],
            [
                -122.61100127645679,
                48.521691051288464
            ],
            [
                -122.61100108415698,
                48.52168048043329
            ],
            [
                -122.61103025100242,
                48.52166931002013
            ],
            [
                -122.61101876045906,
                48.52166932156827
            ],
            [
                -122.61100124948742,
                48.521652425329634
            ],
            [
                -122.6109777319494,
                48.5216982462452
            ],
            [
                -122.61100116921821,
                48.52168795470948
            ],
            [
                -122.61098441287977,
                48.52166716167475
            ],
            [
                -122.61098052847925,
                48.52168210012226
            ],
            [
                -122.6110127176083,
                48.52167584004949
            ],
            [
                -122.61099903343637,
                48.52167242078993
            ],
            [
                -122.61096935699408,
                48.521661808422884
            ],
            [
                -122.61095919976039,
                48.52165924191124
            ],
            [
                -122.61099177281095,
                48.521655393286856
            ],
            [
                -122.61103119778689,
                48.5216829691038
            ],
            [
                -122.61085090721791,
                48.52158985970572
            ],
            [
                -122.61087592393932,
                48.52159375366404
            ],
            [
                -122.61097349384791,
                48.521651629874654
            ],
            [
                -122.61095883791185,
                48.52165750633006
            ],
            [
                -122.61097776380821,
                48.5216964733235
            ],
            [
                -122.61099824718355,
                48.521667460439396
            ],
            [
                -122.61099211146872,
                48.52167048842501
            ],
            [
                -122.61102886822043,
                48.52165190993918
            ],
            [
                -122.61101209380718,
                48.521645538398296
            ],
            [
                -122.61099558849213,
                48.52165716318722
            ],
            [
                -122.6109508584506,
                48.52167996149761
            ],
            [
                -122.61095812973062,
                48.52168972988553
            ],
            [
                -122.61099175906746,
                48.521652572153606
            ],
            [
                -122.61099403372454,
                48.52166117868896
            ],
            [
                -122.61098715786045,
                48.521660405694455
            ],
            [
                -122.61095654038206,
                48.52163379902729
            ],
            [
                -122.61101656733716,
                48.52164913723844
            ],
            [
                -122.6110025262822,
                48.521688679320036
            ],
            [
                -122.61096150120248,
                48.521663695159226
            ],
            [
                -122.61095876664179,
                48.52166509429298
            ],
            [
                -122.61097025615497,
                48.521666910127216
            ],
            [
                -122.61098643135577,
                48.521676849646994
            ],
            [
                -122.6109974997765,
                48.521690958317876
            ],
            [
                -122.61100056149422,
                48.521720397396095
            ],
            [
                -122.61097319987725,
                48.521690889317206
            ],
            [
                -122.61099156720107,
                48.521648820145224
            ],
            [
                -122.61095989800769,
                48.521680561580595
            ],
            [
                -122.61099,
                48.52166
            ]
        ]
    },
    "properties": {
        "trajectory_id": 7785,
        "object_id": 368653000,
        "label": "FISHING"
    }
}