{
    "type": "Feature",
    "geometry": {
        "type": "LineString",
        "coordinates": [
            [
                -122.64675,
                47.55512
            ],
            [
                -122.64675052438926,
                47.55512298945696
            ],
            [
                -122.64677111956763,
                47.555150254326605
            ],
            [
                -122.64679625791456,
                47.55517074185249
            ],
            [
                -122.64675439554348,
                47.555154372039986
            ],
            [
                -122.64677283803312,
                47.55513366118523
            ],
            [
                -122.64676772959487,
                47.555160015800915
            ],
            [
                -122.64686329763566,
                47.55506761048213
            ],
            [
                -122.64647928263594,
                47.55498462622391
            ],
            [
                -122.64452296874529,
                47.55112187014806
            ],
            [
                -122.63383699004169,
                47.5513338004651
            ],
            [
                -122.61874632790129,
                47.55535413152649
            ],
            [
                -122.60520707891109,
                47.562186210149804
            ],
            [
                -122.59451642493747,
                47.57043489744523
            ],
            [
                -122.58319434937313,
                47.579231483226046
            ],
            [
                -122.57141969863451,
                47.586539993942374
            ],
            [
                -122.56032785656238,
                47.59123611037893
            ],
            [
                -122.54706747910184,
                47.59097211527136
            ],
            [
                -122.53989530600907,
                47.58214967583401
            ],
            [
                -122.53414840527128,
                47.57255317389152
            ],
            [
                -122.53005340348524,
                47.563462663362955
            ],
            [
                -122.53212096727647,
                47.561895740450666
            ],
            [
                -122.53193251395115,
                47.562218182612
            ],
            [
                -122.53227220432008,
                47.56231314870514
            ],
            [
                -122.53275574241809,
                47.56231930620467
            ],
            [
                -122.53178556065016,
                47.561916656012414
            ],
            [
                -122.53079883197212,
                47.5622331100537
            ],
            [
                -122.53014377230261,
                47.56260527835912
            ],
            [
                -122.53135086114546,
                47.56242927724133
            ],
            [
                -122.53241678578084,
                47.562329673131345
            ],
            [
                -122.53331889167619,
                47.56213816421438
            ],
            [
                -122.53258281506574,
                47.5623530633368
            ],
            [
                -122.5328055163407,
                47.562232620996745
            ],
            [
                -122.53371750311335,
                47.56200551153286
            ],
            [
                -122.53363864411493,
                47.561908128259894
            ],
            [
                -122.53365063573473,
                47.56204049729421
            ],
            [
                -122.53471356230995,
                47.561781870296855
            ],
            [
                -122.53484755748364,
                47.561719557409894
            ],
            [
                -122.53487171214272,
                47.56171793017102
            ],
            [
                -122.53484789910647,
                47.56171106227435
            ],
            [
                -122.53485787926476,
                47.56169075784578
            ],
            [
                -122.53492308647601,
                47.56169861281326
            ],
            [
                -122.53492090750967,
                47.5616903327068
            ],
            [
                -122.53491430030553,
                47.56169537623642
            ],
            [
                -122.53490875044163,
                47.561694612283894
            ],
            [
                -122.5348724871003,
                47.56171945342729
            ],
            [
                -122.53428342975072,
                47.56117944928061
            ],
            [
                -122.53233731546322,
                47.558851237960646
            ],
            [
                -122.53499885530589,
                47.56094960590733
            ],
            [
                -122.53502514082497,
                47.56096910071125
            ],
            [
                -122.5350169815057,
                47.56098130927622
            ],
            [
                -122.53504000717639,
                47.56097998824471
            ],
            [
                -122.53501863398417,
                47.560979628450525
            ],
            [
                -122.5350388574466,
                47.560983181376905
            ],
            [
                -122.5350185689957,
                47.560994213101395
            ],
            [
                -122.53503377943582,
                47.560963719946635
            ],
            [
                -122.53504954442012,
                47.560971003604614
            ],
            [
                -122.53502746871452,
                47.56098637712512
            ],
            [
                -122.53503618705233,
                47.5609773798909
            ],
            [
                -122.53505126169533,
                47.561021069484966
            ],
            [
                -122.53503932713534,
                47.560983518786266
            ],
            [
                -122.53506000046902,
                47.56100051199317
            ],
            [
                -122.53503711625703,
                47.56098949974329
            ],
            [
                -122.53504335460494,
                47.561008760177316
            ],
            [
                -122.535019558684,
                47.5609903883704
            ],
            [
                -122.53500793114944,
                47.56097065835247
            ],
            [
                -122.53503058622043,
                47.56095889311693
            ],
            [
                -122.53503412255412,
                47.56094892066884
            ],
            [
                -122.53505666454306,
                47.56095233305374
            ],
            [
                -122.53506211234055,
                47.56093535352792
            ],
            [
                -122.53504209038307,
                47.56093737038434
            ],
            [
                -122.5350297640273,
                47.56095913289771
            ],
            [
                -122.53503015608206,
                47.560920819594
            ],
            [
                -122.53502854105369,
                47.560913894768724
            ],
            [
                -122.53499447255494,
                47.56096940722636
            ],
            [
                -122.53501681951671,
                47.56097153740937
            ],
            [
                -122.53504214697995,
                47.56095739164403
            ],
            [
                -122.53504193895125,
                47.5609463248198
            ],
            [
                -122.53501602112054,
                47.56097924636056
            ],
            [
                -122.53502242509146,
                47.56097937206713
            ],
            [
                -122.53500121359224,
                47.56098110733182
            ],
            [
                -122.53500053519906,
                47.56095971051002
            ],
            [
                -122.53499733670186,
                47.560972197921984
            ],
            [
                -122.53501750760543,
                47.56096578351141
            ],
            [
                -122.5350293945698,
                47.560944606330125
            ],
            [
                -122.53504973533076,
                47.56092979337599
            ],
            [
                -122.53502379781617,
                47.56095382687004
            ],
            [
                -122.53500046844606,
                47.56097581833572
            ],
            [
                -122.53501735540647,
                47.56097474704135
            ],
            [
                -122.53502063334454,
                47.560969239023656
            ],
            [
                -122.53501280456601,
                47.5609741536695
            ],
            [
                -122.53499704336933,
                47.56098144559985
            ],
            [
                -122.53497995681143,
                47.56098942446185
            ],
            [
                -122.53497580314747,
                47.560986053062344
            ],
            [
                -122.53499610489283,
                47.560962942672155
            ],
            [
                -122.53500995124188,
                47.56096016191335
            ],
            [
                -122.53499853796374,
                47.56097050466733
            ],
            [
                -122.53500394348158,
                47.56097259713857
            ],
            [
                -122.5349771897696,
                47.56098916709329
            ],
            [
                -122.53498876369318,
                47.56097332681269
            ],
            [
                -122.53497018737713,
                47.560960330089706
            ],
            [
                -122.53498615840331,
                47.560969319224704
            ],
            [
                -122.53498257438277,
                47.560980997045576
            ],
            [
                -122.53493624889293,
                47.56092345673882
            ],
            [
                -122.53470418140368,
                47.560815826365975
            ],
            [
                -122.52850948515584,
                47.56080204090951
            ],
            [
                -122.52289964610046,
                47.561909842476844
            ],
            [
                -122.52553081828687,
                47.56451405938617
            ],
            [
                -122.53573703434104,
                47.57356516989736
            ],
            [
                -122.54265217028623,
                47.583846327863455
            ],
            [
                -122.55098363277712,
                47.59216893203498
            ],
            [
                -122.56424114946685,
                47.589256547736404
            ],
            [
                -122.57749596902853,
                47.583126297843535
            ],
            [
                -122.58988306814439,
                47.57511209583532
            ],
            [
                -122.6022457751733,
                47.56675638663191
            ],
            [
                -122.61429776595801,
                47.558105500715946
            ],
            [
                -122.6294457767582,
                47.553015657284334
            ],
            [
                -122.64421888830033,
                47.55120617680901
            ],
            [
                -122.64635592444512,
                47.55498726926344
            ],
            [
                -122.6468,
                47.55516
            ]
        ]
    },
    "properties": {
        "trajectory_id": 7800,
        "object_id": 368926640,
        "label": "TUG"
    }
}