{
    "type": "Feature",
    "geometry": {
        "type": "LineString",
        "coordinates": [
            [
                -122.35019,
                47.58979
            ],
            [
                -122.35018999335871,
                47.58979000000001
            ],
            [
                -122.35019000000406,
                47.58979000000001
            ],
            [
                -122.3501937346953,
                47.589789999999994
            ],
            [
                -122.3501902939115,
                47.58979000000001
            ],
            [
                -122.35019999999263,
                47.589789999999994
            ],
            [
                -122.35020000035362,
                47.58979
            ],
            [
                -122.35019685404168,
                47.58979000000003
            ],
            [
                -122.35019074047604,
                47.58978999999999
            ],
            [
                -122.35019019270823,
                47.58979000000001
            ],
            [
                -122.35019999999787,
                47.58979000000001
            ],
            [
                -122.3502,
                47.58979
            ],
            [
                -122.3502,
                47.589789999999994
            ],
            [
                -122.3502,
                47.5897900000005
            ],
            [
                -122.35019999999997,
                47.58979015989439
            ],
            [
                -122.35020000000003,
                47.5897999999964
            ],
            [
                -122.35019999999997,
                47.58979999999999
            ],
            [
                -122.35020000000205,
                47.589800000000004
            ],
            [
                -122.35019927726682,
                47.5898
            ],
            [
                -122.3501900000062,
                47.58980000055396
            ],
            [
                -122.35018999900814,
                47.589799899163935
            ],
            [
                -122.35020046057713,
                47.589789999936876
            ],
            [
                -122.35018999416943,
                47.589790296408445
            ],
            [
                -122.35019,
                47.58979987604303
            ],
            [
                -122.35019,
                47.58979999986329
            ],
            [
                -122.35018999999997,
                47.58979999999999
            ],
            [
                -122.35019000000001,
                47.58979999999999
            ],
            [
                -122.35018999989299,
                47.5898
            ],
            [
                -122.35019508119082,
                47.589799998613174
            ],
            [
                -122.35020074700965,
                47.58979150640313
            ],
            [
                -122.35018999503527,
                47.58978999996828
            ],
            [
                -122.35019000000001,
                47.58979000000001
            ],
            [
                -122.35019000000001,
                47.58979000000001
            ],
            [
                -122.35018999999998,
                47.58979
            ],
            [
                -122.35019,
                47.589789999999994
            ],
            [
                -122.3501900000002,
                47.58979000000001
            ],
            [
                -122.35018876875978,
                47.58979
            ],
            [
                -122.3501900019277,
                47.58979000000001
            ],
            [
                -122.35018999999997,
                47.58979000011879
            ],
            [
                -122.35019,
                47.58978999245915
            ],
            [
                -122.35018919701812,
                47.589789183577466
            ],
            [
                -122.35018999873928,
                47.58979999954829
            ],
            [
                -122.35018999999998,
                47.58980000000011
            ],
            [
                -122.35019,
                47.58980007213369
            ],
            [
                -122.35019,
                47.5897939891181
            ],
            [
                -122.35019000000803,
                47.58979000057864
            ],
            [
                -122.35019701846036,
                47.58978999999999
            ],
            [
                -122.3502000002729,
                47.58979
            ],
            [
                -122.35020000000227,
                47.58979
            ],
            [
                -122.35019882253218,
                47.58979
            ],
            [
                -122.35018881990777,
                47.58979
            ],
            [
                -122.3501899999977,
                47.58978999458925
            ],
            [
                -122.35019,
                47.5898000005008
            ],
            [
                -122.35018999999998,
                47.589798520603175
            ],
            [
                -122.35018999999997,
                47.58978999999846
            ],
            [
                -122.35019,
                47.589789999999994
            ],
            [
                -122.35018999999998,
                47.589789999999994
            ],
            [
                -122.35018999999997,
                47.589789999999994
            ],
            [
                -122.35019000000001,
                47.58979
            ],
            [
                -122.35018999999998,
                47.58978999999999
            ],
            [
                -122.35019000008525,
                47.589790000005266
            ],
            [
                -122.35020741144243,
                47.589791158981704
            ],
            [
                -122.35025543916132,
                47.589795429391515
            ],
            [
                -122.3502480691592,
                47.58979935555911
            ],
            [
                -122.35018999645486,
                47.589799999997574
            ],
            [
                -122.35019000000001,
                47.58980000000001
            ],
            [
                -122.35018999999998,
                47.58979999999999
            ],
            [
                -122.35018999999997,
                47.58979999999998
            ],
            [
                -122.35019000000003,
                47.589800000000004
            ],
            [
                -122.35019000000003,
                47.589800000000004
            ],
            [
                -122.35019008679832,
                47.5898
            ],
            [
                -122.3501900000135,
                47.58980000000001
            ],
            [
                -122.35020085281533,
                47.5898
            ],
            [
                -122.35019935972088,
                47.589800000000004
            ],
            [
                -122.35019979477467,
                47.58979999999999
            ],
            [
                -122.35018999997715,
                47.58979999999999
            ],
            [
                -122.35019000026118,
                47.589800000000004
            ],
            [
                -122.35019998036014,
                47.58980000040565
            ],
            [
                -122.35019014178529,
                47.58980003223532
            ],
            [
                -122.35020000035908,
                47.58978999963857
            ],
            [
                -122.35020007308994,
                47.589790000000015
            ],
            [
                -122.3502002805378,
                47.589789999999994
            ],
            [
                -122.3501999837056,
                47.58979
            ],
            [
                -122.3501900073915,
                47.589789999999994
            ],
            [
                -122.35019000452964,
                47.58979
            ],
            [
                -122.35019999960831,
                47.589789999999994
            ],
            [
                -122.35019312417872,
                47.589789999999994
            ],
            [
                -122.35018999999957,
                47.58979
            ],
            [
                -122.35019,
                47.58979
            ],
            [
                -122.35018999983134,
                47.58978999998582
            ],
            [
                -122.35019015862807,
                47.5897998299006
            ],
            [
                -122.35019924524377,
                47.58980000000006
            ],
            [
                -122.35020000668638,
                47.589799999999606
            ],
            [
                -122.35019808435375,
                47.58980003834726
            ],
            [
                -122.35020000021706,
                47.58979903767836
            ],
            [
                -122.3502,
                47.58978999087879
            ],
            [
                -122.3502,
                47.589790000000235
            ],
            [
                -122.3502,
                47.58979000000001
            ],
            [
                -122.35019999999997,
                47.589789999999994
            ],
            [
                -122.35019999999999,
                47.589789999999994
            ],
            [
                -122.35020000000003,
                47.58979000000001
            ],
            [
                -122.35020000000002,
                47.58979
            ],
            [
                -122.35020000000004,
                47.58979000000001
            ],
            [
                -122.3502,
                47.58978999999999
            ],
            [
                -122.35019999999997,
                47.589789999999994
            ],
            [
                -122.35020000578906,
                47.58979
            ],
            [
                -122.35020972674353,
                47.589789999999994
            ],
            [
                -122.35020999999996,
                47.589789999999994
            ],
            [
                -122.35020494619936,
                47.58979
            ],
            [
                -122.35019999999984,
                47.58979
            ],
            [
                -122.3502,
                47.589789999999994
            ],
            [
                -122.3502,
                47.58979000000001
            ],
            [
                -122.35019999999997,
                47.589789999999994
            ],
            [
                -122.3502,
                47.58979
            ],
            [
                -122.35019999999997,
                47.58979
            ],
            [
                -122.35019999999605,
                47.589789999999994
            ],
            [
                -122.35019070567607,
                47.58979
            ],
            [
                -122.35018999999825,
                47.58979000000001
            ],
            [
                -122.35019000000001,
                47.58979
            ],
            [
                -122.35019,
                47.58979
            ]
        ]
    },
    "properties": {
        "trajectory_id": 7811,
        "object_id": 369008000,
        "label": "TUG"
    }
}