{
    "type": "Feature",
    "geometry": {
        "type": "LineString",
        "coordinates": [
            [
                -122.38197,
                47.65605
            ],
            [
                -122.38196486039959,
                47.656044825344146
            ],
            [
                -122.38195986338395,
                47.656039994886164
            ],
            [
                -122.38193983306411,
                47.65606016908761
            ],
            [
                -122.38195021134484,
                47.65605944180249
            ],
            [
                -122.38196028196016,
                47.65604969003917
            ],
            [
                -122.38195014738979,
                47.65605025426009
            ],
            [
                -122.38194956538094,
                47.65603051595339
            ],
            [
                -122.38195949400539,
                47.656050637524274
            ],
            [
                -122.38194942114771,
                47.65603955815652
            ],
            [
                -122.38193926061182,
                47.65603942160815
            ],
            [
                -122.381949773588,
                47.65604008141029
            ],
            [
                -122.38195020450624,
                47.65605019436161
            ],
            [
                -122.38195915838945,
                47.656058776277156
            ],
            [
                -122.3819695472205,
                47.656060654060695
            ],
            [
                -122.3819614173849,
                47.65606067462017
            ],
            [
                -122.38196019511345,
                47.65604866172321
            ],
            [
                -122.38196117480717,
                47.65603909525025
            ],
            [
                -122.38195035351958,
                47.65604001704511
            ],
            [
                -122.38195199664229,
                47.65603967791819
            ],
            [
                -122.38195377322242,
                47.65604984384011
            ],
            [
                -122.38195191793974,
                47.65605790085911
            ],
            [
                -122.38195809978616,
                47.65605070306676
            ],
            [
                -122.3819385393208,
                47.65604224795304
            ],
            [
                -122.3819495205609,
                47.65602861081042
            ],
            [
                -122.38195310926773,
                47.6560403432916
            ],
            [
                -122.38196012732259,
                47.6560491118193
            ],
            [
                -122.38194947551169,
                47.656048980376276
            ],
            [
                -122.38193938041745,
                47.65603598131074
            ],
            [
                -122.38195843921879,
                47.656031832301565
            ],
            [
                -122.38195573863348,
                47.65603953665447
            ],
            [
                -122.38194878601632,
                47.65604209032031
            ],
            [
                -122.38194786322889,
                47.656044620860705
            ],
            [
                -122.38195347801638,
                47.65605350307489
            ],
            [
                -122.38194980574444,
                47.65605013367412
            ],
            [
                -122.3819646551906,
                47.65603651911253
            ],
            [
                -122.38195755177155,
                47.656051101760745
            ],
            [
                -122.38194697434999,
                47.65603746744489
            ],
            [
                -122.3819611952178,
                47.65605149283935
            ],
            [
                -122.38194955574713,
                47.65604986301494
            ],
            [
                -122.38195320880364,
                47.65604272801358
            ],
            [
                -122.38196110461703,
                47.65605893772851
            ],
            [
                -122.38196341566571,
                47.6560645629766
            ],
            [
                -122.38195262659661,
                47.65605013826344
            ],
            [
                -122.3819724952355,
                47.6560689578314
            ],
            [
                -122.38196187457349,
                47.656052132410466
            ],
            [
                -122.38195580897866,
                47.65602824126023
            ],
            [
                -122.38195013115553,
                47.656027516439934
            ],
            [
                -122.38193682722894,
                47.65604117200461
            ],
            [
                -122.38194836564543,
                47.656053440530364
            ],
            [
                -122.38194949800287,
                47.65606173242987
            ],
            [
                -122.38195193840504,
                47.65604729774642
            ],
            [
                -122.3819540471323,
                47.6560457352155
            ],
            [
                -122.38197563175873,
                47.656050406204486
            ],
            [
                -122.38195684460143,
                47.65605972555324
            ],
            [
                -122.3819548242126,
                47.65605098962909
            ],
            [
                -122.38195646217736,
                47.65606122120405
            ],
            [
                -122.38195551216421,
                47.65605441331153
            ],
            [
                -122.38194642002762,
                47.65604008067345
            ],
            [
                -122.3819512421127,
                47.65604906463233
            ],
            [
                -122.38196001287008,
                47.656046965201355
            ],
            [
                -122.38195271326525,
                47.65604391829166
            ],
            [
                -122.38195578917161,
                47.65604481953006
            ],
            [
                -122.38195948390262,
                47.656046675769886
            ],
            [
                -122.381949957972,
                47.65604971240354
            ],
            [
                -122.38194663142066,
                47.656059387518795
            ],
            [
                -122.3819608512826,
                47.656049561434685
            ],
            [
                -122.38194557559811,
                47.65603276356619
            ],
            [
                -122.3819563658271,
                47.65604446038034
            ],
            [
                -122.38195687410989,
                47.656040941025175
            ],
            [
                -122.3819492733898,
                47.65604276788455
            ],
            [
                -122.3819497245143,
                47.656045523130565
            ],
            [
                -122.38194644737055,
                47.656047521353585
            ],
            [
                -122.38196669043691,
                47.65604601433947
            ],
            [
                -122.38194895408944,
                47.65605091236466
            ],
            [
                -122.3819494574281,
                47.65605728828387
            ],
            [
                -122.38195398497247,
                47.656040912582384
            ],
            [
                -122.38195353011449,
                47.656044002672076
            ],
            [
                -122.38194815100272,
                47.656062227347206
            ],
            [
                -122.38195322361781,
                47.656048937404066
            ],
            [
                -122.3819432328189,
                47.656057757275995
            ],
            [
                -122.38196275648829,
                47.65604149185807
            ],
            [
                -122.38195581893473,
                47.65603392482364
            ],
            [
                -122.38195919675233,
                47.65603848823641
            ],
            [
                -122.38194705453853,
                47.65602662221515
            ],
            [
                -122.38195004887453,
                47.656039406104746
            ],
            [
                -122.38195468208392,
                47.65603849446413
            ],
            [
                -122.38195046655812,
                47.65604951522682
            ],
            [
                -122.38196777414859,
                47.65604271952179
            ],
            [
                -122.38195006382585,
                47.65602235821242
            ],
            [
                -122.38195756409368,
                47.656031660096495
            ],
            [
                -122.381950710936,
                47.6560315200078
            ],
            [
                -122.38195069756064,
                47.65601975469471
            ],
            [
                -122.38195081921123,
                47.65604276885999
            ],
            [
                -122.381947913483,
                47.656042621404254
            ],
            [
                -122.3819376263361,
                47.65604928547349
            ],
            [
                -122.38195016160212,
                47.65603951937949
            ],
            [
                -122.38195723736666,
                47.65604984916207
            ],
            [
                -122.38196276991016,
                47.65602416828099
            ],
            [
                -122.38195898603115,
                47.656029709834016
            ],
            [
                -122.3819596288923,
                47.656039714684496
            ],
            [
                -122.38195878091356,
                47.6560304286899
            ],
            [
                -122.3819484093545,
                47.65604014428388
            ],
            [
                -122.3819608712385,
                47.65603205247194
            ],
            [
                -122.38196039591571,
                47.656029838039
            ],
            [
                -122.38196068281738,
                47.65606086443417
            ],
            [
                -122.38196088980722,
                47.656050906649696
            ],
            [
                -122.3819604027027,
                47.65603864754333
            ],
            [
                -122.38195074385494,
                47.656041828960696
            ],
            [
                -122.38195922763154,
                47.65604976788929
            ],
            [
                -122.38195097580271,
                47.65604958296333
            ],
            [
                -122.38194112882309,
                47.65603137062053
            ],
            [
                -122.38196100265442,
                47.65604044665235
            ],
            [
                -122.38195041606258,
                47.65604990807883
            ],
            [
                -122.38194998220547,
                47.65604011674007
            ],
            [
                -122.38195850297744,
                47.65603742470253
            ],
            [
                -122.3819501894501,
                47.656050205834696
            ],
            [
                -122.38196996717429,
                47.65604997523815
            ],
            [
                -122.38197001400195,
                47.65604997280716
            ],
            [
                -122.38197,
                47.65606
            ]
        ]
    },
    "properties": {
        "trajectory_id": 7847,
        "object_id": 369359000,
        "label": "PLEASURE CRAFT"
    }
}