{
    "type": "Feature",
    "geometry": {
        "type": "LineString",
        "coordinates": [
            [
                -122.38196,
                47.65605
            ],
            [
                -122.38194997639557,
                47.656040068549125
            ],
            [
                -122.38195000033427,
                47.656040107099265
            ],
            [
                -122.3819499980274,
                47.65602986858429
            ],
            [
                -122.38195011286156,
                47.65603900202251
            ],
            [
                -122.38195994790645,
                47.65604018376656
            ],
            [
                -122.38196067262045,
                47.656050008046925
            ],
            [
                -122.38194998189785,
                47.656039964190605
            ],
            [
                -122.38194925189573,
                47.656038186417845
            ],
            [
                -122.38194211357123,
                47.65603086111606
            ],
            [
                -122.38195135968297,
                47.65604010584402
            ],
            [
                -122.38195164029874,
                47.65604085316021
            ],
            [
                -122.3819542993928,
                47.656048137685296
            ],
            [
                -122.38195750395731,
                47.656058395585184
            ],
            [
                -122.38195684994466,
                47.65605303426887
            ],
            [
                -122.38196045148953,
                47.65604916456712
            ],
            [
                -122.3819525252131,
                47.65604738678171
            ],
            [
                -122.38194969015166,
                47.656039935550915
            ],
            [
                -122.38195058948556,
                47.656039348458926
            ],
            [
                -122.38194837281463,
                47.656049474308254
            ],
            [
                -122.38195148519593,
                47.65604178211336
            ],
            [
                -122.38194666107397,
                47.65604812594246
            ],
            [
                -122.38193797537807,
                47.65603860486418
            ],
            [
                -122.38195778186642,
                47.65603383348613
            ],
            [
                -122.38195610617541,
                47.656040001893736
            ],
            [
                -122.38196213970681,
                47.65605203843993
            ],
            [
                -122.38195009456012,
                47.65603941095053
            ],
            [
                -122.38195127748322,
                47.6560391418758
            ],
            [
                -122.38195214578104,
                47.656035686908496
            ],
            [
                -122.38194946083276,
                47.65604022677929
            ],
            [
                -122.38194305830805,
                47.6560506528102
            ],
            [
                -122.38195606317343,
                47.656050011308714
            ],
            [
                -122.3819609424364,
                47.65604814003943
            ],
            [
                -122.38194439966936,
                47.656045084767186
            ],
            [
                -122.38195349915298,
                47.656041296453466
            ],
            [
                -122.3819603151656,
                47.65604702896154
            ],
            [
                -122.38195023118283,
                47.65603855874425
            ],
            [
                -122.3819498919128,
                47.65604077474201
            ],
            [
                -122.38195664931001,
                47.656046578304334
            ],
            [
                -122.38195034300766,
                47.65604691280076
            ],
            [
                -122.38195134866004,
                47.6560527719603
            ],
            [
                -122.38196038954902,
                47.65606128333521
            ],
            [
                -122.38196056837192,
                47.65606162856564
            ],
            [
                -122.38196257929528,
                47.65606318302814
            ],
            [
                -122.3819619145118,
                47.65604002707243
            ],
            [
                -122.38196049030013,
                47.65603565421019
            ],
            [
                -122.38194702760217,
                47.65603768777457
            ],
            [
                -122.38195044751153,
                47.65603835289742
            ],
            [
                -122.38195921876543,
                47.656050325194855
            ],
            [
                -122.38194991946972,
                47.65604966725642
            ],
            [
                -122.38196978277529,
                47.65604151947242
            ],
            [
                -122.3819597816237,
                47.65604158260916
            ],
            [
                -122.38195024177588,
                47.656040175735725
            ],
            [
                -122.38195997419754,
                47.65604990803296
            ],
            [
                -122.38195005882503,
                47.65604955248073
            ],
            [
                -122.38195077625475,
                47.656055296887054
            ],
            [
                -122.38195057533878,
                47.6560604577548
            ],
            [
                -122.38195011467006,
                47.656050322991
            ],
            [
                -122.38195031726198,
                47.656040494288305
            ],
            [
                -122.38194985940515,
                47.65606989544148
            ],
            [
                -122.38194002519337,
                47.65605001575045
            ],
            [
                -122.38196012228867,
                47.65603008897032
            ],
            [
                -122.38194992359924,
                47.65604038199628
            ],
            [
                -122.3819498992153,
                47.6560498313372
            ],
            [
                -122.38194066258022,
                47.656041618497774
            ],
            [
                -122.38195995781078,
                47.65605072678022
            ],
            [
                -122.38195020397039,
                47.65605138107664
            ],
            [
                -122.38194922481185,
                47.65604916259842
            ],
            [
                -122.38194964025304,
                47.656041957112436
            ],
            [
                -122.3819490505484,
                47.65604042476218
            ],
            [
                -122.3819485406706,
                47.6560419055272
            ],
            [
                -122.38193748882165,
                47.656050255620904
            ],
            [
                -122.38194499073437,
                47.65604243441961
            ],
            [
                -122.3819402679611,
                47.656035849248966
            ],
            [
                -122.38195989259431,
                47.656044879874514
            ],
            [
                -122.38195031960865,
                47.656042359577256
            ],
            [
                -122.38195149672946,
                47.65604931907319
            ],
            [
                -122.38194361197957,
                47.65605735526587
            ],
            [
                -122.38193981445906,
                47.65604801169184
            ],
            [
                -122.38194945849735,
                47.65603700701266
            ],
            [
                -122.38195299674894,
                47.656039764805506
            ],
            [
                -122.38195935408278,
                47.656026940429506
            ],
            [
                -122.38195484572744,
                47.65603709254231
            ],
            [
                -122.38195034013874,
                47.65602049151271
            ],
            [
                -122.38195392729833,
                47.65603548508345
            ],
            [
                -122.38194886297832,
                47.65601182063078
            ],
            [
                -122.38195145935289,
                47.65603432409406
            ],
            [
                -122.38194469061396,
                47.65602595135913
            ],
            [
                -122.38195123936295,
                47.65602169729307
            ],
            [
                -122.38194964638076,
                47.65602559990007
            ],
            [
                -122.38194895514064,
                47.65603016132629
            ],
            [
                -122.38195480486189,
                47.656040252849316
            ],
            [
                -122.38195455461522,
                47.65604429160323
            ],
            [
                -122.38195138573569,
                47.65604895910373
            ],
            [
                -122.38195028596323,
                47.656047182624086
            ],
            [
                -122.38195532627894,
                47.65606435987997
            ],
            [
                -122.38195886730124,
                47.65603399021217
            ],
            [
                -122.38195212149651,
                47.656029069258
            ],
            [
                -122.38195892755326,
                47.65601976048365
            ],
            [
                -122.38194226084246,
                47.6560138615366
            ],
            [
                -122.38194097523844,
                47.65600489286221
            ],
            [
                -122.38196510511955,
                47.65602424254379
            ],
            [
                -122.38194094646275,
                47.656040882287535
            ],
            [
                -122.38195918004777,
                47.656037814932226
            ],
            [
                -122.38195877575308,
                47.65603681460541
            ],
            [
                -122.38196041329475,
                47.656040294675236
            ],
            [
                -122.38194867210042,
                47.656041073191076
            ],
            [
                -122.3819578659789,
                47.656050269696934
            ],
            [
                -122.38195584113316,
                47.656024512888195
            ],
            [
                -122.38194233788728,
                47.656038078665375
            ],
            [
                -122.38196040469934,
                47.656040879450984
            ],
            [
                -122.38194894635508,
                47.65604888153916
            ],
            [
                -122.38193923298984,
                47.6560515020015
            ],
            [
                -122.38194975689763,
                47.65603928592742
            ],
            [
                -122.3819485074735,
                47.65603961167124
            ],
            [
                -122.38195052934869,
                47.6560398449516
            ],
            [
                -122.3819619516577,
                47.65605482781811
            ],
            [
                -122.38196992606721,
                47.65604942790577
            ],
            [
                -122.38195598433398,
                47.65605910116526
            ],
            [
                -122.38196,
                47.65605
            ]
        ]
    },
    "properties": {
        "trajectory_id": 7849,
        "object_id": 369359000,
        "label": "PLEASURE CRAFT"
    }
}