{
    "type": "Feature",
    "geometry": {
        "type": "LineString",
        "coordinates": [
            [
                -123.17722,
                49.29906
            ],
            [
                -123.17727143428533,
                49.29906690637181
            ],
            [
                -123.17727040363042,
                49.29900682911746
            ],
            [
                -123.17749294508796,
                49.299044323285685
            ],
            [
                -123.17744720898285,
                49.29897651818237
            ],
            [
                -123.17754115082147,
                49.29902838227604
            ],
            [
                -123.17769909988449,
                49.29907556040828
            ],
            [
                -123.17722917302464,
                49.29917266502047
            ],
            [
                -123.1772887368392,
                49.29933499573375
            ],
            [
                -123.17736860737523,
                49.29941533170219
            ],
            [
                -123.17715910465685,
                49.29931049736738
            ],
            [
                -123.17723658233805,
                49.2992430051627
            ],
            [
                -123.17742554185068,
                49.29905891952765
            ],
            [
                -123.17758600145353,
                49.298964510675866
            ],
            [
                -123.17755228145636,
                49.29898097437161
            ],
            [
                -123.17755965630688,
                49.29900243713611
            ],
            [
                -123.177413831965,
                49.29906555431144
            ],
            [
                -123.17741941870801,
                49.29915146032708
            ],
            [
                -123.17729108120734,
                49.299207931687285
            ],
            [
                -123.17733084224876,
                49.29909345785058
            ],
            [
                -123.17743866244325,
                49.299023004035746
            ],
            [
                -123.17752922288031,
                49.298963541933745
            ],
            [
                -123.17758377880943,
                49.29895087233717
            ],
            [
                -123.17753443884858,
                49.299016820264896
            ],
            [
                -123.17758935862085,
                49.298956577719466
            ],
            [
                -123.1778537661294,
                49.29871897912156
            ],
            [
                -123.17823685969778,
                49.29843417196087
            ],
            [
                -123.17863939838746,
                49.298245731809864
            ],
            [
                -123.17883686149348,
                49.29842835432459
            ],
            [
                -123.17903332906278,
                49.298149049976374
            ],
            [
                -123.17900268328096,
                49.29822253550178
            ],
            [
                -123.17905133100894,
                49.29818882300602
            ],
            [
                -123.17906030148788,
                49.29816177062835
            ],
            [
                -123.17914021679674,
                49.298248702213144
            ],
            [
                -123.17904049143444,
                49.29823537817362
            ],
            [
                -123.1789769242894,
                49.298097945559455
            ],
            [
                -123.17919641302859,
                49.29823894619858
            ],
            [
                -123.17933979575733,
                49.29819987762951
            ],
            [
                -123.17915306965986,
                49.29811893098729
            ],
            [
                -123.17880602385625,
                49.29831225461857
            ],
            [
                -123.17845010266176,
                49.298410309333384
            ],
            [
                -123.17786781174799,
                49.29863993744237
            ],
            [
                -123.17749539351465,
                49.29898348544617
            ],
            [
                -123.17715883123952,
                49.299380227352636
            ],
            [
                -123.17709732946024,
                49.29987646459339
            ],
            [
                -123.17710565453332,
                49.30034140563403
            ],
            [
                -123.17725760687543,
                49.30055030225472
            ],
            [
                -123.17725852931477,
                49.30051198828344
            ],
            [
                -123.17715850743785,
                49.30032149769404
            ],
            [
                -123.17707311799113,
                49.30025847618096
            ],
            [
                -123.17723693329313,
                49.30040139684499
            ],
            [
                -123.17752662368262,
                49.30077102995534
            ],
            [
                -123.17781747200567,
                49.301256921405844
            ],
            [
                -123.17794867551888,
                49.30119333524013
            ],
            [
                -123.17802665857205,
                49.30132388832545
            ],
            [
                -123.17824749327241,
                49.301396971648614
            ],
            [
                -123.17828972397007,
                49.301280282537476
            ],
            [
                -123.17823839811494,
                49.30122636653919
            ],
            [
                -123.17795443601297,
                49.30118226222732
            ],
            [
                -123.17780827683356,
                49.30109369888272
            ],
            [
                -123.17787948071171,
                49.30080398140097
            ],
            [
                -123.17761581190587,
                49.300692614713654
            ],
            [
                -123.1774632218196,
                49.30055329868813
            ],
            [
                -123.17746894714234,
                49.300409031209654
            ],
            [
                -123.17739465095671,
                49.300255868413245
            ],
            [
                -123.17715121407346,
                49.30023403038014
            ],
            [
                -123.17711672601033,
                49.30027457950174
            ],
            [
                -123.1770975474479,
                49.30035929722769
            ],
            [
                -123.17720337398205,
                49.300315324397694
            ],
            [
                -123.17737724902089,
                49.30056079372001
            ],
            [
                -123.17756779582808,
                49.30081130676908
            ],
            [
                -123.17766324850808,
                49.301156262714855
            ],
            [
                -123.17791778387567,
                49.30115019146722
            ],
            [
                -123.17789101414357,
                49.30115023511992
            ],
            [
                -123.17767028962663,
                49.301060260290456
            ],
            [
                -123.17767108400899,
                49.30105985328885
            ],
            [
                -123.17780228909207,
                49.30106050511723
            ],
            [
                -123.17819805583264,
                49.30127516527042
            ],
            [
                -123.17851633216364,
                49.30158397518943
            ],
            [
                -123.17901253718759,
                49.30147578692024
            ],
            [
                -123.17917490215982,
                49.301489410782295
            ],
            [
                -123.17940652732914,
                49.301459930128125
            ],
            [
                -123.17945892586062,
                49.301555252631665
            ],
            [
                -123.17941757573104,
                49.30162863748782
            ],
            [
                -123.17927393324588,
                49.30156115995198
            ],
            [
                -123.17917844104323,
                49.30153159534241
            ],
            [
                -123.17873317141871,
                49.301523329618135
            ],
            [
                -123.17847521713539,
                49.301477348683164
            ],
            [
                -123.17848109638847,
                49.301386979902794
            ],
            [
                -123.17832168582893,
                49.301426659957784
            ],
            [
                -123.1784529727923,
                49.301445116525144
            ],
            [
                -123.17880241583444,
                49.30138556428205
            ],
            [
                -123.17906595843343,
                49.301581209554286
            ],
            [
                -123.17941955032093,
                49.30167548851823
            ],
            [
                -123.17976463387373,
                49.301607861228106
            ],
            [
                -123.17995529898867,
                49.30160748594887
            ],
            [
                -123.18019743684266,
                49.30158024867708
            ],
            [
                -123.18019855299787,
                49.30126659183716
            ],
            [
                -123.1799827893116,
                49.301702359111395
            ],
            [
                -123.18062914637139,
                49.30085340359315
            ],
            [
                -123.21212611957128,
                49.29617300670486
            ],
            [
                -123.2559825816711,
                49.29333655760125
            ],
            [
                -123.31632396336052,
                49.282343466273424
            ],
            [
                -123.35212106191958,
                49.25304611156946
            ],
            [
                -123.36564185724717,
                49.20964078342655
            ],
            [
                -123.37561426782541,
                49.16785756233166
            ],
            [
                -123.38858640120719,
                49.1361070024765
            ],
            [
                -123.38158533381893,
                49.11320195745125
            ],
            [
                -123.35881090370557,
                49.09928296826864
            ],
            [
                -123.32869971811999,
                49.09338005251637
            ],
            [
                -123.28789845143683,
                49.1099708936604
            ],
            [
                -123.24136449043873,
                49.12924160914538
            ],
            [
                -123.19190558484931,
                49.1195538620534
            ],
            [
                -123.14219510293671,
                49.10767761081402
            ],
            [
                -123.09544340003185,
                49.11456915469125
            ],
            [
                -123.05763518890826,
                49.13456906729797
            ],
            [
                -123.01442903120868,
                49.15168740210345
            ],
            [
                -122.96580427029124,
                49.15632009468928
            ],
            [
                -122.93118339870908,
                49.166503861153004
            ],
            [
                -122.92108,
                49.17778
            ]
        ]
    },
    "properties": {
        "trajectory_id": 7902,
        "object_id": 373562000,
        "label": "CARGO"
    }
}