{
    "type": "Feature",
    "geometry": {
        "type": "LineString",
        "coordinates": [
            [
                -123.1534,
                49.01707
            ],
            [
                -123.15344086970251,
                49.0170613791022
            ],
            [
                -123.15343159821496,
                49.017060559386984
            ],
            [
                -123.15340874474525,
                49.01712104808697
            ],
            [
                -123.15343105292246,
                49.01714421798562
            ],
            [
                -123.15337060477766,
                49.017043139271216
            ],
            [
                -123.15345558165966,
                49.017116116111964
            ],
            [
                -123.15334086259293,
                49.01699690896388
            ],
            [
                -123.1534323890593,
                49.01707751473118
            ],
            [
                -123.153421095919,
                49.017079059561404
            ],
            [
                -123.15341314003699,
                49.017080499365
            ],
            [
                -123.15342030844933,
                49.01705730675811
            ],
            [
                -123.15340691405508,
                49.017052923623005
            ],
            [
                -123.1518555537522,
                49.01677065877736
            ],
            [
                -123.15977673754396,
                49.00692407263486
            ],
            [
                -123.1592942843397,
                49.00145045437711
            ],
            [
                -123.11570793281187,
                48.964808538306784
            ],
            [
                -123.06678526907244,
                48.92343283821352
            ],
            [
                -123.03495281825039,
                48.87368132895282
            ],
            [
                -123.00987856509103,
                48.820222467509694
            ],
            [
                -123.04062298868668,
                48.775559742864644
            ],
            [
                -123.10917382758815,
                48.748295988453734
            ],
            [
                -123.18609426856797,
                48.723110390806774
            ],
            [
                -123.2544740133677,
                48.69246230502735
            ],
            [
                -123.24534094839089,
                48.64165316055536
            ],
            [
                -123.23078526310188,
                48.58875170979794
            ],
            [
                -123.21621586941566,
                48.53565380220333
            ],
            [
                -123.20923450390829,
                48.48144419473639
            ],
            [
                -123.20117450648006,
                48.42766870913686
            ],
            [
                -123.2486305369387,
                48.40017638049389
            ],
            [
                -123.31347500334955,
                48.38081985680668
            ],
            [
                -123.36606618305736,
                48.3819529678721
            ],
            [
                -123.40164921612755,
                48.37287938908816
            ],
            [
                -123.42057080348386,
                48.35326050595129
            ],
            [
                -123.43962199361057,
                48.333662674748794
            ],
            [
                -123.45906789510833,
                48.31352320981608
            ],
            [
                -123.47523072152055,
                48.29338253198929
            ],
            [
                -123.48915654313785,
                48.28046503987247
            ],
            [
                -123.50868352538227,
                48.269871570320234
            ],
            [
                -123.5363964745892,
                48.26370593450671
            ],
            [
                -123.5685037430428,
                48.26089123533984
            ],
            [
                -123.60358570222354,
                48.26156336806114
            ],
            [
                -123.63943598234938,
                48.26192010667928
            ],
            [
                -123.67240995292269,
                48.26078874415147
            ],
            [
                -123.69311883449626,
                48.24445901107795
            ],
            [
                -123.66302389453132,
                48.229722088547675
            ],
            [
                -123.61542667168104,
                48.22656196038084
            ],
            [
                -123.564734777839,
                48.22385217723264
            ],
            [
                -123.52298627219298,
                48.215262044733656
            ],
            [
                -123.4890444500372,
                48.20223156193861
            ],
            [
                -123.45804858893335,
                48.18939067223423
            ],
            [
                -123.4280736368537,
                48.1756699214718
            ],
            [
                -123.39538012019484,
                48.16192354579576
            ],
            [
                -123.33470342545938,
                48.1699915878286
            ],
            [
                -123.24868642326165,
                48.180923838564894
            ],
            [
                -123.16286916957978,
                48.19403163002338
            ],
            [
                -123.07436682271153,
                48.1975741840555
            ],
            [
                -122.98662392993015,
                48.19175417882195
            ],
            [
                -122.90135923858708,
                48.186642602461546
            ],
            [
                -122.81345075889786,
                48.17927446370711
            ],
            [
                -122.74129289809575,
                48.15107253057773
            ],
            [
                -122.68788403365065,
                48.11846854607824
            ],
            [
                -122.65858485803464,
                48.077060148805664
            ],
            [
                -122.64151141805925,
                48.03173338954937
            ],
            [
                -122.61032578098401,
                47.99235898009779
            ],
            [
                -122.57078940209414,
                47.955442700196485
            ],
            [
                -122.52809971649523,
                47.91687758349829
            ],
            [
                -122.49183275825153,
                47.87494783853626
            ],
            [
                -122.4698478246365,
                47.82823107249175
            ],
            [
                -122.45058255973612,
                47.7765275948874
            ],
            [
                -122.4593735907887,
                47.722501442742214
            ],
            [
                -122.47347952277728,
                47.66928503559974
            ],
            [
                -122.43577213179712,
                47.63087011395014
            ],
            [
                -122.37661038212819,
                47.61179320071633
            ],
            [
                -122.35020284242205,
                47.60289668090343
            ],
            [
                -122.3456957560687,
                47.59614847291797
            ],
            [
                -122.34482934344376,
                47.59018680194919
            ],
            [
                -122.34419047119525,
                47.582613231814975
            ],
            [
                -122.34320566140867,
                47.58259268648098
            ],
            [
                -122.34321593241921,
                47.582620840789595
            ],
            [
                -122.34313429829692,
                47.58256277155248
            ],
            [
                -122.34320331299423,
                47.58259768053711
            ],
            [
                -122.34317007092667,
                47.58246179891635
            ],
            [
                -122.34334087924569,
                47.58251022325507
            ],
            [
                -122.34320413296626,
                47.58262159746273
            ],
            [
                -122.34317023205863,
                47.58243995854311
            ],
            [
                -122.34331906915074,
                47.582728507434
            ],
            [
                -122.34316237234663,
                47.582587372791636
            ],
            [
                -122.34318962175843,
                47.582481600902824
            ],
            [
                -122.34320201950656,
                47.58255339883026
            ],
            [
                -122.34321886366146,
                47.58255483918039
            ],
            [
                -122.34317746786635,
                47.582540306677835
            ],
            [
                -122.3432161965058,
                47.582585943949105
            ],
            [
                -122.34321879088417,
                47.582672110368975
            ],
            [
                -122.34329155901025,
                47.582615092762595
            ],
            [
                -122.34327870190539,
                47.58273802250565
            ],
            [
                -122.34313296709783,
                47.58259927557619
            ],
            [
                -122.34327850868088,
                47.5825535031512
            ],
            [
                -122.34315569817366,
                47.58270364320537
            ],
            [
                -122.34323022662319,
                47.58255594840923
            ],
            [
                -122.3432339990274,
                47.58259268041311
            ],
            [
                -122.34318832805876,
                47.58257055119848
            ],
            [
                -122.34322337338486,
                47.5825824818471
            ],
            [
                -122.34302859300792,
                47.58281685827012
            ],
            [
                -122.34297601970829,
                47.58262709954592
            ],
            [
                -122.34314842392754,
                47.582543791704914
            ],
            [
                -122.34318910977194,
                47.58260439774554
            ],
            [
                -122.34324397659981,
                47.58268288705361
            ],
            [
                -122.34319772137177,
                47.58261746609564
            ],
            [
                -122.34325835652683,
                47.58262693802313
            ],
            [
                -122.34321229033482,
                47.582648348020236
            ],
            [
                -122.34320222851872,
                47.582615913934916
            ],
            [
                -122.3432397767091,
                47.582619950522215
            ],
            [
                -122.34320078545844,
                47.58260473969696
            ],
            [
                -122.34321525523812,
                47.58258221585231
            ],
            [
                -122.34321006368039,
                47.5825891462189
            ],
            [
                -122.34329206345245,
                47.582588507041045
            ],
            [
                -122.3432511726993,
                47.5826322344403
            ],
            [
                -122.34317056117634,
                47.582590291060356
            ],
            [
                -122.34329,
                47.58257
            ]
        ]
    },
    "properties": {
        "trajectory_id": 7982,
        "object_id": 477806000,
        "label": "CARGO"
    }
}