{
    "type": "Feature",
    "geometry": {
        "type": "LineString",
        "coordinates": [
            [
                -122.72103,
                48.8258
            ],
            [
                -122.7209806740421,
                48.825786750439505
            ],
            [
                -122.7209792225808,
                48.825767402737995
            ],
            [
                -122.72092259178919,
                48.825772804501405
            ],
            [
                -122.72092008799997,
                48.82581744882166
            ],
            [
                -122.72092698523832,
                48.82579377844034
            ],
            [
                -122.72097980069385,
                48.82576968292451
            ],
            [
                -122.7209877154875,
                48.8257758974493
            ],
            [
                -122.72095123001074,
                48.82574917104286
            ],
            [
                -122.72095982953809,
                48.825768706294056
            ],
            [
                -122.72095194849477,
                48.82575410520702
            ],
            [
                -122.72097173597814,
                48.82575275252914
            ],
            [
                -122.72096133201795,
                48.82575754480181
            ],
            [
                -122.72096964770243,
                48.825779562011526
            ],
            [
                -122.7209848007593,
                48.82578004493651
            ],
            [
                -122.72096830481196,
                48.82580074479475
            ],
            [
                -122.72098174369671,
                48.825747838046965
            ],
            [
                -122.72097206352933,
                48.825778206730014
            ],
            [
                -122.7209487147575,
                48.82581444030355
            ],
            [
                -122.7210000754337,
                48.825783145754585
            ],
            [
                -122.72093031377298,
                48.8257687965368
            ],
            [
                -122.72095153506524,
                48.825769213280175
            ],
            [
                -122.72089860700335,
                48.82576852012235
            ],
            [
                -122.72096918723553,
                48.82575469584073
            ],
            [
                -122.72098174699741,
                48.825750008465086
            ],
            [
                -122.72095235512425,
                48.825767137056445
            ],
            [
                -122.7209250002998,
                48.825747810891066
            ],
            [
                -122.72093997367142,
                48.82576688943121
            ],
            [
                -122.72091878292568,
                48.825779414440554
            ],
            [
                -122.72093863829858,
                48.82578237998555
            ],
            [
                -122.72094744416958,
                48.825777053651336
            ],
            [
                -122.7209230283353,
                48.82576668693527
            ],
            [
                -122.72095496531139,
                48.825773202044864
            ],
            [
                -122.72097010086027,
                48.82578100170483
            ],
            [
                -122.72094706858289,
                48.82576988403342
            ],
            [
                -122.72096877086359,
                48.82576871458519
            ],
            [
                -122.7209519407735,
                48.82576572642821
            ],
            [
                -122.72095416117904,
                48.82576525954421
            ],
            [
                -122.72095236841768,
                48.82577688233056
            ],
            [
                -122.72095060327078,
                48.82579785057895
            ],
            [
                -122.72096715676044,
                48.825780765765295
            ],
            [
                -122.72095158723862,
                48.82580257437169
            ],
            [
                -122.72093090190285,
                48.82580080855837
            ],
            [
                -122.7209483263701,
                48.825803367346374
            ],
            [
                -122.72092608499628,
                48.82581938512595
            ],
            [
                -122.72093829091004,
                48.82580192812185
            ],
            [
                -122.7209477378266,
                48.82582277817265
            ],
            [
                -122.72094873719745,
                48.82574804967886
            ],
            [
                -122.72089956302067,
                48.82576966835494
            ],
            [
                -122.72089807832022,
                48.82580072602653
            ],
            [
                -122.72093087995665,
                48.82577825732931
            ],
            [
                -122.72098932266155,
                48.82578156575036
            ],
            [
                -122.72092803562967,
                48.82573545422119
            ],
            [
                -122.7209821466847,
                48.82579077026229
            ],
            [
                -122.72093085506671,
                48.82576959805292
            ],
            [
                -122.72096420782466,
                48.825777687982345
            ],
            [
                -122.72093017804963,
                48.82582846924187
            ],
            [
                -122.72097721803013,
                48.82580062039942
            ],
            [
                -122.72093255620128,
                48.825751837156666
            ],
            [
                -122.72093919052627,
                48.82584231341738
            ],
            [
                -122.72094991827987,
                48.82579249134386
            ],
            [
                -122.72095163500545,
                48.82572572326029
            ],
            [
                -122.72095127424087,
                48.825776319615635
            ],
            [
                -122.72095214339916,
                48.825768479595496
            ],
            [
                -122.72094415489765,
                48.825775157658455
            ],
            [
                -122.72099513060492,
                48.8257956974718
            ],
            [
                -122.72094960324849,
                48.82577332085059
            ],
            [
                -122.720951725124,
                48.82577237542013
            ],
            [
                -122.72099948350531,
                48.825821552746056
            ],
            [
                -122.72097592673117,
                48.82577370802266
            ],
            [
                -122.72097024399537,
                48.82576106053596
            ],
            [
                -122.72090924505333,
                48.825727231219894
            ],
            [
                -122.7209402341174,
                48.825729762706665
            ],
            [
                -122.72094858011273,
                48.8257781847463
            ],
            [
                -122.72093592574113,
                48.82578016939992
            ],
            [
                -122.7209306058277,
                48.82576972408662
            ],
            [
                -122.72095929741126,
                48.82577645825415
            ],
            [
                -122.72096567476248,
                48.82578674594003
            ],
            [
                -122.72096977364549,
                48.82579948749239
            ],
            [
                -122.72102216055649,
                48.825743803729495
            ],
            [
                -122.72100629336092,
                48.82580533692788
            ],
            [
                -122.72096897351409,
                48.82573091610358
            ],
            [
                -122.72098121757877,
                48.825758748579815
            ],
            [
                -122.72098081642224,
                48.8257495805496
            ],
            [
                -122.72093879554926,
                48.8257688735764
            ],
            [
                -122.7209296492617,
                48.825769665793445
            ],
            [
                -122.72096822584089,
                48.82577431100847
            ],
            [
                -122.72094897897573,
                48.82575046458615
            ],
            [
                -122.72096305765861,
                48.82575132119607
            ],
            [
                -122.72092698329834,
                48.82577306853023
            ],
            [
                -122.72090444836921,
                48.82573110175057
            ],
            [
                -122.72087493711274,
                48.825767927568215
            ],
            [
                -122.72095347298557,
                48.82577663840155
            ],
            [
                -122.72095245203761,
                48.82577322468978
            ],
            [
                -122.72098781613458,
                48.82572935941394
            ],
            [
                -122.72095517041978,
                48.82580021005827
            ],
            [
                -122.72098519538255,
                48.82578146739823
            ],
            [
                -122.72097537919399,
                48.82576464046039
            ],
            [
                -122.72097597599503,
                48.8257439879728
            ],
            [
                -122.72093069333248,
                48.82577919076931
            ],
            [
                -122.72096819954767,
                48.825796055910324
            ],
            [
                -122.72090028349007,
                48.82577794622505
            ],
            [
                -122.72092160896128,
                48.82581871232022
            ],
            [
                -122.72093021404868,
                48.82579457448333
            ],
            [
                -122.72093851999082,
                48.825799950246676
            ],
            [
                -122.72096317518745,
                48.825772394580596
            ],
            [
                -122.72095001052394,
                48.82576962923659
            ],
            [
                -122.72096496859612,
                48.825790835836514
            ],
            [
                -122.7209778700277,
                48.825798136965595
            ],
            [
                -122.72094338896162,
                48.82575653832196
            ],
            [
                -122.72095196880282,
                48.82577161759998
            ],
            [
                -122.72095247800475,
                48.82573573953101
            ],
            [
                -122.72095262132657,
                48.82572059549886
            ],
            [
                -122.72098179955147,
                48.8257518270336
            ],
            [
                -122.72100182182659,
                48.82577069638952
            ],
            [
                -122.72094597615258,
                48.8257373831715
            ],
            [
                -122.72098924402026,
                48.82574631675744
            ],
            [
                -122.72095222375462,
                48.82572501035737
            ],
            [
                -122.72108034072531,
                48.82585373061787
            ],
            [
                -122.72097,
                48.82578
            ]
        ]
    },
    "properties": {
        "trajectory_id": 7989,
        "object_id": 538003678,
        "label": "TANKER"
    }
}