{
    "type": "Feature",
    "geometry": {
        "type": "LineString",
        "coordinates": [
            [
                -123.10684,
                49.31126
            ],
            [
                -123.10683844648989,
                49.311260469425086
            ],
            [
                -123.10683109159784,
                49.31125898398178
            ],
            [
                -123.10681538653222,
                49.3112592371321
            ],
            [
                -123.10682003026345,
                49.3112895790315
            ],
            [
                -123.10680108423276,
                49.31127264824623
            ],
            [
                -123.10680020234048,
                49.31125986896593
            ],
            [
                -123.10683790919647,
                49.31127266631622
            ],
            [
                -123.10684068627566,
                49.3112591907318
            ],
            [
                -123.10684163646103,
                49.311261935825094
            ],
            [
                -123.10684243613386,
                49.31127371200598
            ],
            [
                -123.10684961265909,
                49.31127979667298
            ],
            [
                -123.10685818973742,
                49.311274948540046
            ],
            [
                -123.10682261250871,
                49.311276596444095
            ],
            [
                -123.10684243443576,
                49.3112684212585
            ],
            [
                -123.10683568811771,
                49.31127850797849
            ],
            [
                -123.10684786404167,
                49.31128510602223
            ],
            [
                -123.10687984977268,
                49.311268080085306
            ],
            [
                -123.10686745815835,
                49.311250674561414
            ],
            [
                -123.10685037754982,
                49.31126921521895
            ],
            [
                -123.10684969920806,
                49.31126953217417
            ],
            [
                -123.10684203784871,
                49.31126333073554
            ],
            [
                -123.10682513457219,
                49.31128042302745
            ],
            [
                -123.10679470304576,
                49.31128225213909
            ],
            [
                -123.10685867206885,
                49.311261151880295
            ],
            [
                -123.10684704615214,
                49.31127142553538
            ],
            [
                -123.10682004448445,
                49.31126992125538
            ],
            [
                -123.10682930101214,
                49.311281358655755
            ],
            [
                -123.10684079754883,
                49.311280485520946
            ],
            [
                -123.10684004017143,
                49.311292785589025
            ],
            [
                -123.10684201353823,
                49.31129668988471
            ],
            [
                -123.10682691679753,
                49.31128021734665
            ],
            [
                -123.11789814624761,
                49.3079757476784
            ],
            [
                -123.11868228456203,
                49.308195172803735
            ],
            [
                -123.10482974322605,
                49.30976570207388
            ],
            [
                -123.10487168314032,
                49.31039612337999
            ],
            [
                -123.10490004983725,
                49.310359642022675
            ],
            [
                -123.10487922268263,
                49.310390776933744
            ],
            [
                -123.10673387897633,
                49.3112353437528
            ],
            [
                -123.10684852840882,
                49.31127079767913
            ],
            [
                -123.10686792921831,
                49.31127785494104
            ],
            [
                -123.10684856108836,
                49.31126064072458
            ],
            [
                -123.10678834443438,
                49.3112511892814
            ],
            [
                -123.10684001136188,
                49.3112505036911
            ],
            [
                -123.1067885949262,
                49.31127195530489
            ],
            [
                -123.10684656506095,
                49.311252422076436
            ],
            [
                -123.10683848017722,
                49.31127165366854
            ],
            [
                -123.10683008092836,
                49.31125120866603
            ],
            [
                -123.10681528747884,
                49.31129624051973
            ],
            [
                -123.1068114444627,
                49.31126430769569
            ],
            [
                -123.10682795074032,
                49.31127463174097
            ],
            [
                -123.10681988068941,
                49.311269810890224
            ],
            [
                -123.10683000079344,
                49.31127023334397
            ],
            [
                -123.10683284272326,
                49.311269937112925
            ],
            [
                -123.10682967974496,
                49.31128021793319
            ],
            [
                -123.10681905171887,
                49.31128035506206
            ],
            [
                -123.10681572818467,
                49.3112786810451
            ],
            [
                -123.10681273555971,
                49.311255933686795
            ],
            [
                -123.1068649679857,
                49.31125291085779
            ],
            [
                -123.10682276198013,
                49.311260089636065
            ],
            [
                -123.10678963655432,
                49.311279917094154
            ],
            [
                -123.10682051712648,
                49.31130209018598
            ],
            [
                -123.10679736044625,
                49.31132580930297
            ],
            [
                -123.10681399175623,
                49.311256616546416
            ],
            [
                -123.0841988270684,
                49.30552043167231
            ],
            [
                -123.04762425064688,
                49.29969295491
            ],
            [
                -123.00939961728294,
                49.29440577088398
            ],
            [
                -123.00481975613032,
                49.292360604690465
            ],
            [
                -123.0048257050879,
                49.29237356096704
            ],
            [
                -123.0047885548443,
                49.29237654282507
            ],
            [
                -123.0048129478152,
                49.29237596269442
            ],
            [
                -123.00469500919968,
                49.29299955273527
            ],
            [
                -123.02146590432314,
                49.29498554810161
            ],
            [
                -123.04600503708815,
                49.29657287411624
            ],
            [
                -123.07725805801185,
                49.30310601578733
            ],
            [
                -123.10668384637826,
                49.31128433839214
            ],
            [
                -123.10682961252913,
                49.31122025353372
            ],
            [
                -123.10683263898328,
                49.311257939802246
            ],
            [
                -123.106836245416,
                49.31122699661468
            ],
            [
                -123.10683,
                49.31127
            ]
        ]
    },
    "properties": {
        "trajectory_id": 802,
        "object_id": 316005715,
        "label": "TUG"
    }
}