{
    "type": "Feature",
    "geometry": {
        "type": "LineString",
        "coordinates": [
            [
                -122.36988,
                47.6231
            ],
            [
                -122.36984010799645,
                47.62312991857782
            ],
            [
                -122.36977003833348,
                47.62310024572579
            ],
            [
                -122.36983157261687,
                47.623076098630285
            ],
            [
                -122.36983208017887,
                47.62304671148553
            ],
            [
                -122.36989944687217,
                47.622982693619285
            ],
            [
                -122.36981709139933,
                47.62303424955241
            ],
            [
                -122.36983327647755,
                47.62305638640924
            ],
            [
                -122.3698295020651,
                47.623058831459204
            ],
            [
                -122.36979451783886,
                47.623036043367726
            ],
            [
                -122.36985124971324,
                47.62306999959121
            ],
            [
                -122.36980963276272,
                47.62303438586857
            ],
            [
                -122.36982671793423,
                47.62306865502501
            ],
            [
                -122.36981073274535,
                47.623019018894034
            ],
            [
                -122.36982718078461,
                47.62307961170206
            ],
            [
                -122.3698031436257,
                47.623073728868825
            ],
            [
                -122.36983499691478,
                47.62305387814086
            ],
            [
                -122.3698204095275,
                47.62303787030248
            ],
            [
                -122.36987998689959,
                47.62301452841186
            ],
            [
                -122.3698998774565,
                47.623015828843
            ],
            [
                -122.3698528071494,
                47.623018298679916
            ],
            [
                -122.36986058261708,
                47.62307266031646
            ],
            [
                -122.36983372240365,
                47.623037807938715
            ],
            [
                -122.36978747094959,
                47.62304959309306
            ],
            [
                -122.36979013379406,
                47.62303904988215
            ],
            [
                -122.36981985217025,
                47.623037403212415
            ],
            [
                -122.36985859793143,
                47.623061639597694
            ],
            [
                -122.36977504023925,
                47.62302202163644
            ],
            [
                -122.36985737180255,
                47.62309689386487
            ],
            [
                -122.36984336818725,
                47.62311122401887
            ],
            [
                -122.36987335827473,
                47.623063891107606
            ],
            [
                -122.36993029112816,
                47.623031891036504
            ],
            [
                -122.3699383669197,
                47.623041298218
            ],
            [
                -122.36986067589747,
                47.623046205369135
            ],
            [
                -122.3698270729059,
                47.623063779246905
            ],
            [
                -122.36981923966596,
                47.623017152513604
            ],
            [
                -122.36983017049006,
                47.623049346271486
            ],
            [
                -122.36981831000473,
                47.62304614353498
            ],
            [
                -122.36987005125789,
                47.62305785415659
            ],
            [
                -122.3698411007361,
                47.622999962001884
            ],
            [
                -122.36979998450909,
                47.62302032267211
            ],
            [
                -122.3698600549912,
                47.62309997760574
            ],
            [
                -122.36979904518955,
                47.62305936526455
            ],
            [
                -122.36981950781572,
                47.623077620163926
            ],
            [
                -122.36979864316002,
                47.62306379380029
            ],
            [
                -122.36981503491195,
                47.62308842151319
            ],
            [
                -122.36977757134896,
                47.62303932903749
            ],
            [
                -122.36982843947713,
                47.62302927009126
            ],
            [
                -122.36977681607432,
                47.623035495205585
            ],
            [
                -122.3698223420536,
                47.623073033033656
            ],
            [
                -122.36982732400057,
                47.62302180459157
            ],
            [
                -122.36976824061419,
                47.62302287449598
            ],
            [
                -122.36983707048081,
                47.62305123211119
            ],
            [
                -122.36977909091812,
                47.62306829966337
            ],
            [
                -122.369796709149,
                47.6230630114551
            ],
            [
                -122.36981589696755,
                47.62304146441646
            ],
            [
                -122.36982359919415,
                47.62303957286137
            ],
            [
                -122.36980959671818,
                47.623096220819434
            ],
            [
                -122.36981257231378,
                47.623111734608734
            ],
            [
                -122.36982188027505,
                47.62302686365146
            ],
            [
                -122.36981395884155,
                47.6230951396383
            ],
            [
                -122.36985258799065,
                47.62295630972514
            ],
            [
                -122.36982561305597,
                47.62299958580726
            ],
            [
                -122.36983037426492,
                47.62302228145599
            ],
            [
                -122.36976825740616,
                47.62304618170178
            ],
            [
                -122.36982381132525,
                47.623109280413885
            ],
            [
                -122.36981414106812,
                47.62309268755538
            ],
            [
                -122.36991675248812,
                47.62320340935538
            ],
            [
                -122.36986245618547,
                47.6230904401136
            ],
            [
                -122.36982334173867,
                47.623099512703824
            ],
            [
                -122.36985611010545,
                47.62307347208899
            ],
            [
                -122.36980679753015,
                47.62303925637387
            ],
            [
                -122.36982760488321,
                47.62305669187577
            ],
            [
                -122.36978731349457,
                47.62304700623688
            ],
            [
                -122.3698162271407,
                47.62303269221525
            ],
            [
                -122.36986444839005,
                47.62307082555973
            ],
            [
                -122.36982021443112,
                47.623074491370986
            ],
            [
                -122.36983121245696,
                47.62306195656539
            ],
            [
                -122.36986112918207,
                47.62301035549099
            ],
            [
                -122.36985915457876,
                47.6230400814099
            ],
            [
                -122.36983999210858,
                47.6230500242115
            ],
            [
                -122.36982936355315,
                47.62307039909721
            ],
            [
                -122.36983324915799,
                47.623021232337564
            ],
            [
                -122.36982617607437,
                47.62304975227628
            ],
            [
                -122.36986041452745,
                47.623017703855105
            ],
            [
                -122.36982108837591,
                47.62305988338768
            ],
            [
                -122.36984481266181,
                47.62309276199268
            ],
            [
                -122.36981157562552,
                47.623047564749186
            ],
            [
                -122.36985228191732,
                47.623057861021614
            ],
            [
                -122.36983914308188,
                47.623085059939704
            ],
            [
                -122.36981061851026,
                47.62307308603156
            ],
            [
                -122.36969003747495,
                47.62298654938853
            ],
            [
                -122.36965142502308,
                47.62280111267444
            ],
            [
                -122.36958432537713,
                47.6229590547618
            ],
            [
                -122.36957598498775,
                47.622846738524416
            ],
            [
                -122.36954779701273,
                47.622899323147955
            ],
            [
                -122.36949786400523,
                47.62295573466474
            ],
            [
                -122.36954728615473,
                47.62287812930163
            ],
            [
                -122.36954379047303,
                47.62291713981049
            ],
            [
                -122.36959312514969,
                47.62290288455547
            ],
            [
                -122.36958787587257,
                47.62288011184466
            ],
            [
                -122.36955616215981,
                47.6228880569608
            ],
            [
                -122.36953679673726,
                47.62288135984268
            ],
            [
                -122.3695617280348,
                47.622869330201446
            ],
            [
                -122.36957656596532,
                47.62290937572627
            ],
            [
                -122.36958271391205,
                47.62288677969757
            ],
            [
                -122.36955222530327,
                47.62285039465673
            ],
            [
                -122.36955122010582,
                47.622849480594084
            ],
            [
                -122.36956645201536,
                47.62289203317313
            ],
            [
                -122.36956674945574,
                47.622881794287146
            ],
            [
                -122.36953964281498,
                47.62288423849574
            ],
            [
                -122.36953542474629,
                47.62289116293537
            ],
            [
                -122.36954579400363,
                47.62285774258604
            ],
            [
                -122.36961908391027,
                47.62280089329287
            ],
            [
                -122.36951567133246,
                47.62289544542807
            ],
            [
                -122.36958637062514,
                47.62286103682238
            ],
            [
                -122.36959978862517,
                47.62287158992045
            ],
            [
                -122.3695981344782,
                47.6229021906234
            ],
            [
                -122.3695395154188,
                47.622869937088105
            ],
            [
                -122.36958,
                47.62287
            ]
        ]
    },
    "properties": {
        "trajectory_id": 8021,
        "object_id": 538004675,
        "label": "CARGO"
    }
}