{
    "type": "Feature",
    "geometry": {
        "type": "LineString",
        "coordinates": [
            [
                -122.95602,
                49.29148
            ],
            [
                -122.95602071709621,
                49.29143088456361
            ],
            [
                -122.95602163820483,
                49.29145004304247
            ],
            [
                -122.9560193434818,
                49.291479787076355
            ],
            [
                -122.95603955653675,
                49.29149100466209
            ],
            [
                -122.95606218791504,
                49.29146312995444
            ],
            [
                -122.9560120657408,
                49.29148434797098
            ],
            [
                -122.95602490109239,
                49.29148751623351
            ],
            [
                -122.95599957840876,
                49.29149526271052
            ],
            [
                -122.95601156556197,
                49.291477065362315
            ],
            [
                -122.95603394056457,
                49.29147443692414
            ],
            [
                -122.95607568522995,
                49.29145919928338
            ],
            [
                -122.95602834730504,
                49.29148352872847
            ],
            [
                -122.95602179249545,
                49.29146526079538
            ],
            [
                -122.95602198634668,
                49.29149326988543
            ],
            [
                -122.9560276748225,
                49.29148344544529
            ],
            [
                -122.95605527661274,
                49.29147363705073
            ],
            [
                -122.95604025493088,
                49.29147608384031
            ],
            [
                -122.95604135374765,
                49.29148649978962
            ],
            [
                -122.95604190068832,
                49.291428515925936
            ],
            [
                -122.95606324942521,
                49.29151404981855
            ],
            [
                -122.9560393273446,
                49.291468494549214
            ],
            [
                -122.9560207726885,
                49.29147634929443
            ],
            [
                -122.95602925767996,
                49.291459275800925
            ],
            [
                -122.95603755676473,
                49.29148146515566
            ],
            [
                -122.95604117904689,
                49.291481731997735
            ],
            [
                -122.9560536746692,
                49.29146652885591
            ],
            [
                -122.95605169530023,
                49.291473047174534
            ],
            [
                -122.95606506436302,
                49.29148946297517
            ],
            [
                -122.95610331610274,
                49.29147991517632
            ],
            [
                -122.95603925044992,
                49.29147859627054
            ],
            [
                -122.95603167802481,
                49.29146903573713
            ],
            [
                -122.95603744678402,
                49.29145931436205
            ],
            [
                -122.96121266281311,
                49.29275030114121
            ],
            [
                -122.97052710152626,
                49.29427218779816
            ],
            [
                -122.97208667320645,
                49.29415070953736
            ],
            [
                -122.9712150005133,
                49.29340551163914
            ],
            [
                -122.97024021095451,
                49.29225697447189
            ],
            [
                -122.96897318299054,
                49.29225701781342
            ],
            [
                -122.96841118929589,
                49.2925991585749
            ],
            [
                -122.96771843113869,
                49.29281699860123
            ],
            [
                -122.96759917101275,
                49.29294504055213
            ],
            [
                -122.96763661035516,
                49.29313987586629
            ],
            [
                -122.96775926187652,
                49.29333019449619
            ],
            [
                -122.96739462236015,
                49.29353936766404
            ],
            [
                -122.96682185767283,
                49.294081629203255
            ],
            [
                -122.96624365293681,
                49.29413890934024
            ],
            [
                -122.96635078769219,
                49.29420656763638
            ],
            [
                -122.96648681364522,
                49.29454092072374
            ],
            [
                -122.96691277247676,
                49.294881741580525
            ],
            [
                -122.96730402106796,
                49.29506465196802
            ],
            [
                -122.9676136999237,
                49.29504195730067
            ],
            [
                -122.96786980288455,
                49.295065800792486
            ],
            [
                -122.9682787661962,
                49.295230308764744
            ],
            [
                -122.96850337070248,
                49.2952735329589
            ],
            [
                -122.96816733644617,
                49.295373138706815
            ],
            [
                -122.9679395660199,
                49.29537273366917
            ],
            [
                -122.96775179928318,
                49.29539544747341
            ],
            [
                -122.96752997813441,
                49.29523154698842
            ],
            [
                -122.9675525736459,
                49.29516596382797
            ],
            [
                -122.9678437616696,
                49.29510304310952
            ],
            [
                -122.96839121435227,
                49.2952270410533
            ],
            [
                -122.96966949045745,
                49.2951597333904
            ],
            [
                -122.97101987584193,
                49.294850462955395
            ],
            [
                -122.97099860827568,
                49.29484292164129
            ],
            [
                -122.97076935266544,
                49.29504407225913
            ],
            [
                -122.97076877491693,
                49.2950323064362
            ],
            [
                -122.97102261740285,
                49.29482560281778
            ],
            [
                -122.97126899201587,
                49.29450468535309
            ],
            [
                -122.9712969506682,
                49.294460217165685
            ],
            [
                -122.97136995770433,
                49.294379566583835
            ],
            [
                -122.97146875126396,
                49.29399546519415
            ],
            [
                -122.97139999775334,
                49.2937501639407
            ],
            [
                -122.97122978745674,
                49.29406073460449
            ],
            [
                -122.9713933736297,
                49.294180901126026
            ],
            [
                -122.97139813699157,
                49.29422885427673
            ],
            [
                -122.97125788132955,
                49.29410400474079
            ],
            [
                -122.97142566780671,
                49.29389056746533
            ],
            [
                -122.97133960574195,
                49.2936282485042
            ],
            [
                -122.97129521209972,
                49.29355985173982
            ],
            [
                -122.97139262256736,
                49.29353429034691
            ],
            [
                -122.9712375828538,
                49.293775457666
            ],
            [
                -122.97122077124712,
                49.29400858985678
            ],
            [
                -122.9713793528372,
                49.29421675346623
            ],
            [
                -122.97137037649054,
                49.2941309823058
            ],
            [
                -122.97126360271064,
                49.29389323355423
            ],
            [
                -122.97141068609059,
                49.29365508992248
            ],
            [
                -122.9712723611612,
                49.293448484965495
            ],
            [
                -122.97121105372179,
                49.29319071261449
            ],
            [
                -122.9709214777004,
                49.292967614283135
            ],
            [
                -122.97059239060795,
                49.292790762388016
            ],
            [
                -122.97034779324451,
                49.29278085878272
            ],
            [
                -122.96976711397866,
                49.29310926920654
            ],
            [
                -122.9694472456221,
                49.29327243696937
            ],
            [
                -122.96967389006365,
                49.293399784071866
            ],
            [
                -122.9701550950225,
                49.29328350602687
            ],
            [
                -122.97073637536752,
                49.29325916418363
            ],
            [
                -122.97266499293073,
                49.295608292849536
            ],
            [
                -122.98418937981504,
                49.29782006888269
            ],
            [
                -123.01119512073812,
                49.295103876153455
            ],
            [
                -123.04486539338035,
                49.29578306793418
            ],
            [
                -123.06980039332471,
                49.29552483382395
            ],
            [
                -123.10207392951673,
                49.30087021626237
            ],
            [
                -123.1355341897151,
                49.31414030470137
            ],
            [
                -123.16537757393522,
                49.31983487373492
            ],
            [
                -123.18357618501798,
                49.32255612206745
            ],
            [
                -123.21475684072426,
                49.32344693744337
            ],
            [
                -123.26959901169057,
                49.315933110654825
            ],
            [
                -123.31575042967516,
                49.28833502626515
            ],
            [
                -123.3417632537297,
                49.249780856485614
            ],
            [
                -123.35766980321617,
                49.207302844632295
            ],
            [
                -123.37195761641753,
                49.16399979166951
            ],
            [
                -123.38503850698761,
                49.120323325544724
            ],
            [
                -123.38807095426337,
                49.07592007595528
            ],
            [
                -123.35452324068214,
                49.03797189824631
            ],
            [
                -123.30501030554964,
                49.004283445529914
            ],
            [
                -123.25412725127964,
                48.97113030542543
            ],
            [
                -123.2029570652128,
                48.93854034728225
            ],
            [
                -123.15154791288793,
                48.90628744474002
            ],
            [
                -123.10113,
                48.87458
            ]
        ]
    },
    "properties": {
        "trajectory_id": 8028,
        "object_id": 538005269,
        "label": "TANKER"
    }
}