{
    "type": "Feature",
    "geometry": {
        "type": "LineString",
        "coordinates": [
            [
                -123.18143,
                49.3011
            ],
            [
                -123.18147074364713,
                49.30111962309139
            ],
            [
                -123.18137863879643,
                49.301081101098696
            ],
            [
                -123.18119607040322,
                49.30120334595962
            ],
            [
                -123.18102504219341,
                49.30126033115856
            ],
            [
                -123.18121393886732,
                49.30100996620198
            ],
            [
                -123.1818067643261,
                49.300898279404144
            ],
            [
                -123.1823524723496,
                49.300849314629794
            ],
            [
                -123.18269489763453,
                49.30063085921938
            ],
            [
                -123.18273044943234,
                49.30057628514696
            ],
            [
                -123.18271726474627,
                49.30060904646771
            ],
            [
                -123.18264892936594,
                49.30067424019506
            ],
            [
                -123.18244785105823,
                49.30089347249115
            ],
            [
                -123.18237687084174,
                49.30114722187046
            ],
            [
                -123.18108446667193,
                49.301227355810234
            ],
            [
                -123.18038787765376,
                49.301563764927195
            ],
            [
                -123.1801016672402,
                49.301945061992754
            ],
            [
                -123.17980224388839,
                49.30189297584368
            ],
            [
                -123.17958394834953,
                49.30186522425308
            ],
            [
                -123.17963072760703,
                49.30173688576468
            ],
            [
                -123.18002758887937,
                49.30173777691945
            ],
            [
                -123.180375303571,
                49.301515490809024
            ],
            [
                -123.1809711381139,
                49.30164190431108
            ],
            [
                -123.18158710192951,
                49.301625323443375
            ],
            [
                -123.18172145077645,
                49.30154089757208
            ],
            [
                -123.18231863507008,
                49.30125041446265
            ],
            [
                -123.1827979392443,
                49.3010360008546
            ],
            [
                -123.1828767653365,
                49.30075529292788
            ],
            [
                -123.18312555105696,
                49.30018628076841
            ],
            [
                -123.18342085426855,
                49.29963091875318
            ],
            [
                -123.18307701494076,
                49.299226344855626
            ],
            [
                -123.18306550743856,
                49.29899678597624
            ],
            [
                -123.182680588562,
                49.29855202437595
            ],
            [
                -123.18190228928255,
                49.29817876678961
            ],
            [
                -123.18095420836053,
                49.29794288172848
            ],
            [
                -123.18006002414954,
                49.29798449142035
            ],
            [
                -123.17933186694067,
                49.2980581338072
            ],
            [
                -123.1789936197172,
                49.298095739170364
            ],
            [
                -123.1790136203868,
                49.29811110359122
            ],
            [
                -123.17898059374207,
                49.29811041815851
            ],
            [
                -123.17902746459441,
                49.298111029549545
            ],
            [
                -123.17897848095018,
                49.29803993513634
            ],
            [
                -123.17900719755764,
                49.29818221552668
            ],
            [
                -123.178730043758,
                49.29816004235257
            ],
            [
                -123.17859017580612,
                49.29830946060866
            ],
            [
                -123.17850970057074,
                49.29838938125985
            ],
            [
                -123.17839848738033,
                49.298399371033746
            ],
            [
                -123.17849729914279,
                49.298437114358386
            ],
            [
                -123.17851050799214,
                49.29842913998766
            ],
            [
                -123.17884880405913,
                49.29829831319607
            ],
            [
                -123.17935185347976,
                49.29840100165588
            ],
            [
                -123.18147466934148,
                49.30080054589952
            ],
            [
                -123.2109172027147,
                49.30763783581457
            ],
            [
                -123.26321800331594,
                49.2987232388625
            ],
            [
                -123.31689473849883,
                49.28258548499714
            ],
            [
                -123.3405699591707,
                49.24991189852575
            ],
            [
                -123.35645619442963,
                49.213186356255044
            ],
            [
                -123.36761099586279,
                49.17671941802439
            ],
            [
                -123.3779348632856,
                49.14276523017628
            ],
            [
                -123.38591659414077,
                49.12317454914215
            ],
            [
                -123.3936324330217,
                49.11183433476866
            ],
            [
                -123.40261289326257,
                49.10252577016303
            ],
            [
                -123.404122387836,
                49.095468366220246
            ],
            [
                -123.37746962811593,
                49.08504184631003
            ],
            [
                -123.35381674371882,
                49.08832227821668
            ],
            [
                -123.31398837671877,
                49.1002852150211
            ],
            [
                -123.26651972668277,
                49.119083984713235
            ],
            [
                -123.21612817102094,
                49.128758202950976
            ],
            [
                -123.16969550513835,
                49.1121179881807
            ],
            [
                -123.12181316902397,
                49.10875458317825
            ],
            [
                -123.07591987096515,
                49.12108051379869
            ],
            [
                -123.04288810506887,
                49.145216608674126
            ],
            [
                -122.99791330017226,
                49.15544117493668
            ],
            [
                -122.95011143680111,
                49.15587545401825
            ],
            [
                -122.92438238332532,
                49.17340340548577
            ],
            [
                -122.91917643410349,
                49.17953263092731
            ],
            [
                -122.91838719347341,
                49.18051756936564
            ],
            [
                -122.91844043509975,
                49.180537668100406
            ],
            [
                -122.91836093416832,
                49.18053077848454
            ],
            [
                -122.91846236622536,
                49.18056364315535
            ],
            [
                -122.91845477214062,
                49.18049946105757
            ],
            [
                -122.91841181723512,
                49.1805064708984
            ],
            [
                -122.91845701041368,
                49.180652407416545
            ],
            [
                -122.91834091184086,
                49.18054692159951
            ],
            [
                -122.91841286597753,
                49.18065441652125
            ],
            [
                -122.91832338428706,
                49.18049489179646
            ],
            [
                -122.91840178945847,
                49.18052485283867
            ],
            [
                -122.91849096186462,
                49.18055425545774
            ],
            [
                -122.91848507359049,
                49.18050522289168
            ],
            [
                -122.9184748925487,
                49.180549974433994
            ],
            [
                -122.91845310304576,
                49.18053228915539
            ],
            [
                -122.91845771616218,
                49.180592768472586
            ],
            [
                -122.91851367453619,
                49.18058954327121
            ],
            [
                -122.91849699776631,
                49.180675924400134
            ],
            [
                -122.91847139340085,
                49.18055682696911
            ],
            [
                -122.9185053309257,
                49.180530995851115
            ],
            [
                -122.91851620476238,
                49.18054670031014
            ],
            [
                -122.91829951295071,
                49.18051650482423
            ],
            [
                -122.91843526970197,
                49.180499643906806
            ],
            [
                -122.9184179251425,
                49.180612812187164
            ],
            [
                -122.91843254939269,
                49.18052338160135
            ],
            [
                -122.91848766873184,
                49.18059365507614
            ],
            [
                -122.91842843626273,
                49.180524369868515
            ],
            [
                -122.9184214498102,
                49.18051370334116
            ],
            [
                -122.91844358355453,
                49.18050834807127
            ],
            [
                -122.9184619747178,
                49.18054564797594
            ],
            [
                -122.91839798342087,
                49.18052798475358
            ],
            [
                -122.91843846112695,
                49.1805236564884
            ],
            [
                -122.91839709390186,
                49.18053719879225
            ],
            [
                -122.91847285018967,
                49.18058021595901
            ],
            [
                -122.91845091179057,
                49.18055566456279
            ],
            [
                -122.918444739069,
                49.18050488717444
            ],
            [
                -122.91845253607265,
                49.18051252517549
            ],
            [
                -122.9184485242537,
                49.18052899929987
            ],
            [
                -122.91845534421199,
                49.18052288258619
            ],
            [
                -122.91846963769169,
                49.180520488427135
            ],
            [
                -122.91845100873195,
                49.18059081890122
            ],
            [
                -122.918490067151,
                49.180599988424646
            ],
            [
                -122.91829880813454,
                49.18037099971572
            ],
            [
                -122.91846,
                49.18057
            ]
        ]
    },
    "properties": {
        "trajectory_id": 8032,
        "object_id": 538005454,
        "label": "CARGO"
    }
}