{
    "type": "Feature",
    "geometry": {
        "type": "LineString",
        "coordinates": [
            [
                -123.18833,
                49.28092
            ],
            [
                -123.18865177689915,
                49.28059889928418
            ],
            [
                -123.18928715001324,
                49.280268335298665
            ],
            [
                -123.18971249608983,
                49.280109948611056
            ],
            [
                -123.19060313240105,
                49.27997190277325
            ],
            [
                -123.19054451872826,
                49.280109400085344
            ],
            [
                -123.19029682407925,
                49.28008051758107
            ],
            [
                -123.19038638437188,
                49.280073155903
            ],
            [
                -123.19066927532961,
                49.28030110692278
            ],
            [
                -123.19123637407672,
                49.28004506966572
            ],
            [
                -123.1918897047603,
                49.28033540884821
            ],
            [
                -123.19238488691944,
                49.2806299661382
            ],
            [
                -123.19257875029552,
                49.280798528088276
            ],
            [
                -123.19260844214242,
                49.28098244607009
            ],
            [
                -123.19263260225213,
                49.281139308987306
            ],
            [
                -123.19260826520858,
                49.2810657867447
            ],
            [
                -123.19249434830442,
                49.2808843988646
            ],
            [
                -123.19235430025013,
                49.2808904981606
            ],
            [
                -123.19203217997959,
                49.28086114966306
            ],
            [
                -123.19178882886789,
                49.28073499454982
            ],
            [
                -123.19178468197018,
                49.28065558198308
            ],
            [
                -123.19181493007997,
                49.28064473100796
            ],
            [
                -123.19167063215458,
                49.280599818840216
            ],
            [
                -123.19182983704361,
                49.280695666159865
            ],
            [
                -123.19189027555338,
                49.280627032774994
            ],
            [
                -123.19199874720924,
                49.28066011615152
            ],
            [
                -123.19199890097084,
                49.28075560859401
            ],
            [
                -123.19204333263592,
                49.28078862775895
            ],
            [
                -123.1919418045222,
                49.28070194285127
            ],
            [
                -123.19148477569657,
                49.28054825436563
            ],
            [
                -123.19157060228105,
                49.2805463840177
            ],
            [
                -123.19190810050223,
                49.28044266265201
            ],
            [
                -123.19170421325302,
                49.28041564682215
            ],
            [
                -123.19152552519007,
                49.28057660047832
            ],
            [
                -123.1915183111895,
                49.28046423485724
            ],
            [
                -123.1915121725673,
                49.28039977567914
            ],
            [
                -123.1916286768213,
                49.28055764071654
            ],
            [
                -123.19185446716091,
                49.28061708681859
            ],
            [
                -123.19192859111794,
                49.280433615851344
            ],
            [
                -123.19192234620222,
                49.28049924404411
            ],
            [
                -123.19171063237522,
                49.2805999821802
            ],
            [
                -123.19164704853564,
                49.2805316822048
            ],
            [
                -123.1913462943561,
                49.28045868582479
            ],
            [
                -123.19101521933962,
                49.28045757018272
            ],
            [
                -123.19067638157262,
                49.28028188067238
            ],
            [
                -123.19024528381208,
                49.28036453182388
            ],
            [
                -123.18959900821261,
                49.2805739559473
            ],
            [
                -123.18887775661605,
                49.280905614244155
            ],
            [
                -123.18843092610128,
                49.28136728668008
            ],
            [
                -123.18840923940176,
                49.28190849051532
            ],
            [
                -123.18870319041682,
                49.28227795718667
            ],
            [
                -123.18878152809685,
                49.28262283443013
            ],
            [
                -123.1889534387298,
                49.28277981181754
            ],
            [
                -123.18921699684594,
                49.28276820973624
            ],
            [
                -123.18976224303896,
                49.2829985079517
            ],
            [
                -123.190489785987,
                49.28320504335378
            ],
            [
                -123.19126198603168,
                49.283096899225804
            ],
            [
                -123.19196253503036,
                49.28295037489321
            ],
            [
                -123.19241736973743,
                49.28266154102755
            ],
            [
                -123.19262682040096,
                49.28248254829811
            ],
            [
                -123.19268164094551,
                49.28235026966169
            ],
            [
                -123.19268327409146,
                49.28233644137465
            ],
            [
                -123.19254116641595,
                49.28240559259649
            ],
            [
                -123.19245596358881,
                49.282433628473505
            ],
            [
                -123.19249886656462,
                49.28229180616353
            ],
            [
                -123.19262146208436,
                49.28204422391225
            ],
            [
                -123.19272944683183,
                49.28215877609227
            ],
            [
                -123.1924698534033,
                49.28233381401657
            ],
            [
                -123.19257605852631,
                49.28256269746714
            ],
            [
                -123.19227012096613,
                49.282756779079136
            ],
            [
                -123.19204821917646,
                49.282979215077326
            ],
            [
                -123.19182415725344,
                49.28297483340393
            ],
            [
                -123.1918287873629,
                49.28294212619751
            ],
            [
                -123.19112094922188,
                49.282987227487105
            ],
            [
                -123.18997633634515,
                49.28306553419122
            ],
            [
                -123.1893245854958,
                49.28286647037572
            ],
            [
                -123.18901328978039,
                49.282667532412695
            ],
            [
                -123.18888607337315,
                49.28261596014194
            ],
            [
                -123.18903454251398,
                49.282841672490875
            ],
            [
                -123.18956538220198,
                49.28307460549917
            ],
            [
                -123.19024842385785,
                49.283302053795126
            ],
            [
                -123.19087431365055,
                49.28322931090906
            ],
            [
                -123.19126881379137,
                49.283391973847834
            ],
            [
                -123.19072769843363,
                49.283149623566956
            ],
            [
                -123.19036194274327,
                49.28333300052819
            ],
            [
                -123.19019162865064,
                49.28323724729802
            ],
            [
                -123.19036157662157,
                49.28330172321622
            ],
            [
                -123.19075095683294,
                49.283361079171804
            ],
            [
                -123.19144924910675,
                49.28323298724952
            ],
            [
                -123.19210491046276,
                49.28301718791793
            ],
            [
                -123.19221898945209,
                49.282833175064745
            ],
            [
                -123.19258346939928,
                49.28270084303401
            ],
            [
                -123.1924643939192,
                49.28264923457918
            ],
            [
                -123.19239890010095,
                49.28271694790897
            ],
            [
                -123.19248112060646,
                49.28258999179812
            ],
            [
                -123.19259500016973,
                49.282568506065374
            ],
            [
                -123.19274966246701,
                49.282490991008984
            ],
            [
                -123.19253721882214,
                49.28247347749493
            ],
            [
                -123.19266985846409,
                49.282330407864265
            ],
            [
                -123.19272000484541,
                49.28244051541982
            ],
            [
                -123.19283816320673,
                49.28249722725282
            ],
            [
                -123.19270443528416,
                49.28242119972071
            ],
            [
                -123.19265511720485,
                49.28228506209914
            ],
            [
                -123.19285187593577,
                49.28222244649895
            ],
            [
                -123.19279449432508,
                49.28228971678912
            ],
            [
                -123.19282047979034,
                49.28215887955472
            ],
            [
                -123.1928557899475,
                49.28208997389306
            ],
            [
                -123.19269547515353,
                49.28220948391615
            ],
            [
                -123.19269261407834,
                49.28237214613492
            ],
            [
                -123.19256991552054,
                49.28235870282139
            ],
            [
                -123.19268325910252,
                49.282351900325764
            ],
            [
                -123.19297340489369,
                49.28242167537746
            ],
            [
                -123.19258727256428,
                49.28229100431078
            ],
            [
                -123.19284922442905,
                49.282198286566036
            ],
            [
                -123.19281016576103,
                49.28224817743226
            ],
            [
                -123.19278849541064,
                49.2822814684342
            ],
            [
                -123.19290221142573,
                49.28225933457547
            ],
            [
                -123.19282264985726,
                49.28217923457376
            ],
            [
                -123.19283914110653,
                49.28207715740956
            ],
            [
                -123.19295,
                49.28204
            ]
        ]
    },
    "properties": {
        "trajectory_id": 8036,
        "object_id": 538006748,
        "label": "CARGO"
    }
}