{
    "type": "Feature",
    "geometry": {
        "type": "LineString",
        "coordinates": [
            [
                -123.21508,
                49.30203
            ],
            [
                -123.21518108899117,
                49.30208081661383
            ],
            [
                -123.21506728091545,
                49.30213210914805
            ],
            [
                -123.21484837499368,
                49.30211982244538
            ],
            [
                -123.21498116764766,
                49.30208009247429
            ],
            [
                -123.21500240683118,
                49.30213476394675
            ],
            [
                -123.21481089417182,
                49.302117950662506
            ],
            [
                -123.2148854105997,
                49.30194802201038
            ],
            [
                -123.2150525262089,
                49.30175983173256
            ],
            [
                -123.21497710714972,
                49.30152734243171
            ],
            [
                -123.21480698338043,
                49.30141978314544
            ],
            [
                -123.21460925512709,
                49.30136794737705
            ],
            [
                -123.21449042302406,
                49.30112576818123
            ],
            [
                -123.21432747147387,
                49.300949647656594
            ],
            [
                -123.21410123932148,
                49.30063662050935
            ],
            [
                -123.21376888315959,
                49.30045692692073
            ],
            [
                -123.21348896767056,
                49.3005793508853
            ],
            [
                -123.21342607466943,
                49.30040895861541
            ],
            [
                -123.2131822335156,
                49.30037307884243
            ],
            [
                -123.21300115316706,
                49.30028853401252
            ],
            [
                -123.21278762181828,
                49.30030610861853
            ],
            [
                -123.2124748453629,
                49.300391723021036
            ],
            [
                -123.2123231819416,
                49.30033034296435
            ],
            [
                -123.21247040601175,
                49.300239654730156
            ],
            [
                -123.21238483647751,
                49.300113880803714
            ],
            [
                -123.21227377835984,
                49.30016168709217
            ],
            [
                -123.21239240409436,
                49.30027928445375
            ],
            [
                -123.21253062556748,
                49.300279446483295
            ],
            [
                -123.21280802125803,
                49.3002851615946
            ],
            [
                -123.212937599982,
                49.3003415326565
            ],
            [
                -123.21318641729647,
                49.30040407117558
            ],
            [
                -123.2133884250475,
                49.300375046969805
            ],
            [
                -123.21359003844057,
                49.30041962046406
            ],
            [
                -123.21376978417521,
                49.30051569423288
            ],
            [
                -123.21392498778823,
                49.30066302489012
            ],
            [
                -123.21409664066736,
                49.30091117700611
            ],
            [
                -123.21422281836912,
                49.30100243292462
            ],
            [
                -123.21437703926564,
                49.3010519786398
            ],
            [
                -123.21442977501677,
                49.300920447060264
            ],
            [
                -123.21423095959236,
                49.300919913916154
            ],
            [
                -123.21402984721624,
                49.30089962087861
            ],
            [
                -123.21397942585969,
                49.30077899246577
            ],
            [
                -123.21392273994624,
                49.30072865942348
            ],
            [
                -123.2141223193086,
                49.30072924912903
            ],
            [
                -123.21420580928175,
                49.30078287791151
            ],
            [
                -123.21409275505556,
                49.3008906273574
            ],
            [
                -123.21409350236134,
                49.301184966323895
            ],
            [
                -123.21454040967927,
                49.3012738705209
            ],
            [
                -123.21498924830883,
                49.301484071574365
            ],
            [
                -123.21514243688588,
                49.30180767269385
            ],
            [
                -123.21520929927236,
                49.30227737510738
            ],
            [
                -123.21515180351335,
                49.30276248327741
            ],
            [
                -123.21477607935317,
                49.30348255106712
            ],
            [
                -123.21392350866655,
                49.30427396311154
            ],
            [
                -123.21260806567226,
                49.304785978234044
            ],
            [
                -123.21116829386236,
                49.304805763594935
            ],
            [
                -123.20992098664551,
                49.304529511446404
            ],
            [
                -123.2087735500655,
                49.304142949778466
            ],
            [
                -123.20840367440218,
                49.303646458905746
            ],
            [
                -123.20825224892322,
                49.3032850477146
            ],
            [
                -123.20804989042551,
                49.30300361085595
            ],
            [
                -123.20785486602911,
                49.302551448607005
            ],
            [
                -123.2079497466635,
                49.30211528484881
            ],
            [
                -123.20787763738046,
                49.30196917451968
            ],
            [
                -123.20793069262328,
                49.3020869532995
            ],
            [
                -123.20787924833947,
                49.30215046507449
            ],
            [
                -123.20774770339227,
                49.30218882874465
            ],
            [
                -123.20799298227692,
                49.30193837792785
            ],
            [
                -123.20810582693397,
                49.30162826179767
            ],
            [
                -123.20802593477612,
                49.30161980238013
            ],
            [
                -123.20813068427506,
                49.30190876668768
            ],
            [
                -123.20790890397943,
                49.30231088776828
            ],
            [
                -123.20772781759426,
                49.30245305394057
            ],
            [
                -123.20784332724988,
                49.302608864725435
            ],
            [
                -123.20795247173382,
                49.3027954051836
            ],
            [
                -123.20789733953917,
                49.30273437327208
            ],
            [
                -123.20798027304583,
                49.30250354361389
            ],
            [
                -123.20792917921366,
                49.30237311976017
            ],
            [
                -123.20783594562344,
                49.302311806065724
            ],
            [
                -123.20814890490047,
                49.30195085631189
            ],
            [
                -123.20832946557645,
                49.30205060873925
            ],
            [
                -123.20824860909431,
                49.30267521419192
            ],
            [
                -123.20796346650118,
                49.303023241956296
            ],
            [
                -123.20797099892772,
                49.30280593861139
            ],
            [
                -123.20828936909982,
                49.30234192554235
            ],
            [
                -123.20841709732152,
                49.30205892327405
            ],
            [
                -123.208437177239,
                49.30202840442205
            ],
            [
                -123.20851868504025,
                49.30253862695862
            ],
            [
                -123.20815516831921,
                49.30265787460272
            ],
            [
                -123.20798746319413,
                49.30256467259421
            ],
            [
                -123.20858794678088,
                49.302422705124044
            ],
            [
                -123.20894363476117,
                49.30250051702966
            ],
            [
                -123.20880043783306,
                49.30248425114542
            ],
            [
                -123.20892819575171,
                49.302179052335624
            ],
            [
                -123.20885345373964,
                49.302107789903424
            ],
            [
                -123.20899842931952,
                49.30200875358399
            ],
            [
                -123.20906573580153,
                49.301915750998475
            ],
            [
                -123.20902943001396,
                49.301894561945005
            ],
            [
                -123.2088931721594,
                49.30208133657815
            ],
            [
                -123.20878466931623,
                49.30272283209772
            ],
            [
                -123.20899633424759,
                49.30366759867644
            ],
            [
                -123.2093392380974,
                49.3043800829483
            ],
            [
                -123.21006305829503,
                49.304613698179594
            ],
            [
                -123.21050931594282,
                49.30450533888519
            ],
            [
                -123.21084127363557,
                49.30460280785602
            ],
            [
                -123.21100975407549,
                49.304836583076394
            ],
            [
                -123.2113082368096,
                49.304958963380294
            ],
            [
                -123.21158039076079,
                49.304863775366314
            ],
            [
                -123.21208875550943,
                49.30477727251239
            ],
            [
                -123.21272117993578,
                49.30479452802738
            ],
            [
                -123.21350164331464,
                49.304670440031785
            ],
            [
                -123.21429311396119,
                49.3043242850908
            ],
            [
                -123.21499670163576,
                49.303710798458056
            ],
            [
                -123.21530848044505,
                49.30312969100089
            ],
            [
                -123.21541791034035,
                49.302646598161736
            ],
            [
                -123.21545115812857,
                49.30216308714094
            ],
            [
                -123.21538591987645,
                49.301784838341206
            ],
            [
                -123.21520488403179,
                49.30163349190344
            ],
            [
                -123.21498405442911,
                49.301419780518486
            ],
            [
                -123.21472,
                49.30118
            ]
        ]
    },
    "properties": {
        "trajectory_id": 8062,
        "object_id": 538008910,
        "label": "CARGO"
    }
}