{
    "type": "Feature",
    "geometry": {
        "type": "LineString",
        "coordinates": [
            [
                -123.24045,
                49.33203
            ],
            [
                -123.23995883697495,
                49.332321185886016
            ],
            [
                -123.24013006189509,
                49.332670146747056
            ],
            [
                -123.2402107355351,
                49.33244982879263
            ],
            [
                -123.24038464716197,
                49.3329419445137
            ],
            [
                -123.24025077899206,
                49.33239594591724
            ],
            [
                -123.2402290405279,
                49.33234225294267
            ],
            [
                -123.24036768658507,
                49.33234906626249
            ],
            [
                -123.24022481235951,
                49.332485128361874
            ],
            [
                -123.2401762396103,
                49.332591984676235
            ],
            [
                -123.24021473175476,
                49.33255407697287
            ],
            [
                -123.24031090206218,
                49.33296832369973
            ],
            [
                -123.24047570250566,
                49.333211942680926
            ],
            [
                -123.24101640474697,
                49.333561322523785
            ],
            [
                -123.23988154527645,
                49.33279335380268
            ],
            [
                -123.23994810003498,
                49.332870977153085
            ],
            [
                -123.23995041609467,
                49.332707195754644
            ],
            [
                -123.24008154613007,
                49.332753566179605
            ],
            [
                -123.2400624247745,
                49.33265467990127
            ],
            [
                -123.24027651215704,
                49.33265805239531
            ],
            [
                -123.24038943219226,
                49.3326287085644
            ],
            [
                -123.24032970287895,
                49.332745027022106
            ],
            [
                -123.2404064523302,
                49.33311923695889
            ],
            [
                -123.24045340538287,
                49.33313014066174
            ],
            [
                -123.24079206964507,
                49.33285338710694
            ],
            [
                -123.24083088283027,
                49.33298881234506
            ],
            [
                -123.24073637390421,
                49.33330538460664
            ],
            [
                -123.24103697343593,
                49.333603271552604
            ],
            [
                -123.24162489258656,
                49.333500092769654
            ],
            [
                -123.24149022614327,
                49.33337835489246
            ],
            [
                -123.24137624431863,
                49.33352102530834
            ],
            [
                -123.2413316719064,
                49.33345447162982
            ],
            [
                -123.24116588921676,
                49.333324787554574
            ],
            [
                -123.24142278413507,
                49.33341291733219
            ],
            [
                -123.24149176075154,
                49.333332301953
            ],
            [
                -123.24157646714484,
                49.333433021489476
            ],
            [
                -123.2418076075877,
                49.33356179920792
            ],
            [
                -123.24200479492183,
                49.333710241757764
            ],
            [
                -123.24158521314718,
                49.333669133741864
            ],
            [
                -123.24094252635726,
                49.33329178822947
            ],
            [
                -123.24068973451496,
                49.33294714759391
            ],
            [
                -123.24014446609766,
                49.33253234803302
            ],
            [
                -123.24006649103718,
                49.332075991401794
            ],
            [
                -123.24013924420142,
                49.33168286507027
            ],
            [
                -123.24016428804464,
                49.33130777595783
            ],
            [
                -123.24041791939645,
                49.330956682788255
            ],
            [
                -123.24072455365447,
                49.330974358285
            ],
            [
                -123.24056175375476,
                49.33103835713971
            ],
            [
                -123.24029946926645,
                49.331285380832355
            ],
            [
                -123.2401813002385,
                49.33151966560725
            ],
            [
                -123.24009674103813,
                49.33165253187189
            ],
            [
                -123.24014366376902,
                49.33151368026526
            ],
            [
                -123.24028061641567,
                49.33148668389923
            ],
            [
                -123.24049149497804,
                49.33146204605151
            ],
            [
                -123.24024994556996,
                49.33141250329457
            ],
            [
                -123.24038561258652,
                49.33151859279965
            ],
            [
                -123.24054847089437,
                49.3314434877273
            ],
            [
                -123.24053996861984,
                49.33138964371821
            ],
            [
                -123.24039081062799,
                49.33136996755731
            ],
            [
                -123.24033992052371,
                49.331379423197475
            ],
            [
                -123.24042026762793,
                49.33144986008048
            ],
            [
                -123.24052755238576,
                49.3313216433507
            ],
            [
                -123.24063139934125,
                49.331299761168054
            ],
            [
                -123.2406492155907,
                49.331301913628174
            ],
            [
                -123.24048712414027,
                49.331462059616904
            ],
            [
                -123.24043241904816,
                49.33143666113583
            ],
            [
                -123.24050216512025,
                49.331532104623314
            ],
            [
                -123.24042562007604,
                49.331460095217025
            ],
            [
                -123.24037311306425,
                49.33152375355544
            ],
            [
                -123.24044135608281,
                49.33148032553884
            ],
            [
                -123.24047259420911,
                49.33158871101881
            ],
            [
                -123.24041356105944,
                49.3317181763781
            ],
            [
                -123.24024235838753,
                49.331876813977516
            ],
            [
                -123.24010684475707,
                49.33201080723315
            ],
            [
                -123.2401515877902,
                49.33202632761475
            ],
            [
                -123.2404882185717,
                49.331834152681395
            ],
            [
                -123.24063721265166,
                49.33206305453714
            ],
            [
                -123.24021751868167,
                49.33198163491724
            ],
            [
                -123.24065298451667,
                49.331998613818264
            ],
            [
                -123.2404510081068,
                49.3319398094726
            ],
            [
                -123.24022043225199,
                49.33180797880263
            ],
            [
                -123.24045973439651,
                49.33186904097805
            ],
            [
                -123.24066470508252,
                49.33162652630857
            ],
            [
                -123.24076220496733,
                49.33146829760861
            ],
            [
                -123.24061089434643,
                49.33123739655472
            ],
            [
                -123.24070484228282,
                49.33117454403707
            ],
            [
                -123.24109607164341,
                49.331147995611424
            ],
            [
                -123.24108206870534,
                49.33110585474241
            ],
            [
                -123.2410414110874,
                49.33109359039088
            ],
            [
                -123.24096761093759,
                49.33101544514569
            ],
            [
                -123.24105603715823,
                49.33108449299566
            ],
            [
                -123.24111340551335,
                49.33100996830773
            ],
            [
                -123.2414849387285,
                49.33064198057839
            ],
            [
                -123.24219078169205,
                49.33028557068662
            ],
            [
                -123.24326291394313,
                49.330299876659254
            ],
            [
                -123.24404666727392,
                49.33064004700147
            ],
            [
                -123.2454037167948,
                49.33082817548033
            ],
            [
                -123.24603592978818,
                49.33135188870079
            ],
            [
                -123.24607564504232,
                49.33176933784708
            ],
            [
                -123.24603581915191,
                49.331774058929724
            ],
            [
                -123.24597810915309,
                49.331395443945894
            ],
            [
                -123.24560462252205,
                49.33109231876731
            ],
            [
                -123.24534897289138,
                49.330890289968856
            ],
            [
                -123.24502044841954,
                49.330813117591305
            ],
            [
                -123.24495045805888,
                49.33077097202414
            ],
            [
                -123.24519905540194,
                49.33075609701278
            ],
            [
                -123.24545487925353,
                49.330803839665926
            ],
            [
                -123.24529726671447,
                49.33073321316085
            ],
            [
                -123.24555509682462,
                49.33084477834836
            ],
            [
                -123.24602490436415,
                49.33129742550587
            ],
            [
                -123.24633014550902,
                49.33213150335188
            ],
            [
                -123.24644649589902,
                49.33238047190873
            ],
            [
                -123.24646765503553,
                49.332238671108655
            ],
            [
                -123.24646038611068,
                49.331924146572746
            ],
            [
                -123.24638199345777,
                49.33175499316447
            ],
            [
                -123.24623000668754,
                49.33188672344486
            ],
            [
                -123.24650820375791,
                49.33212632754305
            ],
            [
                -123.24618275897357,
                49.33230057647831
            ],
            [
                -123.2462311575472,
                49.332141225938905
            ],
            [
                -123.24642,
                49.33195
            ]
        ]
    },
    "properties": {
        "trajectory_id": 8078,
        "object_id": 538010668,
        "label": "CARGO"
    }
}