{
    "type": "Feature",
    "geometry": {
        "type": "LineString",
        "coordinates": [
            [
                -123.06798,
                49.28927
            ],
            [
                -123.06796013242216,
                49.28925069028863
            ],
            [
                -123.06795936543587,
                49.289241726447436
            ],
            [
                -123.06794808403433,
                49.28920166610319
            ],
            [
                -123.06793197599256,
                49.28924041848581
            ],
            [
                -123.06795891247734,
                49.289210231596066
            ],
            [
                -123.06796155111991,
                49.289219186558654
            ],
            [
                -123.06795203637073,
                49.28921001555095
            ],
            [
                -123.06795789307434,
                49.28924198780549
            ],
            [
                -123.06795848145343,
                49.28922882179599
            ],
            [
                -123.06793236937631,
                49.28921122039879
            ],
            [
                -123.06794878428163,
                49.2892138148211
            ],
            [
                -123.06797816506425,
                49.28924702493796
            ],
            [
                -123.06796906945183,
                49.28923574738831
            ],
            [
                -123.06794203721186,
                49.28922890624253
            ],
            [
                -123.06792160297361,
                49.28920649534899
            ],
            [
                -123.06799495250053,
                49.28921884638189
            ],
            [
                -123.06792390607917,
                49.289236645482895
            ],
            [
                -123.06794235418752,
                49.28923996899898
            ],
            [
                -123.06797729786175,
                49.28919918478079
            ],
            [
                -123.06797054010809,
                49.289199112325356
            ],
            [
                -123.0679632822956,
                49.2892357493962
            ],
            [
                -123.06794655376864,
                49.28922346647909
            ],
            [
                -123.06795292308689,
                49.2892022144553
            ],
            [
                -123.06794886272209,
                49.28923822033371
            ],
            [
                -123.06795251906529,
                49.28922391894281
            ],
            [
                -123.06797603337012,
                49.289219338462736
            ],
            [
                -123.06793369023363,
                49.28922745908292
            ],
            [
                -123.06795056519404,
                49.2892156344558
            ],
            [
                -123.06795297813748,
                49.28924334206209
            ],
            [
                -123.06784860892174,
                49.289077403395666
            ],
            [
                -123.0679223354239,
                49.28916070438726
            ],
            [
                -123.06797379066612,
                49.28926255308604
            ],
            [
                -123.06794504374861,
                49.289248829129846
            ],
            [
                -123.06798409988853,
                49.28922727130425
            ],
            [
                -123.06797039318593,
                49.28923089163609
            ],
            [
                -123.06796483173508,
                49.2892032784645
            ],
            [
                -123.06795112870785,
                49.289230404341346
            ],
            [
                -123.06796954523742,
                49.28923157643018
            ],
            [
                -123.06793406104639,
                49.28922091665853
            ],
            [
                -123.06794483128019,
                49.28924405211857
            ],
            [
                -123.06794530531455,
                49.28922911924257
            ],
            [
                -123.0679666189925,
                49.28923190447245
            ],
            [
                -123.06796082833159,
                49.289228539193644
            ],
            [
                -123.06795453295359,
                49.289226145329906
            ],
            [
                -123.06781597749635,
                49.289171945759925
            ],
            [
                -123.06796279696272,
                49.2892666235451
            ],
            [
                -123.06793941090085,
                49.28926031067721
            ],
            [
                -123.06795703770173,
                49.28922407553671
            ],
            [
                -123.06790410687829,
                49.28927370616776
            ],
            [
                -123.06793938177763,
                49.289258261385235
            ],
            [
                -123.06794503511469,
                49.28923889178256
            ],
            [
                -123.06794773205633,
                49.28924730784419
            ],
            [
                -123.06793076823702,
                49.289192799499425
            ],
            [
                -123.06795813117068,
                49.28920014456322
            ],
            [
                -123.06797056409842,
                49.28927242931749
            ],
            [
                -123.06795926126014,
                49.28920177369059
            ],
            [
                -123.06797088423373,
                49.28924041392768
            ],
            [
                -123.06795966672503,
                49.28926247210579
            ],
            [
                -123.06794987033072,
                49.28920008398352
            ],
            [
                -123.06795003459766,
                49.28921981473986
            ],
            [
                -123.0679702900335,
                49.28920005919149
            ],
            [
                -123.06794268367891,
                49.28923422012961
            ],
            [
                -123.06790862390166,
                49.289152806667275
            ],
            [
                -123.06793054868825,
                49.289199658670526
            ],
            [
                -123.06795049607538,
                49.28922074671367
            ],
            [
                -123.06794921813804,
                49.28921147333739
            ],
            [
                -123.06797975636842,
                49.28919917829719
            ],
            [
                -123.0679422018629,
                49.28921333459206
            ],
            [
                -123.06796148747529,
                49.289222151907104
            ],
            [
                -123.06795979480002,
                49.28922000894976
            ],
            [
                -123.06795188084654,
                49.28921776468603
            ],
            [
                -123.06794670466341,
                49.28921652048392
            ],
            [
                -123.06794206262423,
                49.28916921889199
            ],
            [
                -123.06795421133586,
                49.28926376620249
            ],
            [
                -123.06794682845538,
                49.289211004304676
            ],
            [
                -123.06795473463887,
                49.28923622738108
            ],
            [
                -123.06793429702613,
                49.28921860651528
            ],
            [
                -123.0679592360321,
                49.2892350611095
            ],
            [
                -123.06794757527345,
                49.2892230986005
            ],
            [
                -123.06798170203037,
                49.28921533373879
            ],
            [
                -123.06796540845833,
                49.28921164781863
            ],
            [
                -123.06794674720047,
                49.28922168699945
            ],
            [
                -123.06796847268829,
                49.2892409156513
            ],
            [
                -123.06795490848552,
                49.289227549611404
            ],
            [
                -123.06793986084523,
                49.28923056967222
            ],
            [
                -123.06795439620024,
                49.289250165840734
            ],
            [
                -123.06794906407056,
                49.28921288370776
            ],
            [
                -123.06793946301364,
                49.28919648954372
            ],
            [
                -123.06794486440837,
                49.289217579300384
            ],
            [
                -123.06794519461731,
                49.289215317256804
            ],
            [
                -123.06792687494732,
                49.289206224751155
            ],
            [
                -123.06792820121267,
                49.28927511268353
            ],
            [
                -123.06796715581383,
                49.289206422035605
            ],
            [
                -123.0679242864165,
                49.28925053015957
            ],
            [
                -123.06793768646781,
                49.28920872792585
            ],
            [
                -123.06794171834244,
                49.2892143707495
            ],
            [
                -123.06794047169572,
                49.28922896340518
            ],
            [
                -123.06796943396874,
                49.289211155717894
            ],
            [
                -123.06794952482815,
                49.28922051442875
            ],
            [
                -123.06795994683215,
                49.289218841093096
            ],
            [
                -123.06794244266104,
                49.28922012998566
            ],
            [
                -123.06794082854844,
                49.28923101971808
            ],
            [
                -123.06795872060819,
                49.28922729907837
            ],
            [
                -123.06791814898541,
                49.289223954514654
            ],
            [
                -123.06795289110599,
                49.289269497875104
            ],
            [
                -123.06795532616074,
                49.289218399652626
            ],
            [
                -123.0679415750447,
                49.28922358400377
            ],
            [
                -123.06796631860153,
                49.28920717184099
            ],
            [
                -123.06794072168195,
                49.28922364309546
            ],
            [
                -123.06795909867785,
                49.28920140338414
            ],
            [
                -123.06794065174927,
                49.28922878730819
            ],
            [
                -123.06794845928768,
                49.28925138282869
            ],
            [
                -123.06797185280692,
                49.28920904893773
            ],
            [
                -123.06798937927655,
                49.28921020038908
            ],
            [
                -123.06792861424651,
                49.28920951732672
            ],
            [
                -123.06796911835384,
                49.28923951134858
            ],
            [
                -123.06797867665792,
                49.28919924077398
            ],
            [
                -123.06796034242986,
                49.28920037147979
            ],
            [
                -123.06797,
                49.28921
            ]
        ]
    },
    "properties": {
        "trajectory_id": 8129,
        "object_id": 636018248,
        "label": "CARGO"
    }
}