{
    "type": "Feature",
    "geometry": {
        "type": "LineString",
        "coordinates": [
            [
                -123.33295,
                49.07808
            ],
            [
                -123.33595153008943,
                49.12034088831959
            ],
            [
                -123.32932538565925,
                49.163479380377595
            ],
            [
                -123.31886218983519,
                49.20616241802964
            ],
            [
                -123.3086215159334,
                49.249419786078214
            ],
            [
                -123.29130900942695,
                49.29043552867782
            ],
            [
                -123.24276737003751,
                49.310200374073624
            ],
            [
                -123.18921927884463,
                49.31789198716384
            ],
            [
                -123.14302742971122,
                49.315902108854935
            ],
            [
                -123.11158155002018,
                49.30490230854082
            ],
            [
                -123.09367364304177,
                49.30346882590437
            ],
            [
                -123.09482334454337,
                49.30418305685829
            ],
            [
                -123.09471205601697,
                49.30399652961452
            ],
            [
                -123.09464289603946,
                49.304047010151265
            ],
            [
                -123.09487649046675,
                49.30397355749923
            ],
            [
                -123.09490077092536,
                49.30369881120066
            ],
            [
                -123.09515695370284,
                49.30350893536588
            ],
            [
                -123.09536307730772,
                49.30329071723994
            ],
            [
                -123.09520093939818,
                49.30306415149927
            ],
            [
                -123.09519015366945,
                49.3029065605705
            ],
            [
                -123.09541292991618,
                49.302760692597
            ],
            [
                -123.09540582282624,
                49.30293761550148
            ],
            [
                -123.09525567080647,
                49.303251617595436
            ],
            [
                -123.09520332976479,
                49.30342425849303
            ],
            [
                -123.0951938955164,
                49.30336928860861
            ],
            [
                -123.09524780913283,
                49.30327532664431
            ],
            [
                -123.09533097617681,
                49.30316154198824
            ],
            [
                -123.09528070783313,
                49.303077027772474
            ],
            [
                -123.09532999811405,
                49.30317655714782
            ],
            [
                -123.09540909420178,
                49.30323647586688
            ],
            [
                -123.09527168217585,
                49.30326300695262
            ],
            [
                -123.0954460364601,
                49.303183697516644
            ],
            [
                -123.09543008602486,
                49.303032274042145
            ],
            [
                -123.09556638798493,
                49.30288189023224
            ],
            [
                -123.09553224353574,
                49.30289576507267
            ],
            [
                -123.09553172933042,
                49.302899913422294
            ],
            [
                -123.0955492873636,
                49.30292934605943
            ],
            [
                -123.09555961957912,
                49.302958122217866
            ],
            [
                -123.0955313922036,
                49.30288176630522
            ],
            [
                -123.09549879662762,
                49.302769701311824
            ],
            [
                -123.09546918247135,
                49.30303114720573
            ],
            [
                -123.09548012676355,
                49.3031302029549
            ],
            [
                -123.09548087727407,
                49.30311952089385
            ],
            [
                -123.09552904827036,
                49.30306890820149
            ],
            [
                -123.09549858577293,
                49.303122433818416
            ],
            [
                -123.09542032353517,
                49.30338125373601
            ],
            [
                -123.09540193165189,
                49.30322859603545
            ],
            [
                -123.0955149881217,
                49.30307439434045
            ],
            [
                -123.09528635045118,
                49.30339634140825
            ],
            [
                -123.09546860058245,
                49.303268344563236
            ],
            [
                -123.09546937549625,
                49.30313293441005
            ],
            [
                -123.09529666597749,
                49.303427099502926
            ],
            [
                -123.09545223077603,
                49.303416238223875
            ],
            [
                -123.09542073536193,
                49.30327749433613
            ],
            [
                -123.09547033774001,
                49.30315920915483
            ],
            [
                -123.09545461983446,
                49.30327311664211
            ],
            [
                -123.09541916663781,
                49.30328099765829
            ],
            [
                -123.09537574555443,
                49.30329507473425
            ],
            [
                -123.09539255767645,
                49.303124503620005
            ],
            [
                -123.0953714464347,
                49.303058829663044
            ],
            [
                -123.09536758772853,
                49.30299360727172
            ],
            [
                -123.09526495668824,
                49.302915827960106
            ],
            [
                -123.0950856597786,
                49.302792076547966
            ],
            [
                -123.09514014804469,
                49.30273668259013
            ],
            [
                -123.09565515992011,
                49.30278500443344
            ],
            [
                -123.09522006211004,
                49.30308899170399
            ],
            [
                -123.0951660777582,
                49.30349688230481
            ],
            [
                -123.09509018048571,
                49.303817892873596
            ],
            [
                -123.09484844962086,
                49.30389828155689
            ],
            [
                -123.09466788498632,
                49.30428707114694
            ],
            [
                -123.09398282497922,
                49.30462692362316
            ],
            [
                -123.09376132674512,
                49.30460521646933
            ],
            [
                -123.09404613417435,
                49.30453266673344
            ],
            [
                -123.09366641361532,
                49.30485783629898
            ],
            [
                -123.09327336532508,
                49.304641938955236
            ],
            [
                -123.09406704104236,
                49.304253365318644
            ],
            [
                -123.09496084320652,
                49.30387927875846
            ],
            [
                -123.09503278369499,
                49.30303599005085
            ],
            [
                -123.09485209744699,
                49.302207166900054
            ],
            [
                -123.09490799295975,
                49.30180725613156
            ],
            [
                -123.0952704313897,
                49.3021314896539
            ],
            [
                -123.09521905222326,
                49.30243109592345
            ],
            [
                -123.09527357187795,
                49.30234577037098
            ],
            [
                -123.09522332841563,
                49.30199305464625
            ],
            [
                -123.09538836554434,
                49.30219793378477
            ],
            [
                -123.09538640888113,
                49.30242973812584
            ],
            [
                -123.09507328796633,
                49.30239821864683
            ],
            [
                -123.09502214947437,
                49.302224714167764
            ],
            [
                -123.095183335497,
                49.3027732842897
            ],
            [
                -123.0951089260613,
                49.30289484915374
            ],
            [
                -123.09494529865607,
                49.30231087500725
            ],
            [
                -123.09504678828623,
                49.30223060561306
            ],
            [
                -123.09523995471719,
                49.30218118731566
            ],
            [
                -123.09544681800017,
                49.302702570361326
            ],
            [
                -123.0950936550171,
                49.3028896221251
            ],
            [
                -123.09491713044967,
                49.302734380258094
            ],
            [
                -123.09509493762991,
                49.30282995231529
            ],
            [
                -123.09515564243453,
                49.3027533163281
            ],
            [
                -123.09540243544578,
                49.30290970541339
            ],
            [
                -123.09471691044499,
                49.30386735358782
            ],
            [
                -123.0941752019554,
                49.304568186943825
            ],
            [
                -123.09344203318001,
                49.30497711411319
            ],
            [
                -123.09311006782403,
                49.305060858491316
            ],
            [
                -123.09284730767723,
                49.305130329888385
            ],
            [
                -123.0928252766749,
                49.30514270189794
            ],
            [
                -123.09290024638604,
                49.305055608019835
            ],
            [
                -123.09322135868915,
                49.304716712932816
            ],
            [
                -123.0935283472318,
                49.304435869095336
            ],
            [
                -123.09394845401323,
                49.30422984436153
            ],
            [
                -123.09456687840148,
                49.304012589479484
            ],
            [
                -123.09500983387967,
                49.3035216714901
            ],
            [
                -123.09522923824807,
                49.30261682343408
            ],
            [
                -123.09564314063677,
                49.302418308391594
            ],
            [
                -123.09540945668925,
                49.30286149583873
            ],
            [
                -123.09529701638368,
                49.30355604410286
            ],
            [
                -123.09534954736114,
                49.30345880418988
            ],
            [
                -123.09552770385211,
                49.30320678048094
            ],
            [
                -123.09557140804422,
                49.302804367345
            ],
            [
                -123.09554860666776,
                49.30257989364155
            ],
            [
                -123.09557,
                49.30265
            ]
        ]
    },
    "properties": {
        "trajectory_id": 8140,
        "object_id": 636020587,
        "label": "CARGO"
    }
}