{
    "type": "Feature",
    "geometry": {
        "type": "LineString",
        "coordinates": [
            [
                -122.92437,
                49.17007
            ],
            [
                -122.92436992295457,
                49.17008384504618
            ],
            [
                -122.9243625174058,
                49.170073805738
            ],
            [
                -122.9243617273269,
                49.17008148873109
            ],
            [
                -122.92436302808187,
                49.1700798429664
            ],
            [
                -122.92436093521465,
                49.17008154982754
            ],
            [
                -122.92435037193167,
                49.17009044979837
            ],
            [
                -122.92437405676344,
                49.17010007836074
            ],
            [
                -122.92436983577946,
                49.17009883452226
            ],
            [
                -122.92433901932243,
                49.17008999945362
            ],
            [
                -122.92434016121642,
                49.1700786192338
            ],
            [
                -122.924340269662,
                49.17007864377194
            ],
            [
                -122.92435076086662,
                49.170089989886236
            ],
            [
                -122.92434017933006,
                49.17008999898205
            ],
            [
                -122.92434015107031,
                49.1700797405168
            ],
            [
                -122.9243494971494,
                49.170078764790844
            ],
            [
                -122.92435028880689,
                49.17006941374987
            ],
            [
                -122.9243491342489,
                49.17005238055043
            ],
            [
                -122.92434033177176,
                49.17005991740178
            ],
            [
                -122.92435662666165,
                49.17006099655949
            ],
            [
                -122.92435011671057,
                49.17005873760038
            ],
            [
                -122.9243844604298,
                49.1700588793416
            ],
            [
                -122.9243800736708,
                49.17007984039246
            ],
            [
                -122.92435936129257,
                49.1700892125909
            ],
            [
                -122.92437588908773,
                49.17010820057001
            ],
            [
                -122.92434887159702,
                49.17012000573947
            ],
            [
                -122.92434864375727,
                49.170119999998455
            ],
            [
                -122.92434746567972,
                49.170119993505864
            ],
            [
                -122.92434913051719,
                49.17010972472836
            ],
            [
                -122.92435796066506,
                49.170100022787366
            ],
            [
                -122.92434972113185,
                49.17010999345192
            ],
            [
                -122.92433987440012,
                49.1701000287944
            ],
            [
                -122.92432000508849,
                49.17011127934341
            ],
            [
                -122.92434011932346,
                49.17009986518427
            ],
            [
                -122.92432908033332,
                49.1700904845402
            ],
            [
                -122.92434989190646,
                49.17007961680543
            ],
            [
                -122.92433932710252,
                49.17007238375702
            ],
            [
                -122.92432972161683,
                49.17010998377118
            ],
            [
                -122.92434002965969,
                49.170090935779385
            ],
            [
                -122.92433017811301,
                49.17008995269706
            ],
            [
                -122.92430522429541,
                49.170108336897506
            ],
            [
                -122.93141318693725,
                49.16779262594293
            ],
            [
                -122.95049133491985,
                49.15821098621107
            ],
            [
                -122.97612081610093,
                49.15799720434625
            ],
            [
                -122.98558415198556,
                49.163021077628436
            ],
            [
                -122.99225894321638,
                49.162307939732905
            ],
            [
                -122.99229085675069,
                49.16233006828378
            ],
            [
                -122.9922909647271,
                49.16234000413977
            ],
            [
                -122.99228000004996,
                49.162339999999986
            ],
            [
                -122.99228238063701,
                49.1623399998246
            ],
            [
                -122.99227975884186,
                49.162340503693734
            ],
            [
                -122.99228000018095,
                49.162349999785235
            ],
            [
                -122.99228969635789,
                49.16234034226589
            ],
            [
                -122.99229007615722,
                49.16234000171746
            ],
            [
                -122.99228999878343,
                49.16235027401548
            ],
            [
                -122.9922900064981,
                49.16233974938355
            ],
            [
                -122.99230804085958,
                49.16236068284341
            ],
            [
                -122.99230995021894,
                49.16234999994017
            ],
            [
                -122.99232016038553,
                49.162350000000025
            ],
            [
                -122.9923000175134,
                49.162349999999535
            ],
            [
                -122.99229032709883,
                49.16234999313167
            ],
            [
                -122.99229031655182,
                49.162349534374734
            ],
            [
                -122.99229997106153,
                49.16233988934719
            ],
            [
                -122.99230993971322,
                49.162359797860546
            ],
            [
                -122.99229986542635,
                49.162348644381055
            ],
            [
                -122.99228890330632,
                49.16233990349906
            ],
            [
                -122.9922900562083,
                49.162340051370755
            ],
            [
                -122.99229393442093,
                49.16234705099877
            ],
            [
                -122.9922794804481,
                49.16233996912091
            ],
            [
                -122.99227810360975,
                49.16234916954907
            ],
            [
                -122.99228031890782,
                49.162340000959915
            ],
            [
                -122.99228989101458,
                49.16235107906398
            ],
            [
                -122.99228030344229,
                49.16235030767881
            ],
            [
                -122.99228977577778,
                49.16234000004758
            ],
            [
                -122.99227000428743,
                49.162339999513456
            ],
            [
                -122.99226237277311,
                49.162329964510576
            ],
            [
                -122.99227075126764,
                49.16231996575488
            ],
            [
                -122.99228017968335,
                49.16231976363226
            ],
            [
                -122.99225914609886,
                49.16232044196653
            ],
            [
                -122.99226,
                49.16232
            ]
        ]
    },
    "properties": {
        "trajectory_id": 834,
        "object_id": 316005717,
        "label": "TUG"
    }
}