{
    "type": "Feature",
    "geometry": {
        "type": "LineString",
        "coordinates": [
            [
                -123.38598,
                48.41472
            ],
            [
                -123.38598000124539,
                48.414730032785734
            ],
            [
                -123.38598447357053,
                48.41473063612725
            ],
            [
                -123.38598973252321,
                48.41472973857606
            ],
            [
                -123.38599983471708,
                48.414730000051925
            ],
            [
                -123.38600005085001,
                48.41472998787182
            ],
            [
                -123.38601042330974,
                48.41472030475901
            ],
            [
                -123.38599163171173,
                48.41472999822019
            ],
            [
                -123.38598007044574,
                48.41473000509558
            ],
            [
                -123.38597024573673,
                48.414725704676684
            ],
            [
                -123.38596998001914,
                48.41473000229806
            ],
            [
                -123.38595895526122,
                48.414730015200526
            ],
            [
                -123.38598043642173,
                48.414739988010346
            ],
            [
                -123.38598965297308,
                48.414740000003725
            ],
            [
                -123.38598420199605,
                48.41473998435222
            ],
            [
                -123.38597999979993,
                48.41472996693429
            ],
            [
                -123.38598012938255,
                48.41474074862993
            ],
            [
                -123.38599474836141,
                48.414739999951166
            ],
            [
                -123.38598999819787,
                48.414739999999995
            ],
            [
                -123.38598517988196,
                48.414739999999995
            ],
            [
                -123.38599931836526,
                48.41473999998877
            ],
            [
                -123.38600106975488,
                48.414740063363986
            ],
            [
                -123.38598996649935,
                48.414730009491564
            ],
            [
                -123.38599009678319,
                48.414727472567364
            ],
            [
                -123.38599002501664,
                48.4147300007604
            ],
            [
                -123.38599061097612,
                48.41474058034995
            ],
            [
                -123.38598999985905,
                48.41473000307767
            ],
            [
                -123.38599408549085,
                48.414733628011476
            ],
            [
                -123.3859999817999,
                48.414739999999014
            ],
            [
                -123.38598818362023,
                48.41473991747344
            ],
            [
                -123.38558179881824,
                48.4147057351935
            ],
            [
                -123.385775672083,
                48.41466699670115
            ],
            [
                -123.38597958965329,
                48.41472961627106
            ],
            [
                -123.38599033906186,
                48.414730005976665
            ],
            [
                -123.38599002094752,
                48.41472989211494
            ],
            [
                -123.38597963041636,
                48.41472624586258
            ],
            [
                -123.38596886426711,
                48.4147203427934
            ],
            [
                -123.38598982552925,
                48.41472974866861
            ],
            [
                -123.38599986505082,
                48.4147300000148
            ],
            [
                -123.38599999634953,
                48.414729985639134
            ],
            [
                -123.3859889871398,
                48.414727981752705
            ],
            [
                -123.38600011518439,
                48.414729999511174
            ],
            [
                -123.38601008091045,
                48.41473928959583
            ],
            [
                -123.38602078009346,
                48.41474578668813
            ],
            [
                -123.38600027682288,
                48.41473992796187
            ],
            [
                -123.38599836319996,
                48.41474000000729
            ],
            [
                -123.38599008289148,
                48.41474
            ],
            [
                -123.38598108846489,
                48.414740000003
            ],
            [
                -123.38598973186706,
                48.41474003546806
            ],
            [
                -123.38600949099887,
                48.41473941111182
            ],
            [
                -123.38600149734035,
                48.41473571778284
            ],
            [
                -123.38600045696612,
                48.414718783191205
            ],
            [
                -123.38599999996558,
                48.4147295234329
            ],
            [
                -123.38599980273801,
                48.414729998825635
            ],
            [
                -123.38600028321767,
                48.41471969288126
            ],
            [
                -123.3860004130065,
                48.41471999999244
            ],
            [
                -123.38598999963688,
                48.41472001219983
            ],
            [
                -123.38597993181912,
                48.41472998505994
            ],
            [
                -123.38598913842492,
                48.41472999989977
            ],
            [
                -123.38597856041693,
                48.41473532698466
            ],
            [
                -123.38596855721312,
                48.41474493724667
            ],
            [
                -123.38596991269179,
                48.414740002149074
            ],
            [
                -123.38597972437952,
                48.41473999999999
            ],
            [
                -123.38598980139224,
                48.41473999999998
            ],
            [
                -123.38599000031408,
                48.414740000090326
            ],
            [
                -123.38600084468432,
                48.414735212909356
            ],
            [
                -123.38600970175884,
                48.414739998985205
            ],
            [
                -123.38599754307921,
                48.41473750688488
            ],
            [
                -123.38599932967114,
                48.41473010969248
            ],
            [
                -123.38599942646718,
                48.41473004998633
            ],
            [
                -123.38600196458,
                48.41472027680228
            ],
            [
                -123.38599983981503,
                48.414720000103905
            ],
            [
                -123.38600001595817,
                48.41472000011076
            ],
            [
                -123.38600074379244,
                48.41472039788456
            ],
            [
                -123.38599003749556,
                48.414730000880304
            ],
            [
                -123.38598959656277,
                48.41473000538123
            ],
            [
                -123.38599000624308,
                48.41471999911076
            ],
            [
                -123.38599052738279,
                48.414729989355365
            ],
            [
                -123.38599941442229,
                48.41472999999358
            ],
            [
                -123.38602,
                48.41473
            ]
        ]
    },
    "properties": {
        "trajectory_id": 841,
        "object_id": 316005724,
        "label": "TUG"
    }
}