{
    "type": "Feature",
    "geometry": {
        "type": "LineString",
        "coordinates": [
            [
                -123.38602,
                48.41473
            ],
            [
                -123.38602004623944,
                48.41473010119803
            ],
            [
                -123.38601025061999,
                48.4147191382872
            ],
            [
                -123.38600999580103,
                48.41472998322905
            ],
            [
                -123.38602147309277,
                48.41473002742649
            ],
            [
                -123.38599999583099,
                48.414730000000596
            ],
            [
                -123.38600000419243,
                48.414730000182885
            ],
            [
                -123.38600089347433,
                48.41473655131116
            ],
            [
                -123.38599954045866,
                48.41473000065347
            ],
            [
                -123.3860044733012,
                48.414730000000475
            ],
            [
                -123.3859999898892,
                48.41473000000006
            ],
            [
                -123.38600459468579,
                48.41473000012383
            ],
            [
                -123.38599464745933,
                48.4147289504613
            ],
            [
                -123.38600000451811,
                48.41473967103482
            ],
            [
                -123.3859959686458,
                48.41472992800022
            ],
            [
                -123.38600060248591,
                48.41473027085659
            ],
            [
                -123.38599512260912,
                48.41473000031043
            ],
            [
                -123.38599998143644,
                48.41473000072755
            ],
            [
                -123.38599830548279,
                48.41471855864636
            ],
            [
                -123.38600966219596,
                48.41471995987801
            ],
            [
                -123.38600999687364,
                48.41472971772167
            ],
            [
                -123.38601217984348,
                48.414730062988355
            ],
            [
                -123.3860088605037,
                48.41472676551194
            ],
            [
                -123.38599997840768,
                48.414729962359075
            ],
            [
                -123.38600002843857,
                48.414740009770966
            ],
            [
                -123.38598995818764,
                48.41474000000152
            ],
            [
                -123.38597984583774,
                48.4147400000044
            ],
            [
                -123.3859900891356,
                48.41473975537959
            ],
            [
                -123.38598002388191,
                48.41475000370752
            ],
            [
                -123.3859898571009,
                48.41475000059031
            ],
            [
                -123.38599042463328,
                48.4147486509192
            ],
            [
                -123.38597955848945,
                48.41475223755091
            ],
            [
                -123.38597970440885,
                48.4147400022297
            ],
            [
                -123.38599002622024,
                48.41474000009549
            ],
            [
                -123.38599016782236,
                48.41473965593321
            ],
            [
                -123.38599093437983,
                48.414735506961456
            ],
            [
                -123.38597925411689,
                48.414740438881445
            ],
            [
                -123.38599000207675,
                48.41473880908978
            ],
            [
                -123.3859900272182,
                48.41475011710893
            ],
            [
                -123.38599972539927,
                48.41473990316178
            ],
            [
                -123.38599983900411,
                48.414740003684095
            ],
            [
                -123.3859907986479,
                48.414730089446934
            ],
            [
                -123.38598033522537,
                48.41473356359961
            ],
            [
                -123.38599714742702,
                48.414740000224036
            ],
            [
                -123.38599003337933,
                48.41474000055094
            ],
            [
                -123.38600014125223,
                48.41473950719086
            ],
            [
                -123.3860025490676,
                48.41474004841106
            ],
            [
                -123.38600084295919,
                48.41472999554388
            ],
            [
                -123.38599186190127,
                48.41473000136768
            ],
            [
                -123.38598942461037,
                48.41474030639339
            ],
            [
                -123.3859859848809,
                48.414740000028225
            ],
            [
                -123.38598999629816,
                48.41474000026841
            ],
            [
                -123.38599000134131,
                48.414737686614714
            ],
            [
                -123.38599344267114,
                48.414741540092166
            ],
            [
                -123.38598990302424,
                48.41473221351748
            ],
            [
                -123.38599021131436,
                48.41474008819234
            ],
            [
                -123.38599994604981,
                48.41474081119182
            ],
            [
                -123.38599997543017,
                48.4147399999974
            ],
            [
                -123.38598996664031,
                48.41473999999999
            ],
            [
                -123.38598655420688,
                48.41474
            ],
            [
                -123.38597988697492,
                48.41474
            ],
            [
                -123.38599031358754,
                48.41473999997423
            ],
            [
                -123.38597999503625,
                48.41473621120624
            ],
            [
                -123.3859897578881,
                48.41474006272022
            ],
            [
                -123.38599000425232,
                48.41473720590584
            ],
            [
                -123.38597905764341,
                48.41473014892773
            ],
            [
                -123.38598961182166,
                48.41473000000017
            ],
            [
                -123.38598002223947,
                48.41473000190386
            ],
            [
                -123.38596594850259,
                48.41471969562249
            ],
            [
                -123.38595880015332,
                48.41473001464861
            ],
            [
                -123.38594853598075,
                48.414730000001754
            ],
            [
                -123.38594855618206,
                48.41472999999999
            ],
            [
                -123.38594938093203,
                48.41473
            ],
            [
                -123.38597037306619,
                48.41473000000046
            ],
            [
                -123.38597993027022,
                48.414729981522356
            ],
            [
                -123.38597999933359,
                48.414719900732386
            ],
            [
                -123.38599104926186,
                48.41472000096841
            ],
            [
                -123.38597986738228,
                48.41472066576097
            ],
            [
                -123.38598831363086,
                48.414720021672665
            ],
            [
                -123.38598,
                48.41472
            ]
        ]
    },
    "properties": {
        "trajectory_id": 842,
        "object_id": 316005724,
        "label": "TUG"
    }
}