{
    "type": "Feature",
    "geometry": {
        "type": "LineString",
        "coordinates": [
            [
                -123.10698,
                49.31167
            ],
            [
                -123.10699358440428,
                49.31165539564989
            ],
            [
                -123.10699021176218,
                49.31163864395623
            ],
            [
                -123.10699000069056,
                49.31164002794912
            ],
            [
                -123.10699165731793,
                49.311649635671294
            ],
            [
                -123.10697021286066,
                49.31166002275943
            ],
            [
                -123.10697001126974,
                49.311662735184164
            ],
            [
                -123.10696359577575,
                49.311670138704244
            ],
            [
                -123.1069734378363,
                49.31165994434319
            ],
            [
                -123.10698032386756,
                49.31165979878233
            ],
            [
                -123.1069999997957,
                49.31165000379721
            ],
            [
                -123.10701099084787,
                49.31165924945468
            ],
            [
                -123.10702099935529,
                49.31166602301167
            ],
            [
                -123.10700287131914,
                49.31167065759527
            ],
            [
                -123.10700310408595,
                49.31166678884514
            ],
            [
                -123.10700000791753,
                49.31166000273786
            ],
            [
                -123.10699980070159,
                49.311657361404826
            ],
            [
                -123.10700060399644,
                49.31165759200459
            ],
            [
                -123.10701099051641,
                49.31165491851251
            ],
            [
                -123.10698078711368,
                49.31164201276981
            ],
            [
                -123.10699041702695,
                49.31164044775376
            ],
            [
                -123.1070095585665,
                49.311641788538125
            ],
            [
                -123.10702041809768,
                49.31166210008082
            ],
            [
                -123.10699777219564,
                49.31171674284355
            ],
            [
                -123.10697029481615,
                49.31173031729193
            ],
            [
                -123.10697928745418,
                49.31176036368751
            ],
            [
                -123.10696887038829,
                49.31174035156606
            ],
            [
                -123.10695093065436,
                49.311730139721234
            ],
            [
                -123.1069620145074,
                49.3117033245669
            ],
            [
                -123.10699175345316,
                49.31172103486501
            ],
            [
                -123.10697840280112,
                49.31169918877161
            ],
            [
                -123.10698999681009,
                49.31168996655489
            ],
            [
                -123.10698999952596,
                49.311680833694275
            ],
            [
                -123.10698976860881,
                49.311670247603935
            ],
            [
                -123.10698985080353,
                49.3116596019703
            ],
            [
                -123.10700016222272,
                49.31166002115239
            ],
            [
                -123.1070101583759,
                49.31166104357798
            ],
            [
                -123.10702000167917,
                49.3116479257468
            ],
            [
                -123.10700990873713,
                49.311646563570775
            ],
            [
                -123.10701948363028,
                49.311642578056755
            ],
            [
                -123.10700979842579,
                49.311639975907354
            ],
            [
                -123.10702134606602,
                49.31163002919087
            ],
            [
                -123.1070100024152,
                49.311629049191644
            ],
            [
                -123.10701021282536,
                49.311649080463454
            ],
            [
                -123.10702072333635,
                49.31165915373189
            ],
            [
                -123.10699770956202,
                49.31163955574753
            ],
            [
                -123.10701536877319,
                49.311659482453315
            ],
            [
                -123.10705118083274,
                49.31164792898052
            ],
            [
                -123.107049436996,
                49.31163992817692
            ],
            [
                -123.10706987990895,
                49.31164003419623
            ],
            [
                -123.10702767452102,
                49.31163970681369
            ],
            [
                -123.10700947705801,
                49.31164999636645
            ],
            [
                -123.10700966112938,
                49.311649999944414
            ],
            [
                -123.10699955234327,
                49.311650030358614
            ],
            [
                -123.10699023277111,
                49.31165979476325
            ],
            [
                -123.10698535511955,
                49.3116511298763
            ],
            [
                -123.10700694974524,
                49.31166033679618
            ],
            [
                -123.10700819572244,
                49.3116600299756
            ],
            [
                -123.1070099648899,
                49.31164982800828
            ],
            [
                -123.10701070405632,
                49.31165007433022
            ],
            [
                -123.10700992926706,
                49.31166004409076
            ],
            [
                -123.10702005391472,
                49.31166000003357
            ],
            [
                -123.10701997253659,
                49.311659996509505
            ],
            [
                -123.10702005561187,
                49.311649983073195
            ],
            [
                -123.10702952105568,
                49.31163145951901
            ],
            [
                -123.10703539376155,
                49.31161443824565
            ],
            [
                -123.10704183737191,
                49.31161023451148
            ],
            [
                -123.10703010179203,
                49.311609333107604
            ],
            [
                -123.10700935073854,
                49.311620005739016
            ],
            [
                -123.10702762256953,
                49.31161999367799
            ],
            [
                -123.10702943115271,
                49.31162006183963
            ],
            [
                -123.1070352181357,
                49.31161761778342
            ],
            [
                -123.10700923415408,
                49.31163044084993
            ],
            [
                -123.10703032399799,
                49.31163000471869
            ],
            [
                -123.1070299925257,
                49.31164003136919
            ],
            [
                -123.10703031833135,
                49.311648214774294
            ],
            [
                -123.10704011139431,
                49.31164913058106
            ],
            [
                -123.10704588149311,
                49.31165996754503
            ],
            [
                -123.10701938509074,
                49.31165452812432
            ],
            [
                -123.10703,
                49.31165
            ]
        ]
    },
    "properties": {
        "trajectory_id": 871,
        "object_id": 316005728,
        "label": "TOWING"
    }
}