{
    "type": "Feature",
    "geometry": {
        "type": "LineString",
        "coordinates": [
            [
                -123.10698,
                49.3117
            ],
            [
                -123.10698993252018,
                49.311670338132316
            ],
            [
                -123.1069904744573,
                49.31165970764332
            ],
            [
                -123.10699088806054,
                49.31164999347574
            ],
            [
                -123.10696892938384,
                49.311650007113485
            ],
            [
                -123.10698984757708,
                49.31165920232352
            ],
            [
                -123.10699954150522,
                49.311670571640185
            ],
            [
                -123.10700896384688,
                49.31167000060824
            ],
            [
                -123.10702001213882,
                49.311670000024776
            ],
            [
                -123.10700229576605,
                49.31166924436222
            ],
            [
                -123.10700385053644,
                49.31167319603365
            ],
            [
                -123.10701981091864,
                49.31167000008739
            ],
            [
                -123.1070190154903,
                49.311668985201194
            ],
            [
                -123.10701393674181,
                49.31166631462671
            ],
            [
                -123.10700924078648,
                49.31166367952346
            ],
            [
                -123.1070210198487,
                49.3116595777688
            ],
            [
                -123.10700995795945,
                49.311660542309326
            ],
            [
                -123.1070009910437,
                49.311651925663874
            ],
            [
                -123.10699973217635,
                49.3116500721557
            ],
            [
                -123.10698466319461,
                49.31164492986331
            ],
            [
                -123.10698929664586,
                49.31165083153258
            ],
            [
                -123.10700717847317,
                49.3116638149207
            ],
            [
                -123.10700917445482,
                49.31167932096875
            ],
            [
                -123.10701962473316,
                49.311678915376234
            ],
            [
                -123.10703935792132,
                49.31168840565239
            ],
            [
                -123.10700988655714,
                49.311671349106646
            ],
            [
                -123.10699997870161,
                49.31166824027812
            ],
            [
                -123.10698558254622,
                49.311660250562404
            ],
            [
                -123.10699136412332,
                49.311660265139686
            ],
            [
                -123.10699301079869,
                49.31166406514963
            ],
            [
                -123.1068599367488,
                49.311460151673835
            ],
            [
                -123.10687000044695,
                49.311458673733846
            ],
            [
                -123.10687028707018,
                49.311459992834045
            ],
            [
                -123.10687492734274,
                49.31146000000012
            ],
            [
                -123.10688005683372,
                49.31145999605334
            ],
            [
                -123.10687988339872,
                49.31147125740707
            ],
            [
                -123.10689039548588,
                49.31147000990551
            ],
            [
                -123.10690000052814,
                49.31146881858667
            ],
            [
                -123.10689999999998,
                49.3114600000656
            ],
            [
                -123.10690000001809,
                49.311460000345804
            ],
            [
                -123.10689981653674,
                49.3114527246541
            ],
            [
                -123.10688929965691,
                49.31145013943497
            ],
            [
                -123.1068899804032,
                49.311450000047344
            ],
            [
                -123.10687986814862,
                49.31145000056864
            ],
            [
                -123.10688000063556,
                49.31144980039756
            ],
            [
                -123.1069510702434,
                49.31134928265201
            ],
            [
                -123.10685964073839,
                49.31146054899844
            ],
            [
                -123.10686965710823,
                49.31145154302466
            ],
            [
                -123.10685998846229,
                49.31145001452671
            ],
            [
                -123.10685999972794,
                49.31144999999972
            ],
            [
                -123.1068608198746,
                49.311449980727446
            ],
            [
                -123.10686999843989,
                49.31143995596655
            ],
            [
                -123.10686999999962,
                49.31143901048621
            ],
            [
                -123.10686999999999,
                49.311439588224175
            ],
            [
                -123.10687000000374,
                49.311439990916234
            ],
            [
                -123.10686869224384,
                49.31144000000909
            ],
            [
                -123.1068700069987,
                49.31143999987948
            ],
            [
                -123.10688002135728,
                49.31144087901091
            ],
            [
                -123.10687999980723,
                49.31142996230637
            ],
            [
                -123.10687905516409,
                49.31142999994235
            ],
            [
                -123.1068901199075,
                49.31143040190223
            ],
            [
                -123.10688995084095,
                49.31144000097655
            ],
            [
                -123.10687976106607,
                49.3114399984915
            ],
            [
                -123.10687903295113,
                49.31143495469431
            ],
            [
                -123.1069000020207,
                49.31142999904837
            ],
            [
                -123.10687994305248,
                49.31142091169307
            ],
            [
                -123.10689019448691,
                49.31142994403741
            ],
            [
                -123.10688078464243,
                49.311429891639385
            ],
            [
                -123.10688999811379,
                49.31142999952374
            ],
            [
                -123.10688000605519,
                49.31144000713062
            ],
            [
                -123.10688999249672,
                49.31142993386427
            ],
            [
                -123.1068907561386,
                49.31144111841069
            ],
            [
                -123.10689097498378,
                49.31144108677223
            ],
            [
                -123.10689999592593,
                49.31144999462841
            ],
            [
                -123.10690993966338,
                49.31145000000245
            ],
            [
                -123.1068914776833,
                49.31145003100143
            ],
            [
                -123.1068999266363,
                49.31145984887641
            ],
            [
                -123.10690998484115,
                49.311457191471874
            ],
            [
                -123.10690053084181,
                49.31145000218422
            ],
            [
                -123.1069,
                49.31145
            ]
        ]
    },
    "properties": {
        "trajectory_id": 874,
        "object_id": 316005728,
        "label": "TOWING"
    }
}