{
    "type": "Feature",
    "geometry": {
        "type": "LineString",
        "coordinates": [
            [
                -123.18902,
                49.12392
            ],
            [
                -123.1890228881083,
                49.12390938657865
            ],
            [
                -123.18897162121559,
                49.12394815071268
            ],
            [
                -123.18901348399199,
                49.12393729275942
            ],
            [
                -123.18899959980162,
                49.123921440494016
            ],
            [
                -123.18902092890785,
                49.123933738806045
            ],
            [
                -123.18901023225895,
                49.12390099145065
            ],
            [
                -123.18900054023139,
                49.12393010711775
            ],
            [
                -123.18902608628534,
                49.12392786753463
            ],
            [
                -123.18903496197319,
                49.12392249799154
            ],
            [
                -123.1890239432754,
                49.1239097231262
            ],
            [
                -123.18901154619353,
                49.123921851682546
            ],
            [
                -123.18898552135713,
                49.12391981472178
            ],
            [
                -123.18902963223744,
                49.12392872057048
            ],
            [
                -123.18901108396697,
                49.12393122167203
            ],
            [
                -123.18900309324695,
                49.12392721158484
            ],
            [
                -123.18900212638661,
                49.123909216919415
            ],
            [
                -123.18903004878938,
                49.1239223239467
            ],
            [
                -123.18900989707294,
                49.12393013591052
            ],
            [
                -123.18903913976422,
                49.123930639936226
            ],
            [
                -123.18900485345745,
                49.12392176306599
            ],
            [
                -123.18902835094711,
                49.123915401884965
            ],
            [
                -123.18902777768054,
                49.12390612867105
            ],
            [
                -123.18901413962197,
                49.12389841008555
            ],
            [
                -123.18901002732954,
                49.123930141061884
            ],
            [
                -123.18900710437052,
                49.12391518282051
            ],
            [
                -123.18905077505734,
                49.12389021578301
            ],
            [
                -123.18903940625157,
                49.123872548045085
            ],
            [
                -123.18904901513831,
                49.12388056800852
            ],
            [
                -123.18906723761253,
                49.12387595086586
            ],
            [
                -123.18901890952183,
                49.12388918893819
            ],
            [
                -123.18907426759071,
                49.12385902400699
            ],
            [
                -123.18906001287671,
                49.12387930203158
            ],
            [
                -123.1890476701069,
                49.1238701835431
            ],
            [
                -123.18902998866967,
                49.12389999034951
            ],
            [
                -123.18902939593083,
                49.12389003851452
            ],
            [
                -123.18904085554627,
                49.123909679492435
            ],
            [
                -123.1890504237804,
                49.123904456627216
            ],
            [
                -123.18907539872494,
                49.12390757908257
            ],
            [
                -123.18905985836109,
                49.12391056119959
            ],
            [
                -123.18905954339174,
                49.12393013354342
            ],
            [
                -123.1890624489226,
                49.12393090135263
            ],
            [
                -123.18908008923151,
                49.12395034520711
            ],
            [
                -123.1890603277514,
                49.1239496532731
            ],
            [
                -123.1890500188943,
                49.12396432398123
            ],
            [
                -123.18909027615044,
                49.1239498955337
            ],
            [
                -123.18905630741816,
                49.1239496412957
            ],
            [
                -123.18902965390899,
                49.123959279019715
            ],
            [
                -123.18904972970543,
                49.123940093739485
            ],
            [
                -123.18905041837954,
                49.123928664105144
            ],
            [
                -123.1890410297915,
                49.12393005133937
            ],
            [
                -123.18903810946686,
                49.12393875623294
            ],
            [
                -123.18905142611813,
                49.12391490797353
            ],
            [
                -123.1890496589588,
                49.123902366182755
            ],
            [
                -123.18905066575063,
                49.12390949582634
            ],
            [
                -123.18903526077567,
                49.12389948363563
            ],
            [
                -123.18903113372511,
                49.12389756206302
            ],
            [
                -123.18905954127658,
                49.123890330503976
            ],
            [
                -123.18901802387754,
                49.123901593028336
            ],
            [
                -123.18902067600554,
                49.12389003016254
            ],
            [
                -123.1890139505724,
                49.12388388505118
            ],
            [
                -123.1890097040591,
                49.12387903392306
            ],
            [
                -123.18901944136745,
                49.123879971075596
            ],
            [
                -123.18900008382222,
                49.12388003855975
            ],
            [
                -123.1890297771532,
                49.12389043818214
            ],
            [
                -123.18901576013035,
                49.12390533855582
            ],
            [
                -123.18902461793475,
                49.12388613835261
            ],
            [
                -123.1889965057194,
                49.123901803167996
            ],
            [
                -123.18898845293626,
                49.123892021085126
            ],
            [
                -123.1889961135598,
                49.123881105050565
            ],
            [
                -123.18901012420581,
                49.12386305988645
            ],
            [
                -123.18902095891828,
                49.12387134560348
            ],
            [
                -123.18901098400394,
                49.123891135187996
            ],
            [
                -123.18903977450849,
                49.123899493164544
            ],
            [
                -123.18902816669528,
                49.12388986758219
            ],
            [
                -123.18900967051593,
                49.123910024507694
            ],
            [
                -123.18902455577778,
                49.12388096455092
            ],
            [
                -123.18901629449721,
                49.12388822009179
            ],
            [
                -123.18903416068878,
                49.12389822531745
            ],
            [
                -123.18899,
                49.12389
            ]
        ]
    },
    "properties": {
        "trajectory_id": 895,
        "object_id": 316005813,
        "label": "FISHING"
    }
}