{
    "type": "Feature",
    "geometry": {
        "type": "LineString",
        "coordinates": [
            [
                -123.0584,
                49.29133
            ],
            [
                -123.05839801295416,
                49.29135188943913
            ],
            [
                -123.05838137829004,
                49.29138072913631
            ],
            [
                -123.0583516297565,
                49.291362186598015
            ],
            [
                -123.05835989101956,
                49.291417630612706
            ],
            [
                -123.05831033476213,
                49.29144217230528
            ],
            [
                -123.0583497476674,
                49.29139904663586
            ],
            [
                -123.05835488702606,
                49.2913983199446
            ],
            [
                -123.05834900531582,
                49.291413595914086
            ],
            [
                -123.05833778714367,
                49.29141172184005
            ],
            [
                -123.05832172051082,
                49.291359104011086
            ],
            [
                -123.05834515332786,
                49.291406928350284
            ],
            [
                -123.05825378546704,
                49.29143388681271
            ],
            [
                -123.05838044377764,
                49.29142235998432
            ],
            [
                -123.0582831592705,
                49.29146995052318
            ],
            [
                -123.05830998545564,
                49.291366445155866
            ],
            [
                -123.05839933362029,
                49.29138081328096
            ],
            [
                -123.05826801265145,
                49.29145517201355
            ],
            [
                -123.05841636622404,
                49.29135295556402
            ],
            [
                -123.05832949158477,
                49.29138061831023
            ],
            [
                -123.05837132370745,
                49.291432214331
            ],
            [
                -123.05837322137654,
                49.291422042436814
            ],
            [
                -123.05837680003546,
                49.29137387393337
            ],
            [
                -123.05841130900023,
                49.29138991461725
            ],
            [
                -123.0583412728842,
                49.29142493362184
            ],
            [
                -123.05837049303818,
                49.29142644424088
            ],
            [
                -123.05835630146126,
                49.29141135975279
            ],
            [
                -123.05839209224142,
                49.29136090155391
            ],
            [
                -123.0583934089806,
                49.2913915999757
            ],
            [
                -123.05831860104703,
                49.29139090226945
            ],
            [
                -123.0583815786062,
                49.29136129865761
            ],
            [
                -123.05836523189087,
                49.2913925229716
            ],
            [
                -123.0583302364177,
                49.29140007351616
            ],
            [
                -123.05841195835217,
                49.29135958642161
            ],
            [
                -123.05837062611369,
                49.29138017859209
            ],
            [
                -123.0584046632803,
                49.29137202994869
            ],
            [
                -123.05839803126663,
                49.291415028435495
            ],
            [
                -123.05835795867928,
                49.29141459484126
            ],
            [
                -123.05834123328073,
                49.29139139985982
            ],
            [
                -123.05836641842642,
                49.29137283140731
            ],
            [
                -123.0583297611327,
                49.29137969346711
            ],
            [
                -123.0583730888892,
                49.29138112994409
            ],
            [
                -123.0583853756241,
                49.29137931318057
            ],
            [
                -123.05832249763655,
                49.29137992327515
            ],
            [
                -123.05832851786268,
                49.29141501756551
            ],
            [
                -123.05834773808941,
                49.29137541497689
            ],
            [
                -123.05835812835548,
                49.29136840945844
            ],
            [
                -123.05839125350582,
                49.29136548305501
            ],
            [
                -123.05833199342341,
                49.291477069323584
            ],
            [
                -123.05838625164525,
                49.29136601387559
            ],
            [
                -123.05834152179376,
                49.29138891803021
            ],
            [
                -123.05838864448758,
                49.29139985933691
            ],
            [
                -123.0583751887438,
                49.29140099384433
            ],
            [
                -123.05838061278025,
                49.29140384701311
            ],
            [
                -123.05830902206796,
                49.29140022534889
            ],
            [
                -123.05826227494948,
                49.291440141048675
            ],
            [
                -123.05833565361566,
                49.291408818542756
            ],
            [
                -123.05833973251006,
                49.2913996972171
            ],
            [
                -123.05835678139718,
                49.29139995089195
            ],
            [
                -123.05842091648934,
                49.29137577014176
            ],
            [
                -123.05833405039986,
                49.2913974003584
            ],
            [
                -123.05835565446715,
                49.291361923831175
            ],
            [
                -123.05834050693205,
                49.29137464154153
            ],
            [
                -123.05838239207085,
                49.291380351317876
            ],
            [
                -123.058424964662,
                49.291342195094714
            ],
            [
                -123.05834757458759,
                49.29136528559322
            ],
            [
                -123.05832481218778,
                49.291410181471726
            ],
            [
                -123.05834731798176,
                49.291400834896365
            ],
            [
                -123.05839641681415,
                49.29138985520152
            ],
            [
                -123.05841956369962,
                49.29137188838902
            ],
            [
                -123.05843337924831,
                49.29140871015991
            ],
            [
                -123.05832212563494,
                49.291391498808224
            ],
            [
                -123.05833552341389,
                49.29138543201094
            ],
            [
                -123.05835322947043,
                49.291441538383964
            ],
            [
                -123.05832969042953,
                49.291420381581034
            ],
            [
                -123.05837609136697,
                49.2913520528311
            ],
            [
                -123.0583572555838,
                49.29132157814127
            ],
            [
                -123.05834264861271,
                49.291439608887174
            ],
            [
                -123.05834718188612,
                49.29137895794941
            ],
            [
                -123.05833,
                49.29141
            ]
        ]
    },
    "properties": {
        "trajectory_id": 914,
        "object_id": 316005998,
        "label": "FISHING"
    }
}