{
    "type": "Feature",
    "geometry": {
        "type": "LineString",
        "coordinates": [
            [
                -123.48496,
                49.47754
            ],
            [
                -123.48494652660578,
                49.47753349140145
            ],
            [
                -123.4849777188482,
                49.47745063009182
            ],
            [
                -123.48494610809394,
                49.47748802101937
            ],
            [
                -123.48494793669963,
                49.47750632487877
            ],
            [
                -123.48493471976046,
                49.477550429387534
            ],
            [
                -123.48494597693467,
                49.47756283783937
            ],
            [
                -123.48496248856792,
                49.47753443013516
            ],
            [
                -123.48493225548823,
                49.47754144691426
            ],
            [
                -123.48497971072118,
                49.4775282345959
            ],
            [
                -123.48490159893738,
                49.47751236234751
            ],
            [
                -123.48490636623055,
                49.47757721926092
            ],
            [
                -123.484939815944,
                49.47752480279561
            ],
            [
                -123.48498278029045,
                49.47754296804454
            ],
            [
                -123.48497306643742,
                49.47754987845696
            ],
            [
                -123.48495416592857,
                49.47755283197225
            ],
            [
                -123.48501661435903,
                49.4776017942515
            ],
            [
                -123.48492214712509,
                49.47754125726308
            ],
            [
                -123.48496747675512,
                49.477541255625226
            ],
            [
                -123.48495988360418,
                49.47756079519212
            ],
            [
                -123.48496893584726,
                49.477611953992344
            ],
            [
                -123.48495017460124,
                49.47753931468968
            ],
            [
                -123.485007973009,
                49.47756529203611
            ],
            [
                -123.4848381430423,
                49.477654022787185
            ],
            [
                -123.48495994795066,
                49.47754276767062
            ],
            [
                -123.48493565379113,
                49.47751428499881
            ],
            [
                -123.48494350013254,
                49.47752996169266
            ],
            [
                -123.48495991056481,
                49.477550549371315
            ],
            [
                -123.48493886312943,
                49.47755078912331
            ],
            [
                -123.48496241280803,
                49.47752155344321
            ],
            [
                -123.4849695694416,
                49.47755317945681
            ],
            [
                -123.48489621478586,
                49.47768031555293
            ],
            [
                -123.48496510108177,
                49.47754999692046
            ],
            [
                -123.48491906306386,
                49.47749878149566
            ],
            [
                -123.48495809803512,
                49.47753598273557
            ],
            [
                -123.4849414927008,
                49.4775444113743
            ],
            [
                -123.48497021523185,
                49.47755543172173
            ],
            [
                -123.48496588751608,
                49.47756654666143
            ],
            [
                -123.4849164685676,
                49.47757510484462
            ],
            [
                -123.48496933042205,
                49.47756965806799
            ],
            [
                -123.48491933509509,
                49.47746869330813
            ],
            [
                -123.48495542969417,
                49.47753353189343
            ],
            [
                -123.48491310104865,
                49.47750387849529
            ],
            [
                -123.48492976690834,
                49.477557447880045
            ],
            [
                -123.48493818397044,
                49.47756677704172
            ],
            [
                -123.48496896716205,
                49.47751916686604
            ],
            [
                -123.48499448534572,
                49.47753423933484
            ],
            [
                -123.48490145895856,
                49.4775946770519
            ],
            [
                -123.48492718252945,
                49.47758240188819
            ],
            [
                -123.48493776823129,
                49.477548989316965
            ],
            [
                -123.4849398577354,
                49.477550355634094
            ],
            [
                -123.48496916917935,
                49.47751739345339
            ],
            [
                -123.48493867723396,
                49.47752694580476
            ],
            [
                -123.48494830797604,
                49.47751246956337
            ],
            [
                -123.48495000380824,
                49.47752999636253
            ],
            [
                -123.48494719489429,
                49.47752607269271
            ],
            [
                -123.4849145216215,
                49.477533042231016
            ],
            [
                -123.48495157031064,
                49.4775193934254
            ],
            [
                -123.48496819606387,
                49.47752192833599
            ],
            [
                -123.48495338298173,
                49.47748447238047
            ],
            [
                -123.48497162867682,
                49.47752157535562
            ],
            [
                -123.48493444292636,
                49.47749308804644
            ],
            [
                -123.48499241741798,
                49.47749323816529
            ],
            [
                -123.48495791100834,
                49.47751159147891
            ],
            [
                -123.48492009982616,
                49.47752677433935
            ],
            [
                -123.48490637664922,
                49.47755448840221
            ],
            [
                -123.48496860806718,
                49.477526240185085
            ],
            [
                -123.48497874177392,
                49.47753189558834
            ],
            [
                -123.4849756166876,
                49.47753410408415
            ],
            [
                -123.48498182549032,
                49.47754701464479
            ],
            [
                -123.48496873671924,
                49.47751763618274
            ],
            [
                -123.48501156434548,
                49.47754959256611
            ],
            [
                -123.48498001814153,
                49.47756020920873
            ],
            [
                -123.4849912368761,
                49.477545624078495
            ],
            [
                -123.48499051929218,
                49.47754711425693
            ],
            [
                -123.4849883227258,
                49.477551085143354
            ],
            [
                -123.48499210016853,
                49.47754735156693
            ],
            [
                -123.48495872455129,
                49.47753867958136
            ],
            [
                -123.48500778005503,
                49.47755806463975
            ],
            [
                -123.48497,
                49.47754
            ]
        ]
    },
    "properties": {
        "trajectory_id": 939,
        "object_id": 316006345,
        "label": "TUG"
    }
}