{
    "type": "Feature",
    "geometry": {
        "type": "LineString",
        "coordinates": [
            [
                -123.48499,
                49.47748
            ],
            [
                -123.48496760884981,
                49.47755397700244
            ],
            [
                -123.48493736417231,
                49.47760476833945
            ],
            [
                -123.48499835536295,
                49.47748687211938
            ],
            [
                -123.48495047489679,
                49.47753044467987
            ],
            [
                -123.48497413567766,
                49.477524050033054
            ],
            [
                -123.48496881359566,
                49.47754626562891
            ],
            [
                -123.4850190652488,
                49.47751048610766
            ],
            [
                -123.48495182616055,
                49.47754457639864
            ],
            [
                -123.48501061631505,
                49.47757066450005
            ],
            [
                -123.4849712622848,
                49.477542807353316
            ],
            [
                -123.48494902561907,
                49.47755911170346
            ],
            [
                -123.48492117885377,
                49.47749772875905
            ],
            [
                -123.48497330267261,
                49.47753518049326
            ],
            [
                -123.48496446335034,
                49.47750828744516
            ],
            [
                -123.48497860970805,
                49.4775801230538
            ],
            [
                -123.48498482312957,
                49.47752340545583
            ],
            [
                -123.48496731203659,
                49.4775274017968
            ],
            [
                -123.48495687060893,
                49.47745995092252
            ],
            [
                -123.48499068313023,
                49.47749950598105
            ],
            [
                -123.484970439662,
                49.47746640709145
            ],
            [
                -123.48495921381183,
                49.477508072030986
            ],
            [
                -123.48496537296325,
                49.47751367536884
            ],
            [
                -123.48500300964756,
                49.47749708195122
            ],
            [
                -123.48500076084328,
                49.477530275986304
            ],
            [
                -123.48500481437155,
                49.47754665029566
            ],
            [
                -123.48497447252147,
                49.477523011862154
            ],
            [
                -123.48497136004008,
                49.47751925589185
            ],
            [
                -123.48505995798494,
                49.47745396399153
            ],
            [
                -123.4849728211961,
                49.47753994673997
            ],
            [
                -123.48494575439425,
                49.477561231378004
            ],
            [
                -123.48497966580646,
                49.47754093175467
            ],
            [
                -123.48501286247237,
                49.477521476133084
            ],
            [
                -123.48497889881837,
                49.47751645865965
            ],
            [
                -123.48496180294438,
                49.47752410454362
            ],
            [
                -123.48494192565053,
                49.477547912827966
            ],
            [
                -123.48502413495291,
                49.477509106729066
            ],
            [
                -123.48494722883153,
                49.47757462088429
            ],
            [
                -123.48497927791314,
                49.477540136142004
            ],
            [
                -123.48495819532451,
                49.47753088743569
            ],
            [
                -123.48496546776995,
                49.47748409094839
            ],
            [
                -123.48494003996112,
                49.477577065305425
            ],
            [
                -123.48492782757252,
                49.47752597622389
            ],
            [
                -123.48494165373239,
                49.47751518699309
            ],
            [
                -123.48495449362589,
                49.477533151964224
            ],
            [
                -123.48495143375288,
                49.47758063131971
            ],
            [
                -123.48494431897922,
                49.477568509732976
            ],
            [
                -123.48495916556422,
                49.477540894833865
            ],
            [
                -123.48493299131277,
                49.47758171305808
            ],
            [
                -123.48493414375761,
                49.47753664100961
            ],
            [
                -123.48498155698158,
                49.47754231848489
            ],
            [
                -123.48494895870118,
                49.47755206360527
            ],
            [
                -123.4849607486875,
                49.47753510255383
            ],
            [
                -123.48493083134028,
                49.477535084783355
            ],
            [
                -123.48493866108016,
                49.477533000833176
            ],
            [
                -123.48495257801416,
                49.477541755583104
            ],
            [
                -123.48492572483478,
                49.47752899149522
            ],
            [
                -123.48493896051019,
                49.477526051956985
            ],
            [
                -123.48500648709626,
                49.47759723723912
            ],
            [
                -123.48486768908,
                49.477476251986054
            ],
            [
                -123.4849370958149,
                49.47751274815373
            ],
            [
                -123.48489775918925,
                49.47750806767521
            ],
            [
                -123.48495002751264,
                49.477528744674686
            ],
            [
                -123.4848874744907,
                49.47755527765035
            ],
            [
                -123.484934939728,
                49.4775409153537
            ],
            [
                -123.48495455216607,
                49.4775727105929
            ],
            [
                -123.48490339190974,
                49.47752927882132
            ],
            [
                -123.48494119427107,
                49.47750138357931
            ],
            [
                -123.48493008951687,
                49.477519811563965
            ],
            [
                -123.48496547703577,
                49.47754996122678
            ],
            [
                -123.48497538457178,
                49.47754222096851
            ],
            [
                -123.48489602090005,
                49.47760657381058
            ],
            [
                -123.48493233318206,
                49.47753808795238
            ],
            [
                -123.48496959472081,
                49.47761189100013
            ],
            [
                -123.48493392193355,
                49.47750174718739
            ],
            [
                -123.48488895065482,
                49.477547888726825
            ],
            [
                -123.48492244420112,
                49.477538926877514
            ],
            [
                -123.4849593406872,
                49.47754031633884
            ],
            [
                -123.48489497028174,
                49.477522469806594
            ],
            [
                -123.48493,
                49.4775
            ]
        ]
    },
    "properties": {
        "trajectory_id": 943,
        "object_id": 316006345,
        "label": "TUG"
    }
}