{
    "type": "Feature",
    "geometry": {
        "type": "LineString",
        "coordinates": [
            [
                -123.10694,
                49.31209
            ],
            [
                -123.10701094409836,
                49.31205245439164
            ],
            [
                -123.10697906385195,
                49.3121805688806
            ],
            [
                -123.1069400217141,
                49.31212111571831
            ],
            [
                -123.10685157998378,
                49.31210479448378
            ],
            [
                -123.10694062070517,
                49.312091826945306
            ],
            [
                -123.10693527313192,
                49.312091008581056
            ],
            [
                -123.10695199623945,
                49.312111345877625
            ],
            [
                -123.10692995195826,
                49.31207668078427
            ],
            [
                -123.10695477213933,
                49.31210627146988
            ],
            [
                -123.10686986276224,
                49.3120687562168
            ],
            [
                -123.10690091933223,
                49.3121020164316
            ],
            [
                -123.10686985972124,
                49.31206796602937
            ],
            [
                -123.10682079229781,
                49.312105041726866
            ],
            [
                -123.1068265261152,
                49.31208681556817
            ],
            [
                -123.10683641396044,
                49.312103703160695
            ],
            [
                -123.10690613662307,
                49.312154758728006
            ],
            [
                -123.10687238504612,
                49.3120646748976
            ],
            [
                -123.10695722739169,
                49.31208516546079
            ],
            [
                -123.10688992525708,
                49.312199312052044
            ],
            [
                -123.10688657488367,
                49.31206646184452
            ],
            [
                -123.10686916545856,
                49.312087523646916
            ],
            [
                -123.1069033708115,
                49.312074851426246
            ],
            [
                -123.10691991224334,
                49.31206694478175
            ],
            [
                -123.10688750626821,
                49.31209451556121
            ],
            [
                -123.10685471132632,
                49.31204330616764
            ],
            [
                -123.10690348885474,
                49.312106905996245
            ],
            [
                -123.10694983559888,
                49.312110163892186
            ],
            [
                -123.10691555574549,
                49.3120838978766
            ],
            [
                -123.10690399299453,
                49.31209134932599
            ],
            [
                -123.10694317543214,
                49.312084357523624
            ],
            [
                -123.10694335187388,
                49.31213417012668
            ],
            [
                -123.10700815138082,
                49.31212101841415
            ],
            [
                -123.10693009588375,
                49.31212940061736
            ],
            [
                -123.1068488894776,
                49.31211383737714
            ],
            [
                -123.10690162328648,
                49.31204937641939
            ],
            [
                -123.10690978277864,
                49.312120157033064
            ],
            [
                -123.10689112166106,
                49.3120648598917
            ],
            [
                -123.10688833071808,
                49.31208284796557
            ],
            [
                -123.10695929878634,
                49.312100186463105
            ],
            [
                -123.10692016666464,
                49.31210261815446
            ],
            [
                -123.10692357473756,
                49.312104416931945
            ],
            [
                -123.10696404436266,
                49.312106719784275
            ],
            [
                -123.10691054115874,
                49.31210943657982
            ],
            [
                -123.10694799362658,
                49.312091568718195
            ],
            [
                -123.10688881621311,
                49.312109137235545
            ],
            [
                -123.10697657644353,
                49.31211555028967
            ],
            [
                -123.10690167127075,
                49.31213887348461
            ],
            [
                -123.10693906509873,
                49.31211991212642
            ],
            [
                -123.10692521194531,
                49.3121105211015
            ],
            [
                -123.10693048275014,
                49.31208696071773
            ],
            [
                -123.10689751544693,
                49.31207386787482
            ],
            [
                -123.10696987621489,
                49.31203230941072
            ],
            [
                -123.10687493724645,
                49.312123132490086
            ],
            [
                -123.10690885719774,
                49.31208019043029
            ],
            [
                -123.10681606081306,
                49.31210375894456
            ],
            [
                -123.10689037910466,
                49.31211009291229
            ],
            [
                -123.10684654794285,
                49.3120940829588
            ],
            [
                -123.10632186076649,
                49.30476239355902
            ],
            [
                -123.1181911191816,
                49.29468188556561
            ],
            [
                -123.1183584463491,
                49.29468914492624
            ],
            [
                -123.11836984849933,
                49.29471065231212
            ],
            [
                -123.1183464236224,
                49.29468322634925
            ],
            [
                -123.11835657265559,
                49.2946949857678
            ],
            [
                -123.11834003247839,
                49.29461940666305
            ],
            [
                -123.11831718643803,
                49.2946450703694
            ],
            [
                -123.11835604031387,
                49.294710444789054
            ],
            [
                -123.1183867905468,
                49.29466279629463
            ],
            [
                -123.11836252503473,
                49.29469309503586
            ],
            [
                -123.11832550910411,
                49.294704847919164
            ],
            [
                -123.1183822000637,
                49.294699185586566
            ],
            [
                -123.11837029291226,
                49.29471942434175
            ],
            [
                -123.11840067460834,
                49.29471203166009
            ],
            [
                -123.11835004068975,
                49.29472027047927
            ],
            [
                -123.11837052161147,
                49.294692427882055
            ],
            [
                -123.11837930821375,
                49.29471231841279
            ],
            [
                -123.11835274251051,
                49.294709931181295
            ],
            [
                -123.11835681423018,
                49.29471892444607
            ],
            [
                -123.11835623330504,
                49.294708652096816
            ],
            [
                -123.11835,
                49.29467
            ]
        ]
    },
    "properties": {
        "trajectory_id": 967,
        "object_id": 316007990,
        "label": "TOWING"
    }
}