{
    "type": "Feature",
    "geometry": {
        "type": "LineString",
        "coordinates": [
            [
                -117.8,
                9.7
            ],
            [
                -118.4,
                9.9
            ],
            [
                -119.0,
                10.099999999999998
            ],
            [
                -119.5,
                10.300000000000002
            ],
            [
                -119.99999999999997,
                10.6
            ],
            [
                -120.49999999999997,
                10.799999999999999
            ],
            [
                -121.1,
                11.1
            ],
            [
                -121.69999999999999,
                11.3
            ],
            [
                -122.30000000000001,
                11.500000000000002
            ],
            [
                -122.99999999999999,
                11.7
            ],
            [
                -123.6,
                11.800000000000002
            ],
            [
                -124.30000000000001,
                11.900000000000002
            ],
            [
                -124.9,
                12.0
            ],
            [
                -125.5,
                12.1
            ],
            [
                -126.1,
                12.199999999999996
            ],
            [
                -126.49999999999997,
                12.4
            ],
            [
                -126.9,
                12.599999999999998
            ],
            [
                -127.19999999999997,
                12.9
            ],
            [
                -127.6,
                13.199999999999996
            ],
            [
                -128.0,
                13.499999999999998
            ],
            [
                -128.5,
                13.699999999999996
            ],
            [
                -128.9,
                13.899999999999999
            ],
            [
                -129.3,
                14.2
            ],
            [
                -129.69999999999996,
                14.5
            ],
            [
                -130.1,
                14.7
            ],
            [
                -130.50000000000003,
                14.9
            ],
            [
                -130.8,
                15.099999999999998
            ],
            [
                -131.1,
                15.399999999999999
            ],
            [
                -131.5,
                15.7
            ],
            [
                -131.89999999999998,
                16.0
            ],
            [
                -132.3,
                16.2
            ],
            [
                -132.8,
                16.4
            ],
            [
                -133.19999999999996,
                16.699999999999996
            ],
            [
                -133.59999999999997,
                16.999999999999996
            ],
            [
                -133.99999999999997,
                17.3
            ],
            [
                -134.59999999999997,
                17.5
            ],
            [
                -135.20000000000002,
                17.699999999999996
            ],
            [
                -135.8,
                17.9
            ],
            [
                -136.3,
                18.1
            ],
            [
                -136.79999999999998,
                18.4
            ],
            [
                -137.39999999999998,
                18.6
            ],
            [
                -137.99999999999997,
                18.8
            ],
            [
                -138.7,
                18.9
            ],
            [
                -139.4,
                19.0
            ],
            [
                -140.1,
                19.199999999999996
            ],
            [
                -140.79999999999998,
                19.399999999999995
            ],
            [
                -141.39999999999998,
                19.6
            ],
            [
                -142.09999999999997,
                19.699999999999996
            ],
            [
                -142.7,
                19.899999999999995
            ],
            [
                -143.4,
                20.099999999999998
            ],
            [
                -144.0,
                20.199999999999996
            ],
            [
                -144.7,
                20.299999999999997
            ],
            [
                -145.3,
                20.499999999999993
            ],
            [
                -145.9,
                20.700000000000003
            ],
            [
                -146.5,
                20.9
            ],
            [
                -147.1,
                21.0
            ]
        ]
    },
    "properties": {
        "trajectory_id": 1024,
        "object_id": 200921510242,
        "label": "EP"
    }
}