{
    "type": "Feature",
    "geometry": {
        "type": "LineString",
        "coordinates": [
            [
                -108.3,
                12.5
            ],
            [
                -108.87242745166387,
                12.59067132322272
            ],
            [
                -109.36314509667231,
                12.606657353554565
            ],
            [
                -109.84053725831927,
                12.591756616113589
            ],
            [
                -110.31695293502536,
                12.613558090995543
            ],
            [
                -110.79999999999998,
                12.699999999999998
            ],
            [
                -111.35669416480566,
                12.780321302367497
            ],
            [
                -111.92161546756789,
                12.861976568730443
            ],
            [
                -112.47999672566628,
                12.932943091913351
            ],
            [
                -113.03900665323654,
                13.034026269249054
            ],
            [
                -113.6,
                13.200000000000001
            ],
            [
                -114.16864052063693,
                13.35406133607204
            ],
            [
                -114.65825561149795,
                13.572796980150914
            ],
            [
                -115.16922752093947,
                13.822403215076754
            ],
            [
                -115.74233779286334,
                14.059538143320841
            ],
            [
                -116.30000000000001,
                14.3
            ],
            [
                -116.85956683876118,
                14.539577895607897
            ],
            [
                -117.42077316303178,
                14.782237580547353
            ],
            [
                -117.97814233658839,
                15.01328063297676
            ],
            [
                -118.54332516225173,
                15.27317353499446
            ],
            [
                -119.1,
                15.599999999999998
            ],
            [
                -119.58332619903308,
                15.92085041186029
            ],
            [
                -120.05813801666615,
                16.239693646035796
            ],
            [
                -120.54078577720465,
                16.55963958241496
            ],
            [
                -121.01954368397807,
                16.880927645604345
            ],
            [
                -121.5,
                17.2
            ],
            [
                -121.98251577365876,
                17.512602005288446
            ],
            [
                -122.44840207020172,
                17.89592975039787
            ],
            [
                -122.9806984411147,
                18.29439835552571
            ],
            [
                -123.5241495294974,
                18.714789712248674
            ],
            [
                -124.0,
                19.199999999999996
            ],
            [
                -124.56473389077236,
                19.613538614098676
            ],
            [
                -125.05826360246894,
                19.93307793115069
            ],
            [
                -125.57551179904728,
                20.298441389572925
            ],
            [
                -126.12866503851761,
                20.685876530638343
            ],
            [
                -126.60000000000001,
                21.0
            ],
            [
                -127.0838590361827,
                21.39388912985514
            ],
            [
                -127.515536808776,
                21.80998889283627
            ],
            [
                -127.86699057406113,
                22.170431221621715
            ],
            [
                -128.1768679429182,
                22.473257231590207
            ],
            [
                -128.5,
                22.799999999999997
            ],
            [
                -128.83431912867496,
                23.210552577798822
            ],
            [
                -129.0310773000747,
                23.495167279085834
            ],
            [
                -129.18225956881636,
                23.714815605041068
            ],
            [
                -129.32771588761545,
                23.961226397862767
            ],
            [
                -129.39999999999998,
                24.199999999999996
            ],
            [
                -129.4796519267584,
                24.43891096311699
            ],
            [
                -129.5574594057207,
                24.684463249815167
            ],
            [
                -129.648965776314,
                24.900596156345454
            ],
            [
                -129.70241425448228,
                25.014263953788006
            ],
            [
                -129.7,
                24.999999999999993
            ],
            [
                -129.78455466245885,
                24.928574266897208
            ],
            [
                -129.80004740974513,
                24.7859031850571
            ],
            [
                -129.829901036102,
                24.617638725977162
            ],
            [
                -129.91904948194903,
                24.461180637011427
            ],
            [
                -129.9,
                24.3
            ]
        ]
    },
    "properties": {
        "trajectory_id": 1025,
        "object_id": 200921513252,
        "label": "EP"
    }
}