{
    "type": "Feature",
    "geometry": {
        "type": "LineString",
        "coordinates": [
            [
                -107.1,
                9.7
            ],
            [
                -108.0,
                9.9
            ],
            [
                -108.8,
                10.0
            ],
            [
                -109.6,
                10.1
            ],
            [
                -110.39999999999999,
                10.2
            ],
            [
                -111.19999999999999,
                10.3
            ],
            [
                -112.0,
                10.500000000000002
            ],
            [
                -112.7,
                10.6
            ],
            [
                -113.50000000000001,
                10.8
            ],
            [
                -114.29999999999998,
                10.9
            ],
            [
                -115.0,
                11.000000000000002
            ],
            [
                -115.6,
                11.000000000000002
            ],
            [
                -116.30000000000001,
                11.1
            ],
            [
                -116.9,
                11.2
            ],
            [
                -117.39999999999999,
                11.2
            ],
            [
                -118.0,
                11.4
            ],
            [
                -118.59999999999998,
                11.499999999999998
            ],
            [
                -119.09999999999997,
                11.7
            ],
            [
                -119.49999999999997,
                11.899999999999999
            ],
            [
                -119.89999999999998,
                12.1
            ],
            [
                -120.29999999999998,
                12.200000000000001
            ],
            [
                -120.69999999999999,
                12.4
            ],
            [
                -121.1,
                12.5
            ],
            [
                -121.6,
                12.599999999999998
            ],
            [
                -121.89999999999998,
                12.699999999999998
            ],
            [
                -121.99999999999999,
                12.899999999999999
            ],
            [
                -122.0,
                13.3
            ],
            [
                -121.99999999999999,
                13.599999999999998
            ],
            [
                -121.99999999999997,
                13.899999999999999
            ],
            [
                -121.99999999999999,
                14.199999999999996
            ],
            [
                -122.0,
                14.499999999999996
            ],
            [
                -122.0,
                14.8
            ],
            [
                -122.0,
                15.1
            ],
            [
                -121.9,
                15.4
            ],
            [
                -121.9,
                15.6
            ],
            [
                -121.89999999999999,
                15.9
            ],
            [
                -121.8,
                16.1
            ],
            [
                -121.79999999999998,
                16.299999999999997
            ],
            [
                -121.7,
                16.5
            ],
            [
                -121.7,
                16.699999999999996
            ],
            [
                -121.7,
                16.9
            ],
            [
                -121.6,
                17.1
            ],
            [
                -121.6,
                17.3
            ],
            [
                -121.7,
                17.4
            ],
            [
                -121.79999999999998,
                17.6
            ],
            [
                -121.79999999999998,
                17.7
            ],
            [
                -121.89999999999999,
                17.899999999999995
            ],
            [
                -121.9,
                18.099999999999998
            ],
            [
                -121.9,
                18.2
            ],
            [
                -121.79999999999998,
                18.299999999999997
            ],
            [
                -121.7,
                18.399999999999995
            ],
            [
                -121.59999999999998,
                18.399999999999995
            ],
            [
                -121.49999999999999,
                18.5
            ],
            [
                -121.40000000000002,
                18.600000000000005
            ],
            [
                -121.30000000000001,
                18.700000000000003
            ],
            [
                -121.2,
                18.8
            ]
        ]
    },
    "properties": {
        "trajectory_id": 1043,
        "object_id": 200923910253,
        "label": "EP"
    }
}