{
    "type": "Feature",
    "geometry": {
        "type": "LineString",
        "coordinates": [
            [
                -22.7,
                14.0
            ],
            [
                -23.0,
                13.9
            ],
            [
                -23.3,
                13.8
            ],
            [
                -23.5,
                13.8
            ],
            [
                -23.699999999999996,
                13.8
            ],
            [
                -23.9,
                13.8
            ],
            [
                -24.1,
                13.8
            ],
            [
                -24.4,
                13.8
            ],
            [
                -24.8,
                13.900000000000002
            ],
            [
                -25.1,
                14.0
            ],
            [
                -25.5,
                14.2
            ],
            [
                -25.9,
                14.400000000000002
            ],
            [
                -26.4,
                14.699999999999998
            ],
            [
                -26.9,
                15.0
            ],
            [
                -27.499999999999993,
                15.399999999999999
            ],
            [
                -28.099999999999998,
                15.700000000000001
            ],
            [
                -28.699999999999996,
                15.899999999999999
            ],
            [
                -29.499999999999996,
                16.1
            ],
            [
                -30.399999999999995,
                16.3
            ],
            [
                -31.4,
                16.5
            ],
            [
                -32.5,
                16.600000000000005
            ],
            [
                -33.6,
                16.8
            ],
            [
                -34.8,
                16.9
            ],
            [
                -35.89999999999999,
                17.0
            ],
            [
                -37.0,
                17.1
            ],
            [
                -37.9,
                17.2
            ],
            [
                -38.7,
                17.3
            ],
            [
                -39.6,
                17.299999999999997
            ],
            [
                -40.4,
                17.399999999999995
            ],
            [
                -41.2,
                17.5
            ],
            [
                -42.0,
                17.6
            ],
            [
                -42.8,
                17.7
            ],
            [
                -43.5,
                17.699999999999996
            ],
            [
                -44.2,
                17.7
            ],
            [
                -44.9,
                17.7
            ],
            [
                -45.49999999999999,
                17.699999999999996
            ],
            [
                -46.099999999999994,
                17.699999999999996
            ],
            [
                -46.699999999999996,
                17.7
            ],
            [
                -47.3,
                17.7
            ],
            [
                -47.8,
                17.6
            ],
            [
                -48.29999999999998,
                17.6
            ],
            [
                -48.79999999999999,
                17.6
            ],
            [
                -49.29999999999999,
                17.599999999999998
            ],
            [
                -49.79999999999999,
                17.6
            ],
            [
                -50.199999999999996,
                17.6
            ],
            [
                -50.6,
                17.6
            ],
            [
                -50.89999999999999,
                17.7
            ],
            [
                -51.199999999999996,
                17.8
            ],
            [
                -51.5,
                17.899999999999995
            ],
            [
                -51.79999999999998,
                18.0
            ],
            [
                -52.099999999999994,
                18.199999999999996
            ],
            [
                -52.400000000000006,
                18.4
            ],
            [
                -52.8,
                18.6
            ],
            [
                -53.20000000000001,
                18.799999999999997
            ],
            [
                -53.50000000000001,
                18.9
            ],
            [
                -53.8,
                19.0
            ]
        ]
    },
    "properties": {
        "trajectory_id": 1143,
        "object_id": 201025114337,
        "label": "nan"
    }
}