{
    "type": "Feature",
    "geometry": {
        "type": "LineString",
        "coordinates": [
            [
                137.4,
                16.6
            ],
            [
                136.50000000000003,
                16.800000000000004
            ],
            [
                135.6,
                17.0
            ],
            [
                134.60000000000002,
                17.0
            ],
            [
                133.7,
                17.1
            ],
            [
                132.8,
                17.3
            ],
            [
                132.0,
                17.599999999999998
            ],
            [
                131.29999999999998,
                17.899999999999995
            ],
            [
                130.8,
                18.2
            ],
            [
                130.29999999999998,
                18.499999999999996
            ],
            [
                129.9,
                18.799999999999997
            ],
            [
                129.5,
                19.1
            ],
            [
                129.20000000000002,
                19.5
            ],
            [
                128.8,
                19.8
            ],
            [
                128.5,
                20.0
            ],
            [
                128.1,
                20.3
            ],
            [
                127.9,
                20.5
            ],
            [
                127.7,
                20.7
            ],
            [
                127.69999999999999,
                20.8
            ],
            [
                127.69999999999999,
                20.899999999999995
            ],
            [
                127.7,
                21.099999999999998
            ],
            [
                127.69999999999999,
                21.2
            ],
            [
                127.79999999999998,
                21.299999999999997
            ],
            [
                127.99999999999999,
                21.4
            ],
            [
                128.3,
                21.5
            ],
            [
                128.4,
                21.699999999999996
            ],
            [
                128.39999999999998,
                21.799999999999997
            ],
            [
                128.4,
                22.0
            ],
            [
                128.4,
                22.2
            ],
            [
                128.39999999999998,
                22.3
            ],
            [
                128.29999999999998,
                22.4
            ],
            [
                128.2,
                22.599999999999998
            ],
            [
                128.1,
                22.799999999999997
            ],
            [
                127.89999999999999,
                22.9
            ],
            [
                127.7,
                23.099999999999998
            ],
            [
                127.29999999999998,
                23.199999999999996
            ],
            [
                126.8,
                23.299999999999997
            ],
            [
                126.49999999999999,
                23.3
            ],
            [
                126.09999999999998,
                23.4
            ],
            [
                125.69999999999999,
                23.599999999999998
            ],
            [
                125.29999999999998,
                23.8
            ],
            [
                124.8,
                23.8
            ],
            [
                124.29999999999998,
                23.9
            ],
            [
                123.69999999999999,
                23.9
            ],
            [
                123.1,
                24.0
            ],
            [
                122.40000000000002,
                23.899999999999995
            ],
            [
                121.69999999999999,
                23.699999999999996
            ],
            [
                121.1,
                23.299999999999997
            ],
            [
                120.69999999999999,
                23.099999999999998
            ],
            [
                120.2,
                23.199999999999996
            ],
            [
                119.79999999999998,
                23.299999999999997
            ],
            [
                119.4,
                23.4
            ],
            [
                118.89999999999999,
                23.500000000000004
            ],
            [
                118.19999999999999,
                23.6
            ],
            [
                117.4,
                23.6
            ],
            [
                116.7,
                23.5
            ]
        ]
    },
    "properties": {
        "trajectory_id": 1147,
        "object_id": 201025617137,
        "label": "WP"
    }
}