{
    "type": "Feature",
    "geometry": {
        "type": "LineString",
        "coordinates": [
            [
                59.3,
                -24.3
            ],
            [
                59.293950139292534,
                -24.690833987030633
            ],
            [
                59.327532858861886,
                -24.988418979566617
            ],
            [
                59.435555610688034,
                -25.439937795519302
            ],
            [
                59.585973438979885,
                -26.11335199646524
            ],
            [
                59.66011749100562,
                -26.776408232223048
            ],
            [
                59.76815378018231,
                -27.431706795675776
            ],
            [
                59.91392413619747,
                -28.076429087181126
            ],
            [
                59.98403842189628,
                -28.655731720827088
            ],
            [
                60.060552793969,
                -29.243847556335826
            ],
            [
                60.10779347314723,
                -29.796632351747235
            ],
            [
                60.10000000000001,
                -30.300000000000004
            ],
            [
                60.10448510062628,
                -30.825796181916196
            ],
            [
                60.08017406506483,
                -31.227470785611413
            ],
            [
                60.13228085813571,
                -31.435411472838197
            ],
            [
                60.36495094130734,
                -31.498056976677788
            ],
            [
                60.65125892212175,
                -31.500247171262423
            ],
            [
                60.951617912029,
                -31.50538246272059
            ],
            [
                61.2314530160042,
                -31.49475571788325
            ],
            [
                61.45014990472934,
                -31.420665850222626
            ],
            [
                61.65327499740391,
                -31.346216032460454
            ],
            [
                61.901970129382455,
                -31.267421108717745
            ],
            [
                62.199999999999996,
                -31.199999999999996
            ],
            [
                62.49043802441994,
                -31.203292325150517
            ],
            [
                62.78695831278517,
                -31.16478261840766
            ],
            [
                63.06373204579591,
                -31.08005909659305
            ],
            [
                63.27752632743622,
                -31.009189287192527
            ],
            [
                63.43558814266825,
                -30.932246628275184
            ],
            [
                63.555884708974524,
                -30.880956087479593
            ],
            [
                63.59752028644756,
                -30.90984450819662
            ],
            [
                63.52223949797494,
                -31.050644152615224
            ],
            [
                63.44794969321577,
                -31.266321065783632
            ],
            [
                63.35904593911079,
                -31.466938871878753
            ],
            [
                63.2,
                -31.6
            ],
            [
                62.98505454388612,
                -31.684405497289223
            ],
            [
                62.76208724862876,
                -31.704896153479744
            ],
            [
                62.5457815643852,
                -31.701341956555254
            ],
            [
                62.327347153518105,
                -31.70325265894883
            ],
            [
                62.108965365574456,
                -31.64539439512788
            ],
            [
                61.891055322475474,
                -31.55446603602258
            ],
            [
                61.67262698641943,
                -31.496921802113075
            ],
            [
                61.45409209073831,
                -31.49951041034727
            ],
            [
                61.23852230998587,
                -31.49099155006068
            ],
            [
                61.013668707888314,
                -31.524207894567922
            ],
            [
                60.79999999999999,
                -31.600000000000005
            ],
            [
                60.64911106344143,
                -31.601096488977205
            ],
            [
                60.51409827995624,
                -31.6235788508406
            ],
            [
                60.35900086983404,
                -31.737784542477545
            ],
            [
                60.21268719028599,
                -31.96245948673529
            ],
            [
                60.14293781356563,
                -32.31089294291806
            ],
            [
                60.02673290327846,
                -32.67896755311923
            ],
            [
                59.890062880976664,
                -33.05044028765833
            ],
            [
                59.88874451965738,
                -33.48845140368039
            ],
            [
                59.94138557747059,
                -33.925376397258574
            ],
            [
                60.05384001312595,
                -34.37364148059669
            ],
            [
                60.3,
                -34.9
            ]
        ]
    },
    "properties": {
        "trajectory_id": 117,
        "object_id": 200100309091,
        "label": "SI"
    }
}