{
    "type": "Feature",
    "geometry": {
        "type": "LineString",
        "coordinates": [
            [
                132.0,
                -14.0
            ],
            [
                132.0,
                -14.0
            ],
            [
                131.70000000000002,
                -13.7
            ],
            [
                131.2,
                -13.400000000000002
            ],
            [
                130.99999999999997,
                -13.299999999999999
            ],
            [
                130.8,
                -13.100000000000001
            ],
            [
                130.7,
                -13.1
            ],
            [
                130.8,
                -13.0
            ],
            [
                130.8,
                -13.100000000000001
            ],
            [
                130.6,
                -12.999999999999998
            ],
            [
                130.50000000000003,
                -13.0
            ],
            [
                130.5,
                -12.9
            ],
            [
                130.6,
                -12.7
            ],
            [
                130.6,
                -12.599999999999998
            ],
            [
                130.7,
                -12.4
            ],
            [
                130.79999999999998,
                -12.499999999999998
            ],
            [
                130.9,
                -12.399999999999999
            ],
            [
                130.99999999999997,
                -12.5
            ],
            [
                131.0,
                -12.499999999999998
            ],
            [
                130.99999999999997,
                -12.499999999999998
            ],
            [
                131.09999999999997,
                -12.599999999999996
            ],
            [
                131.2,
                -12.7
            ],
            [
                131.29999999999998,
                -12.9
            ],
            [
                131.2,
                -13.100000000000001
            ],
            [
                131.1,
                -13.2
            ],
            [
                131.0,
                -13.400000000000002
            ],
            [
                130.8,
                -13.5
            ],
            [
                130.7,
                -13.599999999999998
            ],
            [
                130.69999999999996,
                -13.8
            ],
            [
                130.7,
                -13.800000000000002
            ],
            [
                130.6,
                -13.899999999999999
            ],
            [
                130.6,
                -14.1
            ],
            [
                130.5,
                -14.3
            ],
            [
                130.4,
                -14.4
            ],
            [
                130.3,
                -14.599999999999998
            ],
            [
                130.3,
                -14.8
            ],
            [
                130.3,
                -15.0
            ],
            [
                130.2,
                -15.2
            ],
            [
                130.1,
                -15.499999999999996
            ],
            [
                129.60000000000002,
                -15.600000000000001
            ],
            [
                129.20000000000002,
                -15.600000000000001
            ],
            [
                128.9,
                -15.399999999999999
            ],
            [
                128.5,
                -15.2
            ],
            [
                128.3,
                -15.3
            ],
            [
                128.1,
                -15.4
            ],
            [
                127.7,
                -15.5
            ],
            [
                127.4,
                -15.7
            ],
            [
                127.00000000000003,
                -15.8
            ],
            [
                126.6,
                -15.900000000000002
            ],
            [
                125.99999999999999,
                -15.999999999999996
            ],
            [
                125.3,
                -16.3
            ],
            [
                124.5,
                -16.6
            ],
            [
                123.7,
                -17.0
            ],
            [
                122.99999999999999,
                -17.2
            ],
            [
                122.2,
                -17.400000000000002
            ],
            [
                121.9,
                -17.6
            ]
        ]
    },
    "properties": {
        "trajectory_id": 1185,
        "object_id": 201104514132,
        "label": "SI"
    }
}