{
    "type": "Feature",
    "geometry": {
        "type": "LineString",
        "coordinates": [
            [
                129.5,
                12.3
            ],
            [
                129.3,
                12.4
            ],
            [
                129.0,
                12.4
            ],
            [
                128.70000000000002,
                12.4
            ],
            [
                128.4,
                12.4
            ],
            [
                128.09999999999997,
                12.499999999999998
            ],
            [
                127.9,
                12.7
            ],
            [
                127.60000000000001,
                13.0
            ],
            [
                127.30000000000001,
                13.100000000000001
            ],
            [
                126.9,
                13.299999999999999
            ],
            [
                126.5,
                13.499999999999998
            ],
            [
                126.1,
                13.7
            ],
            [
                125.70000000000002,
                13.8
            ],
            [
                125.20000000000002,
                14.000000000000002
            ],
            [
                124.70000000000002,
                14.099999999999998
            ],
            [
                124.3,
                14.099999999999998
            ],
            [
                124.0,
                14.0
            ],
            [
                123.8,
                13.999999999999998
            ],
            [
                123.6,
                14.1
            ],
            [
                123.29999999999998,
                14.299999999999999
            ],
            [
                123.09999999999997,
                14.499999999999998
            ],
            [
                122.9,
                14.699999999999998
            ],
            [
                122.69999999999999,
                15.0
            ],
            [
                122.5,
                15.299999999999999
            ],
            [
                122.29999999999998,
                15.699999999999996
            ],
            [
                121.99999999999999,
                16.099999999999998
            ],
            [
                121.5,
                16.6
            ],
            [
                120.9,
                17.0
            ],
            [
                120.1,
                17.4
            ],
            [
                119.3,
                17.699999999999996
            ],
            [
                118.4,
                17.9
            ],
            [
                117.59999999999998,
                18.0
            ],
            [
                116.8,
                18.0
            ],
            [
                116.1,
                17.999999999999996
            ],
            [
                115.5,
                18.099999999999998
            ],
            [
                114.8,
                18.099999999999998
            ],
            [
                114.3,
                18.199999999999996
            ],
            [
                113.8,
                18.1
            ],
            [
                113.39999999999999,
                18.1
            ],
            [
                112.9,
                18.099999999999998
            ],
            [
                112.39999999999999,
                18.299999999999997
            ],
            [
                111.99999999999999,
                18.599999999999998
            ],
            [
                111.6,
                19.0
            ],
            [
                110.9,
                19.4
            ],
            [
                110.29999999999998,
                19.7
            ],
            [
                109.59999999999998,
                19.7
            ],
            [
                108.99999999999999,
                19.6
            ],
            [
                108.49999999999997,
                19.6
            ],
            [
                107.89999999999999,
                19.6
            ],
            [
                107.29999999999998,
                19.5
            ],
            [
                106.69999999999997,
                19.400000000000002
            ],
            [
                105.99999999999999,
                19.3
            ],
            [
                105.2,
                19.1
            ],
            [
                104.5,
                18.9
            ],
            [
                103.8,
                18.6
            ],
            [
                102.9,
                18.3
            ]
        ]
    },
    "properties": {
        "trajectory_id": 1212,
        "object_id": 201120512130,
        "label": "WP"
    }
}