{
    "type": "Feature",
    "geometry": {
        "type": "LineString",
        "coordinates": [
            [
                129.6,
                26.1
            ],
            [
                129.6,
                25.9
            ],
            [
                129.6,
                25.700000000000003
            ],
            [
                129.6,
                25.500000000000004
            ],
            [
                129.69999999999996,
                25.299999999999997
            ],
            [
                129.8,
                25.1
            ],
            [
                129.9,
                24.999999999999996
            ],
            [
                130.1,
                24.9
            ],
            [
                130.29999999999998,
                24.8
            ],
            [
                130.39999999999998,
                24.800000000000004
            ],
            [
                130.6,
                24.8
            ],
            [
                130.9,
                24.999999999999996
            ],
            [
                131.1,
                25.299999999999997
            ],
            [
                131.0,
                25.6
            ],
            [
                130.8,
                25.9
            ],
            [
                130.60000000000002,
                26.099999999999998
            ],
            [
                130.4,
                26.200000000000003
            ],
            [
                130.3,
                26.3
            ],
            [
                130.3,
                26.399999999999995
            ],
            [
                130.4,
                26.499999999999996
            ],
            [
                130.39999999999998,
                26.700000000000003
            ],
            [
                130.5,
                27.2
            ],
            [
                130.5,
                27.699999999999996
            ],
            [
                130.3,
                27.999999999999996
            ],
            [
                130.2,
                28.199999999999996
            ],
            [
                130.4,
                28.199999999999996
            ],
            [
                130.69999999999996,
                28.199999999999996
            ],
            [
                131.2,
                28.5
            ],
            [
                131.6,
                28.9
            ],
            [
                131.9,
                29.200000000000003
            ],
            [
                132.3,
                29.4
            ],
            [
                133.0,
                29.7
            ],
            [
                133.6,
                30.3
            ],
            [
                134.1,
                31.0
            ],
            [
                134.7,
                31.699999999999996
            ],
            [
                135.29999999999998,
                32.39999999999999
            ],
            [
                135.99999999999997,
                33.0
            ],
            [
                136.79999999999998,
                33.9
            ],
            [
                137.8,
                34.9
            ],
            [
                139.2,
                35.9
            ],
            [
                140.6,
                37.20000000000001
            ],
            [
                142.2,
                38.9
            ],
            [
                143.6,
                40.60000000000001
            ],
            [
                144.99999999999997,
                41.8
            ],
            [
                146.59999999999997,
                42.7
            ],
            [
                147.8,
                43.7
            ],
            [
                149.00000000000003,
                44.5
            ],
            [
                150.09999999999997,
                45.2
            ],
            [
                151.2,
                45.8
            ],
            [
                152.0,
                46.3
            ],
            [
                152.9,
                46.79999999999999
            ],
            [
                154.1,
                47.3
            ],
            [
                155.6,
                47.8
            ],
            [
                157.39999999999998,
                48.3
            ],
            [
                159.39999999999998,
                48.99999999999999
            ],
            [
                161.6,
                49.9
            ]
        ]
    },
    "properties": {
        "trajectory_id": 1238,
        "object_id": 201125320145,
        "label": "WP"
    }
}