{
    "type": "Feature",
    "geometry": {
        "type": "LineString",
        "coordinates": [
            [
                42.6,
                -15.4
            ],
            [
                42.521689062096975,
                -15.538645503966466
            ],
            [
                42.46252211908224,
                -15.700636293034917
            ],
            [
                42.37164513253332,
                -15.824089941971922
            ],
            [
                42.22199443219557,
                -15.892095898539285
            ],
            [
                42.02476147340808,
                -15.96288474745385
            ],
            [
                41.75438522045541,
                -16.03479742638612
            ],
            [
                41.46868527335259,
                -16.110801384160744
            ],
            [
                41.25391656463245,
                -16.19006535350536
            ],
            [
                41.02445614280899,
                -16.19861381535116
            ],
            [
                40.85153023617914,
                -16.218447068686114
            ],
            [
                40.8,
                -16.300000000000004
            ],
            [
                40.79791146295817,
                -16.36632807456748
            ],
            [
                40.801133235437405,
                -16.48202003520363
            ],
            [
                40.79956217567674,
                -16.638044894963055
            ],
            [
                40.7996539624574,
                -16.78195861041035
            ],
            [
                40.80253569568255,
                -16.92895469636636
            ],
            [
                40.793234484188815,
                -17.067020898425866
            ],
            [
                40.80570844418346,
                -17.22314702757945
            ],
            [
                40.88104078909449,
                -17.44130357154156
            ],
            [
                40.94598869925889,
                -17.6711543034106
            ],
            [
                41.05080730224493,
                -17.867685105557822
            ],
            [
                41.2,
                -18.0
            ],
            [
                41.27785711686316,
                -18.068942220241173
            ],
            [
                41.34554012215659,
                -18.178633774561774
            ],
            [
                41.41438472938091,
                -18.34193488137015
            ],
            [
                41.485356413155124,
                -18.48678322060186
            ],
            [
                41.6616864781335,
                -18.56383824413457
            ],
            [
                41.968706640831606,
                -18.65388626920203
            ],
            [
                42.347576305343566,
                -18.826448064849846
            ],
            [
                42.71312669410359,
                -19.051611406063486
            ],
            [
                43.041975282684476,
                -19.20974351915093
            ],
            [
                43.26729687476626,
                -19.37106493094081
            ],
            [
                43.39999999999999,
                -19.599999999999998
            ],
            [
                43.55105446715333,
                -19.82179253883356
            ],
            [
                43.65529808573338,
                -20.02866444490194
            ],
            [
                43.71544853004191,
                -20.265651738879214
            ],
            [
                43.7894739998243,
                -20.56126664720613
            ],
            [
                43.87249808298963,
                -20.86455887321418
            ],
            [
                43.90865486722749,
                -21.11723395017881
            ],
            [
                43.898697885281784,
                -21.32610539643016
            ],
            [
                43.89786067296411,
                -21.543749667231438
            ],
            [
                43.90702148627712,
                -21.76873693288219
            ],
            [
                43.88422543504114,
                -21.97001607892077
            ],
            [
                43.8,
                -22.1
            ],
            [
                43.66388610255256,
                -22.118271154017563
            ],
            [
                43.48672054626803,
                -22.050986491344894
            ],
            [
                43.396781945235716,
                -21.993427286048593
            ],
            [
                43.48373599536597,
                -21.999452896375292
            ],
            [
                43.61974876907784,
                -21.99340636603891
            ],
            [
                43.794922722072904,
                -22.027167261956404
            ],
            [
                44.03346183077822,
                -22.110216995753017
            ],
            [
                44.324951282804406,
                -22.18271905114787
            ],
            [
                44.62011635523874,
                -22.253794730104048
            ],
            [
                44.907736733151054,
                -22.327798234381714
            ],
            [
                45.2,
                -22.4
            ]
        ]
    },
    "properties": {
        "trajectory_id": 1269,
        "object_id": 201200615043,
        "label": "SI"
    }
}