{
    "type": "Feature",
    "geometry": {
        "type": "LineString",
        "coordinates": [
            [
                -68.8,
                28.8
            ],
            [
                -67.8,
                28.999999999999996
            ],
            [
                -66.9,
                29.3
            ],
            [
                -66.1,
                29.800000000000004
            ],
            [
                -65.4,
                30.4
            ],
            [
                -64.69999999999999,
                31.099999999999998
            ],
            [
                -64.19999999999999,
                31.8
            ],
            [
                -63.8,
                32.6
            ],
            [
                -63.50000000000001,
                33.4
            ],
            [
                -63.2,
                34.2
            ],
            [
                -62.800000000000004,
                35.099999999999994
            ],
            [
                -62.400000000000006,
                35.9
            ],
            [
                -62.0,
                36.7
            ],
            [
                -61.7,
                37.39999999999999
            ],
            [
                -61.3,
                38.0
            ],
            [
                -60.89999999999999,
                38.4
            ],
            [
                -60.39999999999999,
                38.599999999999994
            ],
            [
                -60.0,
                38.9
            ],
            [
                -59.6,
                39.1
            ],
            [
                -59.099999999999994,
                39.3
            ],
            [
                -58.699999999999996,
                39.400000000000006
            ],
            [
                -58.39999999999999,
                39.5
            ],
            [
                -58.0,
                39.5
            ],
            [
                -57.400000000000006,
                39.29999999999999
            ],
            [
                -56.70000000000001,
                38.89999999999999
            ],
            [
                -55.79999999999998,
                38.599999999999994
            ],
            [
                -54.699999999999996,
                38.29999999999999
            ],
            [
                -53.59999999999999,
                38.099999999999994
            ],
            [
                -52.5,
                38.1
            ],
            [
                -51.39999999999999,
                38.099999999999994
            ],
            [
                -50.2,
                38.199999999999996
            ],
            [
                -48.8,
                38.29999999999999
            ],
            [
                -47.5,
                38.6
            ],
            [
                -46.39999999999999,
                39.0
            ],
            [
                -45.5,
                39.5
            ],
            [
                -44.599999999999994,
                40.0
            ],
            [
                -43.900000000000006,
                40.5
            ],
            [
                -43.3,
                41.199999999999996
            ],
            [
                -42.9,
                41.89999999999999
            ],
            [
                -42.7,
                42.6
            ],
            [
                -42.79999999999999,
                43.3
            ],
            [
                -43.2,
                44.0
            ],
            [
                -43.89999999999999,
                44.49999999999999
            ],
            [
                -44.8,
                44.8
            ],
            [
                -45.79999999999999,
                44.8
            ],
            [
                -46.89999999999999,
                44.599999999999994
            ],
            [
                -47.79999999999999,
                44.2
            ],
            [
                -48.3,
                43.5
            ],
            [
                -48.39999999999999,
                42.6
            ],
            [
                -48.099999999999994,
                41.699999999999996
            ],
            [
                -47.4,
                40.89999999999999
            ],
            [
                -46.3,
                40.29999999999999
            ],
            [
                -45.0,
                40.0
            ],
            [
                -43.7,
                40.10000000000001
            ],
            [
                -42.5,
                40.49999999999999
            ],
            [
                -41.3,
                40.9
            ]
        ]
    },
    "properties": {
        "trajectory_id": 1305,
        "object_id": 201216929291,
        "label": "nan"
    }
}