{
    "type": "Feature",
    "geometry": {
        "type": "LineString",
        "coordinates": [
            [
                93.9,
                -13.1
            ],
            [
                93.36821206899091,
                -13.196384534675705
            ],
            [
                92.92465685189876,
                -13.200075885616545
            ],
            [
                92.49237091414415,
                -13.207753383506823
            ],
            [
                92.05264369668403,
                -13.15877827091422
            ],
            [
                91.6228895503282,
                -13.062532481542293
            ],
            [
                91.16938962761182,
                -12.973906475432804
            ],
            [
                90.62725056408566,
                -12.893906217460659
            ],
            [
                90.01308700290167,
                -12.898945056724402
            ],
            [
                89.39722533283738,
                -12.981838891217384
            ],
            [
                88.81321566315896,
                -13.08389675817599
            ],
            [
                88.04867344936451,
                -13.097084643583223
            ],
            [
                87.38499146065169,
                -13.139769920716624
            ],
            [
                86.90814704305032,
                -13.229580884702019
            ],
            [
                86.34906853456306,
                -13.34024953565849
            ],
            [
                85.7406927678571,
                -13.51297512992863
            ],
            [
                85.22103462814258,
                -13.595673765198269
            ],
            [
                84.70119963925991,
                -13.759104522164172
            ],
            [
                84.1632303871555,
                -14.002379285616712
            ],
            [
                83.71301872896423,
                -14.32328979983566
            ],
            [
                83.2301064986054,
                -14.695671890067871
            ],
            [
                82.72560071181952,
                -14.989752342740866
            ],
            [
                82.3014783249465,
                -15.117815365434186
            ],
            [
                81.86451245785612,
                -15.21356134890433
            ],
            [
                81.42990006374858,
                -15.394181186523136
            ],
            [
                80.90993386724824,
                -15.396805589233075
            ],
            [
                80.39460455674407,
                -15.4778419734022
            ],
            [
                79.80436792257692,
                -15.45833760369107
            ],
            [
                79.22892800059385,
                -15.360168458632565
            ],
            [
                78.71324345173977,
                -15.242330198580502
            ],
            [
                78.19967433447185,
                -15.073930126591396
            ],
            [
                77.77582447679033,
                -14.994815800253209
            ],
            [
                77.42588625872114,
                -14.825569529262372
            ],
            [
                77.15129626653115,
                -14.408884165449006
            ],
            [
                76.95736767904417,
                -13.959044153990634
            ],
            [
                76.82239301406545,
                -13.531056210450979
            ],
            [
                76.82871936376165,
                -13.08300261405068
            ],
            [
                76.92768973383247,
                -12.676939378841016
            ],
            [
                77.0265908414032,
                -12.333521776681334
            ],
            [
                77.20730913294321,
                -11.987237386370364
            ],
            [
                77.37865444393172,
                -11.725588445715703
            ],
            [
                77.62869152674558,
                -11.46791681012344
            ],
            [
                77.90647439394017,
                -11.196956609226776
            ],
            [
                78.11266252842762,
                -10.979058073656338
            ],
            [
                78.27744157812103,
                -10.853256484303767
            ],
            [
                78.45625685618828,
                -10.775541703407505
            ],
            [
                78.62677174590702,
                -10.682827481001583
            ],
            [
                78.80453520963908,
                -10.599134216468427
            ],
            [
                79.06482751618657,
                -10.598376588253453
            ],
            [
                79.33490546469169,
                -10.600784716298449
            ],
            [
                79.54451687811208,
                -10.600694128737606
            ],
            [
                79.64618734851521,
                -10.596166894969457
            ],
            [
                79.77956226584352,
                -10.617516607129817
            ],
            [
                80.12636116291235,
                -10.761004507294414
            ],
            [
                80.6935048657444,
                -11.043988318195794
            ],
            [
                81.4,
                -11.3
            ]
        ]
    },
    "properties": {
        "trajectory_id": 134,
        "object_id": 200109113094,
        "label": "SI"
    }
}