{
    "type": "Feature",
    "geometry": {
        "type": "LineString",
        "coordinates": [
            [
                142.6,
                32.3
            ],
            [
                143.68282362325758,
                32.46375903589838
            ],
            [
                144.851234698486,
                32.546523549027654
            ],
            [
                146.0206448137275,
                32.7292828251463
            ],
            [
                147.1315574699247,
                33.12692972600029
            ],
            [
                148.1954371122033,
                33.64177959126525
            ],
            [
                149.2077523113136,
                33.91218038199611
            ],
            [
                150.17205998596526,
                33.69124298315407
            ],
            [
                151.15623006055873,
                33.29871562216226
            ],
            [
                152.27509221086328,
                33.05530059565225
            ],
            [
                153.53428307843225,
                33.083149875316515
            ],
            [
                154.7499583739209,
                33.234689880423126
            ],
            [
                155.843271734838,
                33.312653637535156
            ],
            [
                156.7779138316761,
                33.29964783672768
            ],
            [
                157.54981316605557,
                33.35911283615186
            ],
            [
                158.3033899769972,
                33.43805230740652
            ],
            [
                159.0562413625848,
                33.50609193924504
            ],
            [
                159.7388923901411,
                33.58299253476727
            ],
            [
                160.48253060045522,
                33.60437132859735
            ],
            [
                161.22735409433878,
                33.60301636209562
            ],
            [
                161.84648074327163,
                33.613345108720544
            ],
            [
                162.42567552202965,
                33.508542516516734
            ],
            [
                162.9337641580881,
                33.36611847410034
            ],
            [
                163.33881514212305,
                33.30388502466096
            ],
            [
                163.7380879992368,
                33.295386250556646
            ],
            [
                164.17998561700634,
                33.302349764546854
            ],
            [
                164.5838664528547,
                33.300488681315
            ],
            [
                164.80461017211903,
                33.29221121574638
            ],
            [
                165.02912014076185,
                33.32796309064189
            ],
            [
                165.4260220516178,
                33.51616368116092
            ],
            [
                166.0216231149027,
                33.96265276011059
            ],
            [
                166.75694068816665,
                34.60923582850204
            ],
            [
                167.51537970163812,
                35.30558471157104
            ],
            [
                168.20619592186827,
                35.97870773985224
            ],
            [
                168.8918984057408,
                36.83527484405628
            ],
            [
                169.75831284087903,
                37.89038266617295
            ],
            [
                170.88252447183083,
                39.06886672488831
            ],
            [
                172.0210238006593,
                40.383611838434604
            ],
            [
                172.849879592836,
                41.868504574638145
            ],
            [
                173.27606602163468,
                43.47329892793516
            ],
            [
                173.5744782647626,
                45.008216162942
            ],
            [
                174.08871936736222,
                46.216721537585414
            ],
            [
                174.8188020742471,
                47.01684932896747
            ],
            [
                175.46197631526272,
                47.57016303057843
            ],
            [
                176.00418600555045,
                48.15725932712434
            ],
            [
                176.45245677765172,
                48.77383274153921
            ],
            [
                176.80052590930003,
                49.25948017756226
            ],
            [
                177.1076370644545,
                49.70241194697803
            ],
            [
                177.34604307979296,
                50.07599043113651
            ],
            [
                177.54125537344396,
                50.34422982049565
            ],
            [
                177.90560141660836,
                50.62567867299574
            ],
            [
                178.3440290619892,
                50.87262160993403
            ],
            [
                178.7538963238276,
                50.99530834206274
            ],
            [
                179.22687203683824,
                50.97412267656507
            ],
            [
                179.71126670750343,
                50.80793735161011
            ],
            [
                180.1,
                50.5
            ]
        ]
    },
    "properties": {
        "trajectory_id": 1352,
        "object_id": 201227915145,
        "label": "WP"
    }
}