{
    "type": "Feature",
    "geometry": {
        "type": "LineString",
        "coordinates": [
            [
                78.5,
                -14.0
            ],
            [
                78.39216625363011,
                -14.049551329036667
            ],
            [
                78.2633358549679,
                -14.120346939046009
            ],
            [
                78.14272153763748,
                -14.18282956954431
            ],
            [
                78.05784213063026,
                -14.209197183059587
            ],
            [
                78.00668582648123,
                -14.202247370729337
            ],
            [
                77.96136425805935,
                -14.19073448510544
            ],
            [
                77.88811664969555,
                -14.203997901862513
            ],
            [
                77.77211809869695,
                -14.257649695230578
            ],
            [
                77.65519873651495,
                -14.329565475725003
            ],
            [
                77.54264503041638,
                -14.389147323037786
            ],
            [
                77.3867991437511,
                -14.407390444637352
            ],
            [
                77.20542722326294,
                -14.400165221929683
            ],
            [
                77.03931275076359,
                -14.400641392214489
            ],
            [
                76.8456179472379,
                -14.397832509549257
            ],
            [
                76.60665192784231,
                -14.391648648021437
            ],
            [
                76.39537285448029,
                -14.424297169321699
            ],
            [
                76.22948617162469,
                -14.488893887087453
            ],
            [
                76.06778706449481,
                -14.53976521237684
            ],
            [
                75.88076162781739,
                -14.609057233791212
            ],
            [
                75.65462726688533,
                -14.729246029878226
            ],
            [
                75.40526992450313,
                -14.83086115641493
            ],
            [
                75.16849529692017,
                -14.883922856060453
            ],
            [
                74.99117049487813,
                -14.936467100290939
            ],
            [
                74.81403360158153,
                -14.996507284700531
            ],
            [
                74.540481114515,
                -15.049410636950954
            ],
            [
                74.23653926315212,
                -15.117871781992292
            ],
            [
                73.95546659421392,
                -15.192113758555385
            ],
            [
                73.62374270879786,
                -15.175585325229425
            ],
            [
                73.26738116847717,
                -15.104960622265299
            ],
            [
                73.00590389977272,
                -15.133946855964556
            ],
            [
                72.7847367016611,
                -15.20233831040316
            ],
            [
                72.50395671493999,
                -15.202175775161182
            ],
            [
                72.19327539706845,
                -15.210352568603492
            ],
            [
                71.89937556974216,
                -15.273444078661809
            ],
            [
                71.65015128507974,
                -15.337886902312942
            ],
            [
                71.42236194419557,
                -15.394142632286528
            ],
            [
                71.16094302933007,
                -15.460669867055095
            ],
            [
                70.83201437883841,
                -15.504139990791565
            ],
            [
                70.42965132598444,
                -15.503194542717003
            ],
            [
                69.99615245222033,
                -15.502484928405844
            ],
            [
                69.58953386724977,
                -15.504952572188781
            ],
            [
                69.26675074182478,
                -15.465154456931176
            ],
            [
                68.99126609366553,
                -15.39795384939284
            ],
            [
                68.70045995491873,
                -15.338923279709464
            ],
            [
                68.41206455046813,
                -15.281187818072354
            ],
            [
                68.1272621158078,
                -15.221122338877429
            ],
            [
                67.7951359198598,
                -15.173586296635486
            ],
            [
                67.4413194803815,
                -15.111753484698076
            ],
            [
                67.13774793464216,
                -14.993797460751823
            ],
            [
                66.85430310183602,
                -14.888833781952822
            ],
            [
                66.52609421055205,
                -14.872710360926542
            ],
            [
                66.09682925601071,
                -14.93606805797404
            ],
            [
                65.56201707365643,
                -15.05785562910849
            ],
            [
                64.97686383352402,
                -15.218866522606536
            ],
            [
                64.4,
                -15.4
            ]
        ]
    },
    "properties": {
        "trajectory_id": 1382,
        "object_id": 201300911084,
        "label": "SI"
    }
}