{
    "type": "Feature",
    "geometry": {
        "type": "LineString",
        "coordinates": [
            [
                169.1,
                29.2
            ],
            [
                169.2,
                29.100000000000005
            ],
            [
                169.2,
                29.000000000000004
            ],
            [
                169.20000000000005,
                28.900000000000002
            ],
            [
                169.19999999999996,
                28.899999999999995
            ],
            [
                169.19999999999996,
                28.799999999999997
            ],
            [
                169.29999999999998,
                28.7
            ],
            [
                169.30000000000004,
                28.6
            ],
            [
                169.40000000000003,
                28.500000000000004
            ],
            [
                169.40000000000003,
                28.3
            ],
            [
                169.60000000000002,
                28.1
            ],
            [
                169.90000000000003,
                27.800000000000004
            ],
            [
                170.40000000000006,
                27.7
            ],
            [
                170.90000000000003,
                27.8
            ],
            [
                171.40000000000003,
                28.099999999999998
            ],
            [
                172.0,
                28.4
            ],
            [
                172.60000000000002,
                28.799999999999997
            ],
            [
                173.1,
                29.4
            ],
            [
                173.6,
                29.999999999999996
            ],
            [
                174.1,
                30.599999999999998
            ],
            [
                174.6,
                31.1
            ],
            [
                175.1,
                31.6
            ],
            [
                175.5,
                32.0
            ],
            [
                175.90000000000003,
                32.2
            ],
            [
                176.19999999999996,
                32.49999999999999
            ],
            [
                176.4,
                33.0
            ],
            [
                176.6,
                33.5
            ],
            [
                176.7,
                33.599999999999994
            ],
            [
                176.8,
                33.599999999999994
            ],
            [
                176.8,
                33.7
            ],
            [
                176.89999999999998,
                33.7
            ],
            [
                176.99999999999997,
                33.7
            ],
            [
                177.1,
                33.7
            ],
            [
                177.09999999999997,
                33.7
            ],
            [
                177.2,
                33.7
            ],
            [
                177.29999999999998,
                33.6
            ],
            [
                177.3,
                33.5
            ],
            [
                177.39999999999998,
                33.5
            ],
            [
                177.4,
                33.4
            ],
            [
                177.39999999999998,
                33.3
            ],
            [
                177.3,
                33.099999999999994
            ],
            [
                177.3,
                32.9
            ],
            [
                177.2,
                32.7
            ],
            [
                177.09999999999997,
                32.5
            ],
            [
                177.0,
                32.3
            ],
            [
                176.9,
                32.3
            ],
            [
                176.69999999999996,
                32.2
            ],
            [
                176.5,
                32.2
            ],
            [
                176.3,
                32.1
            ],
            [
                176.0,
                31.9
            ],
            [
                175.6,
                31.799999999999997
            ],
            [
                175.19999999999996,
                31.599999999999994
            ],
            [
                174.8,
                31.6
            ],
            [
                174.30000000000004,
                31.4
            ],
            [
                173.8,
                31.300000000000004
            ],
            [
                173.4,
                31.2
            ]
        ]
    },
    "properties": {
        "trajectory_id": 1432,
        "object_id": 201324129169,
        "label": "WP"
    }
}