{
    "type": "Feature",
    "geometry": {
        "type": "LineString",
        "coordinates": [
            [
                -116.8,
                12.5
            ],
            [
                -116.81082276182411,
                12.497049381889358
            ],
            [
                -116.76564871097145,
                12.50421516872949
            ],
            [
                -116.67262650551194,
                12.494941797524612
            ],
            [
                -116.52425420627009,
                12.493677246905769
            ],
            [
                -116.30481654411103,
                12.603176012278077
            ],
            [
                -116.11873933841099,
                12.818898983095375
            ],
            [
                -115.98161273621966,
                13.149803389042699
            ],
            [
                -115.8305359282675,
                13.592911293008973
            ],
            [
                -115.7390235467411,
                13.98171379297249
            ],
            [
                -115.67155954974238,
                14.336808540212697
            ],
            [
                -115.60000000000001,
                14.7
            ],
            [
                -115.58760392545146,
                15.003367451996956
            ],
            [
                -115.63767968126427,
                15.24426639269531
            ],
            [
                -115.7222398025186,
                15.450225930764235
            ],
            [
                -115.79483096856003,
                15.668454884309968
            ],
            [
                -115.80749725581137,
                15.949944725008635
            ],
            [
                -115.79340610822044,
                16.244172714314235
            ],
            [
                -115.80403982640013,
                16.538973448016538
            ],
            [
                -115.87224322428695,
                16.84047055664257
            ],
            [
                -116.0051656943735,
                17.021701922869088
            ],
            [
                -116.15266364013836,
                17.155312952518198
            ],
            [
                -116.29999999999998,
                17.299999999999997
            ],
            [
                -116.50588619167974,
                17.37533704301162
            ],
            [
                -116.77403045984602,
                17.452369059321832
            ],
            [
                -117.0767355881114,
                17.50398000970643
            ],
            [
                -117.36748194713627,
                17.497619190026928
            ],
            [
                -117.59904990952711,
                17.555823595246455
            ],
            [
                -117.80074193752948,
                17.638864726772518
            ],
            [
                -118.03277824404299,
                17.70909553892944
            ],
            [
                -118.32453563165015,
                17.783230015520562
            ],
            [
                -118.61983646235684,
                17.846648306809534
            ],
            [
                -118.90898836850505,
                17.946158325204173
            ],
            [
                -119.19999999999999,
                18.099999999999998
            ],
            [
                -119.4882548607931,
                18.249241328475573
            ],
            [
                -119.79136291861933,
                18.381432035127762
            ],
            [
                -120.05780579779157,
                18.55036394417734
            ],
            [
                -120.26997867752927,
                18.774141086624354
            ],
            [
                -120.54896918738098,
                18.94401413706639
            ],
            [
                -120.84219454219566,
                19.04076681381943
            ],
            [
                -121.14121692346009,
                19.109420666165807
            ],
            [
                -121.5057002659796,
                19.1860176914735
            ],
            [
                -121.87555541225109,
                19.216033421670318
            ],
            [
                -122.23437954977497,
                19.178517766539823
            ],
            [
                -122.6,
                19.1
            ],
            [
                -122.97243595516125,
                19.025861631447846
            ],
            [
                -123.28736516393427,
                18.95678383899352
            ],
            [
                -123.5750131200994,
                18.879021231020705
            ],
            [
                -123.8684453491417,
                18.80557051852943
            ],
            [
                -124.08668683005317,
                18.790918499931397
            ],
            [
                -124.34092051106784,
                18.81021046052193
            ],
            [
                -124.63228213861926,
                18.793018280903905
            ],
            [
                -124.8486356282508,
                18.71408404621073
            ],
            [
                -125.06492986401088,
                18.692708574063058
            ],
            [
                -125.27223504560563,
                18.696426312205443
            ],
            [
                -125.4,
                18.6
            ]
        ]
    },
    "properties": {
        "trajectory_id": 1452,
        "object_id": 201328713243,
        "label": "EP"
    }
}