{
    "type": "Feature",
    "geometry": {
        "type": "LineString",
        "coordinates": [
            [
                133.0,
                23.2
            ],
            [
                132.7696706610664,
                23.309258698818617
            ],
            [
                132.56667324382425,
                23.418139870749886
            ],
            [
                132.35820944224383,
                23.527096548058626
            ],
            [
                132.11209465052988,
                23.636564984036898
            ],
            [
                131.83296627695438,
                23.745974693610464
            ],
            [
                131.5803365483153,
                23.853421263369764
            ],
            [
                131.3680433178971,
                23.962075919168612
            ],
            [
                131.16085827084288,
                24.078306281173788
            ],
            [
                130.93899829827103,
                24.185299818668263
            ],
            [
                130.7017793711656,
                24.256433091604432
            ],
            [
                130.5,
                24.299999999999997
            ],
            [
                130.3793876880484,
                24.34132802935613
            ],
            [
                130.28186876152554,
                24.416441531695725
            ],
            [
                130.1637652920203,
                24.532838361155783
            ],
            [
                130.07936475751356,
                24.62254642733046
            ],
            [
                130.03504065854,
                24.668707147730196
            ],
            [
                129.9446438934038,
                24.7480373298731
            ],
            [
                129.82471887278973,
                24.865335258847207
            ],
            [
                129.78950783926823,
                24.950637269110157
            ],
            [
                129.80265564742703,
                24.99450023229859
            ],
            [
                129.7532800195285,
                25.03009166426678
            ],
            [
                129.7,
                25.1
            ],
            [
                129.7357873143173,
                25.23894138479611
            ],
            [
                129.81199162284244,
                25.435879522428923
            ],
            [
                129.87001981442359,
                25.660156797509615
            ],
            [
                129.91397451631775,
                25.861642744757546
            ],
            [
                129.96372254967574,
                26.022902260005058
            ],
            [
                130.04753856024746,
                26.18055900491868
            ],
            [
                130.16156959257972,
                26.346145101320857
            ],
            [
                130.27211832287682,
                26.504075695946764
            ],
            [
                130.38043783395483,
                26.669279016665193
            ],
            [
                130.51222332726573,
                26.871228730948808
            ],
            [
                130.7,
                27.099999999999994
            ],
            [
                130.96166211874194,
                27.329082570285944
            ],
            [
                131.24616783426004,
                27.530478860152197
            ],
            [
                131.51452159006206,
                27.694374715684628
            ],
            [
                131.79923738638297,
                27.85651053866931
            ],
            [
                132.124205169278,
                28.063387214619333
            ],
            [
                132.48320855503283,
                28.36319035409765
            ],
            [
                132.8676501048866,
                28.7037022140844
            ],
            [
                133.27164610355635,
                28.948820301514985
            ],
            [
                133.71843330634374,
                29.156155614506087
            ],
            [
                134.23981516610414,
                29.47344048639713
            ],
            [
                134.8,
                29.8
            ],
            [
                135.3651899081727,
                30.006100417401907
            ],
            [
                136.0200480128784,
                30.25391345630986
            ],
            [
                136.7966178105399,
                30.650993652533565
            ],
            [
                137.52762230344743,
                30.99444581259709
            ],
            [
                138.1632128333821,
                31.19863789235978
            ],
            [
                138.87619201455334,
                31.426193995350182
            ],
            [
                139.71165843911797,
                31.711632546320573
            ],
            [
                140.57951524443442,
                31.950527757882348
            ],
            [
                141.5252289346253,
                32.160712039952315
            ],
            [
                142.68586112100303,
                32.44310225341391
            ],
            [
                144.2,
                32.9
            ]
        ]
    },
    "properties": {
        "trajectory_id": 1454,
        "object_id": 201328914149,
        "label": "WP"
    }
}