{
    "type": "Feature",
    "geometry": {
        "type": "LineString",
        "coordinates": [
            [
                83.5,
                9.4
            ],
            [
                83.23969632627772,
                9.49189873972913
            ],
            [
                83.01990679093728,
                9.5481659825582
            ],
            [
                82.65387115844091,
                9.736234456911934
            ],
            [
                82.24375866906286,
                10.013077245735602
            ],
            [
                81.94074670572357,
                10.243197032307497
            ],
            [
                81.69495030877853,
                10.403040285920621
            ],
            [
                81.38744522348122,
                10.561705906310667
            ],
            [
                80.74258766191625,
                10.81959088049387
            ],
            [
                80.20351368347065,
                10.967216617991566
            ],
            [
                79.83384697405948,
                11.038991137330328
            ],
            [
                79.384049841791,
                11.104792092682446
            ],
            [
                78.87833415746907,
                11.10129871936759
            ],
            [
                78.38064897113118,
                11.183653547499432
            ],
            [
                77.81106093737718,
                11.278603324273105
            ],
            [
                77.207678651362,
                11.314983020464869
            ],
            [
                76.66343823645073,
                11.268357255988493
            ],
            [
                76.17004383155725,
                11.176516973649129
            ],
            [
                75.66777644701473,
                11.094851145231255
            ],
            [
                75.16910505611403,
                11.011964666783976
            ],
            [
                74.60032411465734,
                10.920820907990162
            ],
            [
                73.98500855352995,
                10.886693189742674
            ],
            [
                73.48886208408085,
                10.927004267679516
            ],
            [
                73.07284222494904,
                11.041375557472751
            ],
            [
                72.55163214224513,
                11.21513122164548
            ],
            [
                71.96675742462709,
                11.381753938844307
            ],
            [
                71.36031391774101,
                11.551545013619332
            ],
            [
                70.9025332869528,
                11.70544205215836
            ],
            [
                70.46606206329298,
                11.924970847229764
            ],
            [
                69.93302016344279,
                12.158382878075052
            ],
            [
                69.32773529179264,
                12.319650399121423
            ],
            [
                68.65266488118428,
                12.49150740961383
            ],
            [
                68.1333412069776,
                12.50800473053918
            ],
            [
                67.6424007207102,
                12.497576339925512
            ],
            [
                67.14196554225072,
                12.496978049287398
            ],
            [
                66.62240543343363,
                12.509931574790176
            ],
            [
                66.0154052026123,
                12.485845033309515
            ],
            [
                65.34341150801596,
                12.310560558787227
            ],
            [
                64.68245109854824,
                12.210471323736906
            ],
            [
                63.94404105921211,
                12.189859389833565
            ],
            [
                63.218856379683984,
                12.231427731110637
            ],
            [
                62.58968634802424,
                12.350929768639658
            ],
            [
                62.013828877088855,
                12.527958668518046
            ],
            [
                61.42727478901068,
                12.69407526521556
            ],
            [
                60.76279960540042,
                12.790071943120743
            ],
            [
                60.11676712585438,
                12.804093745958799
            ],
            [
                59.71506765610937,
                12.80012658163397
            ],
            [
                59.55245194896587,
                12.795919219642796
            ],
            [
                59.34627944312732,
                12.8076728605651
            ],
            [
                58.91072332238439,
                12.897458002800315
            ],
            [
                58.4097438507563,
                12.995448776769784
            ],
            [
                57.906614571789454,
                12.946266216242854
            ],
            [
                57.40678131945267,
                12.845484766281357
            ],
            [
                56.90037370962071,
                12.771863768178218
            ],
            [
                56.407989389808876,
                12.676890718071693
            ],
            [
                56.0,
                12.5
            ]
        ]
    },
    "properties": {
        "trajectory_id": 1464,
        "object_id": 201330507141,
        "label": "NI"
    }
}