{
    "type": "Feature",
    "geometry": {
        "type": "LineString",
        "coordinates": [
            [
                66.4,
                5.6
            ],
            [
                66.23216491257146,
                5.8577528682447335
            ],
            [
                65.98279171886591,
                6.134389773733872
            ],
            [
                65.67562901633994,
                6.322816907516485
            ],
            [
                65.21751714952146,
                6.531168823417133
            ],
            [
                64.6842462995459,
                6.834797860877474
            ],
            [
                64.14223792999712,
                7.207889551096859
            ],
            [
                63.52343508311177,
                7.5239952610889045
            ],
            [
                62.91325068253153,
                7.598863459726219
            ],
            [
                62.225501106105014,
                7.685013256177087
            ],
            [
                61.443046883991464,
                7.766244925663703
            ],
            [
                60.7030699133346,
                7.911004876371762
            ],
            [
                60.065000507852545,
                8.103192567378581
            ],
            [
                59.45553002878984,
                8.246121851002574
            ],
            [
                58.85765463026004,
                8.310288138809595
            ],
            [
                58.35215641725497,
                8.292223019080115
            ],
            [
                57.91828469490245,
                8.201869877379616
            ],
            [
                57.47608248593254,
                8.203015224870024
            ],
            [
                57.11227200141845,
                8.134593691228254
            ],
            [
                56.764876586352656,
                8.043493475032214
            ],
            [
                56.43192540884669,
                7.941651685158636
            ],
            [
                56.0220182428069,
                7.912376845843742
            ],
            [
                55.47304687073867,
                8.031224117284498
            ],
            [
                54.960835984953206,
                8.097564766816074
            ],
            [
                54.52643162149485,
                8.004451286158845
            ],
            [
                54.09317094385573,
                7.9955346343752876
            ],
            [
                53.646673556764156,
                8.002116660585294
            ],
            [
                53.264742698229114,
                7.9992236678165884
            ],
            [
                52.94466013134154,
                8.000240996111687
            ],
            [
                52.76461398139599,
                7.99993630048366
            ],
            [
                52.66175662152682,
                8.000013225915323
            ],
            [
                52.38169979288659,
                7.999998733738107
            ],
            [
                52.11993335533817,
                7.999999823103307
            ],
            [
                51.92108543513548,
                7.999997114385493
            ],
            [
                51.90164525231391,
                8.0000152303514
            ],
            [
                51.84458431221562,
                7.999943093051677
            ],
            [
                51.79955119494986,
                8.000179539529439
            ],
            [
                51.768073320779614,
                7.999524053350578
            ],
            [
                51.54906021516709,
                8.000950174202497
            ],
            [
                51.29186753804221,
                7.999310229954941
            ],
            [
                51.19932361951744,
                7.994844839576828
            ],
            [
                51.219279843512155,
                8.083534231159948
            ],
            [
                51.02473177144906,
                8.099402413421238
            ],
            [
                50.72556379211074,
                8.141096867519519
            ],
            [
                50.518690423323385,
                8.247293561364286
            ],
            [
                50.331504324549314,
                8.31558600430024
            ],
            [
                50.047264958789604,
                8.435760552663385
            ],
            [
                49.691886221145545,
                8.704676826175854
            ],
            [
                49.26048990025818,
                8.875314106168382
            ],
            [
                48.74436956359823,
                9.129588751937252
            ],
            [
                48.21924648974199,
                9.341540936063247
            ],
            [
                47.68668961767864,
                9.465484270693336
            ],
            [
                47.20133359627584,
                9.50217142778101
            ],
            [
                46.77265247014694,
                9.512115538400078
            ],
            [
                46.33997869224741,
                9.621356844936637
            ],
            [
                46.0,
                9.8
            ]
        ]
    },
    "properties": {
        "trajectory_id": 1466,
        "object_id": 201331006066,
        "label": "NI"
    }
}