{
    "type": "Feature",
    "geometry": {
        "type": "LineString",
        "coordinates": [
            [
                -105.0,
                15.1
            ],
            [
                -105.7,
                15.5
            ],
            [
                -106.4,
                15.8
            ],
            [
                -107.10000000000001,
                16.1
            ],
            [
                -107.8,
                16.399999999999995
            ],
            [
                -108.49999999999997,
                16.7
            ],
            [
                -109.19999999999999,
                16.9
            ],
            [
                -109.9,
                17.0
            ],
            [
                -110.60000000000002,
                17.1
            ],
            [
                -111.4,
                17.2
            ],
            [
                -112.1,
                17.2
            ],
            [
                -112.8,
                17.2
            ],
            [
                -113.4,
                17.2
            ],
            [
                -114.0,
                17.2
            ],
            [
                -114.5,
                17.1
            ],
            [
                -115.1,
                17.0
            ],
            [
                -115.59999999999998,
                17.0
            ],
            [
                -116.1,
                17.0
            ],
            [
                -116.7,
                17.0
            ],
            [
                -117.29999999999998,
                17.0
            ],
            [
                -117.79999999999998,
                17.0
            ],
            [
                -118.3,
                17.0
            ],
            [
                -118.7,
                17.1
            ],
            [
                -119.2,
                17.2
            ],
            [
                -119.7,
                17.3
            ],
            [
                -120.19999999999999,
                17.4
            ],
            [
                -120.6,
                17.5
            ],
            [
                -120.99999999999999,
                17.6
            ],
            [
                -121.5,
                17.699999999999996
            ],
            [
                -122.0,
                17.9
            ],
            [
                -122.49999999999999,
                18.0
            ],
            [
                -122.99999999999997,
                18.0
            ],
            [
                -123.49999999999999,
                18.000000000000004
            ],
            [
                -124.1,
                17.9
            ],
            [
                -124.59999999999997,
                17.9
            ],
            [
                -125.09999999999998,
                17.9
            ],
            [
                -125.6,
                17.899999999999995
            ],
            [
                -126.09999999999998,
                17.9
            ],
            [
                -126.6,
                18.0
            ],
            [
                -127.2,
                17.999999999999996
            ],
            [
                -127.8,
                18.0
            ],
            [
                -128.4,
                17.899999999999995
            ],
            [
                -129.0,
                17.799999999999997
            ],
            [
                -129.5,
                17.699999999999996
            ],
            [
                -129.99999999999997,
                17.6
            ],
            [
                -130.5,
                17.5
            ],
            [
                -131.0,
                17.3
            ],
            [
                -131.5,
                17.1
            ],
            [
                -131.89999999999998,
                16.9
            ],
            [
                -132.3,
                16.6
            ],
            [
                -132.59999999999997,
                16.3
            ],
            [
                -132.79999999999998,
                16.1
            ],
            [
                -133.0,
                15.9
            ],
            [
                -133.3,
                15.800000000000002
            ],
            [
                -133.6,
                15.699999999999998
            ],
            [
                -133.9,
                15.7
            ]
        ]
    },
    "properties": {
        "trajectory_id": 1545,
        "object_id": 201422515255,
        "label": "EP"
    }
}