{
    "type": "Feature",
    "geometry": {
        "type": "LineString",
        "coordinates": [
            [
                -72.2,
                21.5
            ],
            [
                -72.3,
                21.7
            ],
            [
                -72.5,
                22.0
            ],
            [
                -72.7,
                22.300000000000004
            ],
            [
                -72.9,
                22.599999999999998
            ],
            [
                -73.0,
                22.899999999999995
            ],
            [
                -73.0,
                23.3
            ],
            [
                -73.0,
                23.7
            ],
            [
                -73.0,
                24.0
            ],
            [
                -73.0,
                24.1
            ],
            [
                -73.0,
                24.199999999999996
            ],
            [
                -73.0,
                24.299999999999997
            ],
            [
                -72.89999999999999,
                24.4
            ],
            [
                -72.8,
                24.5
            ],
            [
                -72.7,
                24.699999999999996
            ],
            [
                -72.6,
                24.799999999999997
            ],
            [
                -72.4,
                24.899999999999995
            ],
            [
                -72.19999999999999,
                24.999999999999996
            ],
            [
                -72.1,
                25.099999999999998
            ],
            [
                -72.0,
                25.299999999999997
            ],
            [
                -71.99999999999999,
                25.599999999999994
            ],
            [
                -71.89999999999999,
                26.1
            ],
            [
                -71.79999999999998,
                26.700000000000003
            ],
            [
                -71.6,
                27.399999999999995
            ],
            [
                -71.39999999999999,
                28.099999999999998
            ],
            [
                -71.4,
                28.800000000000004
            ],
            [
                -71.5,
                29.5
            ],
            [
                -71.69999999999999,
                30.1
            ],
            [
                -71.99999999999999,
                30.6
            ],
            [
                -72.19999999999999,
                31.1
            ],
            [
                -72.2,
                31.599999999999998
            ],
            [
                -72.1,
                31.9
            ],
            [
                -71.8,
                32.3
            ],
            [
                -71.29999999999998,
                32.9
            ],
            [
                -70.69999999999999,
                33.5
            ],
            [
                -69.9,
                34.099999999999994
            ],
            [
                -69.0,
                34.8
            ],
            [
                -68.19999999999999,
                35.6
            ],
            [
                -67.09999999999998,
                36.3
            ],
            [
                -65.6,
                36.89999999999999
            ],
            [
                -63.599999999999994,
                37.5
            ],
            [
                -61.29999999999999,
                38.2
            ],
            [
                -58.79999999999999,
                39.1
            ],
            [
                -56.3,
                40.0
            ],
            [
                -53.9,
                41.2
            ],
            [
                -51.335421302554,
                42.69423589432196
            ],
            [
                -48.99999999999999,
                44.2
            ],
            [
                -47.3,
                45.5
            ],
            [
                -45.9,
                46.7
            ],
            [
                -44.4,
                47.7
            ],
            [
                -42.79999999999999,
                48.599999999999994
            ],
            [
                -41.2,
                49.3
            ],
            [
                -39.5,
                49.900000000000006
            ],
            [
                -37.89999999999999,
                50.5
            ],
            [
                -36.2,
                51.3
            ],
            [
                -34.1,
                52.5
            ]
        ]
    },
    "properties": {
        "trajectory_id": 1551,
        "object_id": 201423622288,
        "label": "nan"
    }
}