{
    "type": "Feature",
    "geometry": {
        "type": "LineString",
        "coordinates": [
            [
                -33.2,
                13.7
            ],
            [
                -33.8,
                13.899999999999999
            ],
            [
                -34.4,
                14.2
            ],
            [
                -35.0,
                14.5
            ],
            [
                -35.5,
                14.899999999999999
            ],
            [
                -36.0,
                15.3
            ],
            [
                -36.5,
                15.799999999999999
            ],
            [
                -37.099999999999994,
                16.2
            ],
            [
                -37.70000000000001,
                16.5
            ],
            [
                -38.39999999999999,
                16.9
            ],
            [
                -39.2,
                17.200000000000003
            ],
            [
                -40.00000000000001,
                17.500000000000004
            ],
            [
                -40.8,
                17.7
            ],
            [
                -41.6,
                18.0
            ],
            [
                -42.3,
                18.3
            ],
            [
                -43.0,
                18.6
            ],
            [
                -43.6,
                18.9
            ],
            [
                -44.199999999999996,
                19.2
            ],
            [
                -44.8,
                19.599999999999998
            ],
            [
                -45.3,
                20.0
            ],
            [
                -45.7,
                20.399999999999995
            ],
            [
                -46.099999999999994,
                20.9
            ],
            [
                -46.4,
                21.4
            ],
            [
                -46.7,
                21.9
            ],
            [
                -46.99999999999999,
                22.3
            ],
            [
                -47.39999999999999,
                22.7
            ],
            [
                -47.9,
                23.0
            ],
            [
                -48.39999999999999,
                23.300000000000004
            ],
            [
                -48.99999999999999,
                23.700000000000003
            ],
            [
                -49.6,
                24.099999999999994
            ],
            [
                -50.3,
                24.4
            ],
            [
                -50.89999999999999,
                24.699999999999996
            ],
            [
                -51.5,
                25.099999999999994
            ],
            [
                -52.099999999999994,
                25.399999999999995
            ],
            [
                -52.699999999999996,
                25.799999999999997
            ],
            [
                -53.4,
                26.199999999999996
            ],
            [
                -53.99999999999999,
                26.499999999999996
            ],
            [
                -54.6,
                26.699999999999996
            ],
            [
                -55.099999999999994,
                26.999999999999996
            ],
            [
                -55.599999999999994,
                27.299999999999997
            ],
            [
                -56.099999999999994,
                27.700000000000003
            ],
            [
                -56.39999999999999,
                28.1
            ],
            [
                -56.699999999999996,
                28.5
            ],
            [
                -56.99999999999999,
                29.0
            ],
            [
                -57.29999999999998,
                29.500000000000004
            ],
            [
                -57.599999999999994,
                30.0
            ],
            [
                -57.8,
                30.6
            ],
            [
                -57.8,
                31.1
            ],
            [
                -57.7,
                31.699999999999996
            ],
            [
                -57.39999999999999,
                32.300000000000004
            ],
            [
                -57.0,
                32.9
            ],
            [
                -56.6,
                33.6
            ],
            [
                -55.99999999999999,
                34.3
            ],
            [
                -55.3,
                35.0
            ],
            [
                -54.5,
                35.7
            ],
            [
                -53.6,
                36.5
            ]
        ]
    },
    "properties": {
        "trajectory_id": 1557,
        "object_id": 201425414327,
        "label": "nan"
    }
}