{
    "type": "Feature",
    "geometry": {
        "type": "LineString",
        "coordinates": [
            [
                149.6,
                17.9
            ],
            [
                149.8,
                18.2
            ],
            [
                149.89999999999998,
                18.6
            ],
            [
                150.0,
                18.9
            ],
            [
                149.99999999999997,
                19.299999999999997
            ],
            [
                150.0,
                19.6
            ],
            [
                150.0,
                19.8
            ],
            [
                149.8,
                20.0
            ],
            [
                149.6,
                19.9
            ],
            [
                149.3,
                19.9
            ],
            [
                149.0,
                19.9
            ],
            [
                148.6,
                19.9
            ],
            [
                148.2,
                20.0
            ],
            [
                147.8,
                20.1
            ],
            [
                147.39999999999998,
                20.200000000000003
            ],
            [
                147.2,
                20.3
            ],
            [
                147.1,
                20.4
            ],
            [
                146.89999999999998,
                20.6
            ],
            [
                146.69999999999996,
                20.9
            ],
            [
                146.39999999999998,
                21.299999999999997
            ],
            [
                146.09999999999997,
                21.6
            ],
            [
                145.89999999999998,
                22.0
            ],
            [
                145.7,
                22.399999999999995
            ],
            [
                145.5,
                22.8
            ],
            [
                145.3,
                23.299999999999997
            ],
            [
                145.0,
                23.7
            ],
            [
                144.8,
                24.199999999999996
            ],
            [
                144.5,
                24.700000000000003
            ],
            [
                144.4,
                25.199999999999996
            ],
            [
                144.09999999999997,
                25.699999999999996
            ],
            [
                143.9,
                26.199999999999996
            ],
            [
                143.69999999999996,
                26.799999999999997
            ],
            [
                143.59999999999997,
                27.4
            ],
            [
                143.5,
                27.799999999999997
            ],
            [
                143.50000000000003,
                28.3
            ],
            [
                143.4,
                28.9
            ],
            [
                143.4,
                29.499999999999993
            ],
            [
                143.5,
                30.099999999999998
            ],
            [
                143.79999999999998,
                30.7
            ],
            [
                144.09999999999997,
                31.1
            ],
            [
                144.5,
                31.599999999999998
            ],
            [
                144.9,
                32.1
            ],
            [
                145.4,
                32.6
            ],
            [
                145.9,
                33.0
            ],
            [
                146.5,
                33.5
            ],
            [
                147.4,
                34.0
            ],
            [
                148.4,
                34.5
            ],
            [
                149.4,
                35.0
            ],
            [
                150.5,
                35.599999999999994
            ],
            [
                151.8,
                36.199999999999996
            ],
            [
                153.39999999999998,
                36.79999999999999
            ],
            [
                154.8,
                37.4
            ],
            [
                156.29999999999998,
                38.00000000000001
            ],
            [
                158.0,
                38.5
            ],
            [
                159.49999999999997,
                39.2
            ],
            [
                160.8,
                40.0
            ]
        ]
    },
    "properties": {
        "trajectory_id": 1563,
        "object_id": 201426718150,
        "label": "WP"
    }
}