{
    "type": "Feature",
    "geometry": {
        "type": "LineString",
        "coordinates": [
            [
                131.4,
                8.4
            ],
            [
                131.04332345860894,
                8.408810551257336
            ],
            [
                130.6438944688113,
                8.387413498203806
            ],
            [
                130.17509523246775,
                8.415704853996152
            ],
            [
                129.66143102405573,
                8.494011232784446
            ],
            [
                129.20577636390033,
                8.503591461185964
            ],
            [
                128.80286804049842,
                8.508283303431158
            ],
            [
                128.46330066052838,
                8.490995048483965
            ],
            [
                128.18344627537886,
                8.402232564120663
            ],
            [
                127.78798822841463,
                8.483880431090776
            ],
            [
                127.33429129140958,
                8.663004984137054
            ],
            [
                126.90000000000002,
                8.8
            ],
            [
                126.40899511097307,
                8.935042659903207
            ],
            [
                125.82535591592537,
                9.133442450006935
            ],
            [
                125.27953766318043,
                9.348346887773632
            ],
            [
                124.8550371745103,
                9.488612146509935
            ],
            [
                124.3671837098833,
                9.557824970666651
            ],
            [
                123.83413217458785,
                9.666608836434252
            ],
            [
                123.34331796990071,
                9.816082258776218
            ],
            [
                122.91242604237056,
                9.894683086199402
            ],
            [
                122.42964407979994,
                9.892889865446689
            ],
            [
                121.90175695043577,
                9.925615962768964
            ],
            [
                121.4,
                9.999999999999998
            ],
            [
                120.95982490027806,
                9.986802509004448
            ],
            [
                120.52784306264414,
                10.083420987038432
            ],
            [
                120.09265373255027,
                10.221933630888817
            ],
            [
                119.65725640510796,
                10.284421115616599
            ],
            [
                119.16950759185244,
                10.484284735381701
            ],
            [
                118.61476830940126,
                10.686908986536864
            ],
            [
                118.02693665972228,
                10.816350067822906
            ],
            [
                117.44681231335369,
                10.961739700054949
            ],
            [
                116.85474146749404,
                11.112729764161777
            ],
            [
                116.303160071957,
                11.248528546764552
            ],
            [
                115.80000000000001,
                11.4
            ],
            [
                115.27864229928608,
                11.620784068482287
            ],
            [
                114.83796926935341,
                11.80395971235585
            ],
            [
                114.36230285645897,
                11.930317681540709
            ],
            [
                113.76684774592432,
                12.076359204560257
            ],
            [
                113.31293302452563,
                12.294597593929206
            ],
            [
                112.85334344193532,
                12.48106652496348
            ],
            [
                112.34014513831724,
                12.61874885118151
            ],
            [
                111.90617170501507,
                12.771283447468258
            ],
            [
                111.46882022590091,
                12.852157529059943
            ],
            [
                111.05181407043261,
                12.948952643942093
            ],
            [
                110.70000000000002,
                13.1
            ],
            [
                110.39572112718355,
                13.178817229709372
            ],
            [
                110.16451431477516,
                13.243005383273056
            ],
            [
                109.93490950529126,
                13.318006019153634
            ],
            [
                109.63777088645168,
                13.390009526050333
            ],
            [
                109.34570149361151,
                13.471963393167714
            ],
            [
                109.04913991000122,
                13.508557754986608
            ],
            [
                108.76875249051241,
                13.498952111634289
            ],
            [
                108.55136562877358,
                13.499161689307433
            ],
            [
                108.33901349117352,
                13.500698592243804
            ],
            [
                108.11632691981488,
                13.499510985429337
            ],
            [
                107.9,
                13.5
            ]
        ]
    },
    "properties": {
        "trajectory_id": 1579,
        "object_id": 201432908131,
        "label": "WP"
    }
}