{
    "type": "Feature",
    "geometry": {
        "type": "LineString",
        "coordinates": [
            [
                124.1,
                12.2
            ],
            [
                123.96859529354727,
                12.37240602457302
            ],
            [
                123.73330243798867,
                12.447015682923324
            ],
            [
                123.5381444290344,
                12.549258910079248
            ],
            [
                123.38681717674704,
                12.711704385189764
            ],
            [
                123.15837628327435,
                12.865124892156683
            ],
            [
                122.92306144407048,
                13.012778741983862
            ],
            [
                122.69711284135178,
                13.177185809101642
            ],
            [
                122.46719441109951,
                13.313180601961083
            ],
            [
                122.23822824947274,
                13.38278634914832
            ],
            [
                122.00852779252696,
                13.528533607111612
            ],
            [
                121.78177170867572,
                13.64959815206003
            ],
            [
                121.54828268348477,
                13.716803298645186
            ],
            [
                121.31865521494677,
                13.7954683890053
            ],
            [
                121.15626127793843,
                13.806389127052718
            ],
            [
                121.01224648967016,
                13.795536806663918
            ],
            [
                120.85413266463371,
                13.804281665336664
            ],
            [
                120.70320393202132,
                13.800917359854054
            ],
            [
                120.56454869408203,
                13.729120234563618
            ],
            [
                120.31928720830273,
                13.64917701756406
            ],
            [
                119.96888559608243,
                13.56865372806916
            ],
            [
                119.58095979538928,
                13.498259987323046
            ],
            [
                119.19104344196506,
                13.496590021715509
            ],
            [
                118.8754049692187,
                13.502121427051955
            ],
            [
                118.5482171547237,
                13.499015304399817
            ],
            [
                118.15203044756093,
                13.500419418530388
            ],
            [
                117.7670658699698,
                13.501426894661554
            ],
            [
                117.44298316592909,
                13.492072659652962
            ],
            [
                117.16031163828502,
                13.527962237440073
            ],
            [
                116.826406928191,
                13.618354819320919
            ],
            [
                116.43670780000642,
                13.69513032345104
            ],
            [
                116.20443310264858,
                13.705233787814615
            ],
            [
                115.89689569755696,
                13.69776581966218
            ],
            [
                115.50752490513406,
                13.700716206735922
            ],
            [
                115.21321482673382,
                13.700168716439936
            ],
            [
                114.91909557134025,
                13.697584122785294
            ],
            [
                114.56172959037801,
                13.708637409169954
            ],
            [
                114.17059377514757,
                13.680695293005867
            ],
            [
                113.79103354527993,
                13.598285231016144
            ],
            [
                113.41128868629033,
                13.530522309582237
            ],
            [
                113.01867061820215,
                13.388062664202153
            ],
            [
                112.66862658031998,
                13.26454108470806
            ],
            [
                112.37138746322083,
                13.189129756410258
            ],
            [
                112.06408697572205,
                13.032857504214608
            ],
            [
                111.77043114049903,
                12.89565317674877
            ],
            [
                111.42024108018707,
                12.669340149622089
            ],
            [
                111.04317990738879,
                12.349901731360792
            ],
            [
                110.74260069542129,
                12.050802450253087
            ],
            [
                110.43232227022274,
                11.625768292116078
            ],
            [
                110.16354792923164,
                11.118917334037176
            ],
            [
                109.95018539510006,
                10.55853384041712
            ],
            [
                109.71895697128049,
                9.942906494106717
            ],
            [
                109.4223348085363,
                9.384746913696377
            ],
            [
                109.1039720366111,
                8.937781939079505
            ],
            [
                108.81682687964975,
                8.611585794047718
            ],
            [
                108.6,
                8.4
            ]
        ]
    },
    "properties": {
        "trajectory_id": 1581,
        "object_id": 201433402156,
        "label": "WP"
    }
}