{
    "type": "Feature",
    "geometry": {
        "type": "LineString",
        "coordinates": [
            [
                161.0,
                5.6
            ],
            [
                160.56935632977675,
                5.806734643786119
            ],
            [
                160.203613207547,
                6.015173218613165
            ],
            [
                159.86440806985007,
                6.221511379830204
            ],
            [
                159.52062798376676,
                6.4270696254054025
            ],
            [
                159.16562689667492,
                6.643825449419682
            ],
            [
                158.83520503758754,
                6.834637660543946
            ],
            [
                158.50221594803514,
                6.969913885557646
            ],
            [
                157.98951268276616,
                7.103461185118535
            ],
            [
                157.4411565340377,
                7.244056673035181
            ],
            [
                157.04237405356508,
                7.381817933826575
            ],
            [
                156.75637854723814,
                7.520687157304395
            ],
            [
                156.47345773462433,
                7.656442416430144
            ],
            [
                156.11086025960734,
                7.796048668157696
            ],
            [
                155.68031407957292,
                7.945756566165887
            ],
            [
                155.34408521460134,
                8.037009921634633
            ],
            [
                155.0757800677085,
                8.108569051206716
            ],
            [
                154.7256939055931,
                8.251395813618782
            ],
            [
                154.41590471753506,
                8.354672269039801
            ],
            [
                154.1485596797264,
                8.411102610231914
            ],
            [
                153.8659796530949,
                8.481336682667385
            ],
            [
                153.64529390707014,
                8.548932345757473
            ],
            [
                153.43092217133895,
                8.624044144265572
            ],
            [
                153.14862690517765,
                8.694739892553685
            ],
            [
                152.84511346709218,
                8.698428845786264
            ],
            [
                152.63616755877186,
                8.717526241307706
            ],
            [
                152.50843973411912,
                8.795830516045681
            ],
            [
                152.30429367216738,
                8.865198751995177
            ],
            [
                152.1185052122756,
                8.939653565579855
            ],
            [
                151.993545052089,
                9.001750464594673
            ],
            [
                151.8589948147553,
                9.004802582362105
            ],
            [
                151.7066339902971,
                8.997512364939622
            ],
            [
                151.5864513548907,
                9.000482954415803
            ],
            [
                151.5236876374365,
                9.00086632311652
            ],
            [
                151.4115496856163,
                8.99717530641446
            ],
            [
                151.26197050863578,
                9.00382160119837
            ],
            [
                151.12564201851723,
                9.00640518947041
            ],
            [
                150.98256219424286,
                8.94242547301039
            ],
            [
                150.86086325639945,
                8.890320297096412
            ],
            [
                150.80132433539265,
                8.899054327969187
            ],
            [
                150.80628718356937,
                8.901323246307083
            ],
            [
                150.77166909281706,
                8.901143552384033
            ],
            [
                150.69883996418292,
                8.899701960839666
            ],
            [
                150.69353329983184,
                8.889789251922384
            ],
            [
                150.70275139845157,
                8.938308409118854
            ],
            [
                150.69982622404194,
                9.004804937878152
            ],
            [
                150.70064872155785,
                9.004151247771373
            ],
            [
                150.6962442822246,
                8.99914027430121
            ],
            [
                150.7050868095143,
                8.998073617962731
            ],
            [
                150.7107162114796,
                8.995031193804621
            ],
            [
                150.60789617929086,
                9.044847903591506
            ],
            [
                150.44498901121938,
                9.129400008121957
            ],
            [
                150.31096841765628,
                9.19600459096125
            ],
            [
                150.23069857713952,
                9.208096511521314
            ],
            [
                150.17550511569854,
                9.19306013298173
            ],
            [
                150.1,
                9.2
            ]
        ]
    },
    "properties": {
        "trajectory_id": 1613,
        "object_id": 201509206161,
        "label": "WP"
    }
}