{
    "type": "Feature",
    "geometry": {
        "type": "LineString",
        "coordinates": [
            [
                160.4,
                8.6
            ],
            [
                160.49999999999997,
                8.800000000000002
            ],
            [
                160.6,
                8.9
            ],
            [
                160.7,
                9.0
            ],
            [
                160.89999999999998,
                9.2
            ],
            [
                160.89999999999998,
                9.399999999999999
            ],
            [
                160.9,
                9.399999999999999
            ],
            [
                160.70000000000002,
                9.600000000000001
            ],
            [
                160.4,
                9.7
            ],
            [
                160.20000000000002,
                9.800000000000002
            ],
            [
                159.90000000000003,
                9.9
            ],
            [
                159.70000000000002,
                10.0
            ],
            [
                159.3,
                10.2
            ],
            [
                158.6,
                10.4
            ],
            [
                157.89999999999998,
                10.6
            ],
            [
                157.3,
                10.8
            ],
            [
                156.8,
                10.999999999999998
            ],
            [
                156.2,
                11.2
            ],
            [
                155.5,
                11.2
            ],
            [
                154.9,
                11.299999999999999
            ],
            [
                154.2,
                11.299999999999999
            ],
            [
                153.29999999999998,
                11.3
            ],
            [
                152.2,
                11.2
            ],
            [
                151.3,
                11.1
            ],
            [
                150.4,
                10.799999999999999
            ],
            [
                149.69999999999996,
                10.499999999999998
            ],
            [
                149.1,
                10.2
            ],
            [
                148.7,
                10.1
            ],
            [
                148.39999999999998,
                10.1
            ],
            [
                148.19999999999996,
                10.2
            ],
            [
                148.1,
                10.4
            ],
            [
                148.2,
                10.599999999999998
            ],
            [
                148.39999999999998,
                10.8
            ],
            [
                148.5,
                11.0
            ],
            [
                148.59999999999997,
                11.2
            ],
            [
                148.7,
                11.500000000000002
            ],
            [
                148.7,
                11.8
            ],
            [
                148.5,
                12.2
            ],
            [
                148.2,
                12.5
            ],
            [
                147.69999999999996,
                12.8
            ],
            [
                147.19999999999996,
                13.100000000000001
            ],
            [
                146.69999999999996,
                13.300000000000002
            ],
            [
                146.2,
                13.499999999999998
            ],
            [
                145.89999999999998,
                13.599999999999998
            ],
            [
                145.69999999999996,
                13.8
            ],
            [
                145.4,
                13.899999999999999
            ],
            [
                145.1,
                14.0
            ],
            [
                145.0,
                14.0
            ],
            [
                144.9,
                14.2
            ],
            [
                144.60000000000002,
                14.699999999999996
            ],
            [
                144.2,
                15.099999999999998
            ],
            [
                143.7,
                15.500000000000004
            ],
            [
                143.2,
                15.800000000000002
            ],
            [
                142.80000000000004,
                16.1
            ],
            [
                142.40000000000003,
                16.4
            ],
            [
                141.7,
                16.7
            ]
        ]
    },
    "properties": {
        "trajectory_id": 1630,
        "object_id": 201518009160,
        "label": "WP"
    }
}