{
    "type": "Feature",
    "geometry": {
        "type": "LineString",
        "coordinates": [
            [
                -112.5,
                6.5
            ],
            [
                -113.1,
                6.6
            ],
            [
                -113.70000000000002,
                6.7
            ],
            [
                -114.29999999999998,
                6.7
            ],
            [
                -114.9,
                6.799999999999997
            ],
            [
                -115.49999999999999,
                6.9
            ],
            [
                -116.1,
                6.999999999999998
            ],
            [
                -116.69999999999999,
                7.1
            ],
            [
                -117.30000000000001,
                7.1
            ],
            [
                -117.89999999999999,
                7.1
            ],
            [
                -118.50000000000001,
                7.200000000000001
            ],
            [
                -119.10000000000001,
                7.2
            ],
            [
                -119.69999999999999,
                7.299999999999999
            ],
            [
                -120.39999999999999,
                7.3
            ],
            [
                -120.99999999999999,
                7.4
            ],
            [
                -121.6,
                7.5
            ],
            [
                -122.2,
                7.6
            ],
            [
                -122.8,
                7.699999999999999
            ],
            [
                -123.4,
                7.799999999999999
            ],
            [
                -124.1,
                7.9
            ],
            [
                -124.7,
                8.0
            ],
            [
                -125.19999999999999,
                8.2
            ],
            [
                -125.69999999999999,
                8.399999999999999
            ],
            [
                -126.19999999999999,
                8.6
            ],
            [
                -126.69999999999999,
                8.9
            ],
            [
                -127.19999999999999,
                9.199999999999998
            ],
            [
                -127.7,
                9.599999999999998
            ],
            [
                -128.2,
                10.0
            ],
            [
                -128.7,
                10.4
            ],
            [
                -129.3,
                10.8
            ],
            [
                -130.0,
                11.2
            ],
            [
                -130.9,
                11.699999999999998
            ],
            [
                -131.89999999999998,
                12.100000000000001
            ],
            [
                -132.90000000000003,
                12.3
            ],
            [
                -133.9,
                12.499999999999998
            ],
            [
                -134.69999999999996,
                12.7
            ],
            [
                -135.49999999999997,
                12.9
            ],
            [
                -136.29999999999998,
                13.0
            ],
            [
                -137.0,
                13.099999999999998
            ],
            [
                -137.7,
                13.2
            ],
            [
                -138.39999999999998,
                13.4
            ],
            [
                -138.9,
                13.499999999999998
            ],
            [
                -139.39999999999998,
                13.6
            ],
            [
                -139.90000000000003,
                13.699999999999998
            ],
            [
                -140.5,
                13.8
            ],
            [
                -141.2,
                13.9
            ],
            [
                -141.8,
                14.099999999999998
            ],
            [
                -142.3,
                14.299999999999999
            ],
            [
                -142.79999999999998,
                14.499999999999998
            ],
            [
                -143.29999999999998,
                14.7
            ],
            [
                -143.7,
                14.899999999999999
            ],
            [
                -144.1,
                15.099999999999998
            ],
            [
                -144.39999999999998,
                15.4
            ],
            [
                -144.8,
                15.7
            ],
            [
                -145.1,
                15.999999999999998
            ],
            [
                -145.4,
                16.3
            ]
        ]
    },
    "properties": {
        "trajectory_id": 1647,
        "object_id": 201520907248,
        "label": "EP"
    }
}