{
    "type": "Feature",
    "geometry": {
        "type": "LineString",
        "coordinates": [
            [
                123.2,
                19.1
            ],
            [
                123.0,
                19.200000000000003
            ],
            [
                122.90000000000002,
                19.2
            ],
            [
                122.6,
                19.3
            ],
            [
                122.39999999999999,
                19.3
            ],
            [
                122.39999999999999,
                19.3
            ],
            [
                122.4,
                19.4
            ],
            [
                122.39999999999999,
                19.500000000000004
            ],
            [
                122.5,
                19.6
            ],
            [
                122.6,
                19.8
            ],
            [
                122.60000000000001,
                20.100000000000005
            ],
            [
                122.60000000000001,
                20.400000000000002
            ],
            [
                122.7,
                20.699999999999996
            ],
            [
                122.9,
                21.000000000000004
            ],
            [
                123.1,
                21.4
            ],
            [
                123.2,
                21.8
            ],
            [
                123.19999999999999,
                22.3
            ],
            [
                123.29999999999998,
                22.800000000000004
            ],
            [
                123.29999999999998,
                23.199999999999996
            ],
            [
                123.39999999999999,
                23.499999999999996
            ],
            [
                123.5,
                23.799999999999997
            ],
            [
                123.7,
                24.200000000000003
            ],
            [
                124.0,
                24.500000000000004
            ],
            [
                124.29999999999998,
                24.8
            ],
            [
                124.6,
                25.2
            ],
            [
                125.19999999999999,
                25.699999999999996
            ],
            [
                125.9,
                26.199999999999996
            ],
            [
                126.69999999999999,
                26.999999999999993
            ],
            [
                127.39999999999999,
                27.89999999999999
            ],
            [
                128.1,
                28.699999999999996
            ],
            [
                128.8,
                29.599999999999994
            ],
            [
                129.5,
                30.6
            ],
            [
                130.0,
                31.6
            ],
            [
                130.4,
                32.8
            ],
            [
                130.5,
                33.89999999999999
            ],
            [
                130.7,
                34.6
            ],
            [
                131.0,
                35.2
            ],
            [
                131.39999999999998,
                35.8
            ],
            [
                131.79999999999998,
                36.5
            ],
            [
                132.2,
                37.1
            ],
            [
                132.60000000000002,
                37.8
            ],
            [
                133.0,
                38.5
            ],
            [
                133.5,
                39.099999999999994
            ],
            [
                133.8,
                39.79999999999999
            ],
            [
                134.0,
                40.4
            ],
            [
                134.0,
                40.9
            ],
            [
                133.8,
                41.4
            ],
            [
                133.5,
                42.099999999999994
            ],
            [
                133.1,
                42.89999999999999
            ],
            [
                132.5,
                43.699999999999996
            ],
            [
                131.79999999999998,
                44.39999999999999
            ],
            [
                130.39999999999998,
                44.599999999999994
            ],
            [
                128.8,
                44.6
            ],
            [
                127.79999999999998,
                44.4
            ],
            [
                127.3,
                44.199999999999996
            ],
            [
                126.9,
                44.0
            ]
        ]
    },
    "properties": {
        "trajectory_id": 1658,
        "object_id": 201522612151,
        "label": "WP"
    }
}