{
    "type": "Feature",
    "geometry": {
        "type": "LineString",
        "coordinates": [
            [
                99.7,
                -13.8
            ],
            [
                100.22642232511856,
                -13.806219692726486
            ],
            [
                100.7135313164729,
                -13.747607372242014
            ],
            [
                101.15746132568306,
                -13.695994765608516
            ],
            [
                101.56509256653446,
                -13.693314135422272
            ],
            [
                101.96972059232644,
                -13.702156446654433
            ],
            [
                102.32495418697066,
                -13.700559515224676
            ],
            [
                102.52167522977787,
                -13.699873268422145
            ],
            [
                102.697158355643,
                -13.699891079602423
            ],
            [
                102.77683124313124,
                -13.725745360708974
            ],
            [
                102.80747213488127,
                -13.842801803339366
            ],
            [
                102.68452828026152,
                -14.022064561056382
            ],
            [
                102.56441986683834,
                -14.188060068237625
            ],
            [
                102.59654861402086,
                -14.294605034463734
            ],
            [
                102.61094775141106,
                -14.309978640367243
            ],
            [
                102.71125553837818,
                -14.412337338862072
            ],
            [
                102.79035317322193,
                -14.528086951068957
            ],
            [
                102.7865531671235,
                -14.646511700725338
            ],
            [
                102.71896445092028,
                -14.764504126289223
            ],
            [
                102.67861283172994,
                -14.8594258190546
            ],
            [
                102.60749449724511,
                -14.900044606370948
            ],
            [
                102.44579443136949,
                -14.924823172561647
            ],
            [
                102.40500285533325,
                -15.012573986523899
            ],
            [
                102.44065135747016,
                -15.010182423266052
            ],
            [
                102.30713593379662,
                -14.999471285869665
            ],
            [
                102.37204446042597,
                -15.004501276968023
            ],
            [
                102.4453222939514,
                -14.965991351388572
            ],
            [
                102.5100903505593,
                -15.010729851506992
            ],
            [
                102.69547941714156,
                -15.163151965358502
            ],
            [
                102.84269222453709,
                -15.208878711403996
            ],
            [
                102.94795606828228,
                -15.25449533991989
            ],
            [
                103.1095502375955,
                -15.40886157139849
            ],
            [
                103.19682949483611,
                -15.492247582958335
            ],
            [
                103.2271370155031,
                -15.63930744936524
            ],
            [
                103.33331984462043,
                -15.838401060656034
            ],
            [
                103.47239608929833,
                -15.958203313713327
            ],
            [
                103.51244826969673,
                -16.061364442064733
            ],
            [
                103.56808674849579,
                -16.188128922102337
            ],
            [
                103.72595125182029,
                -16.206785984977444
            ],
            [
                103.80268166717214,
                -16.304374867503373
            ],
            [
                103.8942899744119,
                -16.380433787217335
            ],
            [
                104.06235409828726,
                -16.40082157796368
            ],
            [
                104.11017915891951,
                -16.40007110782247
            ],
            [
                104.12614298282546,
                -16.39757195837818
            ],
            [
                104.19732800776715,
                -16.398584187387886
            ],
            [
                104.21530317420766,
                -16.379940134507006
            ],
            [
                104.31676044005532,
                -16.290499222264653
            ],
            [
                104.3857484475578,
                -16.28969910555987
            ],
            [
                104.4004975687032,
                -16.299999293100655
            ],
            [
                104.39949871586738,
                -16.304649326630866
            ],
            [
                104.40130935434273,
                -16.260384943103976
            ],
            [
                104.39995167942682,
                -16.199650500735828
            ],
            [
                104.4081644926826,
                -16.231694108145916
            ],
            [
                104.37521787429034,
                -16.318262810259778
            ],
            [
                104.24175970193204,
                -16.362002912178923
            ],
            [
                104.2,
                -16.5
            ]
        ]
    },
    "properties": {
        "trajectory_id": 17,
        "object_id": 200004514100,
        "label": "SI"
    }
}