{
    "type": "Feature",
    "geometry": {
        "type": "LineString",
        "coordinates": [
            [
                94.3,
                -10.3
            ],
            [
                94.70000000000002,
                -10.300000000000002
            ],
            [
                95.0,
                -10.2
            ],
            [
                95.4,
                -10.0
            ],
            [
                95.79999999999998,
                -9.8
            ],
            [
                96.29999999999998,
                -9.8
            ],
            [
                96.79999999999998,
                -9.899999999999999
            ],
            [
                97.3,
                -9.9
            ],
            [
                97.80000000000001,
                -10.000000000000002
            ],
            [
                98.0,
                -10.2
            ],
            [
                98.0,
                -10.4
            ],
            [
                97.7,
                -10.600000000000001
            ],
            [
                97.30000000000001,
                -10.7
            ],
            [
                97.0,
                -10.899999999999999
            ],
            [
                96.79999999999998,
                -11.1
            ],
            [
                96.4,
                -11.299999999999999
            ],
            [
                96.1,
                -11.5
            ],
            [
                95.79999999999998,
                -11.8
            ],
            [
                95.49999999999999,
                -12.0
            ],
            [
                95.1,
                -12.100000000000001
            ],
            [
                94.70000000000002,
                -12.199999999999998
            ],
            [
                94.4,
                -12.3
            ],
            [
                94.10000000000001,
                -12.499999999999998
            ],
            [
                93.6,
                -12.799999999999999
            ],
            [
                93.1,
                -13.099999999999998
            ],
            [
                92.59999999999998,
                -13.299999999999999
            ],
            [
                92.09999999999998,
                -13.6
            ],
            [
                91.69999999999999,
                -13.899999999999999
            ],
            [
                91.3,
                -14.199999999999998
            ],
            [
                90.9,
                -14.599999999999998
            ],
            [
                90.4,
                -15.0
            ],
            [
                89.89999999999999,
                -15.199999999999998
            ],
            [
                89.5,
                -15.499999999999996
            ],
            [
                89.1,
                -15.599999999999998
            ],
            [
                88.89999999999999,
                -15.699999999999998
            ],
            [
                88.6,
                -15.899999999999999
            ],
            [
                88.3,
                -16.1
            ],
            [
                88.0,
                -16.299999999999997
            ],
            [
                87.8,
                -16.6
            ],
            [
                87.50000000000001,
                -16.799999999999997
            ],
            [
                87.3,
                -17.1
            ],
            [
                87.0,
                -17.3
            ],
            [
                86.59999999999998,
                -17.5
            ],
            [
                85.99999999999999,
                -17.699999999999996
            ],
            [
                85.39999999999999,
                -17.799999999999997
            ],
            [
                84.69999999999999,
                -17.999999999999996
            ],
            [
                84.1,
                -18.0
            ],
            [
                83.4,
                -17.900000000000002
            ],
            [
                82.8,
                -17.8
            ],
            [
                82.2,
                -17.799999999999997
            ],
            [
                81.8,
                -17.8
            ],
            [
                81.3,
                -17.9
            ],
            [
                80.9,
                -18.099999999999998
            ],
            [
                80.5,
                -18.3
            ],
            [
                80.1,
                -18.6
            ],
            [
                79.7,
                -18.9
            ]
        ]
    },
    "properties": {
        "trajectory_id": 1734,
        "object_id": 201604210094,
        "label": "SI"
    }
}