{
    "type": "Feature",
    "geometry": {
        "type": "LineString",
        "coordinates": [
            [
                80.8,
                10.0
            ],
            [
                80.95398985161309,
                10.398570044218847
            ],
            [
                81.05982559568851,
                10.639587067880983
            ],
            [
                81.10506878930599,
                10.86074495505672
            ],
            [
                81.10117069737629,
                11.156922929358087
            ],
            [
                81.09788984320235,
                11.523221070647988
            ],
            [
                81.10272230924708,
                11.85371496666126
            ],
            [
                81.09806411206182,
                12.136595228362971
            ],
            [
                81.09119270823467,
                12.433088386479636
            ],
            [
                81.1582110389836,
                12.670234740865325
            ],
            [
                81.20417449729425,
                12.882603513308066
            ],
            [
                81.20000000000002,
                13.1
            ],
            [
                81.27446109474226,
                13.29879229497603
            ],
            [
                81.31121240931475,
                13.624127658003076
            ],
            [
                81.29769409337395,
                13.97291012318354
            ],
            [
                81.29955092683784,
                14.17879672345991
            ],
            [
                81.3001575653173,
                14.339929143439566
            ],
            [
                81.30098806678016,
                14.438166166727134
            ],
            [
                81.29901703304027,
                14.51319721170925
            ],
            [
                81.29530936774492,
                14.65907252441627
            ],
            [
                81.33877122182874,
                14.815643934550724
            ],
            [
                81.44882652026223,
                14.945322915567163
            ],
            [
                81.6,
                15.099999999999998
            ],
            [
                81.74580384853324,
                15.338412652407186
            ],
            [
                81.8924343399508,
                15.423669426488868
            ],
            [
                82.03352464173165,
                15.399912827594056
            ],
            [
                82.17804928667104,
                15.480320127617931
            ],
            [
                82.38413968768772,
                15.683987326240445
            ],
            [
                82.6129116710183,
                15.906153754933921
            ],
            [
                82.82571164642647,
                16.13222891535438
            ],
            [
                83.03925398087075,
                16.424609545048238
            ],
            [
                83.3086650136805,
                16.717324662556486
            ],
            [
                83.61783736160928,
                17.016905524408177
            ],
            [
                83.99999999999999,
                17.399999999999995
            ],
            [
                84.52245063849608,
                17.9114732805158
            ],
            [
                84.91795893780733,
                18.36707182936696
            ],
            [
                85.1563512729742,
                18.656360906962863
            ],
            [
                85.52330665644709,
                18.865745554048658
            ],
            [
                86.31067006208193,
                19.2128105714577
            ],
            [
                86.96740252201403,
                19.557355957090557
            ],
            [
                87.35269389818122,
                19.83630962110372
            ],
            [
                87.86271070478608,
                20.13358564063525
            ],
            [
                88.39619134611432,
                20.366356603487908
            ],
            [
                88.87068972057709,
                20.59318566731897
            ],
            [
                89.4,
                20.9
            ],
            [
                90.14394454583154,
                21.26671072693465
            ],
            [
                90.71728143946315,
                21.60736914083724
            ],
            [
                91.09283694033026,
                22.02372502683304
            ],
            [
                91.45900955641278,
                22.54601270530111
            ],
            [
                91.77876182843717,
                22.86902886043469
            ],
            [
                92.31405259379378,
                23.16242074053264
            ],
            [
                93.1019070514108,
                23.549836826171912
            ],
            [
                93.84929423616998,
                23.921687642755717
            ],
            [
                94.33188665893923,
                24.18638476552225
            ],
            [
                94.56891900816402,
                24.35721661454765
            ],
            [
                94.7,
                24.5
            ]
        ]
    },
    "properties": {
        "trajectory_id": 1741,
        "object_id": 201613810081,
        "label": "NI"
    }
}