{
    "type": "Feature",
    "geometry": {
        "type": "LineString",
        "coordinates": [
            [
                127.0,
                26.4
            ],
            [
                127.0,
                26.399999999999995
            ],
            [
                126.99999999999999,
                26.3
            ],
            [
                127.10000000000001,
                26.199999999999996
            ],
            [
                127.09999999999997,
                26.2
            ],
            [
                127.0,
                26.299999999999997
            ],
            [
                126.9,
                26.4
            ],
            [
                126.70000000000002,
                26.499999999999993
            ],
            [
                126.50000000000001,
                26.6
            ],
            [
                126.29999999999998,
                26.699999999999996
            ],
            [
                126.20000000000002,
                26.9
            ],
            [
                126.0,
                27.1
            ],
            [
                125.80000000000001,
                27.199999999999996
            ],
            [
                125.69999999999999,
                27.3
            ],
            [
                125.6,
                27.4
            ],
            [
                125.50000000000001,
                27.5
            ],
            [
                125.3,
                27.6
            ],
            [
                125.09999999999998,
                27.5
            ],
            [
                125.0,
                27.5
            ],
            [
                124.89999999999998,
                27.4
            ],
            [
                124.79999999999998,
                27.2
            ],
            [
                124.69999999999999,
                27.0
            ],
            [
                124.6,
                26.800000000000004
            ],
            [
                124.4,
                26.60000000000001
            ],
            [
                124.3,
                26.4
            ],
            [
                124.19999999999999,
                26.2
            ],
            [
                123.99999999999997,
                26.0
            ],
            [
                123.9,
                25.9
            ],
            [
                123.80000000000001,
                25.800000000000004
            ],
            [
                123.7,
                25.7
            ],
            [
                123.49999999999999,
                25.6
            ],
            [
                123.29999999999998,
                25.6
            ],
            [
                123.1,
                25.499999999999996
            ],
            [
                122.8,
                25.5
            ],
            [
                122.60000000000001,
                25.399999999999995
            ],
            [
                122.4,
                25.2
            ],
            [
                122.2,
                25.099999999999998
            ],
            [
                121.89999999999999,
                24.899999999999995
            ],
            [
                121.6,
                24.599999999999998
            ],
            [
                121.4,
                24.4
            ],
            [
                121.29999999999998,
                24.199999999999996
            ],
            [
                121.3,
                24.0
            ],
            [
                121.3,
                23.799999999999997
            ],
            [
                121.3,
                23.799999999999997
            ],
            [
                121.4,
                23.699999999999996
            ],
            [
                121.29999999999998,
                23.6
            ],
            [
                121.29999999999998,
                23.599999999999998
            ],
            [
                121.29999999999998,
                23.5
            ],
            [
                121.19999999999999,
                23.5
            ],
            [
                121.1,
                23.400000000000002
            ],
            [
                120.9,
                23.299999999999997
            ],
            [
                120.79999999999998,
                23.3
            ],
            [
                120.7,
                23.2
            ],
            [
                120.2,
                22.9
            ],
            [
                119.79999999999998,
                22.699999999999996
            ],
            [
                119.5,
                22.6
            ]
        ]
    },
    "properties": {
        "trajectory_id": 175,
        "object_id": 200124823125,
        "label": "WP"
    }
}