{
    "type": "Feature",
    "geometry": {
        "type": "LineString",
        "coordinates": [
            [
                89.0,
                21.0
            ],
            [
                88.95591244090068,
                21.062066466500518
            ],
            [
                88.85769540255038,
                21.123466484643195
            ],
            [
                88.73111538539713,
                21.185279066055006
            ],
            [
                88.60098068893146,
                21.248100708920116
            ],
            [
                88.48418387833493,
                21.30854184964303
            ],
            [
                88.40651675021189,
                21.36769423802991
            ],
            [
                88.42222775058319,
                21.440979306793125
            ],
            [
                88.49497651847778,
                21.49820142178506
            ],
            [
                88.51892818991764,
                21.49233121676094
            ],
            [
                88.48578367721232,
                21.519283764449266
            ],
            [
                88.42213177533637,
                21.646859399647738
            ],
            [
                88.34903775581253,
                21.81753973489216
            ],
            [
                88.18526341353218,
                22.01236274944214
            ],
            [
                87.84002159910695,
                22.245803444357332
            ],
            [
                87.40475799841917,
                22.535039181696288
            ],
            [
                86.97225537652132,
                22.848710785940636
            ],
            [
                86.58417274631934,
                23.11260620392455
            ],
            [
                86.22737362909969,
                23.349720299227116
            ],
            [
                85.86308579559736,
                23.5984682134667
            ],
            [
                85.44889256597712,
                23.836370684803214
            ],
            [
                85.0123269986181,
                23.997391133900692
            ],
            [
                84.62270218297773,
                24.02071384951379
            ],
            [
                84.28679553368194,
                23.99081172676132
            ],
            [
                83.98113447841337,
                23.99149139480185
            ],
            [
                83.66921070367798,
                24.041373024124994
            ],
            [
                83.36623149792788,
                24.10656063221951
            ],
            [
                83.10794081684548,
                24.159541627309018
            ],
            [
                82.90587100103195,
                24.258863453052584
            ],
            [
                82.72378596154888,
                24.387808339084344
            ],
            [
                82.49500935921542,
                24.461133545720596
            ],
            [
                82.22833801454921,
                24.51828506254023
            ],
            [
                82.06774844072666,
                24.63431655127303
            ],
            [
                82.28715568640969,
                24.84953665426144
            ],
            [
                82.28551140062406,
                25.000734156176943
            ],
            [
                81.30367060604041,
                24.89846886758158
            ],
            [
                80.20709992229601,
                24.751826155082146
            ],
            [
                79.58758078377714,
                24.702915216948124
            ],
            [
                79.2277539737571,
                24.69706063530489
            ],
            [
                78.9516054794773,
                24.700473610915704
            ],
            [
                78.69011659316814,
                24.700642609164635
            ],
            [
                78.52041875857107,
                24.69924314516613
            ],
            [
                78.4079883972537,
                24.69983079466433
            ],
            [
                78.23581979441501,
                24.702927108950533
            ],
            [
                78.03759476602185,
                24.69576837762436
            ],
            [
                77.85406493792442,
                24.69178790328257
            ],
            [
                77.66693074138782,
                24.742623515745855
            ],
            [
                77.48484105301749,
                24.80308573869744
            ],
            [
                77.34175889055761,
                24.80652650849183
            ],
            [
                77.28866468236424,
                24.798473691220305
            ],
            [
                77.2996861256704,
                24.80048797005989
            ],
            [
                77.2725583713245,
                24.793146034462975
            ],
            [
                77.16764078268385,
                24.808218164096655
            ],
            [
                76.98483459276702,
                24.870238280716396
            ],
            [
                76.75191180624833,
                24.947134261050863
            ],
            [
                76.5,
                25.0
            ]
        ]
    },
    "properties": {
        "trajectory_id": 1771,
        "object_id": 201623021089,
        "label": "NI"
    }
}