{
    "type": "Feature",
    "geometry": {
        "type": "LineString",
        "coordinates": [
            [
                -137.4,
                11.8
            ],
            [
                -137.8,
                11.599999999999998
            ],
            [
                -138.10000000000002,
                11.5
            ],
            [
                -138.4,
                11.400000000000002
            ],
            [
                -138.6,
                11.3
            ],
            [
                -138.8,
                11.2
            ],
            [
                -139.1,
                11.200000000000001
            ],
            [
                -139.4,
                11.199999999999998
            ],
            [
                -139.70000000000002,
                11.300000000000002
            ],
            [
                -140.0,
                11.4
            ],
            [
                -140.2,
                11.5
            ],
            [
                -140.3,
                11.5
            ],
            [
                -140.4,
                11.6
            ],
            [
                -140.4,
                11.7
            ],
            [
                -140.4,
                11.899999999999999
            ],
            [
                -140.3,
                12.0
            ],
            [
                -140.20000000000002,
                12.199999999999996
            ],
            [
                -139.99999999999997,
                12.4
            ],
            [
                -139.8,
                12.600000000000001
            ],
            [
                -139.6,
                12.799999999999999
            ],
            [
                -139.4,
                13.099999999999998
            ],
            [
                -139.2,
                13.299999999999999
            ],
            [
                -139.09999999999997,
                13.599999999999998
            ],
            [
                -138.9,
                13.8
            ],
            [
                -138.8,
                14.099999999999998
            ],
            [
                -138.7,
                14.399999999999999
            ],
            [
                -138.7,
                14.8
            ],
            [
                -138.7,
                15.199999999999998
            ],
            [
                -138.79999999999998,
                15.499999999999998
            ],
            [
                -138.9,
                15.799999999999999
            ],
            [
                -139.09999999999997,
                16.0
            ],
            [
                -139.3,
                16.3
            ],
            [
                -139.5,
                16.5
            ],
            [
                -139.69999999999996,
                16.7
            ],
            [
                -139.89999999999998,
                16.9
            ],
            [
                -140.2,
                17.199999999999996
            ],
            [
                -140.6,
                17.499999999999996
            ],
            [
                -140.89999999999998,
                17.7
            ],
            [
                -141.3,
                17.899999999999995
            ],
            [
                -141.69999999999996,
                18.099999999999998
            ],
            [
                -142.09999999999997,
                18.199999999999996
            ],
            [
                -142.5,
                18.4
            ],
            [
                -142.89999999999998,
                18.5
            ],
            [
                -143.4,
                18.6
            ],
            [
                -144.0,
                18.6
            ],
            [
                -144.6,
                18.7
            ],
            [
                -145.3,
                18.7
            ],
            [
                -146.1,
                18.7
            ],
            [
                -146.89999999999998,
                18.699999999999996
            ],
            [
                -147.8,
                18.7
            ],
            [
                -148.79999999999998,
                18.5
            ],
            [
                -149.7,
                18.1
            ],
            [
                -150.49999999999997,
                17.7
            ],
            [
                -151.3,
                17.4
            ],
            [
                -152.10000000000002,
                17.1
            ],
            [
                -152.9,
                16.8
            ]
        ]
    },
    "properties": {
        "trajectory_id": 1796,
        "object_id": 201627012223,
        "label": "EP"
    }
}