{
    "type": "Feature",
    "geometry": {
        "type": "LineString",
        "coordinates": [
            [
                171.0,
                10.6
            ],
            [
                170.70713113309552,
                10.659236823536398
            ],
            [
                170.45958085308976,
                10.70791806684317
            ],
            [
                170.20296685570426,
                10.758710426195869
            ],
            [
                169.8837188923968,
                10.823811460970957
            ],
            [
                169.49699005880194,
                10.88727051659921
            ],
            [
                169.1106060814382,
                10.89178345510851
            ],
            [
                168.7333724231434,
                10.828646752230917
            ],
            [
                168.3146646457485,
                10.738106726687558
            ],
            [
                167.87176890805029,
                10.623116004233092
            ],
            [
                167.46143128967526,
                10.467761297536237
            ],
            [
                167.1,
                10.3
            ],
            [
                166.7768262723771,
                10.16374941072747
            ],
            [
                166.44039857624375,
                10.094449295967841
            ],
            [
                166.03345518761734,
                10.09513764087942
            ],
            [
                165.5108179447043,
                10.09513158572054
            ],
            [
                164.89851964779876,
                10.04457811326292
            ],
            [
                164.32658672592953,
                9.944521441596471
            ],
            [
                163.84608461932496,
                9.83013580114285
            ],
            [
                163.42289885142495,
                9.759498275708994
            ],
            [
                163.0546135365442,
                9.711067461667175
            ],
            [
                162.74622712100273,
                9.62190023999495
            ],
            [
                162.4,
                9.5
            ],
            [
                161.9243388735049,
                9.380175845639728
            ],
            [
                161.42021212746548,
                9.287317805061406
            ],
            [
                160.97995234038598,
                9.230167431353925
            ],
            [
                160.5571115003984,
                9.184167415886769
            ],
            [
                160.11880077289703,
                9.130484983380088
            ],
            [
                159.68442835694702,
                9.067661129995649
            ],
            [
                159.2501540417507,
                9.01166133920864
            ],
            [
                158.78635647239406,
                8.991222969288858
            ],
            [
                158.28626829194337,
                8.998370529416912
            ],
            [
                157.76686423519234,
                9.004132698502392
            ],
            [
                157.3,
                9.0
            ],
            [
                156.94849288305838,
                8.991370481524894
            ],
            [
                156.6500049970838,
                9.00520212870862
            ],
            [
                156.3324041476283,
                9.056931298912897
            ],
            [
                155.97665748415886,
                9.120718251525934
            ],
            [
                155.59147675897722,
                9.176185071392217
            ],
            [
                155.21618911692718,
                9.221832272467589
            ],
            [
                154.89079734819626,
                9.274820772158641
            ],
            [
                154.6466997753441,
                9.365610873511217
            ],
            [
                154.43802880018865,
                9.48121947662427
            ],
            [
                154.1744299825955,
                9.587626320085306
            ],
            [
                153.8,
                9.699999999999998
            ],
            [
                153.291410113477,
                9.847418202319146
            ],
            [
                152.6980984078331,
                10.033597301467193
            ],
            [
                152.08649782706937,
                10.250042952555171
            ],
            [
                151.51956997558932,
                10.47408389464389
            ],
            [
                151.0261578061053,
                10.692126378199417
            ],
            [
                150.582457391057,
                10.907962518464561
            ],
            [
                150.15002082959603,
                11.126116122850052
            ],
            [
                149.68411494465192,
                11.34916191617262
            ],
            [
                149.18452953227643,
                11.56589648141851
            ],
            [
                148.68006368907612,
                11.756248785069761
            ],
            [
                148.2,
                11.9
            ]
        ]
    },
    "properties": {
        "trajectory_id": 1813,
        "object_id": 201631511171,
        "label": "WP"
    }
}