{
    "type": "Feature",
    "geometry": {
        "type": "LineString",
        "coordinates": [
            [
                128.3,
                -10.6
            ],
            [
                127.94065331784529,
                -10.686820459211363
            ],
            [
                127.75758022329579,
                -10.850268497528639
            ],
            [
                127.59972526137221,
                -11.030829207909754
            ],
            [
                127.32539093107414,
                -11.172569389455367
            ],
            [
                126.95602134610215,
                -11.28199740967221
            ],
            [
                126.63177494361508,
                -11.405797860622801
            ],
            [
                126.36944282764894,
                -11.509636257065003
            ],
            [
                126.13645822774018,
                -11.563409622208034
            ],
            [
                125.90421689808873,
                -11.63755289277988
            ],
            [
                125.6694750364947,
                -11.759626550547509
            ],
            [
                125.4603460916956,
                -11.883575734187838
            ],
            [
                125.3037734659986,
                -11.996534800225126
            ],
            [
                125.2012126792571,
                -12.109062758094607
            ],
            [
                125.05148941758667,
                -12.232337684583465
            ],
            [
                124.81070284849821,
                -12.356174474518523
            ],
            [
                124.59570065817832,
                -12.432496870037344
            ],
            [
                124.43135311132832,
                -12.485161446520635
            ],
            [
                124.25328587315683,
                -12.591488169903899
            ],
            [
                124.08660841183263,
                -12.708921122620161
            ],
            [
                123.96878631237689,
                -12.77352984573931
            ],
            [
                123.8537828903482,
                -12.816654589158649
            ],
            [
                123.7321530778417,
                -12.87395827091577
            ],
            [
                123.65972432096864,
                -12.956132636212304
            ],
            [
                123.60495024164514,
                -13.000935744922277
            ],
            [
                123.49750887282642,
                -12.94003414892884
            ],
            [
                123.37552175606126,
                -12.903228670947525
            ],
            [
                123.2674623970166,
                -12.97147138857589
            ],
            [
                123.11503628934311,
                -13.00224170033006
            ],
            [
                122.93371229482236,
                -12.991813260972375
            ],
            [
                122.80736182219303,
                -13.078807701258617
            ],
            [
                122.69099457544351,
                -13.20627656162431
            ],
            [
                122.51677774591069,
                -13.269478708190439
            ],
            [
                122.34774500741891,
                -13.321393782480877
            ],
            [
                122.23226757443342,
                -13.386128602961476
            ],
            [
                122.15579144473782,
                -13.401779220721599
            ],
            [
                122.10396862197331,
                -13.39779568616937
            ],
            [
                122.06063489043362,
                -13.450361997063188
            ],
            [
                121.97942345915995,
                -13.506468874599891
            ],
            [
                121.85206437035308,
                -13.509266399650572
            ],
            [
                121.778464962013,
                -13.492625739565089
            ],
            [
                121.79040336240442,
                -13.493762619985954
            ],
            [
                121.83447284217637,
                -13.535317939039253
            ],
            [
                121.9026706581949,
                -13.602129811098814
            ],
            [
                121.98637470563551,
                -13.664958040434858
            ],
            [
                121.98253100731613,
                -13.713395819265763
            ],
            [
                121.85843275607404,
                -13.765177546408434
            ],
            [
                121.726145183957,
                -13.870993393627424
            ],
            [
                121.61474659578738,
                -13.989921446024015
            ],
            [
                121.48990166923717,
                -14.025730719501118
            ],
            [
                121.3880862299516,
                -13.99243757831614
            ],
            [
                121.33442051289038,
                -13.934989434089708
            ],
            [
                121.26047935794385,
                -13.873609612655697
            ],
            [
                121.13820325161822,
                -13.815913649671
            ],
            [
                121.0044990154332,
                -13.759156789349198
            ],
            [
                120.9,
                -13.7
            ]
        ]
    },
    "properties": {
        "trajectory_id": 1843,
        "object_id": 201711109146,
        "label": "SI"
    }
}