{
    "type": "Feature",
    "geometry": {
        "type": "LineString",
        "coordinates": [
            [
                -114.9,
                12.5
            ],
            [
                -115.00727186444075,
                12.63913609843583
            ],
            [
                -115.16500624499119,
                12.730130890456914
            ],
            [
                -115.35337362914629,
                12.789055739538366
            ],
            [
                -115.55084779745883,
                12.835359288745254
            ],
            [
                -115.72188597033318,
                12.916390015424904
            ],
            [
                -115.84670342770966,
                13.048130124101027
            ],
            [
                -115.96291491633272,
                13.13574737625257
            ],
            [
                -116.08871036343922,
                13.192225187844695
            ],
            [
                -116.21546425949991,
                13.313685676687735
            ],
            [
                -116.33326234945355,
                13.423956722923524
            ],
            [
                -116.45311046411618,
                13.477675756028589
            ],
            [
                -116.61705496843567,
                13.572113282959531
            ],
            [
                -116.81136379527823,
                13.70789882787154
            ],
            [
                -116.99793341696524,
                13.83310766645038
            ],
            [
                -117.18125168720735,
                13.953672711899399
            ],
            [
                -117.36715253432465,
                14.077924233016702
            ],
            [
                -117.5528735927125,
                14.20263908199605
            ],
            [
                -117.73815948436152,
                14.324843910432199
            ],
            [
                -117.92362772515354,
                14.4468464709194
            ],
            [
                -118.10906233242545,
                14.579358694022575
            ],
            [
                -118.29454006455813,
                14.69730680495932
            ],
            [
                -118.48020376270095,
                14.764495723022382
            ],
            [
                -118.66512441582951,
                14.82347623279823
            ],
            [
                -118.85036303842175,
                14.888833155056053
            ],
            [
                -119.03888412326768,
                14.909399918666574
            ],
            [
                -119.220450027484,
                14.898793026664658
            ],
            [
                -119.39683583122012,
                14.896270830006667
            ],
            [
                -119.62056025998936,
                14.90591284451761
            ],
            [
                -119.87296305935998,
                14.903275717621499
            ],
            [
                -120.07361403010495,
                14.85274769652056
            ],
            [
                -120.24640330630129,
                14.782055712691037
            ],
            [
                -120.43157422438809,
                14.72086096882595
            ],
            [
                -120.62684184368918,
                14.660596729546498
            ],
            [
                -120.80458744356932,
                14.598165223196336
            ],
            [
                -120.93640961375844,
                14.536247130347649
            ],
            [
                -121.04300380419983,
                14.474584545985953
            ],
            [
                -121.16714204086591,
                14.412737536437799
            ],
            [
                -121.35053318397924,
                14.350897456350907
            ],
            [
                -121.52509753474982,
                14.289093178062119
            ],
            [
                -121.64041686138357,
                14.227277452362543
            ],
            [
                -121.80037292344669,
                14.165445296578065
            ],
            [
                -121.99072204405168,
                14.103633872445501
            ],
            [
                -122.11449292686906,
                14.041863455039005
            ],
            [
                -122.25495364977783,
                13.97993386648757
            ],
            [
                -122.44968548118418,
                13.918053248674198
            ],
            [
                -122.59096110238508,
                13.85690109568584
            ],
            [
                -122.71319388148463,
                13.794325015356197
            ],
            [
                -122.89641735476194,
                13.730402880064778
            ],
            [
                -123.0853115640319,
                13.676049253825346
            ],
            [
                -123.26939774554826,
                13.61308814671322
            ],
            [
                -123.50233422525787,
                13.501093728400338
            ],
            [
                -123.75999914381983,
                13.370597577249274
            ],
            [
                -124.00721387133817,
                13.249979420001036
            ],
            [
                -124.250155950282,
                13.106490345465748
            ],
            [
                -124.5,
                12.9
            ]
        ]
    },
    "properties": {
        "trajectory_id": 1857,
        "object_id": 201719813245,
        "label": "EP"
    }
}