{
    "type": "Feature",
    "geometry": {
        "type": "LineString",
        "coordinates": [
            [
                -72.1,
                25.1
            ],
            [
                -72.20000000000002,
                25.5
            ],
            [
                -72.30000000000001,
                25.9
            ],
            [
                -72.4,
                26.200000000000003
            ],
            [
                -72.4,
                26.6
            ],
            [
                -72.49999999999999,
                27.0
            ],
            [
                -72.6,
                27.5
            ],
            [
                -72.7,
                28.0
            ],
            [
                -72.8,
                28.4
            ],
            [
                -72.9,
                28.799999999999997
            ],
            [
                -72.9,
                29.1
            ],
            [
                -72.9,
                29.4
            ],
            [
                -72.9,
                29.7
            ],
            [
                -72.9,
                30.0
            ],
            [
                -72.9,
                30.299999999999997
            ],
            [
                -72.9,
                30.6
            ],
            [
                -72.99999999999999,
                30.8
            ],
            [
                -73.1,
                31.1
            ],
            [
                -73.09999999999998,
                31.4
            ],
            [
                -73.1,
                31.7
            ],
            [
                -73.09999999999998,
                31.999999999999993
            ],
            [
                -73.09999999999998,
                32.29999999999999
            ],
            [
                -73.09999999999998,
                32.599999999999994
            ],
            [
                -73.1,
                32.99999999999999
            ],
            [
                -73.1,
                33.3
            ],
            [
                -73.1,
                33.6
            ],
            [
                -73.1,
                33.9
            ],
            [
                -73.1,
                34.2
            ],
            [
                -73.0,
                34.39999999999999
            ],
            [
                -72.9,
                34.699999999999996
            ],
            [
                -72.9,
                34.89999999999999
            ],
            [
                -72.9,
                35.1
            ],
            [
                -72.8,
                35.4
            ],
            [
                -72.7,
                35.699999999999996
            ],
            [
                -72.6,
                36.0
            ],
            [
                -72.5,
                36.29999999999999
            ],
            [
                -72.2,
                36.599999999999994
            ],
            [
                -71.79999999999998,
                36.7
            ],
            [
                -71.29999999999998,
                36.7
            ],
            [
                -70.69999999999999,
                36.79999999999999
            ],
            [
                -70.0,
                36.8
            ],
            [
                -69.3,
                36.8
            ],
            [
                -68.6,
                36.79999999999999
            ],
            [
                -67.79999999999998,
                36.79999999999999
            ],
            [
                -66.79999999999998,
                36.89999999999999
            ],
            [
                -65.8,
                37.0
            ],
            [
                -64.6,
                37.0
            ],
            [
                -63.4,
                37.0
            ],
            [
                -61.99999999999999,
                36.99999999999999
            ],
            [
                -60.599999999999994,
                37.099999999999994
            ],
            [
                -58.99999999999999,
                37.4
            ],
            [
                -57.29999999999999,
                37.7
            ],
            [
                -55.599999999999994,
                38.10000000000001
            ],
            [
                -53.89999999999999,
                38.599999999999994
            ],
            [
                -52.199999999999996,
                39.10000000000001
            ],
            [
                -50.5,
                39.5
            ]
        ]
    },
    "properties": {
        "trajectory_id": 1901,
        "object_id": 201726012310,
        "label": "nan"
    }
}