{
    "type": "Feature",
    "geometry": {
        "type": "LineString",
        "coordinates": [
            [
                138.0,
                7.4
            ],
            [
                137.85169512781212,
                7.6401065772501395
            ],
            [
                137.62460974437582,
                7.879786845499724
            ],
            [
                137.37687563906047,
                8.120532886250695
            ],
            [
                137.14354384969113,
                8.35904080474875
            ],
            [
                136.89999999999998,
                8.599999999999998
            ],
            [
                136.5837638190346,
                8.847353830259575
            ],
            [
                136.2559591001292,
                9.024295279955583
            ],
            [
                135.94728603805507,
                9.184928655881443
            ],
            [
                135.60678247914052,
                9.326449007508353
            ],
            [
                135.2,
                9.400000000000002
            ],
            [
                134.79848576490727,
                9.485736493107819
            ],
            [
                134.40345568069358,
                9.507897465883657
            ],
            [
                133.99101574362479,
                9.49562635474912
            ],
            [
                133.61705710357705,
                9.504066651871444
            ],
            [
                133.3,
                9.5
            ],
            [
                132.9000745729846,
                9.421525832657526
            ],
            [
                132.51684295442655,
                9.346213101473772
            ],
            [
                132.03136822515236,
                9.230584165447663
            ],
            [
                131.4686956148049,
                9.05528145555197
            ],
            [
                131.0,
                8.899999999999999
            ],
            [
                130.5263813941068,
                8.81267504245256
            ],
            [
                129.99447747806107,
                8.78304422002854
            ],
            [
                129.38641993593302,
                8.843301742097617
            ],
            [
                128.73869216857545,
                8.902135725211021
            ],
            [
                128.1,
                8.899999999999999
            ],
            [
                127.4595158837369,
                9.048632403139354
            ],
            [
                126.82298778942699,
                9.24116558406289
            ],
            [
                126.1644993458587,
                9.315553801489939
            ],
            [
                125.38718508883449,
                9.296649235386429
            ],
            [
                124.5,
                9.299999999999999
            ],
            [
                123.7053000508534,
                9.300411166582688
            ],
            [
                122.83395367077985,
                9.299879088172192
            ],
            [
                122.01525316065725,
                9.299735746950713
            ],
            [
                121.33361506531428,
                9.30061593975623
            ],
            [
                120.7,
                9.3
            ],
            [
                120.14149398182391,
                9.295133913902214
            ],
            [
                119.53922434186703,
                9.344177521342443
            ],
            [
                118.8386138216473,
                9.475581106948338
            ],
            [
                118.13253758213781,
                9.638043077322362
            ],
            [
                117.5,
                9.8
            ],
            [
                116.85653242299159,
                10.036368130447128
            ],
            [
                116.26196865142323,
                10.282560052261813
            ],
            [
                115.76062823892129,
                10.517399001027098
            ],
            [
                115.26827586942296,
                10.76374106078244
            ],
            [
                114.69999999999999,
                11.0
            ],
            [
                114.1377960785457,
                11.161083392841073
            ],
            [
                113.58589403424305,
                11.328472617449453
            ],
            [
                113.00406452908364,
                11.443825092308526
            ],
            [
                112.4905810859163,
                11.528522714470974
            ],
            [
                112.09999999999998,
                11.7
            ],
            [
                111.61830681488047,
                11.933010080721177
            ],
            [
                111.19027399173306,
                12.20352773293268
            ],
            [
                110.80389040330678,
                12.33426890682693
            ],
            [
                110.3980547983466,
                12.276865546586537
            ],
            [
                110.0,
                12.2
            ]
        ]
    },
    "properties": {
        "trajectory_id": 1921,
        "object_id": 201736407138,
        "label": "WP"
    }
}