{
    "type": "Feature",
    "geometry": {
        "type": "LineString",
        "coordinates": [
            [
                171.9,
                -16.0
            ],
            [
                171.8,
                -15.900000000000002
            ],
            [
                171.60000000000002,
                -15.8
            ],
            [
                171.40000000000003,
                -15.7
            ],
            [
                171.2,
                -15.599999999999998
            ],
            [
                170.9,
                -15.499999999999998
            ],
            [
                170.69999999999996,
                -15.399999999999999
            ],
            [
                170.3,
                -15.4
            ],
            [
                170.00000000000003,
                -15.500000000000002
            ],
            [
                169.5,
                -15.7
            ],
            [
                169.1,
                -15.900000000000002
            ],
            [
                168.7,
                -15.9
            ],
            [
                168.40000000000003,
                -16.0
            ],
            [
                167.9,
                -15.9
            ],
            [
                167.49999999999994,
                -15.9
            ],
            [
                167.3,
                -16.0
            ],
            [
                167.19999999999996,
                -16.2
            ],
            [
                166.89999999999998,
                -16.399999999999995
            ],
            [
                166.6,
                -16.6
            ],
            [
                166.4,
                -16.8
            ],
            [
                166.19999999999996,
                -16.9
            ],
            [
                165.89999999999998,
                -17.0
            ],
            [
                165.7,
                -17.2
            ],
            [
                165.49999999999997,
                -17.299999999999997
            ],
            [
                165.5,
                -17.499999999999996
            ],
            [
                165.3,
                -17.6
            ],
            [
                165.29999999999998,
                -17.699999999999996
            ],
            [
                165.2,
                -17.7
            ],
            [
                165.2,
                -17.8
            ],
            [
                165.29999999999998,
                -17.899999999999995
            ],
            [
                165.5,
                -18.1
            ],
            [
                165.8,
                -18.299999999999997
            ],
            [
                166.3,
                -18.7
            ],
            [
                166.59999999999997,
                -19.1
            ],
            [
                167.10000000000002,
                -19.5
            ],
            [
                167.5,
                -19.899999999999995
            ],
            [
                168.09999999999997,
                -20.399999999999995
            ],
            [
                168.5,
                -20.800000000000004
            ],
            [
                169.09999999999997,
                -21.4
            ],
            [
                169.8,
                -22.3
            ],
            [
                170.69999999999996,
                -23.3
            ],
            [
                171.59999999999997,
                -24.299999999999997
            ],
            [
                172.39999999999998,
                -25.399999999999995
            ],
            [
                172.8,
                -26.299999999999997
            ],
            [
                173.0,
                -27.199999999999996
            ],
            [
                173.2,
                -27.999999999999993
            ],
            [
                173.3,
                -28.699999999999996
            ],
            [
                173.29999999999998,
                -28.999999999999996
            ],
            [
                173.29999999999998,
                -29.300000000000004
            ],
            [
                173.4,
                -29.4
            ],
            [
                173.59999999999997,
                -29.5
            ],
            [
                173.8,
                -29.599999999999998
            ],
            [
                174.2,
                -29.899999999999995
            ],
            [
                175.0,
                -30.599999999999998
            ],
            [
                175.80000000000004,
                -31.5
            ],
            [
                176.4,
                -32.4
            ]
        ]
    },
    "properties": {
        "trajectory_id": 1936,
        "object_id": 201806416172,
        "label": "SP"
    }
}