{
    "type": "Feature",
    "geometry": {
        "type": "LineString",
        "coordinates": [
            [
                137.2,
                -7.6
            ],
            [
                137.0,
                -7.7
            ],
            [
                136.8,
                -7.800000000000001
            ],
            [
                136.8,
                -8.0
            ],
            [
                136.89999999999998,
                -8.299999999999999
            ],
            [
                136.89999999999998,
                -8.5
            ],
            [
                136.89999999999998,
                -8.800000000000002
            ],
            [
                136.8,
                -9.0
            ],
            [
                136.60000000000002,
                -9.200000000000001
            ],
            [
                136.39999999999998,
                -9.4
            ],
            [
                136.2,
                -9.500000000000002
            ],
            [
                136.1,
                -9.7
            ],
            [
                136.0,
                -9.8
            ],
            [
                136.0,
                -9.799999999999999
            ],
            [
                136.1,
                -9.8
            ],
            [
                136.1,
                -9.8
            ],
            [
                136.1,
                -9.899999999999999
            ],
            [
                136.19999999999996,
                -9.9
            ],
            [
                136.39999999999998,
                -9.799999999999999
            ],
            [
                136.4,
                -9.8
            ],
            [
                136.5,
                -9.8
            ],
            [
                136.5,
                -9.8
            ],
            [
                136.6,
                -9.8
            ],
            [
                136.79999999999998,
                -9.8
            ],
            [
                137.09999999999997,
                -9.899999999999999
            ],
            [
                137.5,
                -10.1
            ],
            [
                137.99999999999997,
                -10.499999999999998
            ],
            [
                138.4,
                -10.799999999999999
            ],
            [
                138.7,
                -11.199999999999998
            ],
            [
                139.1,
                -11.599999999999998
            ],
            [
                139.5,
                -11.999999999999998
            ],
            [
                139.8,
                -12.299999999999999
            ],
            [
                140.2,
                -12.599999999999998
            ],
            [
                140.59999999999997,
                -12.999999999999998
            ],
            [
                140.99999999999997,
                -13.5
            ],
            [
                141.2,
                -13.899999999999999
            ],
            [
                141.5,
                -14.400000000000002
            ],
            [
                141.6,
                -14.899999999999999
            ],
            [
                141.6,
                -15.399999999999999
            ],
            [
                141.5,
                -15.8
            ],
            [
                141.5,
                -16.199999999999996
            ],
            [
                141.5,
                -16.5
            ],
            [
                141.59999999999997,
                -16.7
            ],
            [
                141.7,
                -16.8
            ],
            [
                141.8,
                -16.9
            ],
            [
                141.79999999999998,
                -17.0
            ],
            [
                141.79999999999998,
                -17.0
            ],
            [
                141.69999999999996,
                -17.0
            ],
            [
                141.7,
                -16.9
            ],
            [
                141.89999999999998,
                -16.9
            ],
            [
                142.09999999999997,
                -16.9
            ],
            [
                142.29999999999998,
                -16.9
            ],
            [
                142.4,
                -16.8
            ],
            [
                142.6,
                -16.7
            ],
            [
                142.79999999999998,
                -16.7
            ],
            [
                143.0,
                -16.6
            ]
        ]
    },
    "properties": {
        "trajectory_id": 1941,
        "object_id": 201807908137,
        "label": "SP"
    }
}