{
    "type": "Feature",
    "geometry": {
        "type": "LineString",
        "coordinates": [
            [
                156.4,
                17.5
            ],
            [
                156.17322222860284,
                17.622122689624213
            ],
            [
                155.97591629680113,
                17.843130514232232
            ],
            [
                155.7301175738161,
                18.041090866016738
            ],
            [
                155.4337213474354,
                18.180495813925877
            ],
            [
                155.20174398216992,
                18.374272916549984
            ],
            [
                154.99281919447282,
                18.640422047157603
            ],
            [
                154.77314981324113,
                18.936597540042186
            ],
            [
                154.55785673210084,
                19.225728162779788
            ],
            [
                154.31941375021194,
                19.527733827111863
            ],
            [
                154.15802494707398,
                19.786443740325918
            ],
            [
                154.10000000000002,
                20.000000000000004
            ],
            [
                154.0219518688898,
                20.27718527146499
            ],
            [
                153.99010473996887,
                20.621436723456757
            ],
            [
                154.00262246881644,
                20.99261947314604
            ],
            [
                154.0012588345239,
                21.355528252862186
            ],
            [
                153.992632135365,
                21.711821890814026
            ],
            [
                154.0236320672149,
                22.10321715211783
            ],
            [
                154.11387297085372,
                22.56113500207554
            ],
            [
                154.25461299400985,
                23.0720982146737
            ],
            [
                154.45945290326222,
                23.575794066159006
            ],
            [
                154.6797776180879,
                24.108193136447944
            ],
            [
                154.89999999999998,
                24.700000000000003
            ],
            [
                155.18031615300748,
                25.332019987564802
            ],
            [
                155.51347099764308,
                26.09667783354222
            ],
            [
                155.9045199945078,
                26.885135215925253
            ],
            [
                156.34516396239317,
                27.603055647239987
            ],
            [
                156.7763689233654,
                28.45187792450237
            ],
            [
                157.24093631228587,
                29.333505097854314
            ],
            [
                157.76866655164514,
                30.215440969254427
            ],
            [
                158.34635773063226,
                31.16844530163934
            ],
            [
                158.98298834114172,
                32.055438251955
            ],
            [
                159.65115620315555,
                32.94511269560449
            ],
            [
                160.3,
                33.89999999999999
            ],
            [
                160.8903652904982,
                34.83883440552936
            ],
            [
                161.43752574490955,
                35.8191680847
            ],
            [
                161.9051047833261,
                36.69067967813648
            ],
            [
                162.2603837645401,
                37.32514776054652
            ],
            [
                162.5876762302879,
                37.95455081481535
            ],
            [
                163.07692541711393,
                38.670610703601184
            ],
            [
                163.8006372791377,
                39.51432445863788
            ],
            [
                164.67184596395563,
                40.46878187726966
            ],
            [
                165.59440121577427,
                41.333059948337606
            ],
            [
                166.58093121665289,
                42.057208119171186
            ],
            [
                167.59999999999997,
                42.6
            ],
            [
                168.5422030143468,
                42.856588237558206
            ],
            [
                169.52898542984298,
                42.94436812254691
            ],
            [
                170.55142011815332,
                43.02922864723611
            ],
            [
                171.5662060977453,
                43.18109308551162
            ],
            [
                172.69947677326417,
                43.32137564199156
            ],
            [
                173.90702577814457,
                43.49830927057474
            ],
            [
                175.16127803455643,
                43.72968770090296
            ],
            [
                176.4749728408683,
                43.95234520204468
            ],
            [
                177.74399646181084,
                44.117999333883375
            ],
            [
                178.94325206350925,
                44.24830955719073
            ],
            [
                180.1,
                44.4
            ]
        ]
    },
    "properties": {
        "trajectory_id": 196,
        "object_id": 200129105158,
        "label": "WP"
    }
}