{
    "type": "Feature",
    "geometry": {
        "type": "LineString",
        "coordinates": [
            [
                133.8,
                25.5
            ],
            [
                133.51872652735562,
                25.827186467398104
            ],
            [
                133.30408377629198,
                26.154624720376198
            ],
            [
                133.11100022736332,
                26.48183769151956
            ],
            [
                132.90874981968545,
                26.80875020508159
            ],
            [
                132.73354505430828,
                27.13704872545801
            ],
            [
                132.61089180887333,
                27.46410709142067
            ],
            [
                132.53024048829403,
                27.78626570018039
            ],
            [
                132.49062697321952,
                28.1276720676523
            ],
            [
                132.4948687947762,
                28.525346660302887
            ],
            [
                132.54385182284273,
                29.013563894383037
            ],
            [
                132.6294974054889,
                29.578778333779177
            ],
            [
                132.76051352358905,
                30.171927732193346
            ],
            [
                132.97590455988274,
                30.73733609241804
            ],
            [
                133.2861799796926,
                31.375533352092994
            ],
            [
                133.67946691411,
                32.16660896151796
            ],
            [
                134.1403999518306,
                33.02447664645345
            ],
            [
                134.71286711656174,
                33.987341507130914
            ],
            [
                135.36553258216784,
                35.09122270575535
            ],
            [
                136.0419383908356,
                36.29464972746117
            ],
            [
                136.69353436674606,
                37.463674797745576
            ],
            [
                137.4072228497086,
                38.689137835551264
            ],
            [
                138.16565988390698,
                40.04546542271321
            ],
            [
                138.84975239957086,
                41.407059322946395
            ],
            [
                139.33524237806822,
                42.597150672968894
            ],
            [
                139.66615999929834,
                43.73131385297198
            ],
            [
                139.69362268694033,
                44.82899975086589
            ],
            [
                139.2215866691309,
                45.819620722506166
            ],
            [
                138.59016772260577,
                46.78778195469579
            ],
            [
                138.01544511127307,
                47.77280090034541
            ],
            [
                137.47579623912313,
                48.72221503931549
            ],
            [
                136.99807309616529,
                49.54453536515269
            ],
            [
                136.62503005580282,
                50.243469646527615
            ],
            [
                136.38796849972422,
                50.916514785268454
            ],
            [
                136.2608370979454,
                51.522915517633706
            ],
            [
                136.20416024839434,
                52.03388538465011
            ],
            [
                136.18917794978182,
                52.49728104713994
            ],
            [
                136.21230894780314,
                52.95303562000051
            ],
            [
                136.28067080489845,
                53.41235817616819
            ],
            [
                136.39893282264975,
                53.8443752073533
            ],
            [
                136.5384813737577,
                54.178653640585466
            ],
            [
                136.6693869474987,
                54.42865321165604
            ],
            [
                136.7901532017859,
                54.755318897248365
            ],
            [
                136.93788098536186,
                55.050395243657725
            ],
            [
                137.13589721906294,
                55.22878859694253
            ],
            [
                137.34195544941196,
                55.527738865075406
            ],
            [
                137.52939390252675,
                55.838551500331995
            ],
            [
                137.67152937313838,
                56.01212460894573
            ],
            [
                137.71416107193082,
                56.34546634008983
            ],
            [
                137.69886064473863,
                56.859294943389095
            ],
            [
                137.7004512542639,
                57.42316794582887
            ],
            [
                137.68752217456017,
                58.15255629841631
            ],
            [
                137.59102551085886,
                59.05243900232675
            ],
            [
                137.3533890577367,
                60.024246117567124
            ],
            [
                137.0062005805816,
                61.04298836452406
            ],
            [
                136.6,
                62.1
            ]
        ]
    },
    "properties": {
        "trajectory_id": 1995,
        "object_id": 201823911161,
        "label": "WP"
    }
}