{
    "type": "Feature",
    "geometry": {
        "type": "LineString",
        "coordinates": [
            [
                -109.4,
                14.6
            ],
            [
                -109.9,
                15.000000000000002
            ],
            [
                -110.3,
                15.300000000000002
            ],
            [
                -110.7,
                15.6
            ],
            [
                -110.99999999999999,
                15.999999999999998
            ],
            [
                -111.3,
                16.4
            ],
            [
                -111.69999999999999,
                16.699999999999996
            ],
            [
                -112.09999999999997,
                17.0
            ],
            [
                -112.5,
                17.200000000000003
            ],
            [
                -112.9,
                17.3
            ],
            [
                -113.40000000000002,
                17.4
            ],
            [
                -113.90000000000002,
                17.5
            ],
            [
                -114.30000000000001,
                17.5
            ],
            [
                -114.69999999999999,
                17.500000000000004
            ],
            [
                -115.09999999999998,
                17.6
            ],
            [
                -115.39999999999999,
                17.7
            ],
            [
                -115.69999999999999,
                17.7
            ],
            [
                -115.99999999999999,
                17.699999999999996
            ],
            [
                -116.29999999999998,
                17.699999999999996
            ],
            [
                -116.59999999999998,
                17.7
            ],
            [
                -116.99999999999999,
                17.7
            ],
            [
                -117.29999999999998,
                17.699999999999996
            ],
            [
                -117.7,
                17.699999999999996
            ],
            [
                -117.99999999999999,
                17.7
            ],
            [
                -118.4,
                17.599999999999998
            ],
            [
                -118.79999999999998,
                17.5
            ],
            [
                -119.2,
                17.4
            ],
            [
                -119.6,
                17.3
            ],
            [
                -119.9,
                17.1
            ],
            [
                -120.20000000000002,
                16.9
            ],
            [
                -120.5,
                16.799999999999997
            ],
            [
                -120.8,
                16.699999999999996
            ],
            [
                -121.1,
                16.6
            ],
            [
                -121.4,
                16.5
            ],
            [
                -121.79999999999998,
                16.399999999999995
            ],
            [
                -122.09999999999998,
                16.3
            ],
            [
                -122.5,
                16.299999999999997
            ],
            [
                -122.89999999999999,
                16.2
            ],
            [
                -123.3,
                16.2
            ],
            [
                -123.8,
                16.199999999999996
            ],
            [
                -124.3,
                16.199999999999996
            ],
            [
                -124.89999999999999,
                16.3
            ],
            [
                -125.5,
                16.499999999999996
            ],
            [
                -126.1,
                16.699999999999996
            ],
            [
                -126.69999999999999,
                16.9
            ],
            [
                -127.49999999999997,
                17.1
            ],
            [
                -128.29999999999998,
                17.4
            ],
            [
                -129.09999999999997,
                17.6
            ],
            [
                -130.0,
                17.9
            ],
            [
                -130.9,
                18.2
            ],
            [
                -131.8,
                18.4
            ],
            [
                -132.8,
                18.6
            ],
            [
                -133.8,
                18.8
            ],
            [
                -134.8,
                19.0
            ],
            [
                -135.7,
                19.1
            ],
            [
                -136.7,
                19.2
            ]
        ]
    },
    "properties": {
        "trajectory_id": 1996,
        "object_id": 201824015251,
        "label": "EP"
    }
}