{
    "type": "Feature",
    "geometry": {
        "type": "LineString",
        "coordinates": [
            [
                -107.8,
                14.3
            ],
            [
                -108.19999999999999,
                14.4
            ],
            [
                -108.7,
                14.5
            ],
            [
                -109.20000000000002,
                14.600000000000001
            ],
            [
                -109.59999999999998,
                14.699999999999996
            ],
            [
                -110.09999999999998,
                14.8
            ],
            [
                -110.5,
                15.0
            ],
            [
                -110.9,
                15.199999999999996
            ],
            [
                -111.19999999999999,
                15.4
            ],
            [
                -111.49999999999999,
                15.599999999999998
            ],
            [
                -111.70000000000002,
                15.9
            ],
            [
                -111.90000000000002,
                16.200000000000003
            ],
            [
                -112.1,
                16.5
            ],
            [
                -112.4,
                16.7
            ],
            [
                -112.8,
                16.8
            ],
            [
                -113.1,
                16.900000000000002
            ],
            [
                -113.4,
                16.9
            ],
            [
                -113.7,
                16.899999999999995
            ],
            [
                -113.99999999999999,
                16.799999999999997
            ],
            [
                -114.2,
                16.699999999999996
            ],
            [
                -114.4,
                16.699999999999996
            ],
            [
                -114.59999999999998,
                16.7
            ],
            [
                -114.89999999999998,
                16.7
            ],
            [
                -115.2,
                16.699999999999996
            ],
            [
                -115.6,
                16.8
            ],
            [
                -116.09999999999998,
                16.9
            ],
            [
                -116.6,
                16.9
            ],
            [
                -117.1,
                16.9
            ],
            [
                -117.6,
                16.9
            ],
            [
                -118.09999999999998,
                16.8
            ],
            [
                -118.59999999999998,
                16.799999999999997
            ],
            [
                -119.1,
                16.8
            ],
            [
                -119.59999999999998,
                16.8
            ],
            [
                -120.09999999999997,
                16.799999999999997
            ],
            [
                -120.69999999999999,
                16.800000000000004
            ],
            [
                -121.2,
                16.9
            ],
            [
                -121.8,
                17.0
            ],
            [
                -122.39999999999999,
                17.1
            ],
            [
                -122.99999999999999,
                17.2
            ],
            [
                -123.59999999999998,
                17.3
            ],
            [
                -124.09999999999998,
                17.5
            ],
            [
                -124.69999999999999,
                17.6
            ],
            [
                -125.29999999999998,
                17.799999999999997
            ],
            [
                -125.89999999999999,
                17.9
            ],
            [
                -126.6,
                18.1
            ],
            [
                -127.29999999999998,
                18.299999999999997
            ],
            [
                -127.89999999999999,
                18.499999999999996
            ],
            [
                -128.59999999999997,
                18.7
            ],
            [
                -129.19999999999996,
                18.9
            ],
            [
                -129.9,
                19.1
            ],
            [
                -130.5,
                19.399999999999995
            ],
            [
                -131.09999999999997,
                19.7
            ],
            [
                -131.79999999999998,
                19.9
            ],
            [
                -132.5,
                20.1
            ],
            [
                -133.20000000000002,
                20.300000000000004
            ],
            [
                -133.9,
                20.5
            ]
        ]
    },
    "properties": {
        "trajectory_id": 2001,
        "object_id": 201824414252,
        "label": "EP"
    }
}