{
    "type": "Feature",
    "geometry": {
        "type": "LineString",
        "coordinates": [
            [
                75.6,
                -7.2
            ],
            [
                75.51329756504627,
                -7.3725095721396166
            ],
            [
                75.42394603028818,
                -7.554476146422484
            ],
            [
                75.34365478479153,
                -7.704098459902907
            ],
            [
                75.22049349671325,
                -7.988189605604915
            ],
            [
                74.98872437976775,
                -8.322386794728715
            ],
            [
                74.74915085704284,
                -8.567165495405957
            ],
            [
                74.5710017695675,
                -8.834294616585895
            ],
            [
                74.30465235065608,
                -9.095133360507681
            ],
            [
                74.13189487025049,
                -9.280707327842055
            ],
            [
                73.8859971479958,
                -9.365560770851346
            ],
            [
                73.62608415212567,
                -9.522552458847393
            ],
            [
                73.31967071360718,
                -9.650872118508806
            ],
            [
                72.95986678310537,
                -9.756261413138082
            ],
            [
                72.61205924429962,
                -9.94945643688664
            ],
            [
                72.26529854625144,
                -10.113177829076717
            ],
            [
                71.91668590841618,
                -10.19757560866739
            ],
            [
                71.47860874443904,
                -10.273161047481189
            ],
            [
                71.10933505315806,
                -10.456343865572348
            ],
            [
                70.77248857080627,
                -10.504350161584885
            ],
            [
                70.39868520337389,
                -10.541829587116066
            ],
            [
                69.87568123520397,
                -10.605839394242174
            ],
            [
                69.28037646780552,
                -10.61175147076477
            ],
            [
                68.86914399896837,
                -10.706997622702985
            ],
            [
                68.51998159951535,
                -10.791506619160296
            ],
            [
                68.18824215320839,
                -10.968692523669672
            ],
            [
                67.68464983364085,
                -11.066897515496365
            ],
            [
                67.21835997739653,
                -11.205883882003889
            ],
            [
                66.7407797119438,
                -11.380998001258547
            ],
            [
                66.2394638059949,
                -11.589315104574771
            ],
            [
                65.79949561953988,
                -11.843923233063395
            ],
            [
                65.26660477546474,
                -12.010828762549389
            ],
            [
                64.74420514537539,
                -12.188207306063028
            ],
            [
                64.21261332804418,
                -12.284134924194012
            ],
            [
                63.76194552363497,
                -12.36329375772429
            ],
            [
                63.3144095140848,
                -12.463769830717082
            ],
            [
                62.944584906260076,
                -12.507102911428456
            ],
            [
                62.52313325292347,
                -12.500947300611594
            ],
            [
                61.879985664366735,
                -12.493843046460736
            ],
            [
                61.27506618614727,
                -12.393140156650263
            ],
            [
                60.6648458263675,
                -12.213162831663647
            ],
            [
                60.04637241781238,
                -12.132365119883346
            ],
            [
                59.49689834582697,
                -11.914837409498547
            ],
            [
                59.002164790673,
                -11.645904327521249
            ],
            [
                58.395717304386025,
                -11.347768409194726
            ],
            [
                57.679401975664554,
                -10.993908222784526
            ],
            [
                56.981245725286584,
                -10.631712719754065
            ],
            [
                56.2866946776872,
                -10.191289359868739
            ],
            [
                55.68058330135892,
                -9.836085390848433
            ],
            [
                54.98482567342043,
                -9.573902617161316
            ],
            [
                54.354263496659996,
                -9.26064048952575
            ],
            [
                53.705060004302645,
                -8.85282337279361
            ],
            [
                52.98640473943452,
                -8.401510181657155
            ],
            [
                52.31132151330871,
                -7.989743752794887
            ],
            [
                51.718464120497785,
                -7.652280909420114
            ],
            [
                51.2,
                -7.3
            ]
        ]
    },
    "properties": {
        "trajectory_id": 2011,
        "object_id": 201825607076,
        "label": "SI"
    }
}