{
    "type": "Feature",
    "geometry": {
        "type": "LineString",
        "coordinates": [
            [
                113.1,
                9.9
            ],
            [
                112.87483047752018,
                10.014667413503396
            ],
            [
                112.58379454495902,
                10.153409377363706
            ],
            [
                112.27166135268041,
                10.277248048145928
            ],
            [
                111.98430831422975,
                10.354071644260433
            ],
            [
                111.77669311568461,
                10.408639443374064
            ],
            [
                111.65812724996493,
                10.47264913991819
            ],
            [
                111.51335401680628,
                10.525652125862054
            ],
            [
                111.3172334287678,
                10.591216648029405
            ],
            [
                111.13169248037161,
                10.716806850477074
            ],
            [
                110.94133996461626,
                10.822314554563846
            ],
            [
                110.74938519316507,
                10.874893147045418
            ],
            [
                110.62345880882144,
                10.98184743682638
            ],
            [
                110.48883737194225,
                11.105252139555754
            ],
            [
                110.24343397459926,
                11.161962432594017
            ],
            [
                110.00479067127287,
                11.249966068006195
            ],
            [
                109.82941421135459,
                11.381901423935009
            ],
            [
                109.65461172284482,
                11.451230528875845
            ],
            [
                109.4573293330731,
                11.520798653543762
            ],
            [
                109.22019610957865,
                11.651760945496932
            ],
            [
                108.89939626982573,
                11.745458849293572
            ],
            [
                108.51172355286913,
                11.798168149625145
            ],
            [
                108.10184800144863,
                11.870360503322768
            ],
            [
                107.61586917838767,
                11.899873256706142
            ],
            [
                107.10719748247271,
                11.832920248175224
            ],
            [
                106.79194380717585,
                11.680405205627036
            ],
            [
                106.5697387409038,
                11.474267077984566
            ],
            [
                106.26040006960459,
                11.237525872715763
            ],
            [
                105.9565665857381,
                10.946672670332442
            ],
            [
                105.72326751196113,
                10.633830541310346
            ],
            [
                105.54103526369867,
                10.375077267386862
            ],
            [
                105.34065223798946,
                10.13368049925635
            ],
            [
                105.08918817740198,
                9.8807975697126
            ],
            [
                104.84542579184482,
                9.672536376031484
            ],
            [
                104.59167859597035,
                9.494555987207129
            ],
            [
                104.28228081116377,
                9.302566577251298
            ],
            [
                103.98394016201982,
                9.14045677669198
            ],
            [
                103.74331822040534,
                9.022928361061586
            ],
            [
                103.54729824617515,
                8.906245058013054
            ],
            [
                103.3682105180889,
                8.776134327853091
            ],
            [
                103.18335377151512,
                8.646196545797654
            ],
            [
                102.99396624807062,
                8.557328715951684
            ],
            [
                102.81030543473669,
                8.50317314474601
            ],
            [
                102.63624536583916,
                8.44287150450912
            ],
            [
                102.42349082020164,
                8.380661852841563
            ],
            [
                102.16925222348343,
                8.320193411004553
            ],
            [
                101.95848669170083,
                8.2472342767746
            ],
            [
                101.78447684979176,
                8.198358354070706
            ],
            [
                101.60007891406134,
                8.203309601783987
            ],
            [
                101.41198819626422,
                8.179987790388807
            ],
            [
                101.22714650161636,
                8.109892799445692
            ],
            [
                101.04200853010798,
                8.052181583304414
            ],
            [
                100.85632329464386,
                7.977648620746419
            ],
            [
                100.67087003669103,
                7.85379716573227
            ],
            [
                100.48551162469636,
                7.714100645887802
            ],
            [
                100.3,
                7.6
            ]
        ]
    },
    "properties": {
        "trajectory_id": 2041,
        "object_id": 201832110113,
        "label": "WP"
    }
}