{
    "type": "Feature",
    "geometry": {
        "type": "LineString",
        "coordinates": [
            [
                95.3,
                -6.5
            ],
            [
                95.3,
                -6.6
            ],
            [
                95.4,
                -6.700000000000001
            ],
            [
                95.3,
                -6.900000000000001
            ],
            [
                95.29999999999998,
                -7.1
            ],
            [
                95.2,
                -7.300000000000001
            ],
            [
                95.19999999999999,
                -7.300000000000001
            ],
            [
                95.2,
                -7.4
            ],
            [
                95.2,
                -7.5
            ],
            [
                95.09999999999998,
                -7.499999999999999
            ],
            [
                95.0,
                -7.6
            ],
            [
                94.90000000000002,
                -7.700000000000001
            ],
            [
                94.8,
                -7.700000000000001
            ],
            [
                94.6,
                -7.9
            ],
            [
                94.3,
                -7.999999999999999
            ],
            [
                94.10000000000001,
                -8.100000000000001
            ],
            [
                93.89999999999999,
                -8.2
            ],
            [
                93.6,
                -8.299999999999999
            ],
            [
                93.39999999999999,
                -8.299999999999999
            ],
            [
                93.19999999999999,
                -8.4
            ],
            [
                93.0,
                -8.5
            ],
            [
                92.79999999999998,
                -8.599999999999998
            ],
            [
                92.59999999999998,
                -8.8
            ],
            [
                92.39999999999999,
                -9.0
            ],
            [
                92.2,
                -9.2
            ],
            [
                92.1,
                -9.299999999999999
            ],
            [
                92.0,
                -9.5
            ],
            [
                91.9,
                -9.799999999999999
            ],
            [
                91.9,
                -10.199999999999998
            ],
            [
                91.89999999999999,
                -10.499999999999998
            ],
            [
                91.8,
                -10.799999999999999
            ],
            [
                91.79999999999998,
                -10.999999999999998
            ],
            [
                91.79999999999998,
                -11.2
            ],
            [
                91.7,
                -11.7
            ],
            [
                91.6,
                -12.2
            ],
            [
                91.4,
                -12.8
            ],
            [
                91.2,
                -13.399999999999999
            ],
            [
                90.79999999999998,
                -13.7
            ],
            [
                90.39999999999999,
                -13.899999999999999
            ],
            [
                89.89999999999999,
                -14.1
            ],
            [
                89.39999999999999,
                -14.199999999999998
            ],
            [
                89.0,
                -14.399999999999999
            ],
            [
                88.49999999999999,
                -14.5
            ],
            [
                88.09999999999998,
                -14.499999999999998
            ],
            [
                87.69999999999999,
                -14.599999999999998
            ],
            [
                87.2,
                -14.600000000000001
            ],
            [
                86.9,
                -14.7
            ],
            [
                86.5,
                -14.799999999999997
            ],
            [
                86.19999999999999,
                -14.799999999999999
            ],
            [
                85.9,
                -14.9
            ],
            [
                85.8,
                -14.999999999999998
            ],
            [
                85.59999999999998,
                -15.100000000000001
            ],
            [
                85.5,
                -15.2
            ],
            [
                85.4,
                -15.3
            ],
            [
                85.39999999999999,
                -15.5
            ],
            [
                85.3,
                -15.6
            ]
        ]
    },
    "properties": {
        "trajectory_id": 210,
        "object_id": 200132906095,
        "label": "SI"
    }
}