{
    "type": "Feature",
    "geometry": {
        "type": "LineString",
        "coordinates": [
            [
                -103.4,
                12.4
            ],
            [
                -103.5,
                12.4
            ],
            [
                -103.69999999999999,
                12.5
            ],
            [
                -103.9,
                12.600000000000001
            ],
            [
                -103.99999999999999,
                12.7
            ],
            [
                -104.1,
                12.899999999999999
            ],
            [
                -104.30000000000001,
                13.1
            ],
            [
                -104.5,
                13.3
            ],
            [
                -104.70000000000002,
                13.400000000000002
            ],
            [
                -104.89999999999999,
                13.500000000000002
            ],
            [
                -105.20000000000002,
                13.5
            ],
            [
                -105.6,
                13.500000000000002
            ],
            [
                -106.00000000000001,
                13.499999999999998
            ],
            [
                -106.50000000000001,
                13.5
            ],
            [
                -107.0,
                13.5
            ],
            [
                -107.5,
                13.500000000000004
            ],
            [
                -107.99999999999999,
                13.5
            ],
            [
                -108.5,
                13.5
            ],
            [
                -108.99999999999999,
                13.6
            ],
            [
                -109.59999999999998,
                13.699999999999996
            ],
            [
                -110.29999999999998,
                13.799999999999997
            ],
            [
                -111.0,
                13.899999999999999
            ],
            [
                -111.69999999999999,
                13.999999999999998
            ],
            [
                -112.4,
                14.099999999999998
            ],
            [
                -113.09999999999997,
                14.099999999999998
            ],
            [
                -113.79999999999998,
                14.100000000000001
            ],
            [
                -114.59999999999998,
                14.199999999999996
            ],
            [
                -115.39999999999999,
                14.299999999999999
            ],
            [
                -116.09999999999998,
                14.399999999999999
            ],
            [
                -116.9,
                14.5
            ],
            [
                -117.59999999999998,
                14.6
            ],
            [
                -118.29999999999998,
                14.699999999999998
            ],
            [
                -118.99999999999999,
                14.799999999999999
            ],
            [
                -119.7,
                14.899999999999999
            ],
            [
                -120.29999999999998,
                14.999999999999998
            ],
            [
                -120.89999999999998,
                15.2
            ],
            [
                -121.49999999999997,
                15.399999999999999
            ],
            [
                -122.1,
                15.599999999999996
            ],
            [
                -122.6,
                15.899999999999999
            ],
            [
                -123.19999999999999,
                16.1
            ],
            [
                -123.79999999999998,
                16.3
            ],
            [
                -124.19999999999999,
                16.5
            ],
            [
                -124.6,
                16.7
            ],
            [
                -125.0,
                16.899999999999995
            ],
            [
                -125.4,
                17.199999999999996
            ],
            [
                -125.79999999999998,
                17.399999999999995
            ],
            [
                -126.09999999999998,
                17.6
            ],
            [
                -126.39999999999999,
                17.799999999999997
            ],
            [
                -126.69999999999999,
                18.1
            ],
            [
                -126.99999999999999,
                18.4
            ],
            [
                -127.19999999999999,
                18.6
            ],
            [
                -127.39999999999998,
                18.8
            ],
            [
                -127.6,
                19.0
            ],
            [
                -127.8,
                19.299999999999997
            ],
            [
                -128.0,
                19.5
            ],
            [
                -128.2,
                19.7
            ]
        ]
    },
    "properties": {
        "trajectory_id": 2254,
        "object_id": 202027212257,
        "label": "EP"
    }
}