{
    "type": "Feature",
    "geometry": {
        "type": "LineString",
        "coordinates": [
            [
                -70.9,
                15.5
            ],
            [
                -71.33275043858197,
                15.413566336435798
            ],
            [
                -71.78228476363364,
                15.323235086612645
            ],
            [
                -72.15079212431581,
                15.246234123126525
            ],
            [
                -72.50278626793948,
                15.11173458393023
            ],
            [
                -72.81648742645571,
                14.91927199006349
            ],
            [
                -73.07275701794647,
                14.768367791800035
            ],
            [
                -73.32663123850735,
                14.691892805638158
            ],
            [
                -73.496633547643,
                14.602760911366875
            ],
            [
                -73.67024601996094,
                14.431272511263764
            ],
            [
                -73.84576930144327,
                14.25333394216841
            ],
            [
                -74.02003491586295,
                14.080657521998791
            ],
            [
                -74.19400416399691,
                13.90461295388116
            ],
            [
                -74.37076273730057,
                13.732946398704556
            ],
            [
                -74.53974529438038,
                13.551738547757893
            ],
            [
                -74.7237635042241,
                13.388422591530768
            ],
            [
                -74.98900463788785,
                13.304810034468492
            ],
            [
                -75.24595378434843,
                13.13629990241036
            ],
            [
                -75.57652485590343,
                12.955447374254225
            ],
            [
                -75.94169987834083,
                12.788344549015116
            ],
            [
                -76.24885244539382,
                12.595481055384067
            ],
            [
                -76.47901570727272,
                12.479154066262987
            ],
            [
                -76.6217456482993,
                12.51365641772496
            ],
            [
                -76.71114694184315,
                12.611565653005155
            ],
            [
                -76.88921697175829,
                12.787971183510905
            ],
            [
                -77.05401340815996,
                12.968466735834005
            ],
            [
                -77.35433801697481,
                13.085116581861287
            ],
            [
                -77.78903049286212,
                13.094753831612817
            ],
            [
                -78.17737435492685,
                13.140952910581197
            ],
            [
                -78.54191445611015,
                13.21053320560055
            ],
            [
                -78.9971505483902,
                13.198531465665983
            ],
            [
                -79.42305653941368,
                13.199425400100385
            ],
            [
                -79.76784480039582,
                13.196847471273102
            ],
            [
                -80.20269636495625,
                13.277103143952264
            ],
            [
                -80.57659419421027,
                13.366509834322368
            ],
            [
                -80.9153171679379,
                13.462471801398534
            ],
            [
                -81.26872586335847,
                13.507968306893
            ],
            [
                -81.61444515892714,
                13.499476627491195
            ],
            [
                -81.96891032173252,
                13.49705787930292
            ],
            [
                -82.31205886663872,
                13.502427280591935
            ],
            [
                -82.56997763984664,
                13.59345932537628
            ],
            [
                -82.90999081708688,
                13.603934406761402
            ],
            [
                -83.25551931005927,
                13.601112743655797
            ],
            [
                -83.62535142243767,
                13.630638290868065
            ],
            [
                -83.94950077407488,
                13.717657036538881
            ],
            [
                -84.32937687280327,
                13.695676623759562
            ],
            [
                -84.77402628704138,
                13.700620300158082
            ],
            [
                -85.20904000534566,
                13.70004974205031
            ],
            [
                -85.64543320870769,
                13.701447608984148
            ],
            [
                -86.08135256313369,
                13.690602942590699
            ],
            [
                -86.5204169736408,
                13.765830273036906
            ],
            [
                -86.94659104955788,
                13.81029124141068
            ],
            [
                -87.4204608321645,
                13.79606762852848
            ],
            [
                -87.95510598300615,
                13.803296833207217
            ],
            [
                -88.47546436784359,
                13.79516685936704
            ],
            [
                -89.0,
                13.7
            ]
        ]
    },
    "properties": {
        "trajectory_id": 2279,
        "object_id": 202031816289,
        "label": "nan"
    }
}