{
    "type": "Feature",
    "geometry": {
        "type": "LineString",
        "coordinates": [
            [
                129.9,
                -13.7
            ],
            [
                130.0,
                -14.0
            ],
            [
                130.0,
                -14.3
            ],
            [
                130.00000000000003,
                -14.399999999999999
            ],
            [
                130.1,
                -14.499999999999998
            ],
            [
                130.2,
                -14.600000000000001
            ],
            [
                130.29999999999998,
                -14.7
            ],
            [
                130.3,
                -14.8
            ],
            [
                130.2,
                -14.800000000000002
            ],
            [
                130.2,
                -14.8
            ],
            [
                130.2,
                -14.8
            ],
            [
                130.09999999999997,
                -14.700000000000001
            ],
            [
                130.0,
                -14.6
            ],
            [
                130.1,
                -14.399999999999999
            ],
            [
                130.2,
                -14.199999999999998
            ],
            [
                130.3,
                -14.100000000000001
            ],
            [
                130.5,
                -13.999999999999998
            ],
            [
                130.8,
                -13.8
            ],
            [
                131.2,
                -13.599999999999998
            ],
            [
                131.5,
                -13.399999999999999
            ],
            [
                131.8,
                -13.199999999999998
            ],
            [
                132.2,
                -12.999999999999998
            ],
            [
                132.5,
                -12.8
            ],
            [
                132.7,
                -12.599999999999998
            ],
            [
                132.9,
                -12.599999999999998
            ],
            [
                133.5,
                -12.799999999999997
            ],
            [
                133.99999999999997,
                -13.0
            ],
            [
                134.09999999999997,
                -13.0
            ],
            [
                134.0,
                -12.999999999999998
            ],
            [
                134.2,
                -13.0
            ],
            [
                134.39999999999998,
                -12.999999999999998
            ],
            [
                134.7,
                -13.0
            ],
            [
                135.0,
                -13.099999999999998
            ],
            [
                135.2,
                -13.299999999999999
            ],
            [
                135.4,
                -13.5
            ],
            [
                135.4,
                -13.8
            ],
            [
                135.39999999999998,
                -14.1
            ],
            [
                135.39999999999998,
                -14.2
            ],
            [
                135.39999999999998,
                -14.400000000000002
            ],
            [
                135.59999999999997,
                -14.899999999999999
            ],
            [
                135.8,
                -15.4
            ],
            [
                135.8,
                -15.7
            ],
            [
                135.69999999999996,
                -15.999999999999998
            ],
            [
                135.3,
                -16.299999999999997
            ],
            [
                135.2,
                -16.499999999999996
            ],
            [
                136.0,
                -16.8
            ],
            [
                137.0,
                -16.999999999999996
            ],
            [
                137.2,
                -17.0
            ],
            [
                137.2,
                -17.0
            ],
            [
                137.3,
                -17.0
            ],
            [
                137.49999999999997,
                -17.0
            ],
            [
                138.0,
                -17.299999999999997
            ],
            [
                138.49999999999997,
                -17.499999999999996
            ],
            [
                138.69999999999996,
                -17.4
            ],
            [
                138.99999999999997,
                -17.2
            ],
            [
                139.6,
                -16.9
            ]
        ]
    },
    "properties": {
        "trajectory_id": 229,
        "object_id": 200204014130,
        "label": "SI"
    }
}