{
    "type": "Feature",
    "geometry": {
        "type": "LineString",
        "coordinates": [
            [
                72.6,
                -12.0
            ],
            [
                72.4,
                -12.1
            ],
            [
                72.3,
                -12.100000000000001
            ],
            [
                72.30000000000001,
                -12.0
            ],
            [
                72.4,
                -11.899999999999999
            ],
            [
                72.4,
                -12.0
            ],
            [
                72.5,
                -12.1
            ],
            [
                72.5,
                -11.999999999999998
            ],
            [
                72.6,
                -12.000000000000002
            ],
            [
                72.69999999999999,
                -11.999999999999998
            ],
            [
                72.80000000000001,
                -12.1
            ],
            [
                72.80000000000001,
                -12.1
            ],
            [
                72.70000000000002,
                -12.199999999999998
            ],
            [
                72.5,
                -12.1
            ],
            [
                72.3,
                -12.0
            ],
            [
                72.19999999999999,
                -11.8
            ],
            [
                72.1,
                -11.6
            ],
            [
                72.0,
                -11.3
            ],
            [
                71.9,
                -11.100000000000001
            ],
            [
                71.9,
                -10.8
            ],
            [
                72.0,
                -10.699999999999998
            ],
            [
                72.1,
                -10.699999999999998
            ],
            [
                72.2,
                -10.799999999999999
            ],
            [
                72.3,
                -10.8
            ],
            [
                72.3,
                -10.9
            ],
            [
                72.4,
                -11.0
            ],
            [
                72.5,
                -11.2
            ],
            [
                72.59999999999998,
                -11.300000000000002
            ],
            [
                72.79999999999998,
                -11.3
            ],
            [
                73.1,
                -11.399999999999999
            ],
            [
                73.39999999999999,
                -11.499999999999998
            ],
            [
                73.79999999999998,
                -11.7
            ],
            [
                74.39999999999999,
                -12.0
            ],
            [
                74.9,
                -12.5
            ],
            [
                75.39999999999999,
                -13.0
            ],
            [
                75.7,
                -13.499999999999998
            ],
            [
                75.99999999999999,
                -14.0
            ],
            [
                76.0,
                -14.4
            ],
            [
                76.0,
                -14.8
            ],
            [
                76.09999999999998,
                -14.999999999999998
            ],
            [
                76.4,
                -15.299999999999999
            ],
            [
                76.39999999999999,
                -15.399999999999999
            ],
            [
                76.4,
                -15.599999999999998
            ],
            [
                76.39999999999999,
                -15.799999999999999
            ],
            [
                76.6,
                -15.999999999999998
            ],
            [
                76.6,
                -16.1
            ],
            [
                76.7,
                -16.2
            ],
            [
                76.8,
                -16.3
            ],
            [
                76.8,
                -16.4
            ],
            [
                76.69999999999999,
                -16.499999999999996
            ],
            [
                76.6,
                -16.6
            ],
            [
                76.29999999999998,
                -16.5
            ],
            [
                76.09999999999998,
                -16.5
            ],
            [
                75.70000000000002,
                -16.5
            ],
            [
                75.3,
                -16.5
            ],
            [
                75.0,
                -16.5
            ]
        ]
    },
    "properties": {
        "trajectory_id": 2292,
        "object_id": 202036612073,
        "label": "SI"
    }
}