{
    "type": "Feature",
    "geometry": {
        "type": "LineString",
        "coordinates": [
            [
                117.1,
                18.9
            ],
            [
                117.0,
                19.199999999999996
            ],
            [
                116.6,
                19.3
            ],
            [
                116.30000000000001,
                19.400000000000002
            ],
            [
                116.1,
                19.499999999999996
            ],
            [
                115.80000000000001,
                19.6
            ],
            [
                115.69999999999999,
                19.7
            ],
            [
                115.49999999999999,
                19.899999999999995
            ],
            [
                115.30000000000001,
                20.1
            ],
            [
                114.90000000000002,
                20.3
            ],
            [
                114.6,
                20.5
            ],
            [
                114.3,
                20.600000000000005
            ],
            [
                113.99999999999999,
                20.7
            ],
            [
                113.69999999999999,
                20.7
            ],
            [
                113.49999999999997,
                20.800000000000004
            ],
            [
                113.29999999999998,
                20.800000000000004
            ],
            [
                113.19999999999999,
                20.9
            ],
            [
                113.0,
                20.9
            ],
            [
                112.89999999999999,
                20.999999999999996
            ],
            [
                112.9,
                21.0
            ],
            [
                112.79999999999998,
                21.1
            ],
            [
                112.6,
                21.099999999999998
            ],
            [
                112.49999999999999,
                21.2
            ],
            [
                112.49999999999997,
                21.2
            ],
            [
                112.49999999999999,
                21.3
            ],
            [
                112.4,
                21.4
            ],
            [
                112.3,
                21.499999999999996
            ],
            [
                112.2,
                21.6
            ],
            [
                112.0,
                21.700000000000003
            ],
            [
                111.79999999999998,
                21.8
            ],
            [
                111.49999999999999,
                21.800000000000004
            ],
            [
                111.29999999999998,
                21.8
            ],
            [
                111.19999999999999,
                21.9
            ],
            [
                110.99999999999999,
                22.0
            ],
            [
                110.79999999999998,
                22.099999999999998
            ],
            [
                110.49999999999999,
                22.3
            ],
            [
                110.29999999999998,
                22.4
            ],
            [
                109.99999999999999,
                22.4
            ],
            [
                109.69999999999999,
                22.5
            ],
            [
                109.4,
                22.500000000000004
            ],
            [
                109.0,
                22.6
            ],
            [
                108.6,
                22.600000000000005
            ],
            [
                108.3,
                22.499999999999996
            ],
            [
                108.09999999999998,
                22.3
            ],
            [
                107.9,
                22.1
            ],
            [
                107.69999999999999,
                21.800000000000004
            ],
            [
                107.59999999999998,
                21.599999999999998
            ],
            [
                107.6,
                21.4
            ],
            [
                107.5,
                21.1
            ],
            [
                107.4,
                20.799999999999997
            ],
            [
                107.3,
                20.6
            ],
            [
                107.19999999999999,
                20.4
            ],
            [
                107.09999999999998,
                20.199999999999996
            ],
            [
                107.09999999999998,
                19.9
            ],
            [
                107.1,
                19.699999999999996
            ],
            [
                107.0,
                19.6
            ]
        ]
    },
    "properties": {
        "trajectory_id": 2343,
        "object_id": 202119819117,
        "label": "WP"
    }
}