{
    "type": "Feature",
    "geometry": {
        "type": "LineString",
        "coordinates": [
            [
                -85.4,
                29.5
            ],
            [
                -85.39994494041638,
                29.807886455187983
            ],
            [
                -85.40001586692436,
                30.110207668579392
            ],
            [
                -85.40059269165543,
                30.375526168455856
            ],
            [
                -85.39985491734419,
                30.616944549755832
            ],
            [
                -85.39765499515578,
                30.85909795805762
            ],
            [
                -85.40084192642999,
                31.131545893894426
            ],
            [
                -85.40888083659472,
                31.44302501285172
            ],
            [
                -85.39567185770028,
                31.738845737323466
            ],
            [
                -85.34686941186575,
                31.987961922135014
            ],
            [
                -85.29105683965294,
                32.2513594386813
            ],
            [
                -85.24544973529393,
                32.563049410424554
            ],
            [
                -85.18389094734077,
                32.857984768266924
            ],
            [
                -85.08789995148479,
                33.10462933932487
            ],
            [
                -84.96883362486503,
                33.373864109203474
            ],
            [
                -84.82799775341216,
                33.716780870945904
            ],
            [
                -84.63985406895104,
                34.12033811268739
            ],
            [
                -84.39258381867536,
                34.57021995152464
            ],
            [
                -84.10403371919196,
                35.062605152283105
            ],
            [
                -83.79644056859088,
                35.57797695118022
            ],
            [
                -83.49374522167327,
                36.070621028832036
            ],
            [
                -83.19504644468068,
                36.52644496413278
            ],
            [
                -82.86399833778299,
                36.98017535517263
            ],
            [
                -82.50123021469581,
                37.44229816505055
            ],
            [
                -82.15898070618415,
                37.886416674701245
            ],
            [
                -81.85563848219957,
                38.29577258944224
            ],
            [
                -81.56461441317056,
                38.668897130219456
            ],
            [
                -81.26172377050317,
                39.02128222248562
            ],
            [
                -80.92924422069896,
                39.38420337492933
            ],
            [
                -80.56978708883486,
                39.74675689167194
            ],
            [
                -80.20549440465152,
                40.05718408957836
            ],
            [
                -79.8492667177706,
                40.30540842046192
            ],
            [
                -79.50353864654608,
                40.520403244915514
            ],
            [
                -79.14936540664895,
                40.72202052844799
            ],
            [
                -78.75415200957588,
                40.92111832026797
            ],
            [
                -78.34020792993088,
                41.12505434984762
            ],
            [
                -77.96592707973711,
                41.337189132939244
            ],
            [
                -77.61722299213676,
                41.541109792706855
            ],
            [
                -77.23491989733353,
                41.71034873697366
            ],
            [
                -76.81945736456707,
                41.85710401929782
            ],
            [
                -76.4061330595188,
                42.013342089546065
            ],
            [
                -76.00116991844526,
                42.16658753304828
            ],
            [
                -75.5950225366556,
                42.28419920016795
            ],
            [
                -75.18719981513506,
                42.37911156590174
            ],
            [
                -74.78110326112933,
                42.48251094337178
            ],
            [
                -74.37344933025179,
                42.58425689494839
            ],
            [
                -73.96039320100138,
                42.657812922663624
            ],
            [
                -73.5558490800822,
                42.69704966488077
            ],
            [
                -73.17896459022009,
                42.70626073493653
            ],
            [
                -72.83492026312271,
                42.70066984302288
            ],
            [
                -72.52111672615355,
                42.697243845288085
            ],
            [
                -72.2214166211298,
                42.699631529864796
            ],
            [
                -71.91836310552715,
                42.7049390758348
            ],
            [
                -71.6110045562803,
                42.70053333860554
            ],
            [
                -71.30349750534491,
                42.67076903792561
            ],
            [
                -71.0,
                42.6
            ]
        ]
    },
    "properties": {
        "trajectory_id": 2362,
        "object_id": 202122214301,
        "label": "nan"
    }
}