{
    "type": "Feature",
    "geometry": {
        "type": "LineString",
        "coordinates": [
            [
                122.3,
                25.2
            ],
            [
                122.40000000000002,
                25.8
            ],
            [
                122.7,
                26.299999999999997
            ],
            [
                122.90000000000002,
                26.9
            ],
            [
                123.09999999999998,
                27.6
            ],
            [
                123.29999999999998,
                28.299999999999997
            ],
            [
                123.59999999999997,
                29.1
            ],
            [
                123.5,
                29.999999999999996
            ],
            [
                123.40000000000003,
                30.699999999999996
            ],
            [
                123.30000000000001,
                30.899999999999995
            ],
            [
                123.30000000000001,
                31.000000000000007
            ],
            [
                123.40000000000002,
                31.200000000000003
            ],
            [
                123.50000000000003,
                31.4
            ],
            [
                123.70000000000002,
                31.4
            ],
            [
                123.79999999999998,
                31.3
            ],
            [
                124.0,
                31.099999999999998
            ],
            [
                124.30000000000001,
                30.9
            ],
            [
                124.5,
                30.700000000000003
            ],
            [
                124.69999999999999,
                30.5
            ],
            [
                125.0,
                30.399999999999995
            ],
            [
                125.19999999999999,
                30.199999999999996
            ],
            [
                125.49999999999999,
                30.199999999999996
            ],
            [
                125.69999999999999,
                30.299999999999997
            ],
            [
                125.79999999999998,
                30.299999999999997
            ],
            [
                125.79999999999998,
                30.299999999999997
            ],
            [
                125.79999999999998,
                30.199999999999996
            ],
            [
                125.6,
                30.199999999999996
            ],
            [
                125.39999999999999,
                30.199999999999996
            ],
            [
                125.3,
                30.200000000000003
            ],
            [
                125.19999999999999,
                30.3
            ],
            [
                125.09999999999997,
                30.4
            ],
            [
                125.19999999999999,
                30.7
            ],
            [
                125.39999999999999,
                31.1
            ],
            [
                125.6,
                31.3
            ],
            [
                125.8,
                31.6
            ],
            [
                126.1,
                31.899999999999995
            ],
            [
                126.39999999999998,
                32.3
            ],
            [
                126.89999999999999,
                32.6
            ],
            [
                127.49999999999997,
                32.9
            ],
            [
                128.3,
                33.199999999999996
            ],
            [
                129.2,
                33.49999999999999
            ],
            [
                130.3,
                33.699999999999996
            ],
            [
                131.60000000000002,
                33.79999999999999
            ],
            [
                132.8,
                33.8
            ],
            [
                134.1,
                33.89999999999999
            ],
            [
                135.29999999999998,
                34.099999999999994
            ],
            [
                136.59999999999997,
                34.4
            ],
            [
                137.19999999999996,
                34.5
            ],
            [
                137.7,
                34.5
            ],
            [
                138.4,
                34.5
            ],
            [
                139.1,
                34.5
            ],
            [
                139.8,
                34.3
            ],
            [
                140.3,
                34.099999999999994
            ],
            [
                140.7,
                33.8
            ],
            [
                140.89999999999998,
                33.6
            ],
            [
                141.1,
                33.3
            ]
        ]
    },
    "properties": {
        "trajectory_id": 2373,
        "object_id": 202124812141,
        "label": "WP"
    }
}