{
    "type": "Feature",
    "geometry": {
        "type": "LineString",
        "coordinates": [
            [
                -42.6,
                34.1
            ],
            [
                -42.23035075031277,
                34.18421974599358
            ],
            [
                -41.95274940195424,
                34.36386968763911
            ],
            [
                -41.68284066375812,
                34.538088937472814
            ],
            [
                -41.40762916254809,
                34.78472756276874
            ],
            [
                -41.14082574199895,
                35.06489390030441
            ],
            [
                -40.84889894632251,
                35.33847018284597
            ],
            [
                -40.64610300504328,
                35.60082930690557
            ],
            [
                -40.57854645954788,
                35.907413666864855
            ],
            [
                -40.47713014498795,
                36.2587329373701
            ],
            [
                -40.39763911995331,
                36.53294881417006
            ],
            [
                -40.4,
                36.9
            ],
            [
                -40.31118572960779,
                37.170730159537115
            ],
            [
                -40.21495266237611,
                37.523318509820626
            ],
            [
                -40.1379083207543,
                37.89207536367981
            ],
            [
                -39.96965814419316,
                38.25605114059315
            ],
            [
                -39.83827728752067,
                38.61070170653088
            ],
            [
                -39.749894345934166,
                39.0169399138298
            ],
            [
                -39.69074180562555,
                39.490312987256246
            ],
            [
                -39.702316616632636,
                39.916388257165615
            ],
            [
                -39.69950188009867,
                40.27128318650465
            ],
            [
                -39.70006924333218,
                40.63634604694319
            ],
            [
                -39.7,
                41.0
            ],
            [
                -39.700113896604115,
                41.366470541145475
            ],
            [
                -39.69924544273698,
                41.65468050198317
            ],
            [
                -39.703485256549605,
                41.84985102057565
            ],
            [
                -39.66030990636437,
                42.022040060005104
            ],
            [
                -39.44640768956927,
                42.22410741818686
            ],
            [
                -39.169385702388624,
                42.32286980580419
            ],
            [
                -38.857458553319084,
                42.270718341071415
            ],
            [
                -38.50912088759331,
                42.160995531511105
            ],
            [
                -38.2446594564454,
                41.94028046922988
            ],
            [
                -37.977704916879134,
                41.55892995304858
            ],
            [
                -37.8,
                41.099999999999994
            ],
            [
                -37.61750017264857,
                40.47049987226613
            ],
            [
                -37.497679429156506,
                39.74422568639872
            ],
            [
                -37.62342413226591,
                39.068549448659454
            ],
            [
                -37.89529065038893,
                38.57622223080759
            ],
            [
                -38.12587478526611,
                38.11289207751404
            ],
            [
                -38.249601590422905,
                37.75018939242101
            ],
            [
                -38.34015021066236,
                37.48302562746737
            ],
            [
                -38.41050792666616,
                37.2566232767179
            ],
            [
                -38.39238637017659,
                37.18318454848314
            ],
            [
                -38.2797507212342,
                37.09445603336097
            ],
            [
                -38.0,
                37.099999999999994
            ],
            [
                -37.72606769313212,
                37.18691804110595
            ],
            [
                -37.458273977586195,
                37.356084550758105
            ],
            [
                -37.127838974644305,
                37.60845991929899
            ],
            [
                -36.63534204098791,
                37.94231358162699
            ],
            [
                -36.029760725008714,
                38.36269761865697
            ],
            [
                -35.34568691098099,
                38.85238926346402
            ],
            [
                -34.59541379444673,
                39.472377466575516
            ],
            [
                -33.70160677978708,
                40.23338342109892
            ],
            [
                -32.559690999267474,
                41.08479435784106
            ],
            [
                -31.26054377159404,
                42.107547886229284
            ],
            [
                -29.7,
                43.2
            ]
        ]
    },
    "properties": {
        "trajectory_id": 2397,
        "object_id": 202129933284,
        "label": "nan"
    }
}