{
    "type": "Feature",
    "geometry": {
        "type": "LineString",
        "coordinates": [
            [
                -84.9,
                8.8
            ],
            [
                -85.1,
                8.700000000000001
            ],
            [
                -85.4,
                8.6
            ],
            [
                -85.70000000000002,
                8.6
            ],
            [
                -85.99999999999999,
                8.599999999999998
            ],
            [
                -86.3,
                8.599999999999998
            ],
            [
                -86.6,
                8.699999999999998
            ],
            [
                -87.0,
                8.7
            ],
            [
                -87.4,
                8.7
            ],
            [
                -87.9,
                8.7
            ],
            [
                -88.30000000000001,
                8.7
            ],
            [
                -88.70000000000002,
                8.8
            ],
            [
                -89.0,
                9.0
            ],
            [
                -89.4,
                9.100000000000001
            ],
            [
                -89.69999999999999,
                9.2
            ],
            [
                -89.99999999999999,
                9.3
            ],
            [
                -90.29999999999998,
                9.5
            ],
            [
                -90.59999999999998,
                9.6
            ],
            [
                -90.79999999999998,
                9.7
            ],
            [
                -91.1,
                9.7
            ],
            [
                -91.4,
                9.700000000000001
            ],
            [
                -91.7,
                9.6
            ],
            [
                -92.0,
                9.499999999999998
            ],
            [
                -92.4,
                9.399999999999999
            ],
            [
                -92.9,
                9.2
            ],
            [
                -93.4,
                9.0
            ],
            [
                -93.9,
                8.9
            ],
            [
                -94.40000000000002,
                8.8
            ],
            [
                -94.9,
                8.7
            ],
            [
                -95.4,
                8.599999999999998
            ],
            [
                -96.0,
                8.499999999999998
            ],
            [
                -96.49999999999999,
                8.399999999999999
            ],
            [
                -97.1,
                8.299999999999999
            ],
            [
                -97.69999999999999,
                8.199999999999998
            ],
            [
                -98.39999999999999,
                8.2
            ],
            [
                -99.1,
                8.2
            ],
            [
                -99.69999999999999,
                8.2
            ],
            [
                -100.29999999999998,
                8.2
            ],
            [
                -100.89999999999999,
                8.2
            ],
            [
                -101.6,
                8.3
            ],
            [
                -102.19999999999999,
                8.5
            ],
            [
                -102.79999999999997,
                8.7
            ],
            [
                -103.39999999999999,
                8.999999999999998
            ],
            [
                -103.99999999999999,
                9.3
            ],
            [
                -104.59999999999998,
                9.5
            ],
            [
                -105.3,
                9.7
            ],
            [
                -106.0,
                9.9
            ],
            [
                -106.69999999999999,
                10.099999999999998
            ],
            [
                -107.4,
                10.3
            ],
            [
                -108.09999999999998,
                10.5
            ],
            [
                -108.69999999999999,
                10.7
            ],
            [
                -109.3,
                10.899999999999999
            ],
            [
                -109.9,
                11.1
            ],
            [
                -110.49999999999999,
                11.3
            ],
            [
                -111.10000000000001,
                11.400000000000002
            ],
            [
                -111.7,
                11.5
            ]
        ]
    },
    "properties": {
        "trajectory_id": 2398,
        "object_id": 202130709275,
        "label": "EP"
    }
}