{
    "type": "Feature",
    "geometry": {
        "type": "LineString",
        "coordinates": [
            [
                150.4,
                -17.7
            ],
            [
                150.89999999999998,
                -17.900000000000002
            ],
            [
                151.4,
                -18.3
            ],
            [
                152.1,
                -18.7
            ],
            [
                152.89999999999998,
                -19.299999999999997
            ],
            [
                153.6,
                -19.699999999999996
            ],
            [
                154.2,
                -20.0
            ],
            [
                154.80000000000004,
                -20.4
            ],
            [
                155.3,
                -20.700000000000003
            ],
            [
                155.60000000000002,
                -20.9
            ],
            [
                155.90000000000003,
                -21.000000000000007
            ],
            [
                156.30000000000004,
                -21.100000000000005
            ],
            [
                156.7,
                -21.3
            ],
            [
                157.10000000000002,
                -21.5
            ],
            [
                157.5,
                -21.7
            ],
            [
                157.9,
                -22.0
            ],
            [
                158.3,
                -22.499999999999996
            ],
            [
                158.59999999999997,
                -23.099999999999998
            ],
            [
                158.8,
                -23.899999999999995
            ],
            [
                158.9,
                -24.9
            ],
            [
                158.99999999999997,
                -25.8
            ],
            [
                158.80000000000004,
                -26.299999999999997
            ],
            [
                158.6,
                -26.5
            ],
            [
                158.5,
                -26.799999999999997
            ],
            [
                158.3,
                -27.099999999999998
            ],
            [
                158.0,
                -27.300000000000004
            ],
            [
                157.7,
                -27.5
            ],
            [
                157.49999999999997,
                -27.700000000000003
            ],
            [
                157.29999999999998,
                -27.9
            ],
            [
                157.29999999999998,
                -28.0
            ],
            [
                157.3,
                -28.1
            ],
            [
                157.2,
                -28.1
            ],
            [
                156.99999999999997,
                -28.1
            ],
            [
                156.59999999999997,
                -28.1
            ],
            [
                156.19999999999996,
                -27.999999999999996
            ],
            [
                156.09999999999997,
                -27.799999999999997
            ],
            [
                156.0,
                -27.599999999999998
            ],
            [
                155.89999999999998,
                -27.199999999999996
            ],
            [
                155.8,
                -26.899999999999995
            ],
            [
                155.39999999999998,
                -26.7
            ],
            [
                155.2,
                -26.6
            ],
            [
                155.39999999999998,
                -26.3
            ],
            [
                155.69999999999996,
                -25.999999999999996
            ],
            [
                155.7,
                -25.799999999999997
            ],
            [
                155.7,
                -25.599999999999998
            ],
            [
                155.8,
                -25.4
            ],
            [
                155.8,
                -25.199999999999996
            ],
            [
                155.5,
                -25.199999999999992
            ],
            [
                155.2,
                -25.199999999999996
            ],
            [
                154.9,
                -25.199999999999996
            ],
            [
                154.7,
                -25.199999999999996
            ],
            [
                154.49999999999997,
                -25.1
            ],
            [
                154.3,
                -25.0
            ],
            [
                154.10000000000002,
                -24.9
            ],
            [
                153.89999999999998,
                -24.800000000000004
            ],
            [
                153.6,
                -24.9
            ]
        ]
    },
    "properties": {
        "trajectory_id": 2408,
        "object_id": 202135809130,
        "label": "SP"
    }
}