{
    "type": "Feature",
    "geometry": {
        "type": "LineString",
        "coordinates": [
            [
                147.4,
                -14.2
            ],
            [
                147.6198826797088,
                -14.02651516389104
            ],
            [
                147.87388997418657,
                -13.954824642637991
            ],
            [
                148.05540638897352,
                -13.847296145520268
            ],
            [
                148.21632203423832,
                -13.690315350348113
            ],
            [
                148.52096079146946,
                -13.605859510940629
            ],
            [
                148.8351325757855,
                -13.625065067067744
            ],
            [
                149.1414671778796,
                -13.802660069095838
            ],
            [
                149.43872567476885,
                -14.021294879590164
            ],
            [
                149.6678863538108,
                -14.090863087803676
            ],
            [
                149.8383948572283,
                -14.16754339962598
            ],
            [
                149.95223443650033,
                -14.211676149354934
            ],
            [
                150.0071347602953,
                -14.195578909221181
            ],
            [
                150.08295607107954,
                -14.196618909614605
            ],
            [
                150.36045062561354,
                -14.262791873216086
            ],
            [
                150.68964207625663,
                -14.352417520801845
            ],
            [
                150.9833767329538,
                -14.41232864721315
            ],
            [
                151.29209908404226,
                -14.495987886871589
            ],
            [
                151.61724133304048,
                -14.728702930659793
            ],
            [
                151.8043108778383,
                -14.877827184512993
            ],
            [
                151.9806010636329,
                -14.904562007561834
            ],
            [
                152.20705486702724,
                -14.899018942179358
            ],
            [
                152.2788297198399,
                -14.88867908180799
            ],
            [
                152.4115044475128,
                -14.968546948800494
            ],
            [
                152.5390673902015,
                -14.979973502275477
            ],
            [
                152.61296028782317,
                -14.89440083588068
            ],
            [
                152.76818592821627,
                -14.89865589128653
            ],
            [
                152.9231651515373,
                -14.889104389453761
            ],
            [
                153.08365854368287,
                -14.943367884620292
            ],
            [
                153.21798818979585,
                -14.995871166883273
            ],
            [
                153.2885846106357,
                -14.908374570018267
            ],
            [
                153.4265008874523,
                -14.891268264144713
            ],
            [
                153.59309688734254,
                -14.902668210104286
            ],
            [
                153.73429726439107,
                -14.900844410570379
            ],
            [
                153.8900677263863,
                -14.900782159702523
            ],
            [
                154.16787756634403,
                -14.885518265788866
            ],
            [
                154.57538564889214,
                -14.977501887131243
            ],
            [
                155.07257633221315,
                -15.166157610021132
            ],
            [
                155.61307195250356,
                -15.407007604950348
            ],
            [
                156.1536228319807,
                -15.723992560147789
            ],
            [
                156.64046381655598,
                -15.925181040315074
            ],
            [
                157.06593571527534,
                -16.058184463074014
            ],
            [
                157.43167095087614,
                -16.21405168175925
            ],
            [
                157.73680251548288,
                -16.36210357939092
            ],
            [
                158.03785948651526,
                -16.570728978261208
            ],
            [
                158.34783633385123,
                -16.81758580584052
            ],
            [
                158.6485380814123,
                -17.03018406090405
            ],
            [
                158.9512243552777,
                -17.179902326051185
            ],
            [
                159.32593335057675,
                -17.328343328883907
            ],
            [
                159.69738103320225,
                -17.487610132225935
            ],
            [
                160.11390712558227,
                -17.630808141954375
            ],
            [
                160.66016659585446,
                -17.784561601994856
            ],
            [
                161.1992034674325,
                -18.068405016957424
            ],
            [
                161.72939202325915,
                -18.422780507045008
            ],
            [
                162.26634386097345,
                -18.84075591251308
            ],
            [
                162.8,
                -19.4
            ]
        ]
    },
    "properties": {
        "trajectory_id": 2415,
        "object_id": 202203014147,
        "label": "SP"
    }
}