{
    "type": "Feature",
    "geometry": {
        "type": "LineString",
        "coordinates": [
            [
                87.2,
                7.7
            ],
            [
                86.89065832564448,
                7.805147333092308
            ],
            [
                86.60961531709766,
                7.896989675317802
            ],
            [
                86.37605995275477,
                7.965118350514108
            ],
            [
                86.209181211011,
                7.999124682518856
            ],
            [
                86.1129352405392,
                7.9968627378937
            ],
            [
                86.01513061471917,
                7.9974913069563645
            ],
            [
                85.84050260954808,
                8.040426037499948
            ],
            [
                85.62945514031072,
                8.094449435484984
            ],
            [
                85.4528809621505,
                8.112542855817365
            ],
            [
                85.32069919133502,
                8.102592339359667
            ],
            [
                85.21814273242428,
                8.092011278346808
            ],
            [
                85.12279337809834,
                8.096090149149951
            ],
            [
                85.00898637783936,
                8.124229442929668
            ],
            [
                84.85120933925901,
                8.180580709031226
            ],
            [
                84.6295752256404,
                8.265565654129324
            ],
            [
                84.37399474588028,
                8.368490093577538
            ],
            [
                84.13813090195133,
                8.473402648996283
            ],
            [
                83.94992584743721,
                8.570468050264854
            ],
            [
                83.81976897054217,
                8.652296784702346
            ],
            [
                83.73006528771374,
                8.698088759132933
            ],
            [
                83.6463102680797,
                8.681829496949641
            ],
            [
                83.54733531772187,
                8.623601139241055
            ],
            [
                83.42241082360901,
                8.573043186272443
            ],
            [
                83.27229919605847,
                8.52868369702845
            ],
            [
                83.10756172529095,
                8.450992120986546
            ],
            [
                82.95590135666276,
                8.346287496761033
            ],
            [
                82.85773882476434,
                8.260189034887663
            ],
            [
                82.81378121870515,
                8.212127272981489
            ],
            [
                82.78663686365304,
                8.195135247174031
            ],
            [
                82.74244470249661,
                8.196971309766685
            ],
            [
                82.6542530518099,
                8.201265373908994
            ],
            [
                82.54402345774166,
                8.200898428180329
            ],
            [
                82.48811047031494,
                8.199630600920282
            ],
            [
                82.4965607388595,
                8.199628380214087
            ],
            [
                82.49202493507116,
                8.200249055491108
            ],
            [
                82.44138622627293,
                8.200542196769455
            ],
            [
                82.38137420520492,
                8.199421200137497
            ],
            [
                82.33303190465175,
                8.198202012853235
            ],
            [
                82.28505581891757,
                8.201833305934906
            ],
            [
                82.23329369185977,
                8.206676205588597
            ],
            [
                82.19044931925187,
                8.193911914013746
            ],
            [
                82.15210735473029,
                8.151442198573303
            ],
            [
                82.07839024531867,
                8.082717996729466
            ],
            [
                81.94424770270803,
                7.9912658123737
            ],
            [
                81.76405169762953,
                7.877132896805215
            ],
            [
                81.56215466955614,
                7.739038266460236
            ],
            [
                81.37454776048371,
                7.573639517928617
            ],
            [
                81.22243174281289,
                7.38195672987648
            ],
            [
                81.08450919239208,
                7.177044094321441
            ],
            [
                80.93993347254218,
                6.973820984823086
            ],
            [
                80.78864417998744,
                6.787053081589831
            ],
            [
                80.6363192217162,
                6.627830861868479
            ],
            [
                80.49512626837692,
                6.495546558519697
            ],
            [
                80.37853122584603,
                6.387252246308525
            ],
            [
                80.3,
                6.3
            ]
        ]
    },
    "properties": {
        "trajectory_id": 2515,
        "object_id": 202303008087,
        "label": "NI"
    }
}