{
    "type": "Feature",
    "geometry": {
        "type": "LineString",
        "coordinates": [
            [
                -76.8,
                34.3
            ],
            [
                -76.15315655544025,
                34.59548522253887
            ],
            [
                -75.5994826412426,
                34.816495890509074
            ],
            [
                -75.03746143773915,
                35.02277032720385
            ],
            [
                -74.41347234041854,
                35.23800188345484
            ],
            [
                -73.8016681627274,
                35.392146322442315
            ],
            [
                -73.15358031065091,
                35.53639959518867
            ],
            [
                -72.39080686418666,
                35.7471480286028
            ],
            [
                -71.57433992758008,
                35.96267927856478
            ],
            [
                -70.73015520671552,
                36.16165975307862
            ],
            [
                -69.82730600831232,
                36.369282599595266
            ],
            [
                -68.81029531901314,
                36.629007917988574
            ],
            [
                -67.76323386727594,
                36.9306067362082
            ],
            [
                -66.72776381509502,
                37.28915198859901
            ],
            [
                -65.63954218359446,
                37.72366684012482
            ],
            [
                -64.48432773446466,
                38.03804225392445
            ],
            [
                -63.308448040410354,
                38.21345350754271
            ],
            [
                -62.147852901492065,
                38.45362927622483
            ],
            [
                -60.88634703132105,
                38.94783081703974
            ],
            [
                -59.55719742416436,
                39.62831209984191
            ],
            [
                -58.24954573297659,
                40.31880109093157
            ],
            [
                -56.90733274983563,
                41.00863729250315
            ],
            [
                -55.66395852523923,
                41.70013306233874
            ],
            [
                -54.645400989907706,
                42.39097728631157
            ],
            [
                -53.79398605052294,
                43.0814862371064
            ],
            [
                -53.21397587349408,
                43.77335951713998
            ],
            [
                -53.0011945188749,
                44.46386632419756
            ],
            [
                -53.13175225561407,
                45.15030328508725
            ],
            [
                -53.51446263847959,
                45.856487930627836
            ],
            [
                -53.915824951796516,
                46.532745173099336
            ],
            [
                -54.08153066021242,
                47.094836837545856
            ],
            [
                -54.10055466149742,
                47.61041449481174
            ],
            [
                -53.961966077000284,
                48.063111129197715
            ],
            [
                -53.61488291974551,
                48.406940240242534
            ],
            [
                -53.2331457927414,
                48.73833507624885
            ],
            [
                -52.93160787901894,
                49.09677570578739
            ],
            [
                -52.73032545156784,
                49.51052918910885
            ],
            [
                -52.579183194548605,
                50.06410010602151
            ],
            [
                -52.46000631266771,
                50.78431110298311
            ],
            [
                -52.40022528063495,
                51.63062166747927
            ],
            [
                -52.44754271276353,
                52.520422115386815
            ],
            [
                -52.55285891101699,
                53.43717087771775
            ],
            [
                -52.70513529901993,
                54.32179458887697
            ],
            [
                -52.92260902783668,
                55.127295720145
            ],
            [
                -53.065397746653716,
                56.084955204941906
            ],
            [
                -53.1016743899158,
                57.12968100802432
            ],
            [
                -53.05470300890823,
                57.886802264799115
            ],
            [
                -52.79674923608124,
                57.98958806193408
            ],
            [
                -52.40770552892083,
                57.58117539097085
            ],
            [
                -52.06078342349295,
                57.08321667129528
            ],
            [
                -51.815501892352664,
                56.796769779771004
            ],
            [
                -51.64808668072498,
                56.65316090508199
            ],
            [
                -51.51344066575053,
                56.514210860519
            ],
            [
                -51.38252287611215,
                56.38094693912433
            ],
            [
                -51.222786767346605,
                56.22413757047901
            ],
            [
                -51.0,
                56.0
            ]
        ]
    },
    "properties": {
        "trajectory_id": 262,
        "object_id": 200219634283,
        "label": "nan"
    }
}