{
    "type": "Feature",
    "geometry": {
        "type": "LineString",
        "coordinates": [
            [
                85.3,
                -17.5
            ],
            [
                84.8478962024115,
                -17.807520442053626
            ],
            [
                84.46864887258806,
                -18.039197479474744
            ],
            [
                84.10925170601229,
                -18.2558781260578
            ],
            [
                83.74462248375502,
                -18.47542616996894
            ],
            [
                83.39010346005269,
                -18.641607891409382
            ],
            [
                82.99028373926447,
                -18.74403542279146
            ],
            [
                82.544506589976,
                -18.807057628677438
            ],
            [
                82.10873404713266,
                -18.875236933633424
            ],
            [
                81.67110839612057,
                -18.999905296126222
            ],
            [
                81.24072711949522,
                -19.16100799854159
            ],
            [
                80.80000000000001,
                -19.300000000000004
            ],
            [
                80.29633413452736,
                -19.378271361515985
            ],
            [
                79.77691684844343,
                -19.439108892670692
            ],
            [
                79.27718933666254,
                -19.52561308493467
            ],
            [
                78.76890412416539,
                -19.674407104466525
            ],
            [
                78.18620220355301,
                -19.904872970949285
            ],
            [
                77.64092014654909,
                -20.050653558660326
            ],
            [
                77.13242960236923,
                -20.110561142236705
            ],
            [
                76.54942132112456,
                -20.25194960515661
            ],
            [
                75.96108826555181,
                -20.461738858780354
            ],
            [
                75.38232484047388,
                -20.67806540855037
            ],
            [
                74.79999999999998,
                -20.899999999999995
            ],
            [
                74.2196979573655,
                -21.188228677716577
            ],
            [
                73.6306941182256,
                -21.47660482672936
            ],
            [
                73.06369579234743,
                -21.78409028277114
            ],
            [
                72.55892640205774,
                -22.153203729041202
            ],
            [
                72.10928996839755,
                -22.51878006282389
            ],
            [
                71.7001643812947,
                -22.884372867830415
            ],
            [
                71.36486798238965,
                -23.242855107640906
            ],
            [
                71.14467011287138,
                -23.59665431930435
            ],
            [
                70.9779456005227,
                -24.06497922200484
            ],
            [
                70.86758599259221,
                -24.59915890382465
            ],
            [
                70.79999999999998,
                -25.1
            ],
            [
                70.71757006726978,
                -25.54450408103105
            ],
            [
                70.71053221132173,
                -25.95622649104967
            ],
            [
                70.85025986702884,
                -26.432521481383613
            ],
            [
                71.15160843783605,
                -27.024032909585035
            ],
            [
                71.58115366904553,
                -27.616903905349822
            ],
            [
                71.99566845812399,
                -28.17241485199437
            ],
            [
                72.3421272390397,
                -28.65378145365207
            ],
            [
                72.69903998898924,
                -29.021376272982195
            ],
            [
                73.14882587850622,
                -29.319420027967194
            ],
            [
                73.73840196820561,
                -29.613575673949093
            ],
            [
                74.4,
                -29.9
            ],
            [
                74.98742028464146,
                -30.11682416254002
            ],
            [
                75.5730321133673,
                -30.36505866033787
            ],
            [
                76.30532103821783,
                -30.684787140538354
            ],
            [
                77.26693747010243,
                -31.05120289726354
            ],
            [
                78.39160238681244,
                -31.439262692940453
            ],
            [
                79.63422201597803,
                -31.7174894021066
            ],
            [
                80.97193153805483,
                -31.93223339264289
            ],
            [
                82.41440473457611,
                -32.28529084634572
            ],
            [
                84.0249482208109,
                -32.80435630072242
            ],
            [
                85.75666847683732,
                -33.4579423250315
            ],
            [
                87.5,
                -34.2
            ]
        ]
    },
    "properties": {
        "trajectory_id": 2621,
        "object_id": 202401310093,
        "label": "SI"
    }
}