{
    "type": "Feature",
    "geometry": {
        "type": "LineString",
        "coordinates": [
            [
                125.5,
                11.2
            ],
            [
                124.86531912904849,
                11.747686723468844
            ],
            [
                124.22222443103635,
                12.222229085791824
            ],
            [
                123.65024269982557,
                12.538798466430615
            ],
            [
                123.18140625288255,
                12.712035749125182
            ],
            [
                122.71350669865471,
                13.007921225237427
            ],
            [
                122.34231635116845,
                13.358020056842333
            ],
            [
                122.11381283713153,
                13.573959276606756
            ],
            [
                121.97543867144206,
                13.763611652458476
            ],
            [
                121.85886782524611,
                13.910712335152146
            ],
            [
                121.57222500283292,
                13.902204281722144
            ],
            [
                121.4,
                14.000000000000002
            ],
            [
                121.47984170484332,
                14.176188850537839
            ],
            [
                121.74028665307608,
                14.448946408784597
            ],
            [
                122.02558684412101,
                14.653166023217782
            ],
            [
                122.24149916978715,
                14.817152861744624
            ],
            [
                122.35968409921495,
                15.05538896592693
            ],
            [
                122.44545778109224,
                15.343277328769286
            ],
            [
                122.53161660936803,
                15.58857317969294
            ],
            [
                122.64377163967126,
                15.728374177477209
            ],
            [
                122.84524941206321,
                15.8291270657057
            ],
            [
                123.1360568690499,
                16.018546967497414
            ],
            [
                123.49999999999997,
                16.2
            ],
            [
                123.6845325180509,
                16.4659535209569
            ],
            [
                123.8640378879055,
                16.833986512876056
            ],
            [
                124.03621163880028,
                17.11276358075269
            ],
            [
                124.29262211436944,
                17.458367315577696
            ],
            [
                124.51983075475707,
                17.761052566850175
            ],
            [
                124.69339023862176,
                18.094689069246623
            ],
            [
                125.13488823089189,
                18.637201310701883
            ],
            [
                125.97866198384935,
                19.311914773405462
            ],
            [
                126.85265685707611,
                20.04951884625749
            ],
            [
                127.45206664758794,
                20.767341669069978
            ],
            [
                127.99999999999999,
                21.399999999999995
            ],
            [
                128.72717820345042,
                22.035764566808876
            ],
            [
                129.3844188050969,
                22.674463651345338
            ],
            [
                129.93617853341107,
                23.301967864135573
            ],
            [
                130.5182004765331,
                23.99935041110449
            ],
            [
                131.28968074268715,
                24.751404739307254
            ],
            [
                132.05589777476513,
                25.400398064204975
            ],
            [
                132.58056303794953,
                25.86788175383535
            ],
            [
                132.85743595411878,
                26.17636889602168
            ],
            [
                133.05440403528638,
                26.479270298382303
            ],
            [
                133.44417116668023,
                26.94363887441858
            ],
            [
                133.89999999999998,
                27.299999999999997
            ],
            [
                134.3533609059721,
                27.575588579789624
            ],
            [
                134.81724743675704,
                27.832116995224236
            ],
            [
                135.18737034041632,
                28.25446384052196
            ],
            [
                135.61141721606043,
                28.721784053294524
            ],
            [
                136.07132224017693,
                29.170375385702457
            ],
            [
                136.54914362362618,
                29.64135950836641
            ],
            [
                137.17537165606126,
                30.307298196945144
            ],
            [
                137.92472402274953,
                31.139997357186378
            ],
            [
                138.6370759904729,
                31.821939031576715
            ],
            [
                139.25540993155033,
                32.3477834082072
            ],
            [
                139.7,
                32.8
            ]
        ]
    },
    "properties": {
        "trajectory_id": 2640,
        "object_id": 202414611126,
        "label": "WP"
    }
}