{
    "type": "Feature",
    "geometry": {
        "type": "LineString",
        "coordinates": [
            [
                -96.7,
                11.6
            ],
            [
                -97.59999999999998,
                11.700000000000001
            ],
            [
                -98.5,
                11.9
            ],
            [
                -99.49999999999999,
                12.1
            ],
            [
                -100.5,
                12.199999999999998
            ],
            [
                -101.4,
                12.2
            ],
            [
                -102.29999999999998,
                12.099999999999998
            ],
            [
                -103.0,
                12.199999999999998
            ],
            [
                -103.69999999999999,
                12.3
            ],
            [
                -104.4,
                12.5
            ],
            [
                -105.1,
                12.700000000000001
            ],
            [
                -105.90000000000002,
                12.9
            ],
            [
                -106.6,
                13.2
            ],
            [
                -107.29999999999998,
                13.5
            ],
            [
                -107.99999999999997,
                13.8
            ],
            [
                -108.70000000000002,
                14.100000000000001
            ],
            [
                -109.5,
                14.299999999999999
            ],
            [
                -110.29999999999998,
                14.499999999999998
            ],
            [
                -111.0,
                14.7
            ],
            [
                -111.79999999999998,
                14.899999999999999
            ],
            [
                -112.5,
                14.999999999999996
            ],
            [
                -113.2,
                15.099999999999998
            ],
            [
                -113.79999999999998,
                15.099999999999998
            ],
            [
                -114.4,
                15.1
            ],
            [
                -114.9,
                15.2
            ],
            [
                -115.49999999999999,
                15.299999999999999
            ],
            [
                -116.0,
                15.499999999999998
            ],
            [
                -116.5,
                15.7
            ],
            [
                -117.1,
                15.999999999999996
            ],
            [
                -117.70000000000002,
                16.2
            ],
            [
                -118.19999999999999,
                16.399999999999995
            ],
            [
                -118.7,
                16.6
            ],
            [
                -119.2,
                16.8
            ],
            [
                -119.7,
                17.0
            ],
            [
                -120.29999999999998,
                17.3
            ],
            [
                -120.9,
                17.5
            ],
            [
                -121.39999999999999,
                17.799999999999997
            ],
            [
                -121.99999999999999,
                18.1
            ],
            [
                -122.49999999999999,
                18.4
            ],
            [
                -122.89999999999999,
                18.699999999999996
            ],
            [
                -123.3,
                19.0
            ],
            [
                -123.69999999999999,
                19.400000000000002
            ],
            [
                -124.1,
                19.799999999999997
            ],
            [
                -124.5,
                20.2
            ],
            [
                -124.89999999999999,
                20.6
            ],
            [
                -125.39999999999998,
                21.0
            ],
            [
                -125.79999999999998,
                21.5
            ],
            [
                -126.19999999999996,
                22.0
            ],
            [
                -126.49999999999997,
                22.599999999999998
            ],
            [
                -126.79999999999998,
                23.099999999999998
            ],
            [
                -127.1,
                23.700000000000003
            ],
            [
                -127.4,
                24.199999999999996
            ],
            [
                -127.59999999999998,
                24.8
            ],
            [
                -127.8,
                25.499999999999996
            ],
            [
                -127.99999999999997,
                26.2
            ],
            [
                -128.2,
                26.9
            ]
        ]
    },
    "properties": {
        "trajectory_id": 267,
        "object_id": 200220412263,
        "label": "EP"
    }
}