{
    "type": "Feature",
    "geometry": {
        "type": "LineString",
        "coordinates": [
            [
                -71.0,
                29.0
            ],
            [
                -70.89973985257993,
                29.66545892429066
            ],
            [
                -71.05677424568466,
                30.160297542251755
            ],
            [
                -71.58759520850938,
                30.38250221104574
            ],
            [
                -72.19695549265705,
                30.467989031660526
            ],
            [
                -72.47942782281372,
                30.696349773199586
            ],
            [
                -72.53347595248832,
                31.083202862224173
            ],
            [
                -72.88426019798491,
                31.33796156532683
            ],
            [
                -73.38589147289596,
                31.506273798989824
            ],
            [
                -73.86537554132137,
                31.7114134725009
            ],
            [
                -74.2731082148337,
                31.85200736839696
            ],
            [
                -74.72976701018011,
                31.942478982260756
            ],
            [
                -75.27420100035728,
                32.019908046677
            ],
            [
                -75.55945174222973,
                32.184170621556284
            ],
            [
                -75.58138532626913,
                32.62493067924917
            ],
            [
                -75.49487041608513,
                33.06716651648433
            ],
            [
                -75.49233663027998,
                33.33713876322567
            ],
            [
                -75.39526851093781,
                33.74255533932825
            ],
            [
                -75.40064210260375,
                34.413424993917644
            ],
            [
                -75.40236060413883,
                34.986020450335374
            ],
            [
                -75.23127070049618,
                35.18551000224669
            ],
            [
                -74.78449537375806,
                35.43760313291918
            ],
            [
                -74.16797637963316,
                35.96060254227847
            ],
            [
                -73.25297393598956,
                36.63874872850338
            ],
            [
                -72.39010873684214,
                37.1447410366039
            ],
            [
                -71.34670525974092,
                37.71129938438689
            ],
            [
                -69.74485261854241,
                38.53917496753785
            ],
            [
                -67.79866983476198,
                39.67141846827788
            ],
            [
                -65.80399505636473,
                40.90510926255593
            ],
            [
                -63.84274131005446,
                42.20666227038555
            ],
            [
                -62.2903546415415,
                43.66275087536408
            ],
            [
                -60.84606447687784,
                45.25482318067629
            ],
            [
                -59.2666708078867,
                46.84695097731124
            ],
            [
                -58.436326903212525,
                47.79793302196743
            ],
            [
                -57.550508375641776,
                48.72970675088582
            ],
            [
                -56.4946883729396,
                49.46941146327604
            ],
            [
                -55.46531460953884,
                50.11923269439155
            ],
            [
                -54.71267186325935,
                50.493014876162114
            ],
            [
                -54.054296169356576,
                50.95575494237278
            ],
            [
                -53.301352938219466,
                51.60533389629467
            ],
            [
                -52.611765921878764,
                52.340752467436516
            ],
            [
                -52.10632133160364,
                53.25255818520191
            ],
            [
                -51.633395684321705,
                54.2267590566906
            ],
            [
                -50.63601093500777,
                55.03857410421884
            ],
            [
                -49.621326760117405,
                55.74026192353096
            ],
            [
                -49.79258289757133,
                56.286885208176486
            ],
            [
                -50.927846936671806,
                56.74052756413782
            ],
            [
                -51.82917746110714,
                57.222481156307275
            ],
            [
                -52.25013768407228,
                57.67999535566931
            ],
            [
                -52.65184705842622,
                58.20496376387672
            ],
            [
                -53.146782429766226,
                58.92029770122707
            ],
            [
                -53.58271095226607,
                59.65731823267582
            ],
            [
                -53.836084963556615,
                60.32259319839851
            ],
            [
                -54.02020215692125,
                61.08996577671215
            ],
            [
                -54.212825318887106,
                61.841401424314135
            ],
            [
                -54.5,
                62.5
            ]
        ]
    },
    "properties": {
        "trajectory_id": 293,
        "object_id": 200225229289,
        "label": "nan"
    }
}