{
    "type": "Feature",
    "geometry": {
        "type": "LineString",
        "coordinates": [
            [
                147.9,
                4.0
            ],
            [
                147.99999999999997,
                4.300000000000001
            ],
            [
                148.2,
                4.6
            ],
            [
                148.40000000000003,
                4.9
            ],
            [
                148.6,
                5.199999999999999
            ],
            [
                148.8,
                5.499999999999999
            ],
            [
                149.0,
                5.8
            ],
            [
                149.09999999999997,
                6.1
            ],
            [
                149.60000000000002,
                6.6
            ],
            [
                149.9,
                6.8
            ],
            [
                150.1,
                6.9
            ],
            [
                150.2,
                7.0
            ],
            [
                150.3,
                7.0
            ],
            [
                150.4,
                7.0
            ],
            [
                150.5,
                7.099999999999999
            ],
            [
                150.8,
                7.099999999999999
            ],
            [
                151.0,
                7.299999999999999
            ],
            [
                150.99999999999997,
                7.499999999999999
            ],
            [
                150.99999999999997,
                7.699999999999999
            ],
            [
                150.79999999999998,
                7.9
            ],
            [
                150.7,
                8.099999999999998
            ],
            [
                150.59999999999997,
                8.3
            ],
            [
                150.5,
                8.5
            ],
            [
                150.39999999999998,
                8.7
            ],
            [
                150.29999999999998,
                8.9
            ],
            [
                150.4,
                9.099999999999998
            ],
            [
                150.4,
                9.4
            ],
            [
                150.5,
                9.7
            ],
            [
                150.6,
                10.100000000000001
            ],
            [
                150.6,
                10.5
            ],
            [
                150.7,
                10.9
            ],
            [
                150.79999999999998,
                11.199999999999998
            ],
            [
                150.89999999999998,
                11.5
            ],
            [
                151.10000000000002,
                12.100000000000001
            ],
            [
                151.20000000000002,
                12.599999999999998
            ],
            [
                151.3,
                12.899999999999999
            ],
            [
                151.3,
                13.299999999999997
            ],
            [
                151.3,
                13.8
            ],
            [
                151.3,
                14.3
            ],
            [
                151.2,
                14.7
            ],
            [
                151.20000000000002,
                15.0
            ],
            [
                151.2,
                15.299999999999997
            ],
            [
                151.3,
                15.6
            ],
            [
                151.3,
                16.0
            ],
            [
                151.4,
                16.4
            ],
            [
                151.5,
                16.899999999999995
            ],
            [
                151.5,
                17.4
            ],
            [
                151.5,
                17.799999999999997
            ],
            [
                151.59999999999997,
                18.299999999999997
            ],
            [
                151.79999999999998,
                18.8
            ],
            [
                152.09999999999997,
                19.299999999999997
            ],
            [
                152.29999999999998,
                19.6
            ],
            [
                152.6,
                20.0
            ],
            [
                153.2,
                20.5
            ],
            [
                153.89999999999998,
                21.099999999999998
            ],
            [
                154.3,
                21.7
            ]
        ]
    },
    "properties": {
        "trajectory_id": 363,
        "object_id": 200313804148,
        "label": "WP"
    }
}