{
    "type": "Feature",
    "geometry": {
        "type": "LineString",
        "coordinates": [
            [
                101.4,
                9.1
            ],
            [
                101.4,
                9.300000000000002
            ],
            [
                101.40000000000002,
                9.399999999999999
            ],
            [
                101.4,
                9.5
            ],
            [
                101.40000000000002,
                9.5
            ],
            [
                101.4,
                9.5
            ],
            [
                101.4,
                9.599999999999998
            ],
            [
                101.4,
                9.6
            ],
            [
                101.30000000000001,
                9.7
            ],
            [
                101.29999999999998,
                9.8
            ],
            [
                101.30000000000001,
                9.900000000000002
            ],
            [
                101.2,
                10.0
            ],
            [
                101.1,
                10.1
            ],
            [
                101.0,
                10.2
            ],
            [
                100.99999999999999,
                10.4
            ],
            [
                100.99999999999999,
                10.5
            ],
            [
                101.0,
                10.7
            ],
            [
                101.1,
                10.799999999999999
            ],
            [
                101.1,
                10.999999999999998
            ],
            [
                101.1,
                11.2
            ],
            [
                101.0,
                11.399999999999999
            ],
            [
                100.89999999999999,
                11.5
            ],
            [
                100.79999999999998,
                11.7
            ],
            [
                100.59999999999998,
                11.899999999999999
            ],
            [
                100.29999999999998,
                12.099999999999998
            ],
            [
                99.99999999999999,
                12.299999999999999
            ],
            [
                99.59999999999998,
                12.5
            ],
            [
                99.1,
                12.5
            ],
            [
                98.59999999999998,
                12.399999999999999
            ],
            [
                98.0,
                12.4
            ],
            [
                97.39999999999999,
                12.5
            ],
            [
                96.79999999999998,
                12.8
            ],
            [
                96.2,
                13.1
            ],
            [
                95.6,
                13.2
            ],
            [
                95.09999999999998,
                13.2
            ],
            [
                94.6,
                13.2
            ],
            [
                94.1,
                13.2
            ],
            [
                93.7,
                13.200000000000001
            ],
            [
                93.3,
                13.299999999999997
            ],
            [
                92.89999999999999,
                13.399999999999999
            ],
            [
                92.29999999999998,
                13.5
            ],
            [
                91.80000000000001,
                13.6
            ],
            [
                91.20000000000002,
                13.699999999999998
            ],
            [
                90.70000000000002,
                13.9
            ],
            [
                90.09999999999998,
                14.100000000000001
            ],
            [
                89.6,
                14.3
            ],
            [
                89.0,
                14.6
            ],
            [
                88.2,
                14.8
            ],
            [
                87.3,
                15.199999999999998
            ],
            [
                86.4,
                15.599999999999998
            ],
            [
                85.59999999999998,
                16.099999999999998
            ],
            [
                84.99999999999999,
                16.7
            ],
            [
                84.6,
                17.4
            ],
            [
                84.2,
                17.9
            ],
            [
                84.00000000000001,
                18.2
            ],
            [
                83.7,
                18.5
            ]
        ]
    },
    "properties": {
        "trajectory_id": 419,
        "object_id": 200329509101,
        "label": "WP"
    }
}