{
    "type": "Feature",
    "geometry": {
        "type": "LineString",
        "coordinates": [
            [
                89.1,
                -13.3
            ],
            [
                89.4,
                -13.3
            ],
            [
                89.7,
                -13.3
            ],
            [
                90.0,
                -13.300000000000002
            ],
            [
                90.29999999999998,
                -13.3
            ],
            [
                90.6,
                -13.299999999999999
            ],
            [
                90.8,
                -13.2
            ],
            [
                90.99999999999999,
                -13.099999999999998
            ],
            [
                91.2,
                -13.000000000000002
            ],
            [
                91.19999999999999,
                -12.8
            ],
            [
                91.1,
                -12.7
            ],
            [
                90.90000000000002,
                -12.8
            ],
            [
                90.7,
                -12.9
            ],
            [
                90.7,
                -13.1
            ],
            [
                90.79999999999998,
                -13.199999999999998
            ],
            [
                90.79999999999998,
                -13.4
            ],
            [
                90.79999999999998,
                -13.699999999999998
            ],
            [
                90.8,
                -13.899999999999999
            ],
            [
                90.70000000000002,
                -14.0
            ],
            [
                90.7,
                -14.2
            ],
            [
                90.6,
                -14.299999999999997
            ],
            [
                90.40000000000002,
                -14.599999999999998
            ],
            [
                90.3,
                -14.9
            ],
            [
                90.20000000000002,
                -15.2
            ],
            [
                90.1,
                -15.6
            ],
            [
                90.0,
                -15.999999999999998
            ],
            [
                89.7,
                -16.399999999999995
            ],
            [
                89.4,
                -16.799999999999997
            ],
            [
                88.89999999999999,
                -17.2
            ],
            [
                88.6,
                -17.6
            ],
            [
                88.19999999999999,
                -17.9
            ],
            [
                87.9,
                -18.1
            ],
            [
                87.6,
                -18.299999999999997
            ],
            [
                87.29999999999998,
                -18.6
            ],
            [
                87.09999999999997,
                -18.799999999999997
            ],
            [
                86.9,
                -19.1
            ],
            [
                86.69999999999999,
                -19.3
            ],
            [
                86.4,
                -19.4
            ],
            [
                86.1,
                -19.5
            ],
            [
                85.80000000000001,
                -19.700000000000003
            ],
            [
                85.4,
                -19.799999999999997
            ],
            [
                85.0,
                -20.1
            ],
            [
                84.6,
                -20.400000000000002
            ],
            [
                84.29999999999998,
                -20.8
            ],
            [
                84.0,
                -21.3
            ],
            [
                83.8,
                -21.799999999999997
            ],
            [
                83.9,
                -22.299999999999997
            ],
            [
                84.09999999999998,
                -22.8
            ],
            [
                84.4,
                -23.200000000000003
            ],
            [
                84.49999999999999,
                -23.7
            ],
            [
                84.6,
                -24.199999999999996
            ],
            [
                84.70000000000002,
                -24.6
            ],
            [
                84.69999999999999,
                -24.899999999999995
            ],
            [
                84.39999999999999,
                -25.1
            ],
            [
                83.9,
                -25.2
            ],
            [
                83.3,
                -25.3
            ]
        ]
    },
    "properties": {
        "trajectory_id": 457,
        "object_id": 200406813089,
        "label": "SI"
    }
}