{
    "type": "Feature",
    "geometry": {
        "type": "LineString",
        "coordinates": [
            [
                55.8,
                -8.4
            ],
            [
                55.788414701642424,
                -8.49760147040275
            ],
            [
                55.844632383051405,
                -8.491628799395604
            ],
            [
                55.93722945783296,
                -8.525146582782277
            ],
            [
                56.001332834333084,
                -8.603338172976416
            ],
            [
                55.994530140083015,
                -8.605104276998714
            ],
            [
                56.05850703840126,
                -8.591388746565345
            ],
            [
                56.10959814979011,
                -8.621059401021903
            ],
            [
                56.10020815289815,
                -8.718359692932216
            ],
            [
                56.10467270822779,
                -8.872805353171874
            ],
            [
                56.04090629846941,
                -9.02992483010665
            ],
            [
                55.96410576420273,
                -9.175401052948162
            ],
            [
                55.87396336331006,
                -9.339342080946494
            ],
            [
                55.715946435540076,
                -9.572526530940703
            ],
            [
                55.558045002973174,
                -9.885959549615542
            ],
            [
                55.41729331292917,
                -10.119322249692987
            ],
            [
                55.24135300124306,
                -10.218623176167307
            ],
            [
                55.00564957324029,
                -10.20240875794897
            ],
            [
                54.77689468871331,
                -10.048310835865667
            ],
            [
                54.54139183982852,
                -9.945078442983467
            ],
            [
                54.333966482195805,
                -9.858112414800983
            ],
            [
                54.194610342243244,
                -9.69140124059235
            ],
            [
                54.11079655910979,
                -9.52959567280033
            ],
            [
                54.09402267774638,
                -9.447861247558093
            ],
            [
                54.10220718898322,
                -9.339053817548882
            ],
            [
                54.09940663034493,
                -9.186041796728881
            ],
            [
                54.098377466775204,
                -9.112540765513376
            ],
            [
                54.10860335396739,
                -9.034223773141402
            ],
            [
                54.070285000029784,
                -8.984337282175636
            ],
            [
                53.983973922458006,
                -9.010468454659549
            ],
            [
                53.90872399192774,
                -9.08967706646714
            ],
            [
                53.8331112474077,
                -9.170400409865291
            ],
            [
                53.756253184882894,
                -9.236545025344496
            ],
            [
                53.67994961688571,
                -9.332310872079692
            ],
            [
                53.6035950573767,
                -9.491727776924836
            ],
            [
                53.528029841183915,
                -9.655198380068663
            ],
            [
                53.44809799075076,
                -9.754388526569578
            ],
            [
                53.38031917766518,
                -9.827925244709204
            ],
            [
                53.296926029091175,
                -9.900921485241897
            ],
            [
                53.13819688733938,
                -9.90337849640362
            ],
            [
                53.04428476975311,
                -9.900078707111334
            ],
            [
                52.949248883716265,
                -9.895377606313538
            ],
            [
                52.78430964393584,
                -9.903997987496219
            ],
            [
                52.631780973970294,
                -9.980834926586592
            ],
            [
                52.48061472903581,
                -10.062332763968046
            ],
            [
                52.32714237821787,
                -10.134402502764265
            ],
            [
                52.17447308094357,
                -10.214447862057902
            ],
            [
                52.02159095102844,
                -10.292739733833594
            ],
            [
                51.87076427227027,
                -10.311890751837305
            ],
            [
                51.71117066275523,
                -10.271820233028789
            ],
            [
                51.57252120556405,
                -10.16807855159936
            ],
            [
                51.50229697476365,
                -10.01093399133676
            ],
            [
                51.49499900698635,
                -9.86461508905866
            ],
            [
                51.506418774378865,
                -9.668970589667392
            ],
            [
                51.48893148506774,
                -9.42276645684074
            ],
            [
                51.4,
                -9.2
            ]
        ]
    },
    "properties": {
        "trajectory_id": 463,
        "object_id": 200408308056,
        "label": "SI"
    }
}