{
    "type": "Feature",
    "geometry": {
        "type": "LineString",
        "coordinates": [
            [
                -103.7,
                12.0
            ],
            [
                -104.03352730177166,
                11.908340482748144
            ],
            [
                -104.28094539645667,
                11.895319034503714
            ],
            [
                -104.52603650885838,
                11.903302413740716
            ],
            [
                -104.74625428405497,
                11.89613565526671
            ],
            [
                -104.89999999999999,
                11.9
            ],
            [
                -105.06538382224534,
                11.97869330962189
            ],
            [
                -105.16966343306501,
                12.052645520594117
            ],
            [
                -105.23035477777317,
                12.172837162491778
            ],
            [
                -105.33456761551945,
                12.338419535482378
            ],
            [
                -105.50000000000001,
                12.5
            ],
            [
                -105.65413421382672,
                12.738161583899114
            ],
            [
                -105.87216061815946,
                12.97391196075538
            ],
            [
                -106.12439037913708,
                13.2495071096644
            ],
            [
                -106.35586312671583,
                13.584454228314804
            ],
            [
                -106.60000000000002,
                13.899999999999999
            ],
            [
                -106.91905366014001,
                14.149453966806286
            ],
            [
                -107.23109648986969,
                14.327074865949873
            ],
            [
                -107.59737877482021,
                14.472342112401803
            ],
            [
                -107.9892789673535,
                14.652100757589242
            ],
            [
                -108.29999999999998,
                14.899999999999999
            ],
            [
                -108.61507585333581,
                15.151907976520928
            ],
            [
                -108.9581584165607,
                15.306612033519778
            ],
            [
                -109.19509193598743,
                15.548862696285376
            ],
            [
                -109.33945653986905,
                15.86869274399865
            ],
            [
                -109.5,
                16.1
            ],
            [
                -109.58566188700757,
                16.407093478254108
            ],
            [
                -109.64923632291028,
                16.802059636887634
            ],
            [
                -109.77285680674606,
                17.176620966961178
            ],
            [
                -109.94048976724217,
                17.464691578149043
            ],
            [
                -110.1,
                17.7
            ],
            [
                -110.26893022613297,
                17.939426804776108
            ],
            [
                -110.35608822803434,
                18.180157522681746
            ],
            [
                -110.4759285727485,
                18.420404894183573
            ],
            [
                -110.62915830511272,
                18.659073416916364
            ],
            [
                -110.69999999999999,
                18.899999999999995
            ],
            [
                -110.77880198279186,
                19.147306648311144
            ],
            [
                -110.8606799157522,
                19.324499763371982
            ],
            [
                -110.93968630646359,
                19.484328504651568
            ],
            [
                -111.02022142463272,
                19.627551303626024
            ],
            [
                -111.1,
                19.7
            ],
            [
                -111.17865443549034,
                19.777262967586267
            ],
            [
                -111.26621542789015,
                19.86879657148388
            ],
            [
                -111.31521488118659,
                19.90892500822164
            ],
            [
                -111.28499807363828,
                19.897079486532313
            ],
            [
                -111.19999999999999,
                19.9
            ],
            [
                -111.1193585023381,
                19.908909063425266
            ],
            [
                -111.04031309493726,
                19.838035104501014
            ],
            [
                -110.9600006437382,
                19.789523090348126
            ],
            [
                -110.87980486119396,
                19.801869083643684
            ],
            [
                -110.80000000000001,
                19.799999999999997
            ],
            [
                -110.72169501810512,
                19.80309533691604
            ],
            [
                -110.63212498994159,
                19.784413701713312
            ],
            [
                -110.58971000402337,
                19.859354519314675
            ],
            [
                -110.60514499798833,
                20.05032274034266
            ],
            [
                -110.6,
                20.2
            ]
        ]
    },
    "properties": {
        "trajectory_id": 47,
        "object_id": 200016412256,
        "label": "EP"
    }
}