{
    "type": "Feature",
    "geometry": {
        "type": "LineString",
        "coordinates": [
            [
                -71.9,
                14.7
            ],
            [
                -72.4,
                14.9
            ],
            [
                -72.8,
                15.2
            ],
            [
                -73.3,
                15.399999999999999
            ],
            [
                -73.8,
                15.7
            ],
            [
                -74.19999999999999,
                15.899999999999999
            ],
            [
                -74.69999999999999,
                16.199999999999996
            ],
            [
                -75.3,
                16.5
            ],
            [
                -75.8,
                16.800000000000004
            ],
            [
                -76.1,
                17.1
            ],
            [
                -76.5,
                17.3
            ],
            [
                -77.1,
                17.4
            ],
            [
                -77.59999999999998,
                17.400000000000002
            ],
            [
                -78.0,
                17.5
            ],
            [
                -78.4,
                17.7
            ],
            [
                -78.70000000000002,
                17.9
            ],
            [
                -79.0,
                18.0
            ],
            [
                -79.29999999999998,
                18.1
            ],
            [
                -79.6,
                18.2
            ],
            [
                -80.00000000000001,
                18.3
            ],
            [
                -80.4,
                18.4
            ],
            [
                -80.8,
                18.6
            ],
            [
                -81.20000000000002,
                18.8
            ],
            [
                -81.60000000000001,
                18.9
            ],
            [
                -82.1,
                19.099999999999998
            ],
            [
                -82.49999999999999,
                19.3
            ],
            [
                -82.8,
                19.500000000000004
            ],
            [
                -83.19999999999999,
                19.7
            ],
            [
                -83.5,
                19.9
            ],
            [
                -83.80000000000001,
                20.1
            ],
            [
                -84.1,
                20.4
            ],
            [
                -84.4,
                20.6
            ],
            [
                -84.7,
                20.900000000000002
            ],
            [
                -84.8,
                21.2
            ],
            [
                -85.1,
                21.599999999999998
            ],
            [
                -85.40000000000002,
                22.000000000000004
            ],
            [
                -85.60000000000001,
                22.4
            ],
            [
                -85.8,
                22.700000000000003
            ],
            [
                -85.99999999999999,
                23.000000000000004
            ],
            [
                -86.2,
                23.3
            ],
            [
                -86.5,
                23.700000000000003
            ],
            [
                -86.8,
                24.2
            ],
            [
                -87.00000000000001,
                24.699999999999996
            ],
            [
                -87.2,
                25.099999999999998
            ],
            [
                -87.39999999999999,
                25.599999999999998
            ],
            [
                -87.7,
                26.1
            ],
            [
                -87.89999999999999,
                26.699999999999996
            ],
            [
                -88.1,
                27.3
            ],
            [
                -88.20000000000002,
                27.900000000000006
            ],
            [
                -88.20000000000002,
                28.4
            ],
            [
                -88.20000000000002,
                28.900000000000002
            ],
            [
                -88.0,
                29.4
            ],
            [
                -87.90000000000002,
                30.0
            ],
            [
                -87.79999999999998,
                30.699999999999996
            ],
            [
                -87.7,
                31.39999999999999
            ],
            [
                -87.6,
                32.0
            ]
        ]
    },
    "properties": {
        "trajectory_id": 520,
        "object_id": 200424710332,
        "label": "nan"
    }
}