{
    "type": "Feature",
    "geometry": {
        "type": "LineString",
        "coordinates": [
            [
                132.9,
                24.3
            ],
            [
                133.03868597126242,
                24.34051178929396
            ],
            [
                133.2061394869894,
                24.40264143257223
            ],
            [
                133.37252753810665,
                24.490847672014546
            ],
            [
                133.50802317921278,
                24.609587624894573
            ],
            [
                133.6032401070255,
                24.757840850217814
            ],
            [
                133.7148225626186,
                24.916889263492212
            ],
            [
                133.87626573754616,
                25.070719882887786
            ],
            [
                134.01500873732672,
                25.221577274194928
            ],
            [
                134.07673028358013,
                25.37366186154404
            ],
            [
                134.10529985250787,
                25.527633066402945
            ],
            [
                134.147319829624,
                25.68196000925904
            ],
            [
                134.2180868765476,
                25.831326987764577
            ],
            [
                134.31821369420825,
                25.978473922551554
            ],
            [
                134.42661651318303,
                26.144515452340976
            ],
            [
                134.5288143402451,
                26.34260283610439
            ],
            [
                134.6285923073604,
                26.56587696137406
            ],
            [
                134.72995212314052,
                26.812856595988038
            ],
            [
                134.83353298940582,
                27.095283161525597
            ],
            [
                134.93687255019,
                27.405274603600972
            ],
            [
                135.03336008597995,
                27.70172749899183
            ],
            [
                135.1299172834842,
                27.960126167035053
            ],
            [
                135.2531495511258,
                28.18461039748649
            ],
            [
                135.40770041000056,
                28.386994658061738
            ],
            [
                135.56749412848433,
                28.58595519104597
            ],
            [
                135.71968732129324,
                28.790022010237077
            ],
            [
                135.86987919646754,
                28.994998781235804
            ],
            [
                136.02236772603456,
                29.198568931380287
            ],
            [
                136.17851138103885,
                29.401346225718644
            ],
            [
                136.33262947493714,
                29.604759106095287
            ],
            [
                136.47374891260338,
                29.810611460900816
            ],
            [
                136.62211936803365,
                30.01504721368263
            ],
            [
                136.82425562099874,
                30.21039645440396
            ],
            [
                137.08652563899076,
                30.411792162152814
            ],
            [
                137.38167627450525,
                30.650254440038808
            ],
            [
                137.6895956893855,
                30.91095776054451
            ],
            [
                137.99717221346103,
                31.14669278386375
            ],
            [
                138.30189696536934,
                31.3434835938223
            ],
            [
                138.60790841167767,
                31.51085229850754
            ],
            [
                138.91351478282513,
                31.659445609615545
            ],
            [
                139.2146644267176,
                31.796361142598656
            ],
            [
                139.5207261406304,
                31.88976077827229
            ],
            [
                139.84308980832773,
                31.892845292558047
            ],
            [
                140.14424373692955,
                31.820723691136628
            ],
            [
                140.37271211181357,
                31.71854119969767
            ],
            [
                140.56395661804342,
                31.616456836328474
            ],
            [
                140.77926963225497,
                31.52982636053889
            ],
            [
                140.9778808519041,
                31.420889217838102
            ],
            [
                141.09535363050358,
                31.25037596399246
            ],
            [
                141.18741367274893,
                31.107837453199497
            ],
            [
                141.3428747513418,
                31.10373861934742
            ],
            [
                141.58008397487964,
                31.19269905419834
            ],
            [
                141.89409014853277,
                31.291605531146697
            ],
            [
                142.28462223170106,
                31.395925748007052
            ],
            [
                142.75286408484033,
                31.525456050153032
            ],
            [
                143.3,
                31.7
            ]
        ]
    },
    "properties": {
        "trajectory_id": 657,
        "object_id": 200528222138,
        "label": "WP"
    }
}