{
    "type": "Feature",
    "geometry": {
        "type": "LineString",
        "coordinates": [
            [
                95.1,
                -3.8
            ],
            [
                95.0,
                -3.9999999999999996
            ],
            [
                94.8,
                -4.2
            ],
            [
                94.70000000000003,
                -4.5
            ],
            [
                94.5,
                -4.799999999999999
            ],
            [
                94.4,
                -5.200000000000001
            ],
            [
                94.30000000000001,
                -5.6
            ],
            [
                94.20000000000002,
                -5.999999999999999
            ],
            [
                94.10000000000001,
                -6.5
            ],
            [
                94.0,
                -6.799999999999999
            ],
            [
                94.0,
                -7.1
            ],
            [
                93.9,
                -7.2
            ],
            [
                93.99999999999999,
                -7.4
            ],
            [
                94.0,
                -7.5
            ],
            [
                93.89999999999999,
                -7.599999999999998
            ],
            [
                93.9,
                -7.799999999999999
            ],
            [
                93.79999999999998,
                -7.999999999999998
            ],
            [
                93.69999999999999,
                -8.199999999999998
            ],
            [
                93.59999999999998,
                -8.399999999999999
            ],
            [
                93.39999999999999,
                -8.6
            ],
            [
                93.30000000000001,
                -8.7
            ],
            [
                93.1,
                -8.899999999999999
            ],
            [
                92.80000000000001,
                -9.0
            ],
            [
                92.59999999999998,
                -9.2
            ],
            [
                92.4,
                -9.399999999999999
            ],
            [
                92.1,
                -9.7
            ],
            [
                91.9,
                -10.0
            ],
            [
                91.7,
                -10.2
            ],
            [
                91.5,
                -10.399999999999999
            ],
            [
                91.29999999999998,
                -10.7
            ],
            [
                91.1,
                -10.899999999999999
            ],
            [
                91.0,
                -11.2
            ],
            [
                90.80000000000001,
                -11.499999999999998
            ],
            [
                90.6,
                -11.7
            ],
            [
                90.5,
                -11.9
            ],
            [
                90.4,
                -12.000000000000002
            ],
            [
                90.39999999999999,
                -12.2
            ],
            [
                90.3,
                -12.4
            ],
            [
                90.30000000000001,
                -12.5
            ],
            [
                90.3,
                -12.699999999999996
            ],
            [
                90.29999999999998,
                -12.899999999999999
            ],
            [
                90.3,
                -13.099999999999998
            ],
            [
                90.29999999999998,
                -13.399999999999999
            ],
            [
                90.19999999999999,
                -13.699999999999998
            ],
            [
                90.09999999999998,
                -13.899999999999999
            ],
            [
                90.0,
                -14.099999999999998
            ],
            [
                90.0,
                -14.199999999999998
            ],
            [
                89.9,
                -14.4
            ],
            [
                89.9,
                -14.599999999999998
            ],
            [
                89.8,
                -14.699999999999998
            ],
            [
                89.60000000000001,
                -14.699999999999998
            ],
            [
                89.49999999999999,
                -14.7
            ],
            [
                89.39999999999999,
                -14.699999999999998
            ],
            [
                89.2,
                -14.6
            ],
            [
                89.0,
                -14.5
            ],
            [
                88.8,
                -14.4
            ]
        ]
    },
    "properties": {
        "trajectory_id": 668,
        "object_id": 200532204095,
        "label": "SI"
    }
}