{
    "type": "Feature",
    "geometry": {
        "type": "LineString",
        "coordinates": [
            [
                125.6,
                -15.3
            ],
            [
                125.50914626305963,
                -15.299467547757066
            ],
            [
                125.32291582007386,
                -15.301799321372682
            ],
            [
                125.13175603217337,
                -15.291716624920898
            ],
            [
                124.94625850990963,
                -15.384286935634467
            ],
            [
                124.74428717190166,
                -15.39528828447439
            ],
            [
                124.63608696546642,
                -15.470202987577668
            ],
            [
                124.48243145491807,
                -15.501039384332817
            ],
            [
                124.29260431239602,
                -15.543707625984567
            ],
            [
                124.05791322967423,
                -15.663778519222204
            ],
            [
                123.75396796825996,
                -15.70052170032669
            ],
            [
                123.51151644580702,
                -15.727753462397786
            ],
            [
                123.33515738118746,
                -15.842937712221035
            ],
            [
                123.13448350493228,
                -15.908357623413902
            ],
            [
                122.97453462345001,
                -15.895292680072785
            ],
            [
                122.86752352458514,
                -15.909095414816013
            ],
            [
                122.68373084696839,
                -16.02187281686391
            ],
            [
                122.58734809853497,
                -16.214797004780156
            ],
            [
                122.29257247807823,
                -16.40392603125054
            ],
            [
                121.91148209566633,
                -16.59498930602065
            ],
            [
                121.71395107114246,
                -16.687378520058385
            ],
            [
                121.53754536664584,
                -16.87372809386702
            ],
            [
                121.25550548602281,
                -16.98340991520541
            ],
            [
                121.04764829784173,
                -17.07736198455997
            ],
            [
                120.85544521082197,
                -17.15216487822179
            ],
            [
                120.72905235237168,
                -17.381882170958516
            ],
            [
                120.64603001831735,
                -17.66537580782311
            ],
            [
                120.52417652753243,
                -18.018428659026053
            ],
            [
                120.19263683096833,
                -18.313399278729232
            ],
            [
                119.65501261061394,
                -18.47823946484859
            ],
            [
                119.06416930000701,
                -18.67472507730939
            ],
            [
                118.34414116909014,
                -18.859566381795368
            ],
            [
                117.64483973889104,
                -19.056747142766724
            ],
            [
                117.21577140729174,
                -19.22268483972384
            ],
            [
                116.8508712440876,
                -19.324169474663076
            ],
            [
                116.57405599273896,
                -19.514728005190538
            ],
            [
                116.28850691012073,
                -19.60236893036221
            ],
            [
                116.00464164708941,
                -19.69697347914836
            ],
            [
                115.81233094038545,
                -19.887689367450825
            ],
            [
                115.63276184331194,
                -19.989638565029047
            ],
            [
                115.34898710890417,
                -20.081424604341137
            ],
            [
                115.15043623287116,
                -20.17412984066695
            ],
            [
                114.89116817473901,
                -20.281298868616492
            ],
            [
                114.61211168455924,
                -20.296642110419207
            ],
            [
                114.25937056568301,
                -20.35459607848088
            ],
            [
                113.92497465365172,
                -20.44565655848052
            ],
            [
                113.66171181581535,
                -20.600589892862928
            ],
            [
                113.3386492183693,
                -20.74308948547943
            ],
            [
                112.92093698409333,
                -20.88430082363349
            ],
            [
                112.41370153239988,
                -21.243677110090445
            ],
            [
                111.82213210607426,
                -21.767577463085715
            ],
            [
                111.12476475694528,
                -22.303738920198292
            ],
            [
                110.38592214894773,
                -22.659460678180356
            ],
            [
                109.84344821836709,
                -23.050388171111926
            ],
            [
                109.37332098176338,
                -23.52850294379897
            ],
            [
                108.9,
                -24.0
            ]
        ]
    },
    "properties": {
        "trajectory_id": 683,
        "object_id": 200601715126,
        "label": "SI"
    }
}