{
    "type": "Feature",
    "geometry": {
        "type": "LineString",
        "coordinates": [
            [
                -101.8,
                12.0
            ],
            [
                -102.3,
                12.2
            ],
            [
                -102.8,
                12.5
            ],
            [
                -103.30000000000001,
                12.800000000000004
            ],
            [
                -103.9,
                13.1
            ],
            [
                -104.5,
                13.4
            ],
            [
                -104.99999999999999,
                13.799999999999999
            ],
            [
                -105.5,
                14.1
            ],
            [
                -106.10000000000001,
                14.4
            ],
            [
                -106.69999999999999,
                14.699999999999998
            ],
            [
                -107.3,
                15.1
            ],
            [
                -107.9,
                15.600000000000001
            ],
            [
                -108.6,
                16.2
            ],
            [
                -109.19999999999999,
                16.7
            ],
            [
                -109.79999999999998,
                17.1
            ],
            [
                -110.40000000000002,
                17.5
            ],
            [
                -111.0,
                17.8
            ],
            [
                -111.6,
                18.1
            ],
            [
                -112.1,
                18.5
            ],
            [
                -112.59999999999997,
                18.9
            ],
            [
                -113.1,
                19.2
            ],
            [
                -113.5,
                19.5
            ],
            [
                -113.8,
                19.699999999999996
            ],
            [
                -114.19999999999999,
                20.0
            ],
            [
                -114.59999999999998,
                20.2
            ],
            [
                -114.89999999999999,
                20.399999999999995
            ],
            [
                -115.19999999999999,
                20.6
            ],
            [
                -115.5,
                20.799999999999997
            ],
            [
                -115.7,
                20.9
            ],
            [
                -116.00000000000001,
                21.0
            ],
            [
                -116.2,
                21.199999999999996
            ],
            [
                -116.49999999999999,
                21.299999999999997
            ],
            [
                -116.69999999999999,
                21.499999999999996
            ],
            [
                -116.89999999999999,
                21.599999999999998
            ],
            [
                -117.09999999999997,
                21.800000000000004
            ],
            [
                -117.29999999999998,
                21.9
            ],
            [
                -117.6,
                22.1
            ],
            [
                -117.9,
                22.3
            ],
            [
                -118.20000000000002,
                22.399999999999995
            ],
            [
                -118.5,
                22.5
            ],
            [
                -118.69999999999999,
                22.6
            ],
            [
                -118.89999999999998,
                22.700000000000003
            ],
            [
                -119.09999999999997,
                22.8
            ],
            [
                -119.29999999999998,
                22.899999999999995
            ],
            [
                -119.5,
                23.1
            ],
            [
                -119.69999999999999,
                23.199999999999996
            ],
            [
                -119.9,
                23.299999999999997
            ],
            [
                -120.19999999999999,
                23.4
            ],
            [
                -120.5,
                23.499999999999996
            ],
            [
                -120.79999999999998,
                23.6
            ],
            [
                -121.09999999999997,
                23.7
            ],
            [
                -121.39999999999999,
                23.799999999999997
            ],
            [
                -121.6,
                23.800000000000004
            ],
            [
                -121.8,
                23.8
            ],
            [
                -122.0,
                23.9
            ],
            [
                -122.2,
                24.0
            ]
        ]
    },
    "properties": {
        "trajectory_id": 739,
        "object_id": 200623412258,
        "label": "EP"
    }
}