{
    "type": "Feature",
    "geometry": {
        "type": "LineString",
        "coordinates": [
            [
                156.9,
                13.5
            ],
            [
                157.0,
                13.9
            ],
            [
                157.0,
                14.2
            ],
            [
                157.0,
                14.500000000000002
            ],
            [
                157.00000000000003,
                14.799999999999997
            ],
            [
                156.99999999999997,
                15.199999999999998
            ],
            [
                157.1,
                15.499999999999998
            ],
            [
                157.1,
                15.7
            ],
            [
                157.5,
                15.900000000000002
            ],
            [
                157.60000000000002,
                15.999999999999998
            ],
            [
                157.69999999999996,
                16.1
            ],
            [
                157.5,
                16.2
            ],
            [
                157.19999999999996,
                16.300000000000004
            ],
            [
                156.79999999999998,
                16.2
            ],
            [
                156.39999999999998,
                16.1
            ],
            [
                155.89999999999998,
                16.0
            ],
            [
                155.59999999999997,
                15.999999999999998
            ],
            [
                155.3,
                15.899999999999999
            ],
            [
                154.89999999999998,
                15.8
            ],
            [
                154.6,
                15.799999999999999
            ],
            [
                154.2,
                15.9
            ],
            [
                153.8,
                15.9
            ],
            [
                153.5,
                15.899999999999999
            ],
            [
                153.1,
                15.899999999999999
            ],
            [
                152.6,
                15.999999999999998
            ],
            [
                152.2,
                16.0
            ],
            [
                151.7,
                16.0
            ],
            [
                151.19999999999996,
                16.1
            ],
            [
                150.8,
                16.1
            ],
            [
                150.29999999999998,
                16.099999999999998
            ],
            [
                149.9,
                16.199999999999996
            ],
            [
                149.5,
                16.099999999999998
            ],
            [
                149.0,
                16.099999999999998
            ],
            [
                148.5,
                16.1
            ],
            [
                148.1,
                16.0
            ],
            [
                147.89999999999998,
                15.9
            ],
            [
                147.69999999999996,
                15.8
            ],
            [
                147.59999999999997,
                15.400000000000002
            ],
            [
                147.59999999999997,
                15.0
            ],
            [
                147.7,
                14.6
            ],
            [
                147.8,
                14.3
            ],
            [
                147.9,
                13.899999999999999
            ],
            [
                147.89999999999998,
                13.6
            ],
            [
                147.7,
                13.6
            ],
            [
                147.49999999999997,
                13.8
            ],
            [
                147.29999999999998,
                13.9
            ],
            [
                147.19999999999996,
                14.2
            ],
            [
                147.09999999999997,
                14.4
            ],
            [
                146.8,
                14.8
            ],
            [
                146.4,
                15.3
            ],
            [
                145.9,
                15.799999999999999
            ],
            [
                145.3,
                16.3
            ],
            [
                144.79999999999998,
                16.699999999999996
            ],
            [
                144.2,
                17.0
            ],
            [
                143.6,
                17.3
            ],
            [
                142.9,
                17.5
            ]
        ]
    },
    "properties": {
        "trajectory_id": 79,
        "object_id": 200024514157,
        "label": "WP"
    }
}