{
    "type": "Feature",
    "geometry": {
        "type": "LineString",
        "coordinates": [
            [
                135.2,
                -12.1
            ],
            [
                134.8,
                -12.1
            ],
            [
                134.60000000000002,
                -12.1
            ],
            [
                134.70000000000002,
                -12.100000000000001
            ],
            [
                134.8,
                -12.199999999999996
            ],
            [
                134.8,
                -12.199999999999998
            ],
            [
                134.79999999999998,
                -12.2
            ],
            [
                134.59999999999997,
                -12.3
            ],
            [
                134.5,
                -12.3
            ],
            [
                134.7,
                -12.3
            ],
            [
                134.8,
                -12.200000000000003
            ],
            [
                134.7,
                -12.200000000000001
            ],
            [
                134.7,
                -12.399999999999999
            ],
            [
                134.79999999999998,
                -12.399999999999999
            ],
            [
                134.99999999999997,
                -12.5
            ],
            [
                135.0,
                -12.700000000000001
            ],
            [
                134.9,
                -12.8
            ],
            [
                134.9,
                -12.899999999999999
            ],
            [
                134.8,
                -13.0
            ],
            [
                134.59999999999997,
                -12.999999999999998
            ],
            [
                134.3,
                -12.999999999999998
            ],
            [
                134.1,
                -12.999999999999998
            ],
            [
                133.8,
                -12.999999999999998
            ],
            [
                133.59999999999997,
                -13.0
            ],
            [
                133.3,
                -12.999999999999998
            ],
            [
                133.0,
                -13.0
            ],
            [
                132.7,
                -13.0
            ],
            [
                132.4,
                -13.0
            ],
            [
                132.1,
                -13.099999999999998
            ],
            [
                131.7,
                -13.199999999999998
            ],
            [
                131.3,
                -13.299999999999999
            ],
            [
                130.9,
                -13.5
            ],
            [
                130.59999999999997,
                -13.6
            ],
            [
                130.29999999999998,
                -13.8
            ],
            [
                129.99999999999997,
                -13.999999999999998
            ],
            [
                129.7,
                -13.999999999999998
            ],
            [
                129.39999999999998,
                -14.099999999999998
            ],
            [
                129.3,
                -14.299999999999999
            ],
            [
                129.1,
                -14.499999999999998
            ],
            [
                128.9,
                -14.6
            ],
            [
                128.59999999999997,
                -14.499999999999998
            ],
            [
                128.19999999999996,
                -14.5
            ],
            [
                127.89999999999999,
                -14.400000000000002
            ],
            [
                127.5,
                -14.4
            ],
            [
                127.19999999999999,
                -14.4
            ],
            [
                126.79999999999998,
                -14.399999999999999
            ],
            [
                126.29999999999998,
                -14.399999999999999
            ],
            [
                125.9,
                -14.399999999999999
            ],
            [
                125.49999999999999,
                -14.4
            ],
            [
                125.1,
                -14.499999999999996
            ],
            [
                124.79999999999998,
                -14.499999999999996
            ],
            [
                124.4,
                -14.5
            ],
            [
                123.99999999999999,
                -14.5
            ],
            [
                123.59999999999998,
                -14.500000000000002
            ],
            [
                123.1,
                -14.399999999999999
            ],
            [
                122.7,
                -14.5
            ]
        ]
    },
    "properties": {
        "trajectory_id": 798,
        "object_id": 200705812135,
        "label": "SP"
    }
}