{
    "type": "Feature",
    "geometry": {
        "type": "LineString",
        "coordinates": [
            [
                118.9,
                -13.8
            ],
            [
                118.5,
                -13.8
            ],
            [
                118.0,
                -13.8
            ],
            [
                117.70000000000002,
                -13.800000000000004
            ],
            [
                117.49999999999999,
                -13.9
            ],
            [
                117.19999999999999,
                -13.999999999999998
            ],
            [
                117.0,
                -14.099999999999998
            ],
            [
                116.8,
                -14.2
            ],
            [
                116.60000000000001,
                -14.3
            ],
            [
                116.39999999999999,
                -14.4
            ],
            [
                116.2,
                -14.6
            ],
            [
                116.0,
                -14.600000000000001
            ],
            [
                115.9,
                -14.600000000000001
            ],
            [
                115.79999999999998,
                -14.6
            ],
            [
                115.8,
                -14.7
            ],
            [
                115.6,
                -14.7
            ],
            [
                115.39999999999999,
                -14.7
            ],
            [
                115.1,
                -14.7
            ],
            [
                114.9,
                -14.7
            ],
            [
                114.6,
                -14.600000000000001
            ],
            [
                114.19999999999999,
                -14.6
            ],
            [
                113.79999999999998,
                -14.499999999999998
            ],
            [
                113.29999999999998,
                -14.5
            ],
            [
                112.69999999999999,
                -14.5
            ],
            [
                112.1,
                -14.5
            ],
            [
                111.5,
                -14.5
            ],
            [
                110.9,
                -14.3
            ],
            [
                110.4,
                -14.0
            ],
            [
                110.1,
                -13.7
            ],
            [
                109.79999999999998,
                -13.499999999999998
            ],
            [
                109.6,
                -13.4
            ],
            [
                109.3,
                -13.299999999999999
            ],
            [
                108.89999999999999,
                -13.099999999999998
            ],
            [
                108.6,
                -12.9
            ],
            [
                108.3,
                -12.7
            ],
            [
                108.1,
                -12.699999999999998
            ],
            [
                107.79999999999998,
                -12.699999999999998
            ],
            [
                107.5,
                -12.7
            ],
            [
                107.19999999999999,
                -12.8
            ],
            [
                106.8,
                -12.899999999999997
            ],
            [
                106.4,
                -12.999999999999998
            ],
            [
                106.0,
                -12.899999999999999
            ],
            [
                105.79999999999998,
                -12.799999999999999
            ],
            [
                105.69999999999999,
                -12.699999999999996
            ],
            [
                105.8,
                -12.699999999999998
            ],
            [
                106.0,
                -12.799999999999999
            ],
            [
                106.2,
                -13.099999999999998
            ],
            [
                106.5,
                -13.3
            ],
            [
                106.79999999999998,
                -13.6
            ],
            [
                107.2,
                -13.9
            ],
            [
                107.6,
                -14.099999999999998
            ],
            [
                108.0,
                -14.299999999999999
            ],
            [
                108.4,
                -14.6
            ],
            [
                108.79999999999998,
                -14.8
            ],
            [
                109.09999999999998,
                -15.099999999999998
            ],
            [
                109.4,
                -15.5
            ]
        ]
    },
    "properties": {
        "trajectory_id": 800,
        "object_id": 200706214119,
        "label": "SI"
    }
}