{
    "type": "Feature",
    "geometry": {
        "type": "LineString",
        "coordinates": [
            [
                71.6,
                13.7
            ],
            [
                71.7,
                13.9
            ],
            [
                71.7,
                14.0
            ],
            [
                71.7,
                14.1
            ],
            [
                71.5,
                14.199999999999996
            ],
            [
                71.29999999999998,
                14.299999999999999
            ],
            [
                70.9,
                14.4
            ],
            [
                70.5,
                14.5
            ],
            [
                70.00000000000001,
                14.7
            ],
            [
                69.4,
                14.899999999999999
            ],
            [
                68.8,
                15.0
            ],
            [
                68.5,
                15.099999999999998
            ],
            [
                68.2,
                15.100000000000001
            ],
            [
                68.0,
                15.1
            ],
            [
                67.9,
                15.1
            ],
            [
                67.5,
                15.0
            ],
            [
                67.19999999999999,
                15.0
            ],
            [
                67.1,
                15.1
            ],
            [
                67.1,
                15.199999999999996
            ],
            [
                67.09999999999998,
                15.2
            ],
            [
                67.1,
                15.3
            ],
            [
                66.9,
                15.399999999999997
            ],
            [
                66.99999999999999,
                15.799999999999999
            ],
            [
                67.09999999999998,
                15.999999999999996
            ],
            [
                67.09999999999998,
                16.5
            ],
            [
                66.9,
                16.899999999999995
            ],
            [
                66.7,
                17.5
            ],
            [
                66.5,
                17.6
            ],
            [
                66.1,
                18.0
            ],
            [
                65.9,
                18.1
            ],
            [
                65.29999999999998,
                18.6
            ],
            [
                65.1,
                18.699999999999996
            ],
            [
                64.7,
                19.1
            ],
            [
                64.5,
                19.5
            ],
            [
                64.09999999999998,
                20.0
            ],
            [
                63.79999999999999,
                20.1
            ],
            [
                63.4,
                20.5
            ],
            [
                63.19999999999999,
                20.600000000000005
            ],
            [
                62.79999999999999,
                20.699999999999996
            ],
            [
                62.0,
                21.0
            ],
            [
                61.6,
                21.399999999999995
            ],
            [
                61.2,
                21.4
            ],
            [
                61.10000000000001,
                21.6
            ],
            [
                60.9,
                21.899999999999995
            ],
            [
                60.6,
                22.0
            ],
            [
                60.39999999999999,
                22.4
            ],
            [
                59.79999999999999,
                22.6
            ],
            [
                59.399999999999984,
                22.9
            ],
            [
                59.5,
                23.3
            ],
            [
                59.39999999999999,
                23.500000000000004
            ],
            [
                59.099999999999994,
                23.9
            ],
            [
                59.0,
                24.099999999999998
            ],
            [
                58.99999999999999,
                24.5
            ],
            [
                58.8,
                24.800000000000004
            ],
            [
                58.599999999999994,
                24.9
            ],
            [
                58.4,
                25.0
            ]
        ]
    },
    "properties": {
        "trajectory_id": 816,
        "object_id": 200715114072,
        "label": "NI"
    }
}