{
    "type": "Feature",
    "geometry": {
        "type": "LineString",
        "coordinates": [
            [
                132.6,
                18.0
            ],
            [
                132.5,
                18.1
            ],
            [
                132.3,
                18.1
            ],
            [
                132.2,
                18.2
            ],
            [
                131.9,
                18.2
            ],
            [
                131.5,
                18.3
            ],
            [
                131.0,
                18.4
            ],
            [
                130.5,
                18.4
            ],
            [
                130.1,
                18.5
            ],
            [
                129.7,
                18.4
            ],
            [
                129.2,
                18.3
            ],
            [
                128.9,
                18.2
            ],
            [
                128.4,
                18.1
            ],
            [
                127.90000000000003,
                18.0
            ],
            [
                127.30000000000001,
                17.9
            ],
            [
                126.60000000000002,
                17.7
            ],
            [
                126.0,
                17.5
            ],
            [
                125.4,
                17.2
            ],
            [
                124.89999999999999,
                17.1
            ],
            [
                124.19999999999999,
                16.9
            ],
            [
                123.59999999999997,
                16.8
            ],
            [
                123.09999999999998,
                16.8
            ],
            [
                122.49999999999997,
                16.799999999999997
            ],
            [
                121.79999999999998,
                16.999999999999996
            ],
            [
                120.99999999999999,
                17.199999999999996
            ],
            [
                120.39999999999999,
                17.4
            ],
            [
                119.89999999999999,
                17.599999999999998
            ],
            [
                119.6,
                17.699999999999996
            ],
            [
                119.3,
                17.7
            ],
            [
                119.2,
                17.8
            ],
            [
                119.09999999999997,
                17.799999999999997
            ],
            [
                118.89999999999999,
                17.9
            ],
            [
                118.8,
                18.1
            ],
            [
                118.69999999999999,
                18.199999999999996
            ],
            [
                118.6,
                18.399999999999995
            ],
            [
                118.5,
                18.499999999999996
            ],
            [
                118.39999999999999,
                18.6
            ],
            [
                118.29999999999998,
                18.700000000000003
            ],
            [
                118.2,
                18.7
            ],
            [
                117.99999999999999,
                18.6
            ],
            [
                117.80000000000001,
                18.5
            ],
            [
                117.5,
                18.5
            ],
            [
                117.3,
                18.4
            ],
            [
                117.0,
                18.3
            ],
            [
                116.59999999999998,
                18.199999999999996
            ],
            [
                116.1,
                18.0
            ],
            [
                115.69999999999999,
                17.699999999999996
            ],
            [
                115.2,
                17.499999999999996
            ],
            [
                114.79999999999998,
                17.2
            ],
            [
                114.39999999999999,
                17.0
            ],
            [
                114.20000000000002,
                16.8
            ],
            [
                113.9,
                16.5
            ],
            [
                113.6,
                16.4
            ],
            [
                113.19999999999999,
                16.2
            ],
            [
                112.9,
                15.899999999999999
            ],
            [
                112.6,
                15.7
            ]
        ]
    },
    "properties": {
        "trajectory_id": 861,
        "object_id": 200730618133,
        "label": "WP"
    }
}