{
    "type": "Feature",
    "geometry": {
        "type": "LineString",
        "coordinates": [
            [
                59.4,
                -21.7
            ],
            [
                59.25650730232145,
                -21.73984854170142
            ],
            [
                59.1062882694109,
                -21.91131436191415
            ],
            [
                58.966999531252355,
                -22.005941924230445
            ],
            [
                58.82238577770181,
                -21.99399765322194
            ],
            [
                58.61262483897635,
                -22.119930760645932
            ],
            [
                58.395742239683024,
                -22.25118289084735
            ],
            [
                58.16700511101376,
                -22.30687361824916
            ],
            [
                57.87235982610632,
                -22.378220408239084
            ],
            [
                57.612968999530615,
                -22.466248771699146
            ],
            [
                57.45184267164852,
                -22.502377421652348
            ],
            [
                57.30000000000001,
                -22.5
            ],
            [
                57.004401983587584,
                -22.57114481687806
            ],
            [
                56.77449313665682,
                -22.623947675217714
            ],
            [
                56.51058072497399,
                -22.57722436302845
            ],
            [
                56.0561655924973,
                -22.42433362413329
            ],
            [
                55.663852415317336,
                -22.212343487075017
            ],
            [
                55.343965194850824,
                -21.990202960307048
            ],
            [
                55.06959958487513,
                -21.772408185159026
            ],
            [
                54.853010133352555,
                -21.552453270045326
            ],
            [
                54.63302865913078,
                -21.363102614818388
            ],
            [
                54.428294881732114,
                -21.294092182895383
            ],
            [
                54.199999999999996,
                -21.3
            ],
            [
                53.83719457310647,
                -21.213746571572354
            ],
            [
                53.50748504366037,
                -21.24120477423231
            ],
            [
                53.226877168235724,
                -21.29788504876849
            ],
            [
                52.932981319053695,
                -21.21149727667534
            ],
            [
                52.70301243270963,
                -21.14220967947028
            ],
            [
                52.49130235393011,
                -21.0326751918882
            ],
            [
                52.27420032912668,
                -20.884584838484173
            ],
            [
                52.06261409091435,
                -20.808475056252917
            ],
            [
                51.78052636933325,
                -20.791952495193645
            ],
            [
                51.50938181418935,
                -20.808137945744697
            ],
            [
                51.29999999999999,
                -20.799999999999997
            ],
            [
                51.075035332750105,
                -20.718118617541464
            ],
            [
                50.90156184124771,
                -20.70935824049841
            ],
            [
                50.76328105536034,
                -20.67145080248364
            ],
            [
                50.61568823667475,
                -20.512035528525942
            ],
            [
                50.52181779020011,
                -20.497417394168835
            ],
            [
                50.49230871158891,
                -20.464091775707676
            ],
            [
                50.50211569469148,
                -20.400991607926297
            ],
            [
                50.50700965158159,
                -20.480909169259785
            ],
            [
                50.452553175710605,
                -20.51248842989334
            ],
            [
                50.370641868421394,
                -20.496179911422786
            ],
            [
                50.29999999999999,
                -20.499999999999996
            ],
            [
                50.22801776852558,
                -20.502426194170447
            ],
            [
                50.15289204919232,
                -20.493174266134147
            ],
            [
                50.08409580018707,
                -20.510466109098342
            ],
            [
                50.01200199656385,
                -20.58782819735275
            ],
            [
                49.9124973471296,
                -20.705099390284506
            ],
            [
                49.94287880963239,
                -20.931922534727317
            ],
            [
                50.12493858885104,
                -21.236743382107473
            ],
            [
                50.2830913669486,
                -21.52179139990086
            ],
            [
                50.277138361251815,
                -21.866588809624318
            ],
            [
                50.14187091571877,
                -22.2319828745853
            ],
            [
                50.0,
                -22.5
            ]
        ]
    },
    "properties": {
        "trajectory_id": 875,
        "object_id": 200734612073,
        "label": "SI"
    }
}