{
    "type": "Feature",
    "geometry": {
        "type": "LineString",
        "coordinates": [
            [
                -95.2,
                10.0
            ],
            [
                -96.0,
                10.6
            ],
            [
                -96.9,
                11.0
            ],
            [
                -97.9,
                11.200000000000001
            ],
            [
                -98.9,
                11.3
            ],
            [
                -100.0,
                11.4
            ],
            [
                -101.0,
                11.499999999999998
            ],
            [
                -101.6,
                11.600000000000001
            ],
            [
                -102.1,
                11.700000000000001
            ],
            [
                -102.6,
                11.8
            ],
            [
                -103.19999999999999,
                12.0
            ],
            [
                -103.79999999999998,
                12.2
            ],
            [
                -104.4,
                12.5
            ],
            [
                -104.89999999999999,
                12.699999999999998
            ],
            [
                -105.4,
                12.899999999999999
            ],
            [
                -105.9,
                13.1
            ],
            [
                -106.4,
                13.2
            ],
            [
                -106.79999999999998,
                13.3
            ],
            [
                -107.20000000000002,
                13.5
            ],
            [
                -107.6,
                13.699999999999998
            ],
            [
                -108.0,
                13.899999999999999
            ],
            [
                -108.29999999999998,
                14.0
            ],
            [
                -108.6,
                14.2
            ],
            [
                -108.9,
                14.399999999999999
            ],
            [
                -109.1,
                14.599999999999998
            ],
            [
                -109.4,
                14.7
            ],
            [
                -109.59999999999998,
                14.899999999999999
            ],
            [
                -109.79999999999998,
                15.100000000000001
            ],
            [
                -109.99999999999999,
                15.4
            ],
            [
                -110.29999999999998,
                15.700000000000001
            ],
            [
                -110.59999999999998,
                16.0
            ],
            [
                -110.9,
                16.4
            ],
            [
                -111.29999999999998,
                16.8
            ],
            [
                -111.69999999999999,
                17.199999999999996
            ],
            [
                -112.2,
                17.5
            ],
            [
                -112.59999999999997,
                17.9
            ],
            [
                -112.99999999999999,
                18.299999999999997
            ],
            [
                -113.50000000000001,
                18.6
            ],
            [
                -113.99999999999999,
                18.899999999999995
            ],
            [
                -114.49999999999997,
                19.2
            ],
            [
                -115.0,
                19.5
            ],
            [
                -115.59999999999997,
                19.799999999999997
            ],
            [
                -116.2,
                19.999999999999996
            ],
            [
                -116.69999999999999,
                20.2
            ],
            [
                -117.19999999999999,
                20.299999999999997
            ],
            [
                -117.69999999999999,
                20.399999999999995
            ],
            [
                -118.09999999999998,
                20.499999999999996
            ],
            [
                -118.6,
                20.699999999999996
            ],
            [
                -119.09999999999998,
                20.9
            ],
            [
                -119.59999999999998,
                21.100000000000005
            ],
            [
                -120.0,
                21.3
            ],
            [
                -120.49999999999999,
                21.5
            ],
            [
                -121.0,
                21.7
            ],
            [
                -121.4,
                21.900000000000002
            ],
            [
                -121.9,
                22.100000000000005
            ],
            [
                -122.5,
                22.4
            ]
        ]
    },
    "properties": {
        "trajectory_id": 922,
        "object_id": 200819810265,
        "label": "EP"
    }
}