{
    "type": "Feature",
    "geometry": {
        "type": "LineString",
        "coordinates": [
            [
                120.4,
                19.0
            ],
            [
                119.98983250736332,
                18.96139603674256
            ],
            [
                119.82635794251144,
                19.07288368716123
            ],
            [
                119.67833141797182,
                19.212396982342668
            ],
            [
                119.40387524373065,
                19.289019302240074
            ],
            [
                119.11268887205024,
                19.30478270921317
            ],
            [
                118.84315076703156,
                19.299832325205237
            ],
            [
                118.56695092361569,
                19.30164842359627
            ],
            [
                118.28342540779833,
                19.289659585738963
            ],
            [
                118.02274409913004,
                19.31882738012108
            ],
            [
                117.82091528775557,
                19.394021830536342
            ],
            [
                117.68436751370524,
                19.40317425249775
            ],
            [
                117.52063558710321,
                19.41143467246552
            ],
            [
                117.30543394018437,
                19.49664263663767
            ],
            [
                117.10778046079585,
                19.642385639776965
            ],
            [
                116.85544492497304,
                19.737909689001135
            ],
            [
                116.5814664775838,
                19.808721382903162
            ],
            [
                116.38077626256135,
                19.95378431975248
            ],
            [
                116.12883629056766,
                20.045743252586043
            ],
            [
                115.85564854126787,
                20.12065097834682
            ],
            [
                115.65268225757639,
                20.26618698977313
            ],
            [
                115.43995767082052,
                20.36083872176468
            ],
            [
                115.25585423723103,
                20.418693322338996
            ],
            [
                115.1244817586333,
                20.490079214517117
            ],
            [
                114.93415823569238,
                20.547547917662097
            ],
            [
                114.71611482937324,
                20.652298828342996
            ],
            [
                114.5109821758332,
                20.794367084116168
            ],
            [
                114.2995245679772,
                20.864384849600945
            ],
            [
                114.10827473195883,
                20.958098874624913
            ],
            [
                113.88512776155503,
                21.107774506182786
            ],
            [
                113.54393680053559,
                21.245409853494593
            ],
            [
                113.19205936775433,
                21.388444244652682
            ],
            [
                112.8408306408879,
                21.51672687584416
            ],
            [
                112.42851772233746,
                21.58837376606764
            ],
            [
                111.97092631962066,
                21.613753594766592
            ],
            [
                111.45813007716512,
                21.58685737962251
            ],
            [
                110.90063953363676,
                21.514079818278926
            ],
            [
                110.38285781523577,
                21.443710062796626
            ],
            [
                109.95415510637197,
                21.371853113812588
            ],
            [
                109.62269752036316,
                21.303697615286893
            ],
            [
                109.3519147144943,
                21.285113697044128
            ],
            [
                109.04258573063142,
                21.326928875419256
            ],
            [
                108.6912060341181,
                21.40194052042452
            ],
            [
                108.36228909661428,
                21.470278188113816
            ],
            [
                107.93109769369059,
                21.544501343710547
            ],
            [
                107.43932601420475,
                21.605279141881024
            ],
            [
                107.02460903611262,
                21.6107910163249
            ],
            [
                106.62222551899902,
                21.5589589546354
            ],
            [
                106.19796163352473,
                21.482077780813196
            ],
            [
                105.78035109667049,
                21.41328941393554
            ],
            [
                105.4262099380419,
                21.350301929028518
            ],
            [
                105.07137535582768,
                21.268254298165907
            ],
            [
                104.64804143351073,
                21.200836473681175
            ],
            [
                104.17306168543753,
                21.24928160110429
            ],
            [
                103.67867439949514,
                21.33153902904166
            ],
            [
                103.2,
                21.3
            ]
        ]
    },
    "properties": {
        "trajectory_id": 927,
        "object_id": 200821719120,
        "label": "WP"
    }
}