{
    "type": "Feature",
    "geometry": {
        "type": "LineString",
        "coordinates": [
            [
                -107.5,
                18.2
            ],
            [
                -107.66691595013815,
                18.48927612120721
            ],
            [
                -107.82645283064727,
                18.739457829202326
            ],
            [
                -107.9874655250822,
                18.96175594050102
            ],
            [
                -108.15848095834761,
                19.167567108033182
            ],
            [
                -108.32834853633739,
                19.37943816958158
            ],
            [
                -108.45781640229374,
                19.63468995785908
            ],
            [
                -108.56018354200214,
                19.914427790278555
            ],
            [
                -108.6982273180516,
                20.149929903167624
            ],
            [
                -108.87090641615562,
                20.36151407553051
            ],
            [
                -109.03967927853782,
                20.616217625577256
            ],
            [
                -109.19999999999999,
                20.899999999999995
            ],
            [
                -109.36084830248048,
                21.175401287216047
            ],
            [
                -109.52868324305231,
                21.445079679332554
            ],
            [
                -109.6991465008793,
                21.71755938415434
            ],
            [
                -109.84329849271887,
                21.991113533030347
            ],
            [
                -109.95146902362896,
                22.263858504598527
            ],
            [
                -110.04936380259613,
                22.536084534827545
            ],
            [
                -110.1585753662876,
                22.80875830567832
            ],
            [
                -110.29340433121848,
                23.082950096534617
            ],
            [
                -110.466574274277,
                23.355244679491157
            ],
            [
                -110.68289721431589,
                23.622249089109697
            ],
            [
                -110.9,
                23.9
            ],
            [
                -111.07322139420155,
                24.209765272406205
            ],
            [
                -111.22563233098576,
                24.561928890402505
            ],
            [
                -111.38647000857911,
                24.94778719706587
            ],
            [
                -111.55831383610334,
                25.318945195578358
            ],
            [
                -111.72712911677743,
                25.64760864858873
            ],
            [
                -111.86096934694211,
                25.946639750230407
            ],
            [
                -111.96470109569539,
                26.21790709019445
            ],
            [
                -112.07712011209361,
                26.451178341319967
            ],
            [
                -112.18558508452898,
                26.66400510117032
            ],
            [
                -112.2523503769792,
                26.885494326892253
            ],
            [
                -112.30000000000001,
                27.099999999999998
            ],
            [
                -112.36051886018949,
                27.279635979003196
            ],
            [
                -112.40425524582405,
                27.4210421431716
            ],
            [
                -112.40727948976918,
                27.532297576187414
            ],
            [
                -112.39732076819064,
                27.634342109782434
            ],
            [
                -112.3964833970244,
                27.742478577181025
            ],
            [
                -112.40536385137597,
                27.859501804875464
            ],
            [
                -112.40683554071019,
                27.97011374984466
            ],
            [
                -112.3713894848129,
                28.04518059180381
            ],
            [
                -112.3100942206948,
                28.0925492011388
            ],
            [
                -112.2548987689326,
                28.141273413433883
            ],
            [
                -112.2,
                28.199999999999996
            ],
            [
                -112.13551569734328,
                28.263344209120174
            ],
            [
                -112.09743632590401,
                28.303784183172393
            ],
            [
                -112.10209526961799,
                28.306063811589492
            ],
            [
                -112.09015538374307,
                28.298303956457673
            ],
            [
                -112.03351903456903,
                28.29877811916844
            ],
            [
                -111.96927202209815,
                28.300565347847442
            ],
            [
                -111.91612449375808,
                28.300218844328043
            ],
            [
                -111.86813186435538,
                28.299808511212966
            ],
            [
                -111.81153867687328,
                28.29995440743166
            ],
            [
                -111.72822545779616,
                28.300182370273372
            ],
            [
                -111.6,
                28.3
            ]
        ]
    },
    "properties": {
        "trajectory_id": 937,
        "object_id": 200823718253,
        "label": "EP"
    }
}