{
    "type": "Feature",
    "geometry": {
        "type": "LineString",
        "coordinates": [
            [
                -57.3,
                19.4
            ],
            [
                -57.5,
                19.499999999999996
            ],
            [
                -57.8,
                19.700000000000003
            ],
            [
                -58.20000000000002,
                19.9
            ],
            [
                -58.60000000000001,
                20.099999999999998
            ],
            [
                -59.099999999999994,
                20.299999999999997
            ],
            [
                -59.6,
                20.5
            ],
            [
                -60.1,
                20.7
            ],
            [
                -60.5,
                20.8
            ],
            [
                -60.99999999999999,
                20.9
            ],
            [
                -61.5,
                20.9
            ],
            [
                -62.0,
                21.000000000000004
            ],
            [
                -62.4,
                21.1
            ],
            [
                -62.89999999999999,
                21.3
            ],
            [
                -63.39999999999999,
                21.5
            ],
            [
                -63.99999999999999,
                21.599999999999998
            ],
            [
                -64.5,
                21.7
            ],
            [
                -65.0,
                21.8
            ],
            [
                -65.5,
                21.799999999999997
            ],
            [
                -65.9,
                21.8
            ],
            [
                -66.19999999999999,
                21.9
            ],
            [
                -66.6,
                22.0
            ],
            [
                -66.9,
                22.2
            ],
            [
                -67.2,
                22.4
            ],
            [
                -67.5,
                22.6
            ],
            [
                -67.9,
                22.8
            ],
            [
                -68.5,
                23.099999999999998
            ],
            [
                -69.1,
                23.300000000000004
            ],
            [
                -69.79999999999998,
                23.5
            ],
            [
                -70.4,
                23.599999999999998
            ],
            [
                -71.0,
                23.6
            ],
            [
                -71.4,
                23.6
            ],
            [
                -71.7,
                23.5
            ],
            [
                -71.9,
                23.4
            ],
            [
                -72.0,
                23.199999999999996
            ],
            [
                -72.1,
                23.0
            ],
            [
                -72.19999999999999,
                22.8
            ],
            [
                -72.30000000000001,
                22.599999999999998
            ],
            [
                -72.4,
                22.3
            ],
            [
                -72.3,
                22.0
            ],
            [
                -72.29999999999998,
                21.8
            ],
            [
                -72.5,
                21.6
            ],
            [
                -72.69999999999999,
                21.399999999999995
            ],
            [
                -72.9,
                21.2
            ],
            [
                -73.0,
                20.999999999999993
            ],
            [
                -73.0,
                20.8
            ],
            [
                -72.9,
                20.599999999999998
            ],
            [
                -72.8,
                20.499999999999996
            ],
            [
                -72.6,
                20.399999999999995
            ],
            [
                -72.49999999999999,
                20.3
            ],
            [
                -72.4,
                20.199999999999996
            ],
            [
                -72.09999999999998,
                20.299999999999997
            ],
            [
                -71.9,
                20.599999999999998
            ],
            [
                -71.8,
                21.1
            ],
            [
                -71.79999999999998,
                21.6
            ],
            [
                -71.8,
                22.0
            ]
        ]
    },
    "properties": {
        "trajectory_id": 941,
        "object_id": 200824119303,
        "label": "nan"
    }
}